"icao","observed_utc","observed_local","flight_category","temp_c","dewpoint_c","rh_percent","wind_dir_deg","wind_kts","vis_m","altimeter_hg","conditions","clouds","raw_text","fetched_at_utc","fetched_at_local"
"CYER",2025-12-01 05:00:00,2025-12-01,"VFR",-19,-22,77,260,13,14500,29.87,NA,"SCT  ft","METAR CYER 010500Z AUTO 26013G20KT 9SM SCT240 M19/M22 A2987 RMK SLP119",2025-12-01 05:35:58.572997,2025-12-01 00:35:58.572997
"CYAT",2025-12-01 05:00:00,2025-12-01,"VFR",-21,-23,84,230,7,14500,30.09,NA,"CLR  ft","METAR CYAT 010500Z AUTO 23007KT 9SM CLR M21/M23 A3009 RMK SLP192",2025-12-01 05:35:58.712712,2025-12-01 00:35:58.712712
"CYMO",2025-12-01 05:00:00,2025-12-01,"VFR",-19,-22,77,250,6,14500,30.2,NA,"CLR  ft","METAR CYMO 010500Z AUTO 25006KT 9SM CLR M19/M22 A3020 RMK SLP229",2025-12-01 05:35:58.84269,2025-12-01 00:35:58.84269
"CYPL",2025-12-01 05:27:00,2025-12-01 00:27:00,"VFR",-13,-16,78,260,12,14500,30.1,NA,"FEW  ft; OVC  ft","SPECI CYPL 010527Z AUTO 26012G18KT 9SM -SN FEW033 OVC055 M13/M16 A3010 RMK SLP232",2025-12-01 05:35:58.934098,2025-12-01 00:35:58.934098
"CYQT",2025-12-01 05:00:00,2025-12-01,"VFR",-9,-15,62,240,4,24100,30.32,NA,"OVC  ft","METAR CYQT 010500Z 24004KT 15SM OVC034 M09/M15 A3032 RMK SC8 SLP284",2025-12-01 05:35:59.027514,2025-12-01 00:35:59.027514
"CYAM",2025-12-01 05:28:00,2025-12-01 00:28:00,"IFR",-7,-8,93,160,3,1600,30.31,NA,"SCT  ft; SCT  ft; OVC  ft","SPECI CYAM 010528Z 16003KT 090V170 1SM R12/P6000FT/U -SHSN SCT007 SCT014TCU OVC032 M07/M08 A3031 RMK SN3CF1TCU1CU4 CF TR TCU SE MOV SE SLP279",2025-12-01 05:35:59.157815,2025-12-01 00:35:59.157815
"CYTS",2025-12-01 05:00:00,2025-12-01,"MVFR",-12,-16,72,320,13,24100,30.21,NA,"OVC  ft","METAR CYTS 010500Z 32013G18KT 15SM OVC027 M12/M16 A3021 RMK SC8 SLP257",2025-12-01 05:35:59.286671,2025-12-01 00:35:59.286671
"CYSB",2025-12-01 05:00:00,2025-12-01,"MVFR",-11,-15,73,330,9,24100,30.2,NA,"OVC  ft","METAR CYSB 010500Z 33009G17KT 15SM -SN DRSN OVC030 M11/M15 A3020 RMK SC8 -SN INTMT SLP252",2025-12-01 05:35:59.378285,2025-12-01 00:35:59.378285
"CYYB",2025-12-01 05:00:00,2025-12-01,"MVFR",-11,-14,79,330,14,14500,30.14,NA,"OVC  ft","METAR CYYB 010500Z AUTO 33014G23KT 9SM -SN OVC019 M11/M14 A3014 RMK SLP235",2025-12-01 05:35:59.467794,2025-12-01 00:35:59.467794
"CYOW",2025-12-01 05:25:00,2025-12-01 00:25:00,"MVFR",-1,-4,80,290,18,12900,29.95,NA,"FEW  ft; OVC  ft","SPECI CYOW 010525Z 29018G26KT 8SM FEW010 OVC016 M01/M04 A2995 RMK SC2SC6 SLP151",2025-12-01 05:35:59.557493,2025-12-01 00:35:59.557493
"CYGK",2025-12-01 04:00:00,2025-11-30 23:00:00,"MVFR",2,-1,81,270,16,24100,29.96,NA,"OVC  ft","METAR CYGK 010400Z 27016G23KT 15SM OVC021 02/M01 A2996 RMK SC8 LAST STFD OBS/NXT 011100Z PRESRR SLP151",2025-12-01 05:35:59.689507,2025-12-01 00:35:59.689507
"CYQG",2025-12-01 05:00:00,2025-12-01,"VFR",-3,-8,69,310,7,14500,30.38,NA,"CLR  ft","METAR CYQG 010500Z AUTO 31007KT 9SM CLR M03/M08 A3038 RMK SLP298",2025-12-01 05:35:59.782085,2025-12-01 00:35:59.782085
"CYVV",2025-12-01 05:00:00,2025-12-01,"VFR",-6,-9,80,350,6,19300,30.26,NA,"FEW  ft","METAR CYVV 010500Z 35006KT 290V030 12SM FEW022 M06/M09 A3026 RMK SC2 SLP262",2025-12-01 05:35:59.913082,2025-12-01 00:35:59.913082
"CYYZ",2025-12-01 05:00:00,2025-12-01,"VFR",-1,-6,69,300,21,24100,30.19,NA,"FEW  ft; BKN  ft","METAR CYYZ 010500Z 30021KT 15SM FEW026 BKN041 M01/M06 A3019 RMK SF1SC4 SLP232",2025-12-01 05:36:00.001474,2025-12-01 00:36:00.001474
"CYQA",2025-12-01 05:16:00,2025-12-01 00:16:00,"MVFR",-7,-10,79,330,11,8000,30.16,NA,"BKN  ft; BKN  ft","SPECI CYQA 010516Z AUTO 33011G16KT 5SM -SN BKN017 BKN060 M07/M10 A3016 RMK SLP235",2025-12-01 05:36:00.091237,2025-12-01 00:36:00.091237
"CYVR",2025-12-01 05:00:00,2025-12-01,"VFR",5,3,87,0,0,32200,30.33,NA,"BKN  ft","METAR CYVR 010500Z 00000KT 20SM BKN120 05/03 A3033 RMK AC7 SLP274",2025-12-01 05:36:00.181432,2025-12-01 00:36:00.181432
"CYYJ",2025-12-01 05:00:00,2025-12-01,"VFR",2,2,100,240,5,48300,30.33,NA,"SCT  ft; BKN  ft; BKN  ft","METAR CYYJ 010500Z 24005KT 30SM SCT020 BKN093 BKN140 02/02 A3033 RMK SC4AC1AC1 SLP273",2025-12-01 05:36:00.268902,2025-12-01 00:36:00.268902
"CYLW",2025-12-01 05:00:00,2025-12-01,"MVFR",0,-3,80,0,2,14500,30.32,NA,"OVC  ft","METAR CYLW 010500Z AUTO VRB02KT 9SM OVC025 00/M03 A3032 RMK SLP289",2025-12-01 05:36:00.399476,2025-12-01 00:36:00.399476
"CYXS",2025-12-01 05:00:00,2025-12-01,"VFR",-4,-6,86,180,7,14500,30.17,NA,"OVC  ft","METAR CYXS 010500Z AUTO 18007G15KT 9SM OVC031 M04/M06 A3017 RMK SLP263",2025-12-01 05:36:00.489755,2025-12-01 00:36:00.489755
"CYXT",2025-12-01 05:00:00,2025-12-01,"IFR",-1,-1,100,70,3,3200,30.2,NA,"FEW  ft; OVC  ft","METAR CYXT 010500Z CCA 07003KT 010V090 2SM -FZDZ BR FEW002 OVC006 M01/M01 A3020 RMK SF1ST8 SF TR ICE ON INDICATOR SLP240",2025-12-01 05:36:00.578963,2025-12-01 00:36:00.578963
"CYQQ",2025-12-01 05:00:00,2025-12-01,"MVFR",4,3,93,300,3,32200,30.34,NA,"OVC  ft","METAR CYQQ 010500Z 30003KT 20SM OVC013 04/03 A3034 RMK SC8 DENSITY ALT -1646FT SLP276",2025-12-01 05:36:00.670666,2025-12-01 00:36:00.670666
"CYYC",2025-12-01 05:00:00,2025-12-01,"VFR",-9,-12,79,0,2,24100,30.01,NA,"SCT  ft; BKN  ft","METAR CYYC 010500Z VRB02KT 15SM SCT110 BKN250 M09/M12 A3001 RMK AC4CI1 SLP239",2025-12-01 05:36:00.756196,2025-12-01 00:36:00.756196
"CYEG",2025-12-01 05:00:00,2025-12-01,"VFR",-10,-11,92,30,7,32200,30.01,NA,"BKN  ft","METAR CYEG 010500Z 03007KT 20SM BKN130 M10/M11 A3001 RMK AC7 FROIN SLP222",2025-12-01 05:36:00.848864,2025-12-01 00:36:00.848864
"CYMM",2025-12-01 05:00:00,2025-12-01,"MVFR",-15,-17,85,180,4,14500,30.04,NA,"BKN  ft","METAR CYMM 010500Z AUTO 18004KT 9SM BKN011 M15/M17 A3004 RMK SLP211",2025-12-01 05:36:00.944713,2025-12-01 00:36:00.944713
"CYQF",2025-12-01 05:00:00,2025-12-01,"VFR",-7,-10,79,240,5,14500,30.01,NA,"OVC  ft","METAR CYQF 010500Z AUTO 24005KT 9SM OVC120 M07/M10 A3001 RMK SLP239",2025-12-01 05:36:01.099268,2025-12-01 00:36:01.099268
"CYXE",2025-12-01 05:00:00,2025-12-01,"VFR",-20,-22,84,240,6,24100,29.98,NA,"SCT  ft","METAR CYXE 010500Z 24006KT 15SM SCT060 M20/M22 A2998 RMK SC3 SLP205",2025-12-01 05:36:01.194734,2025-12-01 00:36:01.194734
"CYQR",2025-12-01 05:00:00,2025-12-01,"VFR",-20,-22,84,170,6,24100,30.01,NA,"FEW  ft; BKN  ft","METAR CYQR 010500Z 17006KT 15SM FEW120 BKN250 M20/M22 A3001 RMK AC1CI7 AC TR SLP217",2025-12-01 05:36:01.296469,2025-12-01 00:36:01.296469
"CYWG",2025-12-01 05:00:00,2025-12-01,"VFR",-13,-17,72,220,10,24100,30.24,NA,"FEW  ft","METAR CYWG 010500Z 22010KT 15SM FEW250 M13/M17 A3024 RMK CI1 CI TR SLP262",2025-12-01 05:36:01.394596,2025-12-01 00:36:01.394596
"CYBR",2025-12-01 05:00:00,2025-12-01,"IFR",-18,-19,92,260,8,14500,30.15,NA,"FEW  ft; OVC  ft","METAR CYBR 010500Z AUTO 26008KT 9SM FEW006 OVC009 M18/M19 A3015 RMK SLP253",2025-12-01 05:36:01.494801,2025-12-01 00:36:01.494801
"CYUL",2025-12-01 05:11:00,2025-12-01 00:11:00,"MVFR",2,0,87,240,14,9999,29.86,NA,"OVC  ft","SPECI CYUL 010511Z 24014G19KT 10SM -RASN OVC011 02/M00 A2986 RMK ST8 SLP115",2025-12-01 05:36:01.592463,2025-12-01 00:36:01.592463
"CYHU",2025-12-01 05:32:00,2025-12-01 00:32:00,"MVFR",2,0,87,240,15,12900,29.86,NA,"SCT  ft; OVC  ft","SPECI CYHU 010532Z AUTO 24015G23KT 8SM -RA -UP SCT018 OVC025 02/M00 A2986 RMK SLP113",2025-12-01 05:36:01.698241,2025-12-01 00:36:01.698241
"CYQB",2025-12-01 05:17:00,2025-12-01 00:17:00,"IFR",0,-1,93,310,2,4000,29.81,NA,"FEW  ft; OVC  ft","SPECI CYQB 010517Z 31002KT 2 1/2SM -SN BR FEW004 OVC011 00/M01 A2981 RMK SF2ST6 SLP099",2025-12-01 05:36:01.894991,2025-12-01 00:36:01.894991
"CYVO",2025-12-01 05:09:00,2025-12-01 00:09:00,"MVFR",-13,-15,85,320,8,14500,30.08,NA,"SCT  ft; BKN  ft","SPECI CYVO 010509Z AUTO 32008KT 9SM SCT019 BKN027 M13/M15 A3008 RMK SLP219",2025-12-01 05:36:02.011535,2025-12-01 00:36:02.011535
"CYUY",2025-12-01 05:00:00,2025-12-01,"VFR",-12,-15,79,330,6,24100,30.12,NA,"BKN  ft","METAR CYUY 010500Z 33006KT 15SM -SN BKN033 M12/M15 A3012 RMK SC7 SLP226",2025-12-01 05:36:02.11656,2025-12-01 00:36:02.11656
"CYZV",2025-12-01 05:00:00,2025-12-01,"IFR",-1,-2,93,150,18,2400,29.87,NA,"OVC  ft","METAR CYZV 010500Z 15018KT 1 1/2SM -SN OVC007 M01/M02 A2987 RMK SN6SF2 //S03// SLP120",2025-12-01 05:36:02.308267,2025-12-01 00:36:02.308267
"CYBC",2025-12-01 05:25:00,2025-12-01 00:25:00,"IFR",-1,-1,100,190,4,9700,29.81,NA,"OVC  ft","SPECI CYBC 010525Z AUTO 19004KT 6SM -SN OVC006 M01/M01 A2981 RMK SLP098",2025-12-01 05:36:02.445835,2025-12-01 00:36:02.445835
"CYRJ",2025-12-01 05:00:00,2025-12-01,"MVFR",-5,-6,93,300,6,8000,29.8,NA,"OVC  ft","METAR CYRJ 010500Z 30006KT 5SM -SN OVC063 M05/M06 A2980 RMK SC8 SLP104",2025-12-01 05:36:02.590772,2025-12-01 00:36:02.590772
"CYHZ",2025-12-01 05:00:00,2025-12-01,"IFR",7,7,100,180,12,6400,30.09,NA,"BKN  ft; OVC  ft","METAR CYHZ 010500Z 18012G21KT 4SM -RA BR BKN006 OVC012 07/07 A3009 RMK SF7NS1 SLP196",2025-12-01 05:36:02.693051,2025-12-01 00:36:02.693051
"CYYG",2025-12-01 05:00:00,2025-12-01,"VFR",4,3,93,150,19,24100,30.05,NA,"SCT  ft; OVC  ft","METAR CYYG 010500Z 15019G27KT 15SM -RA SCT009 OVC033 04/03 A3005 RMK SF4SC4 SLP179",2025-12-01 05:36:02.799112,2025-12-01 00:36:02.799112
"CYQM",2025-12-01 05:00:00,2025-12-01,"MVFR",4,3,93,160,16,19300,29.93,NA,"SCT  ft; BKN  ft; OVC  ft","METAR CYQM 010500Z 16016G23KT 12SM -RA SCT009 BKN017 OVC057 04/03 A2993 RMK SF4SC2SC2 SLP139",2025-12-01 05:36:02.901239,2025-12-01 00:36:02.901239
"CYFC",2025-12-01 05:32:00,2025-12-01 00:32:00,"VFR",3,2,93,160,4,14500,29.86,NA,"OVC  ft","SPECI CYFC 010532Z AUTO 16004KT 9SM -RA OVC049 03/02 A2986 RMK PCPN 0.5MM PAST HR SLP116",2025-12-01 05:36:03.014044,2025-12-01 00:36:03.014044
"CYYT",2025-12-01 05:00:00,2025-12-01,"VFR",-3,-6,80,290,4,24100,30.44,NA,"FEW  ft; BKN  ft; BKN  ft","METAR CYYT 010500Z 29004KT 15SM FEW022 BKN096 BKN120 M03/M06 A3044 RMK SC2AC3AC2 SLP317",2025-12-01 05:36:03.114569,2025-12-01 00:36:03.114569
"CYQY",2025-12-01 05:00:00,2025-12-01,"VFR",3,2,93,170,11,24100,30.25,NA,"OVC  ft","METAR CYQY 010500Z 17011G17KT 15SM -RA OVC031 03/02 A3025 RMK SC8 PRESFR SLP248",2025-12-01 05:36:03.259736,2025-12-01 00:36:03.259736
"CYXY",2025-12-01 05:00:00,2025-12-01,"VFR",-4,-5,93,170,22,24100,29.55,NA,"FEW  ft; FEW  ft; SCT  ft","METAR CYXY 010500Z 17022KT 15SM DRSN FEW008 FEW015 SCT055 M04/M05 A2955 RMK ST1ST1SC3 ST TR ST TR LOW CLD SE PRESFR SLP055",2025-12-01 05:36:03.348985,2025-12-01 00:36:03.348985
"CYZF",2025-12-01 05:00:00,2025-12-01,"MVFR",-14,-15,92,60,4,24100,29.99,NA,"OVC  ft","METAR CYZF 010500Z 06004KT 15SM -SN OVC020 M14/M15 A2999 RMK SC8 SLP181",2025-12-01 05:36:03.445466,2025-12-01 00:36:03.445466
"CYFB",2025-12-01 05:00:00,2025-12-01,"VFR",-9,-12,79,100,7,24100,29.52,NA,"BKN  ft","METAR CYFB 010500Z 10007KT 15SM -SN BKN120 M09/M12 A2952 RMK AC5 SLP003",2025-12-01 05:36:03.536369,2025-12-01 00:36:03.536369
"CYRT",2025-12-01 05:00:00,2025-12-01,"VFR",-30,-33,75,300,16,24100,29.75,NA,"SKC  ft","METAR CYRT 010500Z 30016KT 15SM SKC M30/M33 A2975 RMK SLP082",2025-12-01 05:36:03.627098,2025-12-01 00:36:03.627098
"CYBK",2025-12-01 05:00:00,2025-12-01,"VFR",-30,-33,75,300,19,24100,29.85,NA,"SKC  ft","METAR CYBK 010500Z 30019KT 15SM IC DRSN SKC M30/M33 A2985 RMK SLP114",2025-12-01 05:36:03.715779,2025-12-01 00:36:03.715779
"CYRB",2025-12-01 05:00:00,2025-12-01,"VFR",-24,-27,76,0,24,32200,29.64,NA,"FEW  ft","METAR CYRB 010500Z VRB24KT 20SM IC DRSN FEW080 M24/M27 A2964 RMK AC2 SLP052",2025-12-01 05:36:03.819225,2025-12-01 00:36:03.819225
"CYCO",2025-12-01 05:00:00,2025-12-01,"VFR",-28,-31,75,230,13,24100,30.07,NA,"SKC  ft","METAR CYCO 010500Z 23013KT 15SM IC SKC M28/M31 A3007 RMK SLP188",2025-12-01 05:36:03.908994,2025-12-01 00:36:03.908994
"CYER",2025-12-01 06:00:00,2025-12-01 01:00:00,"VFR",-19,-22,77,270,13,14500,29.87,NA,"SCT  ft","METAR CYER 010600Z AUTO 27013G18KT 9SM SCT240 M19/M22 A2987 RMK SLP118",2025-12-01 06:45:37.910808,2025-12-01 01:45:37.910808
"CYAT",2025-12-01 06:00:00,2025-12-01 01:00:00,"VFR",-20,-22,84,230,8,14500,30.08,NA,"CLR  ft","METAR CYAT 010600Z AUTO 23008KT 9SM CLR M20/M22 A3008 RMK SLP188",2025-12-01 06:45:38.012481,2025-12-01 01:45:38.012481
"CYMO",2025-12-01 06:00:00,2025-12-01 01:00:00,"VFR",-19,-22,77,250,6,14500,30.2,NA,"CLR  ft","METAR CYMO 010600Z AUTO 25006KT 9SM CLR M19/M22 A3020 RMK SLP229",2025-12-01 06:45:38.106643,2025-12-01 01:45:38.106643
"CYPL",2025-12-01 06:30:00,2025-12-01 01:30:00,"VFR",-13,-16,78,260,13,14500,30.1,NA,"OVC  ft","SPECI CYPL 010630Z AUTO 26013G22KT 9SM -SN OVC055 M13/M16 A3010 RMK SLP230",2025-12-01 06:45:38.199748,2025-12-01 01:45:38.199748
"CYQT",2025-12-01 06:00:00,2025-12-01 01:00:00,"VFR",-9,-15,62,250,4,24100,30.31,NA,"OVC  ft","METAR CYQT 010600Z 25004KT 15SM OVC036 M09/M15 A3031 RMK SC8 SLP281",2025-12-01 06:45:38.341221,2025-12-01 01:45:38.341221
"CYAM",2025-12-01 06:23:00,2025-12-01 01:23:00,"IFR",-7,-8,93,140,5,2000,30.32,NA,"SCT  ft; BKN  ft; BKN  ft; OVC  ft","SPECI CYAM 010623Z 14005KT 110V190 1 1/4SM R12/5500VP6000FT/U -SHSN SCT006 BKN015 BKN027 OVC048 M07/M08 A3032 RMK SN3CF1CU1CU2SC1 SLP281",2025-12-01 06:45:38.438003,2025-12-01 01:45:38.438003
"CYTS",2025-12-01 06:10:00,2025-12-01 01:10:00,"MVFR",-13,-17,72,320,7,24100,30.23,NA,"OVC  ft","SPECI CYTS 010610Z 32007G16KT 15SM -SN OVC026 M13/M17 A3023 RMK SC8 SLP264",2025-12-01 06:45:38.574135,2025-12-01 01:45:38.574135
"CYSB",2025-12-01 06:00:00,2025-12-01 01:00:00,"VFR",-11,-16,67,320,8,24100,30.22,NA,"OVC  ft","METAR CYSB 010600Z 32008KT 15SM -SN DRSN OVC034 M11/M16 A3022 RMK SC8 -SN INTMT SLP262",2025-12-01 06:45:38.671339,2025-12-01 01:45:38.671339
"CYYB",2025-12-01 06:39:00,2025-12-01 01:39:00,"VFR",-13,-16,78,310,5,14500,30.21,NA,"BKN  ft","SPECI CYYB 010639Z AUTO 31005KT 9SM BKN031 M13/M16 A3021 RMK ICE PAST HR RVR MISG SLP263",2025-12-01 06:45:38.763211,2025-12-01 01:45:38.763211
"CYOW",2025-12-01 06:00:00,2025-12-01 01:00:00,"MVFR",-2,-5,80,300,21,24100,30,NA,"FEW  ft; OVC  ft","METAR CYOW 010600Z 30021G27KT 15SM FEW010 OVC019 M02/M05 A3000 RMK SC1SC8 SC TR PRESRR SLP166",2025-12-01 06:45:38.858891,2025-12-01 01:45:38.858891
"CYGK",2025-12-01 04:00:00,2025-11-30 23:00:00,"MVFR",2,-1,81,270,16,24100,29.96,NA,"OVC  ft","METAR CYGK 010400Z 27016G23KT 15SM OVC021 02/M01 A2996 RMK SC8 LAST STFD OBS/NXT 011100Z PRESRR SLP151",2025-12-01 06:45:38.957314,2025-12-01 01:45:38.957314
"CYQG",2025-12-01 06:00:00,2025-12-01 01:00:00,"VFR",-3,-9,64,320,7,14500,30.41,NA,"CLR  ft","METAR CYQG 010600Z AUTO 32007KT 9SM CLR M03/M09 A3041 RMK SLP310",2025-12-01 06:45:39.054657,2025-12-01 01:45:39.054657
"CYVV",2025-12-01 06:00:00,2025-12-01 01:00:00,"VFR",-7,-9,86,310,6,19300,30.3,NA,"FEW  ft","METAR CYVV 010600Z 31006KT 280V350 12SM FEW020 M07/M09 A3030 RMK SC2 SLP273",2025-12-01 06:45:39.152199,2025-12-01 01:45:39.152199
"CYYZ",2025-12-01 06:00:00,2025-12-01 01:00:00,"VFR",-2,-6,74,310,18,24100,30.22,NA,"FEW  ft; FEW  ft","METAR CYYZ 010600Z 31018G23KT 15SM FEW030 FEW040 M02/M06 A3022 RMK CF1SC2 CF TR SLP244",2025-12-01 06:45:39.291121,2025-12-01 01:45:39.291121
"CYQA",2025-12-01 06:10:00,2025-12-01 01:10:00,"MVFR",-8,-10,86,320,11,11300,30.2,NA,"OVC  ft","SPECI CYQA 010610Z AUTO 32011G22KT 7SM -SN OVC017 M08/M10 A3020 RMK SLP246",2025-12-01 06:45:39.38274,2025-12-01 01:45:39.38274
"CYVR",2025-12-01 06:00:00,2025-12-01 01:00:00,"VFR",3,2,93,80,4,32200,30.34,NA,"FEW  ft; BKN  ft","METAR CYVR 010600Z 08004KT 20SM FEW089 BKN130 03/02 A3034 RMK AC1AC6 SLP276",2025-12-01 06:45:39.477558,2025-12-01 01:45:39.477558
"CYYJ",2025-12-01 06:00:00,2025-12-01 01:00:00,"VFR",3,3,100,240,4,48300,30.34,NA,"BKN  ft; BKN  ft","METAR CYYJ 010600Z 24004KT 30SM BKN089 BKN150 03/03 A3034 RMK AC5AC2 SLP275",2025-12-01 06:45:39.568851,2025-12-01 01:45:39.568851
"CYLW",2025-12-01 06:00:00,2025-12-01 01:00:00,"MVFR",0,-3,80,0,2,14500,30.34,NA,"OVC  ft","METAR CYLW 010600Z AUTO VRB02KT 9SM OVC025 M00/M03 A3034 RMK SLP296",2025-12-01 06:45:39.667243,2025-12-01 01:45:39.667243
"CYXS",2025-12-01 06:00:00,2025-12-01 01:00:00,"MVFR",-4,-6,86,160,7,14500,30.16,NA,"OVC  ft","METAR CYXS 010600Z AUTO 16007KT 9SM OVC025 M04/M06 A3016 RMK SLP259",2025-12-01 06:45:39.803159,2025-12-01 01:45:39.803159
"CYXT",2025-12-01 06:24:00,2025-12-01 01:24:00,"LIFR",-1,-1,100,0,2,3200,30.17,NA,"OVC  ft","SPECI CYXT 010624Z VRB02KT 2SM -SN BR OVC004 M01/M01 A3017 RMK SC8 SLP229",2025-12-01 06:45:39.896853,2025-12-01 01:45:39.896853
"CYQQ",2025-12-01 06:00:00,2025-12-01 01:00:00,"MVFR",4,3,93,310,3,32200,30.35,NA,"OVC  ft","METAR CYQQ 010600Z 31003KT 20SM OVC015 04/03 A3035 RMK SC8 DENSITY ALT -1633FT CIG VRB 11-19 SLP280",2025-12-01 06:45:40.033164,2025-12-01 01:45:40.033164
"CYYC",2025-12-01 06:00:00,2025-12-01 01:00:00,"VFR",-7,-11,73,190,2,24100,30,NA,"SCT  ft","METAR CYYC 010600Z 19002KT 15SM SCT100 M07/M11 A3000 RMK AC4 SLP228",2025-12-01 06:45:40.129346,2025-12-01 01:45:40.129346
"CYEG",2025-12-01 06:00:00,2025-12-01 01:00:00,"VFR",-10,-11,92,50,4,32200,30.01,NA,"BKN  ft","METAR CYEG 010600Z 05004KT 20SM BKN130 M10/M11 A3001 RMK AC7 FROIN SLP220",2025-12-01 06:45:40.227219,2025-12-01 01:45:40.227219
"CYMM",2025-12-01 06:21:00,2025-12-01 01:21:00,"IFR",-14,-15,92,160,3,14500,30.04,NA,"OVC  ft","SPECI CYMM 010621Z AUTO 16003KT 9SM -SN OVC009 M14/M15 A3004 RMK SLP208",2025-12-01 06:45:40.3285,2025-12-01 01:45:40.3285
"CYQF",2025-12-01 06:00:00,2025-12-01 01:00:00,"VFR",-9,-12,79,210,4,14500,30,NA,"SCT  ft; SCT  ft","METAR CYQF 010600Z AUTO 21004KT 9SM SCT120 SCT190 M09/M12 A3000 RMK SLP233",2025-12-01 06:45:40.423374,2025-12-01 01:45:40.423374
"CYXE",2025-12-01 06:00:00,2025-12-01 01:00:00,"VFR",-21,-23,84,230,7,24100,29.98,NA,"SCT  ft","METAR CYXE 010600Z 23007KT 15SM SCT060 M21/M23 A2998 RMK SC4 SLP204",2025-12-01 06:45:40.517468,2025-12-01 01:45:40.517468
"CYQR",2025-12-01 06:00:00,2025-12-01 01:00:00,"VFR",-21,-23,84,170,5,24100,29.99,NA,"FEW  ft","METAR CYQR 010600Z 17005KT 15SM FEW250 M21/M23 A2999 RMK CI2 SLP214",2025-12-01 06:45:40.65288,2025-12-01 01:45:40.65288
"CYWG",2025-12-01 06:00:00,2025-12-01 01:00:00,"VFR",-14,-17,78,210,11,24100,30.22,NA,"SKC  ft","METAR CYWG 010600Z 21011KT 15SM SKC M14/M17 A3022 RMK SLP257",2025-12-01 06:45:40.747305,2025-12-01 01:45:40.747305
"CYBR",2025-12-01 06:24:00,2025-12-01 01:24:00,"IFR",-16,-18,85,240,8,14500,30.11,NA,"OVC  ft","SPECI CYBR 010624Z AUTO 24008KT 9SM -SN OVC009 M16/M18 A3011 RMK SLP239",2025-12-01 06:45:40.844707,2025-12-01 01:45:40.844707
"CYUL",2025-12-01 06:00:00,2025-12-01 01:00:00,"MVFR",2,0,87,250,15,9999,29.87,NA,"BKN  ft; OVC  ft","METAR CYUL 010600Z 25015G22KT 10SM -RASN BKN012 OVC025 02/00 A2987 RMK SF7SC1 SLP118",2025-12-01 06:45:40.942609,2025-12-01 01:45:40.942609
"CYHU",2025-12-01 06:00:00,2025-12-01 01:00:00,"MVFR",2,0,87,240,15,12900,29.86,NA,"BKN  ft; BKN  ft; OVC  ft","METAR CYHU 010600Z AUTO 24015G20KT 8SM -RA BKN014 BKN019 OVC027 02/00 A2986 RMK SLP114",2025-12-01 06:45:41.076139,2025-12-01 01:45:41.076139
"CYQB",2025-12-01 06:00:00,2025-12-01 01:00:00,"IFR",1,0,93,240,9,4800,29.8,NA,"FEW  ft; OVC  ft","METAR CYQB 010600Z 24009KT 3SM -RASN BR FEW004 OVC009 01/00 A2980 RMK SF2ST6 SLP097",2025-12-01 06:45:41.170378,2025-12-01 01:45:41.170378
"CYVO",2025-12-01 06:00:00,2025-12-01 01:00:00,"MVFR",-12,-15,79,310,7,14500,30.11,NA,"OVC  ft","METAR CYVO 010600Z AUTO 31007KT 280V340 9SM -SN OVC027 M12/M15 A3011 RMK SLP227",2025-12-01 06:45:41.304007,2025-12-01 01:45:41.304007
"CYUY",2025-12-01 06:00:00,2025-12-01 01:00:00,"VFR",-12,-14,85,280,4,24100,30.15,NA,"FEW  ft; OVC  ft","METAR CYUY 010600Z 28004KT 15SM -SN FEW018 OVC037 M12/M14 A3015 RMK SC1SC7 SLP235",2025-12-01 06:45:41.397285,2025-12-01 01:45:41.397285
"CYZV",2025-12-01 06:00:00,2025-12-01 01:00:00,"IFR",-1,-1,100,140,15,3200,29.83,NA,"OVC  ft","METAR CYZV 010600Z 14015KT 2SM -SN OVC009 M01/M01 A2983 RMK SN6SF2 //S04// SLP108",2025-12-01 06:45:41.494355,2025-12-01 01:45:41.494355
"CYBC",2025-12-01 06:12:00,2025-12-01 01:12:00,"MVFR",-1,-1,100,220,3,14500,29.8,NA,"OVC  ft","SPECI CYBC 010612Z AUTO 22003KT 9SM OVC011 M01/M01 A2980 RMK SLP094",2025-12-01 06:45:41.587848,2025-12-01 01:45:41.587848
"CYRJ",2025-12-01 06:10:00,2025-12-01 01:10:00,"IFR",-5,-7,86,300,13,3200,29.82,NA,"OVC  ft","SPECI CYRJ 010610Z 30013KT 2SM -SN OVC020 M05/M07 A2982 RMK SC8 SLP112",2025-12-01 06:45:41.684575,2025-12-01 01:45:41.684575
"CYHZ",2025-12-01 06:00:00,2025-12-01 01:00:00,"IFR",8,7,93,170,18,6400,30.05,NA,"OVC  ft","METAR CYHZ 010600Z 17018G26KT 4SM -RA BR OVC005 08/07 A3005 RMK NS8 SLP184",2025-12-01 06:45:41.817124,2025-12-01 01:45:41.817124
"CYYG",2025-12-01 06:00:00,2025-12-01 01:00:00,"IFR",4,4,100,150,20,9999,30,NA,"BKN  ft; OVC  ft","METAR CYYG 010600Z 15020KT 10SM -RA BKN008 OVC033 04/04 A3000 RMK SF6SC2 SLP163",2025-12-01 06:45:41.910776,2025-12-01 01:45:41.910776
"CYQM",2025-12-01 06:00:00,2025-12-01 01:00:00,"VFR",5,4,93,160,14,19300,29.88,NA,"SCT  ft; BKN  ft; OVC  ft","METAR CYQM 010600Z 16014G23KT 12SM -RA SCT009 BKN032 OVC049 05/04 A2988 RMK SF3SC2SC3 PRESFR SLP123",2025-12-01 06:45:42.044173,2025-12-01 01:45:42.044173
"CYFC",2025-12-01 06:28:00,2025-12-01 01:28:00,"VFR",3,3,100,180,5,14500,29.86,NA,"FEW  ft; OVC  ft","SPECI CYFC 010628Z AUTO 18005KT 9SM FEW046 OVC100 03/03 A2986 RMK SLP115",2025-12-01 06:45:42.137603,2025-12-01 01:45:42.137603
"CYYT",2025-12-01 06:00:00,2025-12-01 01:00:00,"VFR",-2,-5,80,0,0,24100,30.43,NA,"FEW  ft; OVC  ft","METAR CYYT 010600Z 00000KT 15SM FEW018 OVC091 M02/M05 A3043 RMK SC2AC6 SLP315",2025-12-01 06:45:42.232358,2025-12-01 01:45:42.232358
"CYQY",2025-12-01 06:00:00,2025-12-01 01:00:00,"MVFR",4,4,100,180,10,24100,30.21,NA,"OVC  ft","METAR CYQY 010600Z 18010G16KT 15SM -RA OVC022 04/04 A3021 RMK SC8 SLP235",2025-12-01 06:45:42.331497,2025-12-01 01:45:42.331497
"CYXY",2025-12-01 06:00:00,2025-12-01 01:00:00,"VFR",-3,-4,93,180,17,24100,29.55,NA,"FEW  ft; FEW  ft; SCT  ft","METAR CYXY 010600Z 18017G23KT 15SM DRSN FEW008 FEW015 SCT067 M03/M04 A2955 RMK ST1ST1AC3 ST TR ST TR SLP055",2025-12-01 06:45:42.426592,2025-12-01 01:45:42.426592
"CYZF",2025-12-01 06:00:00,2025-12-01 01:00:00,"MVFR",-13,-15,85,70,6,24100,29.97,NA,"OVC  ft","METAR CYZF 010600Z 07006KT 15SM -SN OVC017 M13/M15 A2997 RMK SC8 SLP173",2025-12-01 06:45:42.520086,2025-12-01 01:45:42.520086
"CYFB",2025-12-01 06:00:00,2025-12-01 01:00:00,"VFR",-9,-12,79,90,10,24100,29.51,NA,"SCT  ft","METAR CYFB 010600Z 09010KT 15SM SCT130 M09/M12 A2951 RMK AC3 SLP998",2025-12-01 06:45:42.612439,2025-12-01 01:45:42.612439
"CYRT",2025-12-01 05:00:00,2025-12-01,"VFR",-30,-33,75,300,16,24100,29.75,NA,"SKC  ft","METAR CYRT 010500Z 30016KT 15SM SKC M30/M33 A2975 RMK SLP082",2025-12-01 06:45:42.706486,2025-12-01 01:45:42.706486
"CYBK",2025-12-01 06:00:00,2025-12-01 01:00:00,"VFR",-29,-33,68,310,20,19300,29.85,NA,"SKC  ft","METAR CYBK 010600Z 31020KT 12SM IC DRSN SKC M29/M33 A2985 RMK SLP113",2025-12-01 06:45:42.837586,2025-12-01 01:45:42.837586
"CYRB",2025-12-01 06:00:00,2025-12-01 01:00:00,"VFR",-24,-28,70,40,24,24100,29.65,NA,"FEW  ft","METAR CYRB 010600Z 04024G30KT 15SM IC DRSN FEW070 M24/M28 A2965 RMK AC1 AC TR SLP054",2025-12-01 06:45:42.940697,2025-12-01 01:45:42.940697
"CYCO",2025-12-01 06:28:00,2025-12-01 01:28:00,"IFR",-27,-30,76,210,10,24100,30.07,NA,"BKN  ft","SPECI CYCO 010628Z 21010KT 15SM IC BKN008 M27/M30 A3007 RMK ST6 SLP190",2025-12-01 06:45:43.075971,2025-12-01 01:45:43.075971
"CYER",2025-12-01 07:00:00,2025-12-01 02:00:00,"VFR",-19,-22,77,270,13,14500,29.87,NA,"SCT  ft","METAR CYER 010700Z AUTO 27013G19KT 9SM SCT240 M19/M22 A2987 RMK SLP120",2025-12-01 07:31:02.516047,2025-12-01 02:31:02.516047
"CYAT",2025-12-01 07:00:00,2025-12-01 02:00:00,"VFR",-19,-21,84,230,8,14500,30.07,NA,"FEW  ft","METAR CYAT 010700Z AUTO 23008KT 9SM FEW120 M19/M21 A3007 RMK SLP185",2025-12-01 07:31:02.616702,2025-12-01 02:31:02.616702
"CYMO",2025-12-01 07:00:00,2025-12-01 02:00:00,"VFR",-18,-21,78,240,10,14500,30.2,NA,"CLR  ft","METAR CYMO 010700Z AUTO 24010KT 9SM CLR M18/M21 A3020 RMK SLP231",2025-12-01 07:31:02.669577,2025-12-01 02:31:02.669577
"CYPL",2025-12-01 07:00:00,2025-12-01 02:00:00,"VFR",-13,-16,78,260,13,14500,30.09,NA,"FEW  ft; OVC  ft","METAR CYPL 010700Z AUTO 26013G20KT 9SM FEW046 OVC055 M13/M16 A3009 RMK SLP229",2025-12-01 07:31:02.765056,2025-12-01 02:31:02.765056
"CYQT",2025-12-01 07:00:00,2025-12-01 02:00:00,"VFR",-9,-15,62,240,4,24100,30.29,NA,"OVC  ft","METAR CYQT 010700Z 24004KT 15SM OVC035 M09/M15 A3029 RMK SC8 SLP276",2025-12-01 07:31:02.820208,2025-12-01 02:31:02.820208
"CYAM",2025-12-01 07:17:00,2025-12-01 02:17:00,"IFR",-7,-8,93,100,5,2000,30.32,NA,"SCT  ft; BKN  ft; OVC  ft","SPECI CYAM 010717Z 10005KT 1 1/4SM R12/4500VP6000FT/U -SHSN SCT006 BKN013TCU OVC021 M07/M08 A3032 RMK SN3CF1TCU2CU2 TCU OHD MOV SE SLP283",2025-12-01 07:31:02.873458,2025-12-01 02:31:02.873458
"CYTS",2025-12-01 07:00:00,2025-12-01 02:00:00,"MVFR",-13,-17,72,320,8,24100,30.24,NA,"OVC  ft","METAR CYTS 010700Z 32008KT 15SM -SN OVC024 M13/M17 A3024 RMK SC8 SLP267",2025-12-01 07:31:02.925176,2025-12-01 02:31:02.925176
"CYSB",2025-12-01 07:00:00,2025-12-01 02:00:00,"VFR",-11,-17,62,340,8,24100,30.25,NA,"BKN  ft","METAR CYSB 010700Z 34008G16KT 15SM -SN DRSN BKN031 M11/M17 A3025 RMK SC7 SLP271",2025-12-01 07:31:02.977555,2025-12-01 02:31:02.977555
"CYYB",2025-12-01 07:00:00,2025-12-01 02:00:00,"VFR",-13,-15,85,300,4,14500,30.22,NA,"OVC  ft","METAR CYYB 010700Z AUTO 30004KT 9SM OVC031 M13/M15 A3022 RMK ICE PAST HR SLP262",2025-12-01 07:31:03.03094,2025-12-01 02:31:03.03094
"CYOW",2025-12-01 07:00:00,2025-12-01 02:00:00,"MVFR",-3,-7,74,300,22,24100,30.06,NA,"OVC  ft","METAR CYOW 010700Z 30022G28KT 15SM OVC022 M03/M07 A3006 RMK SC8 SLP188",2025-12-01 07:31:03.12441,2025-12-01 02:31:03.12441
"CYGK",2025-12-01 04:00:00,2025-11-30 23:00:00,"MVFR",2,-1,81,270,16,24100,29.96,NA,"OVC  ft","METAR CYGK 010400Z 27016G23KT 15SM OVC021 02/M01 A2996 RMK SC8 LAST STFD OBS/NXT 011100Z PRESRR SLP151",2025-12-01 07:31:03.179736,2025-12-01 02:31:03.179736
"CYQG",2025-12-01 07:00:00,2025-12-01 02:00:00,"VFR",-5,-9,74,260,5,14500,30.42,NA,"CLR  ft","METAR CYQG 010700Z AUTO 26005KT 9SM CLR M05/M09 A3042 RMK SLP312",2025-12-01 07:31:03.236164,2025-12-01 02:31:03.236164
"CYVV",2025-12-01 07:00:00,2025-12-01 02:00:00,"VFR",-7,-10,79,310,5,19300,30.32,NA,"FEW  ft; SCT  ft","METAR CYVV 010700Z 31005KT 270V010 12SM FEW020 SCT250 M07/M10 A3032 RMK SC2CI2 SLP282",2025-12-01 07:31:03.287968,2025-12-01 02:31:03.287968
"CYYZ",2025-12-01 07:00:00,2025-12-01 02:00:00,"VFR",-3,-8,69,320,18,24100,30.26,NA,"FEW  ft","METAR CYYZ 010700Z 32018KT 15SM FEW030 M03/M08 A3026 RMK SC2 SLP258",2025-12-01 07:31:03.340716,2025-12-01 02:31:03.340716
"CYQA",2025-12-01 07:23:00,2025-12-01 02:23:00,"MVFR",-10,-13,79,340,14,14500,30.25,NA,"BKN  ft","SPECI CYQA 010723Z AUTO 34014G22KT 9SM -SN BKN024 M10/M13 A3025 RMK PRESRR SLP267",2025-12-01 07:31:03.393744,2025-12-01 02:31:03.393744
"CYVR",2025-12-01 07:00:00,2025-12-01 02:00:00,"VFR",3,2,93,80,4,32200,30.34,NA,"FEW  ft; OVC  ft","METAR CYVR 010700Z 08004KT 20SM FEW083 OVC120 03/02 A3034 RMK AC1AC7 SLP278",2025-12-01 07:31:03.446473,2025-12-01 02:31:03.446473
"CYYJ",2025-12-01 07:00:00,2025-12-01 02:00:00,"VFR",2,2,100,240,4,48300,30.34,NA,"FEW  ft; FEW  ft; BKN  ft","METAR CYYJ 010700Z 24004KT 30SM FEW020 FEW087 BKN210 02/02 A3034 RMK SC1AC1CI3 SLP277",2025-12-01 07:31:03.500211,2025-12-01 02:31:03.500211
"CYLW",2025-12-01 07:00:00,2025-12-01 02:00:00,"MVFR",0,-3,80,0,0,14500,30.34,NA,"OVC  ft","METAR CYLW 010700Z AUTO 00000KT 9SM OVC025 00/M03 A3034 RMK SLP295",2025-12-01 07:31:03.557267,2025-12-01 02:31:03.557267
"CYXS",2025-12-01 07:27:00,2025-12-01 02:27:00,"MVFR",-4,-6,86,170,5,14500,30.14,NA,"BKN  ft; OVC  ft","SPECI CYXS 010727Z AUTO 17005KT 9SM -SN BKN029 OVC048 M04/M06 A3014 RMK SLP250",2025-12-01 07:31:03.611221,2025-12-01 02:31:03.611221
"CYXT",2025-12-01 07:00:00,2025-12-01 02:00:00,"LIFR",-1,-1,100,50,2,3200,30.15,NA,"OVC  ft","METAR CYXT 010700Z 05002KT 2SM -SN BR OVC004 M01/M01 A3015 RMK SC8 ICE ON INDICATOR SLP225",2025-12-01 07:31:03.664497,2025-12-01 02:31:03.664497
"CYQQ",2025-12-01 07:00:00,2025-12-01 02:00:00,"MVFR",4,3,93,0,0,32200,30.35,NA,"BKN  ft; OVC  ft","METAR CYQQ 010700Z 00000KT 20SM BKN018 OVC120 04/03 A3035 RMK SC7AC1 DENSITY ALT -1645FT SLP279",2025-12-01 07:31:03.718266,2025-12-01 02:31:03.718266
"CYYC",2025-12-01 07:00:00,2025-12-01 02:00:00,"VFR",-8,-11,79,0,0,24100,30,NA,"FEW  ft; SCT  ft","METAR CYYC 010700Z 00000KT 15SM FEW100 SCT250 M08/M11 A3000 RMK AC2CI1 SLP228",2025-12-01 07:31:03.769977,2025-12-01 02:31:03.769977
"CYEG",2025-12-01 07:00:00,2025-12-01 02:00:00,"VFR",-9,-11,86,90,2,32200,30.01,NA,"BKN  ft; BKN  ft","METAR CYEG 010700Z 09002KT 20SM BKN120 BKN250 M09/M11 A3001 RMK AC5CI2 FROIN SLP216",2025-12-01 07:31:03.824022,2025-12-01 02:31:03.824022
"CYMM",2025-12-01 07:00:00,2025-12-01 02:00:00,"IFR",-13,-15,85,190,4,14500,30.03,NA,"OVC  ft","METAR CYMM 010700Z AUTO 19004KT 9SM OVC009 M13/M15 A3003 RMK SLP205",2025-12-01 07:31:03.878517,2025-12-01 02:31:03.878517
"CYQF",2025-12-01 07:00:00,2025-12-01 02:00:00,"VFR",-12,-14,85,200,5,14500,30,NA,"CLR  ft","METAR CYQF 010700Z AUTO 20005KT 9SM CLR M12/M14 A3000 RMK SLP234",2025-12-01 07:31:03.974066,2025-12-01 02:31:03.974066
"CYXE",2025-12-01 07:00:00,2025-12-01 02:00:00,"VFR",-20,-22,84,250,7,24100,29.98,NA,"SCT  ft","METAR CYXE 010700Z 25007KT 15SM SCT060 M20/M22 A2998 RMK SC3 SLP203",2025-12-01 07:31:04.069699,2025-12-01 02:31:04.069699
"CYQR",2025-12-01 07:00:00,2025-12-01 02:00:00,"VFR",-20,-23,77,190,4,24100,29.98,NA,"BKN  ft; BKN  ft","METAR CYQR 010700Z 19004KT 15SM BKN092 BKN250 M20/M23 A2998 RMK AC5CI2 SLP210",2025-12-01 07:31:04.122486,2025-12-01 02:31:04.122486
"CYWG",2025-12-01 07:00:00,2025-12-01 02:00:00,"VFR",-15,-18,78,210,13,24100,30.19,NA,"SKC  ft","METAR CYWG 010700Z 21013KT 15SM SKC M15/M18 A3019 RMK SLP248",2025-12-01 07:31:04.174343,2025-12-01 02:31:04.174343
"CYBR",2025-12-01 07:00:00,2025-12-01 02:00:00,"VFR",-17,-19,85,220,12,14500,30.09,NA,"SCT  ft","METAR CYBR 010700Z AUTO 22012KT 9SM -SN SCT009 M17/M19 A3009 RMK SLP231",2025-12-01 07:31:04.22681,2025-12-01 02:31:04.22681
"CYUL",2025-12-01 07:17:00,2025-12-01 02:17:00,"VFR",1,-1,87,300,14,24100,29.92,NA,"FEW  ft; SCT  ft; BKN  ft","SPECI CYUL 010717Z 30014G21KT 15SM FEW009 SCT045 BKN080 01/M01 A2992 RMK SF1SC3AC2 SF TR PRESRR SLP135",2025-12-01 07:31:04.28297,2025-12-01 02:31:04.28297
"CYHU",2025-12-01 07:00:00,2025-12-01 02:00:00,"MVFR",2,0,87,240,15,14500,29.88,NA,"OVC  ft","METAR CYHU 010700Z AUTO 24015G25KT 9SM -RA OVC012 02/00 A2988 RMK SLP122",2025-12-01 07:31:04.334903,2025-12-01 02:31:04.334903
"CYQB",2025-12-01 07:00:00,2025-12-01 02:00:00,"IFR",1,0,93,250,9,2400,29.81,NA,"OVC  ft","METAR CYQB 010700Z 25009KT 1 1/2SM -RASN BR OVC005 01/M00 A2981 RMK ST8 VRB CIG 4-6 VRB VIS 11/4-13/4 SLP099",2025-12-01 07:31:04.386792,2025-12-01 02:31:04.386792
"CYVO",2025-12-01 07:00:00,2025-12-01 02:00:00,"MVFR",-12,-15,79,290,4,14500,30.14,NA,"SCT  ft; BKN  ft; OVC  ft","METAR CYVO 010700Z AUTO 29004KT 9SM -SN SCT020 BKN024 OVC029 M12/M15 A3014 RMK SLP238",2025-12-01 07:31:04.440642,2025-12-01 02:31:04.440642
"CYUY",2025-12-01 07:00:00,2025-12-01 02:00:00,"MVFR",-11,-14,79,300,5,19300,30.18,NA,"OVC  ft","METAR CYUY 010700Z 30005KT 12SM -SN OVC019 M11/M14 A3018 RMK SC8 SLP245",2025-12-01 07:31:04.498325,2025-12-01 02:31:04.498325
"CYZV",2025-12-01 07:21:00,2025-12-01 02:21:00,"IFR",-1,-1,100,180,7,4800,29.79,NA,"BKN  ft; OVC  ft","SPECI CYZV 010721Z 18007KT 3SM -SN BKN005 OVC011 M01/M01 A2979 RMK SN2SF5SC1 SLP094",2025-12-01 07:31:04.55422,2025-12-01 02:31:04.55422
"CYBC",2025-12-01 07:00:00,2025-12-01 02:00:00,"MVFR",-1,-2,93,0,0,14500,29.78,NA,"OVC  ft","METAR CYBC 010700Z AUTO 00000KT 9SM OVC016 M01/M02 A2978 RMK SLP088",2025-12-01 07:31:04.607923,2025-12-01 02:31:04.607923
"CYRJ",2025-12-01 07:00:00,2025-12-01 02:00:00,"IFR",-6,-7,93,310,16,1600,29.85,NA,"OVC  ft","METAR CYRJ 010700Z 31016G22KT 1SM -SN OVC023 M06/M07 A2985 RMK NS8 SLP124",2025-12-01 07:31:04.663675,2025-12-01 02:31:04.663675
"CYHZ",2025-12-01 07:00:00,2025-12-01 02:00:00,"IFR",8,8,100,170,18,6400,30.01,NA,"OVC  ft","METAR CYHZ 010700Z 17018G27KT 4SM -RA BR OVC006 08/08 A3001 RMK NS8 PRESFR SLP170",2025-12-01 07:31:04.759883,2025-12-01 02:31:04.759883
"CYYG",2025-12-01 07:00:00,2025-12-01 02:00:00,"MVFR",5,5,100,160,18,24100,29.95,NA,"OVC  ft","METAR CYYG 010700Z 16018G25KT 15SM -RA OVC012 05/05 A2995 RMK SC8 PRESFR SLP145",2025-12-01 07:31:04.816495,2025-12-01 02:31:04.816495
"CYQM",2025-12-01 07:00:00,2025-12-01 02:00:00,"MVFR",6,6,100,170,14,19300,29.84,NA,"FEW  ft; BKN  ft; BKN  ft; OVC  ft","METAR CYQM 010700Z 17014G22KT 12SM -RA FEW010 BKN025 BKN032 OVC047 06/06 A2984 RMK SF1SC4SC2SC1 SLP111",2025-12-01 07:31:04.87422,2025-12-01 02:31:04.87422
"CYFC",2025-12-01 07:05:00,2025-12-01 02:05:00,"MVFR",2,2,100,210,5,14500,29.86,NA,"BKN  ft; OVC  ft","SPECI CYFC 010705Z AUTO 21005KT 9SM BKN017 OVC100 02/02 A2986 RMK SLP115",2025-12-01 07:31:04.926866,2025-12-01 02:31:04.926866
"CYYT",2025-12-01 07:00:00,2025-12-01 02:00:00,"VFR",-3,-5,86,180,6,24100,30.41,NA,"FEW  ft; OVC  ft","METAR CYYT 010700Z 18006KT 15SM FEW090 OVC130 M03/M05 A3041 RMK AC1AC7 SLP309",2025-12-01 07:31:04.98189,2025-12-01 02:31:04.98189
"CYQY",2025-12-01 07:00:00,2025-12-01 02:00:00,"MVFR",5,5,100,170,16,9999,30.16,NA,"OVC  ft","METAR CYQY 010700Z 17016G22KT 10SM -RA OVC018 05/05 A3016 RMK SC8 SLP218",2025-12-01 07:31:05.042495,2025-12-01 02:31:05.042495
"CYXY",2025-12-01 07:00:00,2025-12-01 02:00:00,"VFR",-3,-4,93,170,23,24100,29.54,NA,"FEW  ft; FEW  ft","METAR CYXY 010700Z 17023KT 15SM DRSN FEW008 FEW060 M03/M04 A2954 RMK ST1SC1 ST TR SLP049",2025-12-01 07:31:05.095513,2025-12-01 02:31:05.095513
"CYZF",2025-12-01 07:00:00,2025-12-01 02:00:00,"MVFR",-13,-15,85,70,4,24100,29.96,NA,"OVC  ft","METAR CYZF 010700Z 07004KT 15SM -SN OVC019 M13/M15 A2996 RMK SC8 SLP171",2025-12-01 07:31:05.148598,2025-12-01 02:31:05.148598
"CYFB",2025-12-01 07:20:00,2025-12-01 02:20:00,"VFR",-8,-11,79,110,8,9999,29.49,NA,"SCT  ft; SCT  ft","SPECI CYFB 010720Z 11008KT 10SM -SN SCT022 SCT130 M08/M11 A2949 RMK SC3AC1 SLP991",2025-12-01 07:31:05.243448,2025-12-01 02:31:05.243448
"CYRT",2025-12-01 07:00:00,2025-12-01 02:00:00,"VFR",-30,-33,75,330,18,24100,29.75,NA,"SKC  ft","METAR CYRT 010700Z 33018KT 15SM SKC M30/M33 A2975 RMK SLP083",2025-12-01 07:31:05.297672,2025-12-01 02:31:05.297672
"CYBK",2025-12-01 07:00:00,2025-12-01 02:00:00,"VFR",-29,-33,68,300,22,24100,29.85,NA,"SKC  ft","METAR CYBK 010700Z 30022KT 15SM IC DRSN SKC M29/M33 A2985 RMK SLP114",2025-12-01 07:31:05.358277,2025-12-01 02:31:05.358277
"CYRB",2025-12-01 07:00:00,2025-12-01 02:00:00,"VFR",-22,-25,77,60,30,14500,29.65,NA,"SKC  ft","METAR CYRB 010700Z 06030KT 9SM IC DRSN SKC M22/M25 A2965 RMK SLP053",2025-12-01 07:31:05.425141,2025-12-01 02:31:05.425141
"CYCO",2025-12-01 07:00:00,2025-12-01 02:00:00,"IFR",-28,-31,75,220,10,24100,30.07,NA,"BKN  ft","METAR CYCO 010700Z 22010KT 15SM IC BKN008 M28/M31 A3007 RMK ST5 FROIN SLP190",2025-12-01 07:31:05.487509,2025-12-01 02:31:05.487509
"CYER",2025-12-01 08:00:00,2025-12-01 03:00:00,"VFR",-20,-23,77,260,11,14500,29.88,NA,"SCT  ft","METAR CYER 010800Z AUTO 26011G16KT 9SM SCT240 M20/M23 A2988 RMK SLP121",2025-12-01 08:41:13.13305,2025-12-01 03:41:13.13305
"CYAT",2025-12-01 08:00:00,2025-12-01 03:00:00,"VFR",-18,-21,78,220,6,14500,30.07,NA,"CLR  ft","METAR CYAT 010800Z AUTO 22006KT 9SM CLR M18/M21 A3007 RMK SLP187",2025-12-01 08:41:13.211551,2025-12-01 03:41:13.211551
"CYMO",2025-12-01 08:00:00,2025-12-01 03:00:00,"VFR",-19,-22,77,240,10,14500,30.21,NA,"CLR  ft","METAR CYMO 010800Z AUTO 24010KT 9SM CLR M19/M22 A3021 RMK SLP232",2025-12-01 08:41:13.284523,2025-12-01 03:41:13.284523
"CYPL",2025-12-01 08:00:00,2025-12-01 03:00:00,"VFR",-13,-16,78,250,11,14500,30.09,NA,"OVC  ft","METAR CYPL 010800Z AUTO 25011G17KT 9SM OVC055 M13/M16 A3009 RMK SLP227",2025-12-01 08:41:13.359601,2025-12-01 03:41:13.359601
"CYQT",2025-12-01 08:00:00,2025-12-01 03:00:00,"VFR",-9,-15,62,210,5,24100,30.29,NA,"OVC  ft","METAR CYQT 010800Z 21005KT 15SM OVC035 M09/M15 A3029 RMK SC8 SLP273",2025-12-01 08:41:13.434766,2025-12-01 03:41:13.434766
"CYAM",2025-12-01 08:36:00,2025-12-01 03:36:00,"IFR",-7,-8,93,70,5,1600,30.32,NA,"SCT  ft; BKN  ft; OVC  ft","SPECI CYAM 010836Z 07005KT 1SM R12/P6000FT/N -SHSN SCT007 BKN012 OVC021 M07/M08 A3032 RMK SN3CF1CU3CU1 SLP284",2025-12-01 08:41:13.508552,2025-12-01 03:41:13.508552
"CYTS",2025-12-01 08:20:00,2025-12-01 03:20:00,"MVFR",-15,-19,72,270,4,24100,30.27,NA,"BKN  ft","SPECI CYTS 010820Z 27004KT 240V300 15SM BKN027 M15/M19 A3027 RMK SC7 SLP279",2025-12-01 08:41:13.585154,2025-12-01 03:41:13.585154
"CYSB",2025-12-01 08:00:00,2025-12-01 03:00:00,"MVFR",-11,-16,67,320,7,24100,30.28,NA,"BKN  ft","METAR CYSB 010800Z 32007KT 15SM BKN027 M11/M16 A3028 RMK SC7 SLP280",2025-12-01 08:41:13.658346,2025-12-01 03:41:13.658346
"CYYB",2025-12-01 08:31:00,2025-12-01 03:31:00,"MVFR",-12,-15,79,280,5,14500,30.26,NA,"OVC  ft","SPECI CYYB 010831Z AUTO 28005KT 9SM OVC029 M12/M15 A3026 RMK RVR MISG SLP281",2025-12-01 08:41:13.734196,2025-12-01 03:41:13.734196
"CYOW",2025-12-01 08:00:00,2025-12-01 03:00:00,"MVFR",-4,-8,74,310,18,24100,30.13,NA,"OVC  ft","METAR CYOW 010800Z 31018G26KT 15SM OVC025 M04/M08 A3013 RMK SC8 SLP210",2025-12-01 08:41:13.808623,2025-12-01 03:41:13.808623
"CYGK",2025-12-01 04:00:00,2025-11-30 23:00:00,"MVFR",2,-1,81,270,16,24100,29.96,NA,"OVC  ft","METAR CYGK 010400Z 27016G23KT 15SM OVC021 02/M01 A2996 RMK SC8 LAST STFD OBS/NXT 011100Z PRESRR SLP151",2025-12-01 08:41:13.883173,2025-12-01 03:41:13.883173
"CYQG",2025-12-01 08:00:00,2025-12-01 03:00:00,"VFR",-6,-9,80,270,6,14500,30.43,NA,"CLR  ft","METAR CYQG 010800Z AUTO 27006KT 9SM CLR M06/M09 A3043 RMK SLP318",2025-12-01 08:41:13.954938,2025-12-01 03:41:13.954938
"CYVV",2025-12-01 08:00:00,2025-12-01 03:00:00,"VFR",-7,-10,79,310,7,19300,30.35,NA,"FEW  ft; SCT  ft","METAR CYVV 010800Z 31007KT 280V350 12SM FEW020 SCT250 M07/M10 A3035 RMK SC2CI2 SLP292",2025-12-01 08:41:14.031194,2025-12-01 03:41:14.031194
"CYYZ",2025-12-01 08:00:00,2025-12-01 03:00:00,"VFR",-4,-10,63,300,19,24100,30.31,NA,"FEW  ft","METAR CYYZ 010800Z 30019G26KT 15SM FEW030 M04/M10 A3031 RMK SC1 SC TR SLP274",2025-12-01 08:41:14.063801,2025-12-01 03:41:14.063801
"CYQA",2025-12-01 08:00:00,2025-12-01 03:00:00,"MVFR",-10,-13,79,330,9,14500,30.28,NA,"OVC  ft","METAR CYQA 010800Z AUTO 33009G18KT 9SM -SN OVC022 M10/M13 A3028 RMK SLP273",2025-12-01 08:41:14.135385,2025-12-01 03:41:14.135385
"CYVR",2025-12-01 08:00:00,2025-12-01 03:00:00,"VFR",3,2,93,80,4,32200,30.34,NA,"FEW  ft; BKN  ft; BKN  ft","METAR CYVR 010800Z 08004KT 20SM FEW082 BKN120 BKN160 03/02 A3034 RMK AC1AC4AS2 SLP276",2025-12-01 08:41:14.210479,2025-12-01 03:41:14.210479
"CYYJ",2025-12-01 08:00:00,2025-12-01 03:00:00,"VFR",3,3,100,240,4,48300,30.34,NA,"SCT  ft; OVC  ft","METAR CYYJ 010800Z 24004KT 30SM SCT090 OVC150 03/03 A3034 RMK AC3AC5 SLP275",2025-12-01 08:41:14.284361,2025-12-01 03:41:14.284361
"CYLW",2025-12-01 08:00:00,2025-12-01 03:00:00,"MVFR",0,-2,87,330,2,14500,30.33,NA,"OVC  ft","METAR CYLW 010800Z AUTO 33002KT 9SM OVC025 M00/M02 A3033 RMK SLP292",2025-12-01 08:41:14.318552,2025-12-01 03:41:14.318552
"CYXS",2025-12-01 08:00:00,2025-12-01 03:00:00,"VFR",-3,-6,80,180,9,14500,30.13,NA,"SCT  ft; OVC  ft","METAR CYXS 010800Z AUTO 18009KT 9SM -SN SCT034 OVC044 M03/M06 A3013 RMK SLP247",2025-12-01 08:41:14.391397,2025-12-01 03:41:14.391397
"CYXT",2025-12-01 08:00:00,2025-12-01 03:00:00,"LIFR",-1,-1,100,10,3,3200,30.14,NA,"OVC  ft","METAR CYXT 010800Z 01003KT 2SM -SN BR OVC004 M01/M01 A3014 RMK SC8 SLP220",2025-12-01 08:41:14.468618,2025-12-01 03:41:14.468618
"CYQQ",2025-12-01 08:00:00,2025-12-01 03:00:00,"MVFR",4,3,93,0,0,32200,30.35,NA,"BKN  ft; OVC  ft","METAR CYQQ 010800Z 00000KT 20SM -RA BKN015 OVC100 04/03 A3035 RMK SC5AS3 DENSITY ALT -1670FT SLP278",2025-12-01 08:41:14.542998,2025-12-01 03:41:14.542998
"CYYC",2025-12-01 08:00:00,2025-12-01 03:00:00,"VFR",-9,-11,86,190,2,24100,29.99,NA,"FEW  ft","METAR CYYC 010800Z 19002KT 15SM FEW250 M09/M11 A2999 RMK CI1 CI TR SLP224",2025-12-01 08:41:14.615767,2025-12-01 03:41:14.615767
"CYEG",2025-12-01 08:00:00,2025-12-01 03:00:00,"VFR",-13,-14,92,130,5,32200,29.99,NA,"SCT  ft; BKN  ft","METAR CYEG 010800Z 13005KT 20SM SCT110 BKN250 M13/M14 A2999 RMK AC4CI2 FROIN SLP209",2025-12-01 08:41:14.692541,2025-12-01 03:41:14.692541
"CYMM",2025-12-01 08:00:00,2025-12-01 03:00:00,"MVFR",-13,-15,85,190,3,14500,30.01,NA,"OVC  ft","METAR CYMM 010800Z AUTO 19003KT 9SM OVC013 M13/M15 A3001 RMK SLP198",2025-12-01 08:41:14.769031,2025-12-01 03:41:14.769031
"CYQF",2025-12-01 08:00:00,2025-12-01 03:00:00,"VFR",-11,-13,85,200,5,14500,29.99,NA,"FEW  ft","METAR CYQF 010800Z AUTO 20005KT 9SM FEW110 M11/M13 A2999 RMK SLP224",2025-12-01 08:41:14.840903,2025-12-01 03:41:14.840903
"CYXE",2025-12-01 08:00:00,2025-12-01 03:00:00,"VFR",-23,-25,84,280,8,24100,29.98,NA,"FEW  ft","METAR CYXE 010800Z 28008KT 15SM FEW060 M23/M25 A2998 RMK SC2 SLP207",2025-12-01 08:41:14.913695,2025-12-01 03:41:14.913695
"CYQR",2025-12-01 08:00:00,2025-12-01 03:00:00,"VFR",-21,-24,77,210,5,24100,29.97,NA,"FEW  ft; BKN  ft","METAR CYQR 010800Z 21005KT 15SM FEW090 BKN250 M21/M24 A2997 RMK AC1CI5 AC TR SLP206",2025-12-01 08:41:14.990522,2025-12-01 03:41:14.990522
"CYWG",2025-12-01 08:00:00,2025-12-01 03:00:00,"VFR",-15,-18,78,210,15,22500,30.17,NA,"BKN  ft","METAR CYWG 010800Z 21015KT 14SM BKN250 M15/M18 A3017 RMK CI5 SLP239",2025-12-01 08:41:15.064882,2025-12-01 03:41:15.064882
"CYBR",2025-12-01 08:00:00,2025-12-01 03:00:00,"VFR",-17,-20,78,240,9,14500,30.08,NA,"BKN  ft; BKN  ft","METAR CYBR 010800Z AUTO 24009KT 9SM BKN180 BKN200 M17/M20 A3008 RMK SLP226",2025-12-01 08:41:15.137778,2025-12-01 03:41:15.137778
"CYUL",2025-12-01 08:00:00,2025-12-01 03:00:00,"VFR",0,-4,75,290,18,24100,29.98,NA,"FEW  ft; SCT  ft; SCT  ft","METAR CYUL 010800Z 29018G26KT 15SM FEW009 SCT045 SCT065 M00/M04 A2998 RMK SF1SC3SC1 SF TR SC TR PRESRR SLP155",2025-12-01 08:41:15.210998,2025-12-01 03:41:15.210998
"CYHU",2025-12-01 08:37:00,2025-12-01 03:37:00,"MVFR",1,-3,75,290,17,14500,29.99,NA,"FEW  ft; BKN  ft; OVC  ft","SPECI CYHU 010837Z AUTO 29017G25KT 9SM FEW021 BKN028 OVC034 01/M03 A2999 RMK PRESRR SLP159",2025-12-01 08:41:15.283049,2025-12-01 03:41:15.283049
"CYQB",2025-12-01 08:15:00,2025-12-01 03:15:00,"IFR",0,0,100,250,11,3200,29.81,NA,"FEW  ft; BKN  ft; OVC  ft","SPECI CYQB 010815Z 25011KT 2SM -RASN BR FEW004 BKN007 OVC015 00/M00 A2981 RMK SF2ST4SC2 SLP102",2025-12-01 08:41:15.353872,2025-12-01 03:41:15.353872
"CYVO",2025-12-01 08:00:00,2025-12-01 03:00:00,"MVFR",-12,-14,85,290,4,14500,30.17,NA,"OVC  ft","METAR CYVO 010800Z AUTO 29004KT 260V330 9SM -SN OVC016 M12/M14 A3017 RMK SLP248",2025-12-01 08:41:15.425642,2025-12-01 03:41:15.425642
"CYUY",2025-12-01 08:26:00,2025-12-01 03:26:00,"MVFR",-12,-15,79,310,8,4800,30.21,NA,"FEW  ft; BKN  ft","SPECI CYUY 010826Z 31008KT 3SM -SHSN FEW005 BKN031 M12/M15 A3021 RMK SC1SC7 SC TR CVCTV CLD EMBD SLP258",2025-12-01 08:41:15.498122,2025-12-01 03:41:15.498122
"CYZV",2025-12-01 08:00:00,2025-12-01 03:00:00,"IFR",-1,-1,100,170,5,8000,29.77,NA,"BKN  ft; OVC  ft","METAR CYZV 010800Z 17005KT 5SM -SN BKN008 OVC025 M01/M01 A2977 RMK SF5SC3 SLP086",2025-12-01 08:41:15.570995,2025-12-01 03:41:15.570995
"CYBC",2025-12-01 08:00:00,2025-12-01 03:00:00,"MVFR",-2,-2,100,240,2,14500,29.78,NA,"OVC  ft","METAR CYBC 010800Z AUTO 24002KT 9SM OVC016 M02/M02 A2978 RMK SLP088",2025-12-01 08:41:15.643744,2025-12-01 03:41:15.643744
"CYRJ",2025-12-01 08:00:00,2025-12-01 03:00:00,"MVFR",-6,-9,80,310,15,4800,29.9,NA,"OVC  ft","METAR CYRJ 010800Z 31015G23KT 3SM -SN OVC032 M06/M09 A2990 RMK NS8 SLP140",2025-12-01 08:41:15.721302,2025-12-01 03:41:15.721302
"CYHZ",2025-12-01 08:00:00,2025-12-01 03:00:00,"IFR",8,8,100,180,14,4800,29.97,NA,"OVC  ft","METAR CYHZ 010800Z 18014G23KT 3SM -RA BR OVC006 08/08 A2997 RMK NS8 SLP157",2025-12-01 08:41:15.795067,2025-12-01 03:41:15.795067
"CYYG",2025-12-01 08:00:00,2025-12-01 03:00:00,"MVFR",6,5,93,160,17,24100,29.9,NA,"OVC  ft","METAR CYYG 010800Z 16017KT 15SM -RA OVC012 06/05 A2990 RMK SC8 SLP128",2025-12-01 08:41:15.870528,2025-12-01 03:41:15.870528
"CYQM",2025-12-01 08:00:00,2025-12-01 03:00:00,"MVFR",6,5,93,260,9,9999,29.84,NA,"FEW  ft; BKN  ft; BKN  ft; OVC  ft","METAR CYQM 010800Z 26009G17KT 10SM RA FEW009 BKN021 BKN036 OVC043 06/05 A2984 RMK SF2SC3SC2NS1 SLP111",2025-12-01 08:41:15.944321,2025-12-01 03:41:15.944321
"CYFC",2025-12-01 08:36:00,2025-12-01 03:36:00,"VFR",2,2,100,220,4,14500,29.84,NA,"FEW  ft; SCT  ft; OVC  ft","SPECI CYFC 010836Z AUTO 22004KT 9SM FEW055 SCT072 OVC099 02/02 A2984 RMK SLP109",2025-12-01 08:41:16.018581,2025-12-01 03:41:16.018581
"CYYT",2025-12-01 08:00:00,2025-12-01 03:00:00,"VFR",-2,-5,80,220,6,24100,30.41,NA,"FEW  ft; OVC  ft","METAR CYYT 010800Z 22006KT 15SM FEW020 OVC130 M02/M05 A3041 RMK SC1AC8 SC TR SLP307",2025-12-01 08:41:16.092458,2025-12-01 03:41:16.092458
"CYQY",2025-12-01 08:37:00,2025-12-01 03:37:00,"IFR",6,6,100,180,15,9999,30.1,NA,"BKN  ft; OVC  ft","SPECI CYQY 010837Z 18015G20KT 10SM -RA BKN008 OVC014 06/06 A3010 RMK ST6SC2 SLP196",2025-12-01 08:41:16.165771,2025-12-01 03:41:16.165771
"CYXY",2025-12-01 08:00:00,2025-12-01 03:00:00,"VFR",-3,-4,93,170,19,24100,29.52,NA,"FEW  ft; FEW  ft","METAR CYXY 010800Z 17019KT 15SM DRSN FEW008 FEW050 M03/M04 A2952 RMK ST1SC1 ST TR SLP044",2025-12-01 08:41:16.239868,2025-12-01 03:41:16.239868
"CYZF",2025-12-01 08:30:00,2025-12-01 03:30:00,"MVFR",-13,-15,85,320,2,24100,29.94,NA,"OVC  ft","SPECI CYZF 010830Z 32002KT 15SM -SN OVC018 M13/M15 A2994 RMK SC8 SLP163",2025-12-01 08:41:16.311169,2025-12-01 03:41:16.311169
"CYFB",2025-12-01 08:27:00,2025-12-01 03:27:00,"MVFR",-8,-10,86,250,2,6400,29.48,NA,"BKN  ft; BKN  ft","SPECI CYFB 010827Z 25002KT 4SM -SN BKN030 BKN080 M08/M10 A2948 RMK SC5AC2 SLP988",2025-12-01 08:41:16.383925,2025-12-01 03:41:16.383925
"CYRT",2025-12-01 08:00:00,2025-12-01 03:00:00,"VFR",-30,-33,75,340,16,24100,29.76,NA,"SKC  ft","METAR CYRT 010800Z 34016KT 15SM SKC M30/M33 A2976 RMK SLP086",2025-12-01 08:41:16.45951,2025-12-01 03:41:16.45951
"CYBK",2025-12-01 08:00:00,2025-12-01 03:00:00,"VFR",-29,-32,75,300,19,24100,29.86,NA,"SKC  ft","METAR CYBK 010800Z 30019KT 15SM IC DRSN SKC M29/M32 A2986 RMK SLP115",2025-12-01 08:41:16.53367,2025-12-01 03:41:16.53367
"CYRB",2025-12-01 08:00:00,2025-12-01 03:00:00,"VFR",-22,-26,70,40,24,14500,29.67,NA,"SCT  ft","METAR CYRB 010800Z 04024G30KT 9SM IC DRSN SCT084 M22/M26 A2967 RMK AC3 SLP059",2025-12-01 08:41:16.618541,2025-12-01 03:41:16.618541
"CYCO",2025-12-01 08:23:00,2025-12-01 03:23:00,"MVFR",-29,-32,75,230,12,24100,30.07,NA,"FEW  ft; BKN  ft","SPECI CYCO 010823Z 23012KT 15SM IC FEW006 BKN013 M29/M32 A3007 RMK SF1SF4 SLP187",2025-12-01 08:41:16.691076,2025-12-01 03:41:16.691076
"CYER",2025-12-01 09:00:00,2025-12-01 04:00:00,"VFR",-20,-22,84,260,12,14500,29.86,NA,"SCT  ft","METAR CYER 010900Z AUTO 26012G17KT 9SM SCT240 M20/M22 A2986 RMK SLP114",2025-12-01 09:37:24.105094,2025-12-01 04:37:24.105094
"CYAT",2025-12-01 09:00:00,2025-12-01 04:00:00,"VFR",-16,-19,78,230,7,14500,30.05,NA,"OVC  ft","METAR CYAT 010900Z AUTO 23007KT 9SM OVC060 M16/M19 A3005 RMK SLP180",2025-12-01 09:37:24.187815,2025-12-01 04:37:24.187815
"CYMO",2025-12-01 09:00:00,2025-12-01 04:00:00,"VFR",-19,-22,77,250,10,14500,30.21,NA,"CLR  ft","METAR CYMO 010900Z AUTO 25010KT 9SM CLR M19/M22 A3021 RMK SLP232",2025-12-01 09:37:24.262627,2025-12-01 04:37:24.262627
"CYPL",2025-12-01 09:00:00,2025-12-01 04:00:00,"VFR",-13,-17,72,240,10,14500,30.08,NA,"OVC  ft","METAR CYPL 010900Z AUTO 24010G16KT 9SM OVC055 M13/M17 A3008 RMK SLP223",2025-12-01 09:37:24.33788,2025-12-01 04:37:24.33788
"CYQT",2025-12-01 09:00:00,2025-12-01 04:00:00,"VFR",-9,-14,67,230,5,24100,30.27,NA,"OVC  ft","METAR CYQT 010900Z 23005KT 15SM OVC033 M09/M14 A3027 RMK SC8 SLP267",2025-12-01 09:37:24.375965,2025-12-01 04:37:24.375965
"CYAM",2025-12-01 09:08:00,2025-12-01 04:08:00,"MVFR",-7,-8,93,80,5,4800,30.32,NA,"FEW  ft; BKN  ft; OVC  ft","SPECI CYAM 010908Z 08005KT 3SM -SHSN FEW008 BKN011 OVC024 M07/M08 A3032 RMK CF2CU3CU3 SLP282",2025-12-01 09:37:24.451725,2025-12-01 04:37:24.451725
"CYTS",2025-12-01 09:15:00,2025-12-01 04:15:00,"MVFR",-14,-18,72,270,3,24100,30.27,NA,"OVC  ft","SPECI CYTS 010915Z 27003KT 230V290 15SM -SN OVC020 M14/M18 A3027 RMK SC8 SLP280",2025-12-01 09:37:24.526309,2025-12-01 04:37:24.526309
"CYSB",2025-12-01 09:00:00,2025-12-01 04:00:00,"MVFR",-11,-16,67,310,5,24100,30.28,NA,"OVC  ft","METAR CYSB 010900Z 31005KT 15SM OVC029 M11/M16 A3028 RMK SC8 SLP281",2025-12-01 09:37:24.598048,2025-12-01 04:37:24.598048
"CYYB",2025-12-01 09:22:00,2025-12-01 04:22:00,"MVFR",-12,-15,79,290,2,14500,30.26,NA,"OVC  ft","SPECI CYYB 010922Z AUTO 29002KT 9SM OVC029 M12/M15 A3026 RMK RVR MISG SLP282",2025-12-01 09:37:24.670791,2025-12-01 04:37:24.670791
"CYOW",2025-12-01 09:00:00,2025-12-01 04:00:00,"MVFR",-6,-12,63,310,22,24100,30.19,NA,"BKN  ft","METAR CYOW 010900Z 31022KT 15SM BKN028 M06/M12 A3019 RMK SC6 SLP233",2025-12-01 09:37:24.743462,2025-12-01 04:37:24.743462
"CYGK",2025-12-01 04:00:00,2025-11-30 23:00:00,"MVFR",2,-1,81,270,16,24100,29.96,NA,"OVC  ft","METAR CYGK 010400Z 27016G23KT 15SM OVC021 02/M01 A2996 RMK SC8 LAST STFD OBS/NXT 011100Z PRESRR SLP151",2025-12-01 09:37:24.81881,2025-12-01 04:37:24.81881
"CYQG",2025-12-01 09:00:00,2025-12-01 04:00:00,"VFR",-5,-8,80,290,7,14500,30.43,NA,"CLR  ft","METAR CYQG 010900Z AUTO 29007KT 9SM CLR M05/M08 A3043 RMK SLP318",2025-12-01 09:37:24.891274,2025-12-01 04:37:24.891274
"CYVV",2025-12-01 09:00:00,2025-12-01 04:00:00,"VFR",-8,-10,86,290,6,19300,30.36,NA,"FEW  ft","METAR CYVV 010900Z 29006KT 12SM FEW020 M08/M10 A3036 RMK SC2 SLP296",2025-12-01 09:37:24.964396,2025-12-01 04:37:24.964396
"CYYZ",2025-12-01 09:00:00,2025-12-01 04:00:00,"VFR",-5,-11,63,300,18,24100,30.33,NA,"FEW  ft","METAR CYYZ 010900Z 30018G24KT 15SM FEW025 M05/M11 A3033 RMK SC1 SC TR SLP281",2025-12-01 09:37:25.036995,2025-12-01 04:37:25.036995
"CYQA",2025-12-01 09:12:00,2025-12-01 04:12:00,"MVFR",-10,-12,85,340,6,14500,30.31,NA,"OVC  ft","SPECI CYQA 010912Z AUTO 34006KT 9SM -SN OVC020 M10/M12 A3031 RMK SLP284",2025-12-01 09:37:25.111116,2025-12-01 04:37:25.111116
"CYVR",2025-12-01 09:00:00,2025-12-01 04:00:00,"VFR",4,3,93,80,3,32200,30.33,NA,"FEW  ft; BKN  ft; OVC  ft","METAR CYVR 010900Z 08003KT 20SM FEW085 BKN130 OVC150 04/03 A3033 RMK AC1AC6AS1 SLP273",2025-12-01 09:37:25.182581,2025-12-01 04:37:25.182581
"CYYJ",2025-12-01 09:00:00,2025-12-01 04:00:00,"VFR",3,3,100,290,3,48300,30.33,NA,"FEW  ft; BKN  ft","METAR CYYJ 010900Z 29003KT 30SM FEW090 BKN140 03/03 A3033 RMK AC2AC5 SLP272",2025-12-01 09:37:25.215815,2025-12-01 04:37:25.215815
"CYLW",2025-12-01 09:00:00,2025-12-01 04:00:00,"MVFR",0,-2,87,0,0,14500,30.32,NA,"OVC  ft","METAR CYLW 010900Z AUTO 00000KT 9SM OVC025 M00/M02 A3032 RMK SLP288",2025-12-01 09:37:25.290117,2025-12-01 04:37:25.290117
"CYXS",2025-12-01 09:00:00,2025-12-01 04:00:00,"MVFR",-3,-6,80,190,9,14500,30.1,NA,"BKN  ft; OVC  ft","METAR CYXS 010900Z AUTO 19009KT 9SM -SN BKN026 OVC034 M03/M06 A3010 RMK SLP237",2025-12-01 09:37:25.362907,2025-12-01 04:37:25.362907
"CYXT",2025-12-01 09:00:00,2025-12-01 04:00:00,"LIFR",-1,-1,100,80,2,3200,30.14,NA,"OVC  ft","METAR CYXT 010900Z 08002KT 2SM -SN BR OVC004 M01/M01 A3014 RMK SC8 SLP219",2025-12-01 09:37:25.437961,2025-12-01 04:37:25.437961
"CYQQ",2025-12-01 09:00:00,2025-12-01 04:00:00,"VFR",4,3,93,0,0,32200,30.34,NA,"SCT  ft; BKN  ft; OVC  ft","METAR CYQQ 010900Z 00000KT 20SM -RA SCT016 BKN080 OVC100 04/03 A3034 RMK SC3AC4AC1 DENSITY ALT -1645FT SLP274",2025-12-01 09:37:25.511348,2025-12-01 04:37:25.511348
"CYYC",2025-12-01 09:00:00,2025-12-01 04:00:00,"VFR",-9,-12,79,220,3,24100,29.97,NA,"SCT  ft","METAR CYYC 010900Z 22003KT 15SM SCT140 M09/M12 A2997 RMK AC4 SLP215",2025-12-01 09:37:25.586112,2025-12-01 04:37:25.586112
"CYEG",2025-12-01 09:00:00,2025-12-01 04:00:00,"VFR",-14,-15,92,150,5,32200,29.97,NA,"FEW  ft; BKN  ft","METAR CYEG 010900Z 15005KT 20SM FEW110 BKN250 M14/M15 A2997 RMK AC1CI5 FROIN SLP201",2025-12-01 09:37:25.662075,2025-12-01 04:37:25.662075
"CYMM",2025-12-01 09:00:00,2025-12-01 04:00:00,"MVFR",-12,-14,85,210,4,14500,29.99,NA,"OVC  ft","METAR CYMM 010900Z AUTO 21004KT 9SM OVC015 M12/M14 A2999 RMK SLP190",2025-12-01 09:37:25.741614,2025-12-01 04:37:25.741614
"CYQF",2025-12-01 09:00:00,2025-12-01 04:00:00,"VFR",-12,-14,85,200,6,14500,29.97,NA,"SCT  ft; BKN  ft; BKN  ft","METAR CYQF 010900Z AUTO 20006KT 9SM SCT066 BKN120 BKN150 M12/M14 A2997 RMK SLP215",2025-12-01 09:37:25.815809,2025-12-01 04:37:25.815809
"CYXE",2025-12-01 09:00:00,2025-12-01 04:00:00,"VFR",-22,-24,84,290,7,24100,29.98,NA,"FEW  ft","METAR CYXE 010900Z 29007KT 15SM FEW060 M22/M24 A2998 RMK SC1 SLP204",2025-12-01 09:37:25.889512,2025-12-01 04:37:25.889512
"CYQR",2025-12-01 09:00:00,2025-12-01 04:00:00,"VFR",-20,-22,84,250,6,24100,29.96,NA,"FEW  ft; BKN  ft","METAR CYQR 010900Z 25006KT 15SM FEW064 BKN250 M20/M22 A2996 RMK SC1CI5 SC TR SLP202",2025-12-01 09:37:25.963245,2025-12-01 04:37:25.963245
"CYWG",2025-12-01 09:00:00,2025-12-01 04:00:00,"VFR",-15,-18,78,210,13,19300,30.15,NA,"OVC  ft","METAR CYWG 010900Z 21013KT 12SM OVC230 M15/M18 A3015 RMK CI8 SLP232",2025-12-01 09:37:26.03652,2025-12-01 04:37:26.03652
"CYBR",2025-12-01 09:00:00,2025-12-01 04:00:00,"VFR",-18,-20,84,230,7,14500,30.05,NA,"SCT  ft; BKN  ft","METAR CYBR 010900Z AUTO 23007KT 9SM SCT140 BKN170 M18/M20 A3005 RMK SLP217",2025-12-01 09:37:26.066978,2025-12-01 04:37:26.066978
"CYUL",2025-12-01 09:00:00,2025-12-01 04:00:00,"VFR",-1,-5,75,300,13,24100,30.06,NA,"SCT  ft; BKN  ft","METAR CYUL 010900Z 30013G24KT 15SM SCT025 BKN032 M01/M05 A3006 RMK SC4SC3 PRESRR SLP182",2025-12-01 09:37:26.139133,2025-12-01 04:37:26.139133
"CYHU",2025-12-01 09:00:00,2025-12-01 04:00:00,"MVFR",0,-4,75,290,13,14500,30.02,NA,"BKN  ft; OVC  ft","METAR CYHU 010900Z AUTO 29013G29KT 9SM BKN030 OVC037 00/M04 A3002 RMK SLP168",2025-12-01 09:37:26.212338,2025-12-01 04:37:26.212338
"CYQB",2025-12-01 09:20:00,2025-12-01 04:20:00,"MVFR",1,-1,87,270,9,9999,29.85,NA,"FEW  ft; FEW  ft; BKN  ft; BKN  ft","SPECI CYQB 010920Z 27009KT 10SM FEW004 FEW015 BKN025 BKN067 01/M01 A2985 RMK SF1SC1SC3AC2 SLP113",2025-12-01 09:37:26.282927,2025-12-01 04:37:26.282927
"CYVO",2025-12-01 09:14:00,2025-12-01 04:14:00,"MVFR",-12,-14,85,300,6,14500,30.2,NA,"BKN  ft; OVC  ft","SPECI CYVO 010914Z AUTO 30006KT 260V330 9SM -SN BKN023 OVC029 M12/M14 A3020 RMK SLP259",2025-12-01 09:37:26.354001,2025-12-01 04:37:26.354001
"CYUY",2025-12-01 09:00:00,2025-12-01 04:00:00,"MVFR",-12,-15,79,330,9,4800,30.23,NA,"OVC  ft","METAR CYUY 010900Z 33009KT 3SM -SHSN OVC025 M12/M15 A3023 RMK SC8 CVCTV CLD EMBD /S01/ SLP263",2025-12-01 09:37:26.427161,2025-12-01 04:37:26.427161
"CYZV",2025-12-01 09:00:00,2025-12-01 04:00:00,"IFR",-1,-2,93,200,5,8000,29.75,NA,"BKN  ft; OVC  ft","METAR CYZV 010900Z 20005KT 5SM -SN BKN008 OVC014 M01/M02 A2975 RMK SF5SC3 SLP081",2025-12-01 09:37:26.497893,2025-12-01 04:37:26.497893
"CYBC",2025-12-01 09:00:00,2025-12-01 04:00:00,"VFR",-2,-2,100,300,4,14500,29.78,NA,"SCT  ft; OVC  ft","METAR CYBC 010900Z AUTO 30004KT 9SM SCT060 OVC085 M02/M02 A2978 RMK SLP086",2025-12-01 09:37:26.572189,2025-12-01 04:37:26.572189
"CYRJ",2025-12-01 09:00:00,2025-12-01 04:00:00,"MVFR",-7,-11,73,320,17,4800,29.96,NA,"OVC  ft","METAR CYRJ 010900Z 32017G23KT 3SM -SN DRSN OVC019 M07/M11 A2996 RMK NS8 PRESRR SLP159",2025-12-01 09:37:26.648234,2025-12-01 04:37:26.648234
"CYHZ",2025-12-01 09:12:00,2025-12-01 04:12:00,"IFR",8,8,100,180,19,4800,29.92,NA,"OVC  ft","SPECI CYHZ 010912Z 18019G28KT 3SM -RA BR OVC005 08/08 A2992 RMK NS8 SLP139",2025-12-01 09:37:26.721503,2025-12-01 04:37:26.721503
"CYYG",2025-12-01 09:00:00,2025-12-01 04:00:00,"MVFR",8,7,93,170,18,24100,29.85,NA,"OVC  ft","METAR CYYG 010900Z 17018G25KT 15SM -RA OVC014 08/07 A2985 RMK SC8 PRESFR SLP111",2025-12-01 09:37:26.793764,2025-12-01 04:37:26.793764
"CYQM",2025-12-01 09:00:00,2025-12-01 04:00:00,"MVFR",5,5,100,260,5,19300,29.82,NA,"SCT  ft; BKN  ft; BKN  ft; OVC  ft","METAR CYQM 010900Z 26005KT 12SM -RA SCT009 BKN023 BKN036 OVC042 05/05 A2982 RMK SF3SC2SC2SC1 SLP102",2025-12-01 09:37:26.866167,2025-12-01 04:37:26.866167
"CYFC",2025-12-01 09:28:00,2025-12-01 04:28:00,"IFR",0,0,100,250,2,2000,29.83,NA,"FEW  ft","SPECI CYFC 010928Z AUTO 25002KT 1 1/4SM R09/3500VP6000FT BR FEW086 00/00 A2983 RMK SLP105",2025-12-01 09:37:26.937998,2025-12-01 04:37:26.937998
"CYYT",2025-12-01 09:00:00,2025-12-01 04:00:00,"VFR",-2,-5,80,200,6,24100,30.38,NA,"OVC  ft","METAR CYYT 010900Z 20006KT 15SM OVC150 M02/M05 A3038 RMK AC8 SLP299",2025-12-01 09:37:27.00941,2025-12-01 04:37:27.00941
"CYQY",2025-12-01 09:00:00,2025-12-01 04:00:00,"IFR",6,6,100,180,15,9999,30.07,NA,"OVC  ft","METAR CYQY 010900Z 18015G22KT 10SM -RA OVC008 06/06 A3007 RMK NS8 SLP188",2025-12-01 09:37:27.085535,2025-12-01 04:37:27.085535
"CYXY",2025-12-01 09:00:00,2025-12-01 04:00:00,"VFR",-3,-4,93,180,20,24100,29.5,NA,"FEW  ft; FEW  ft; FEW  ft","METAR CYXY 010900Z 18020KT 15SM DRSN FEW008 FEW060 FEW260 M03/M04 A2950 RMK ST1SC1CI2 ST TR SLP037",2025-12-01 09:37:27.15807,2025-12-01 04:37:27.15807
"CYZF",2025-12-01 09:00:00,2025-12-01 04:00:00,"MVFR",-13,-15,85,340,3,24100,29.93,NA,"OVC  ft","METAR CYZF 010900Z 34003KT 15SM -SN OVC012 M13/M15 A2993 RMK SC8 SLP160",2025-12-01 09:37:27.230764,2025-12-01 04:37:27.230764
"CYFB",2025-12-01 09:12:00,2025-12-01 04:12:00,"MVFR",-8,-10,86,270,4,8000,29.47,NA,"SCT  ft; BKN  ft","SPECI CYFB 010912Z 27004KT 5SM -SN SCT030 BKN048 M08/M10 A2947 RMK SC3SC3 SLP984",2025-12-01 09:37:27.30269,2025-12-01 04:37:27.30269
"CYRT",2025-12-01 09:00:00,2025-12-01 04:00:00,"VFR",-31,-34,75,340,14,24100,29.75,NA,"SKC  ft","METAR CYRT 010900Z 34014KT 15SM SKC M31/M34 A2975 RMK SLP083",2025-12-01 09:37:27.37653,2025-12-01 04:37:27.37653
"CYBK",2025-12-01 09:00:00,2025-12-01 04:00:00,"VFR",-29,-33,68,300,17,24100,29.86,NA,"SKC  ft","METAR CYBK 010900Z 30017KT 15SM IC DRSN SKC M29/M33 A2986 RMK SLP117",2025-12-01 09:37:27.447618,2025-12-01 04:37:27.447618
"CYRB",2025-12-01 09:00:00,2025-12-01 04:00:00,"VFR",-22,-25,77,40,21,24100,29.67,NA,"BKN  ft","METAR CYRB 010900Z 04021KT 15SM IC DRSN BKN067 M22/M25 A2967 RMK AC6 SLP060",2025-12-01 09:37:27.533444,2025-12-01 04:37:27.533444
"CYCO",2025-12-01 09:00:00,2025-12-01 04:00:00,"MVFR",-28,-31,75,220,13,24100,30.07,NA,"BKN  ft; BKN  ft","METAR CYCO 010900Z 22013KT 15SM IC BKN014 BKN022 M28/M31 A3007 RMK SF5SC1 SLP187",2025-12-01 09:37:27.611911,2025-12-01 04:37:27.611911
"CYER",2025-12-01 10:00:00,2025-12-01 05:00:00,"VFR",-20,-23,77,260,13,14500,29.86,NA,"SCT  ft","METAR CYER 011000Z AUTO 26013G18KT 9SM SCT250 M20/M23 A2986 RMK SLP114",2025-12-01 10:34:23.017666,2025-12-01 05:34:23.017666
"CYAT",2025-12-01 10:00:00,2025-12-01 05:00:00,"VFR",-15,-18,78,230,9,14500,30.04,NA,"OVC  ft","METAR CYAT 011000Z AUTO 23009KT 9SM OVC066 M15/M18 A3004 RMK SLP174",2025-12-01 10:34:23.072585,2025-12-01 05:34:23.072585
"CYMO",2025-12-01 10:00:00,2025-12-01 05:00:00,"VFR",-18,-21,78,230,10,14500,30.2,NA,"BKN  ft","METAR CYMO 011000Z AUTO 23010KT 9SM BKN042 M18/M21 A3020 RMK SLP230",2025-12-01 10:34:23.160025,2025-12-01 05:34:23.160025
"CYPL",2025-12-01 10:28:00,2025-12-01 05:28:00,"VFR",-13,-17,72,240,10,14500,30.05,NA,"OVC  ft","SPECI CYPL 011028Z AUTO 24010G16KT 9SM -SN OVC055 M13/M17 A3005 RMK SLP215",2025-12-01 10:34:23.246358,2025-12-01 05:34:23.246358
"CYQT",2025-12-01 10:18:00,2025-12-01 05:18:00,"VFR",-9,-14,67,230,7,24100,30.25,NA,"OVC  ft","SPECI CYQT 011018Z 23007KT 15SM -SN OVC031 M09/M14 A3025 RMK SC8 SLP260",2025-12-01 10:34:23.334083,2025-12-01 05:34:23.334083
"CYAM",2025-12-01 10:00:00,2025-12-01 05:00:00,"MVFR",-7,-8,93,0,0,9999,30.31,NA,"FEW  ft; SCT  ft; BKN  ft; BKN  ft","METAR CYAM 011000Z 00000KT 10SM -SHSN FEW004 SCT012 BKN023 BKN042 M07/M08 A3031 RMK CF1CU3CU1SC2 SLP279",2025-12-01 10:34:23.418299,2025-12-01 05:34:23.418299
"CYTS",2025-12-01 10:00:00,2025-12-01 05:00:00,"MVFR",-14,-17,78,230,6,24100,30.26,NA,"OVC  ft","METAR CYTS 011000Z 23006KT 180V270 15SM -SN OVC020 M14/M17 A3026 RMK SC8 SLP276",2025-12-01 10:34:23.505122,2025-12-01 05:34:23.505122
"CYSB",2025-12-01 10:00:00,2025-12-01 05:00:00,"MVFR",-11,-17,62,300,4,24100,30.29,NA,"OVC  ft","METAR CYSB 011000Z 30004KT 250V320 15SM OVC028 M11/M17 A3029 RMK SC8 SLP286",2025-12-01 10:34:23.590176,2025-12-01 05:34:23.590176
"CYYB",2025-12-01 10:09:00,2025-12-01 05:09:00,"MVFR",-12,-14,85,290,3,14500,30.28,NA,"OVC  ft","SPECI CYYB 011009Z AUTO 29003KT 9SM -SN OVC029 M12/M14 A3028 RMK RVR MISG SLP286",2025-12-01 10:34:23.67495,2025-12-01 05:34:23.67495
"CYOW",2025-12-01 10:00:00,2025-12-01 05:00:00,"VFR",-8,-12,73,310,13,24100,30.24,NA,"SCT  ft","METAR CYOW 011000Z 31013KT 15SM VCSH SCT023 M08/M12 A3024 RMK SC3 SH NW SLP248",2025-12-01 10:34:23.759034,2025-12-01 05:34:23.759034
"CYGK",2025-12-01 04:00:00,2025-11-30 23:00:00,"MVFR",2,-1,81,270,16,24100,29.96,NA,"OVC  ft","METAR CYGK 010400Z 27016G23KT 15SM OVC021 02/M01 A2996 RMK SC8 LAST STFD OBS/NXT 011100Z PRESRR SLP151",2025-12-01 10:34:23.845149,2025-12-01 05:34:23.845149
"CYQG",2025-12-01 10:00:00,2025-12-01 05:00:00,"VFR",-6,-9,80,300,3,14500,30.43,NA,"CLR  ft","METAR CYQG 011000Z AUTO 30003KT 9SM CLR M06/M09 A3043 RMK SLP318",2025-12-01 10:34:23.928732,2025-12-01 05:34:23.928732
"CYVV",2025-12-01 10:00:00,2025-12-01 05:00:00,"VFR",-8,-11,79,290,5,19300,30.37,NA,"FEW  ft","METAR CYVV 011000Z 29005KT 12SM FEW020 M08/M11 A3037 RMK SC2 SLP298",2025-12-01 10:34:24.017495,2025-12-01 05:34:24.017495
"CYYZ",2025-12-01 10:00:00,2025-12-01 05:00:00,"VFR",-5,-12,58,320,13,24100,30.35,NA,"FEW  ft","METAR CYYZ 011000Z 32013KT 15SM FEW025 M05/M12 A3035 RMK SC1 SLP289",2025-12-01 10:34:24.104747,2025-12-01 05:34:24.104747
"CYQA",2025-12-01 10:05:00,2025-12-01 05:05:00,"MVFR",-11,-14,79,330,7,14500,30.33,NA,"OVC  ft","SPECI CYQA 011005Z AUTO 33007KT 9SM OVC022 M11/M14 A3033 RMK SLP294",2025-12-01 10:34:24.147469,2025-12-01 05:34:24.147469
"CYVR",2025-12-01 10:09:00,2025-12-01 05:09:00,"VFR",3,3,100,0,0,32200,30.33,NA,"SCT  ft; OVC  ft","SPECI CYVR 011009Z 00000KT 20SM -RA SCT071 OVC100 03/03 A3033 RMK AC4AC4 SLP272",2025-12-01 10:34:24.230757,2025-12-01 05:34:24.230757
"CYYJ",2025-12-01 10:00:00,2025-12-01 05:00:00,"VFR",4,4,100,260,3,48300,30.32,NA,"OVC  ft","METAR CYYJ 011000Z 26003KT 30SM OVC110 04/04 A3032 RMK AC8 SLP271",2025-12-01 10:34:24.313779,2025-12-01 05:34:24.313779
"CYLW",2025-12-01 10:00:00,2025-12-01 05:00:00,"MVFR",0,-2,87,0,0,14500,30.32,NA,"OVC  ft","METAR CYLW 011000Z AUTO 00000KT 9SM OVC025 M00/M02 A3032 RMK SLP289",2025-12-01 10:34:24.399792,2025-12-01 05:34:24.399792
"CYXS",2025-12-01 10:17:00,2025-12-01 05:17:00,"IFR",-3,-4,93,180,10,1600,30.08,NA,"FEW  ft; BKN  ft; OVC  ft","SPECI CYXS 011017Z AUTO 18010G17KT 1SM -SN FEW005 BKN011 OVC019 M03/M04 A3008 RMK SLP227",2025-12-01 10:34:24.484217,2025-12-01 05:34:24.484217
"CYXT",2025-12-01 10:00:00,2025-12-01 05:00:00,"LIFR",0,0,100,50,3,3200,30.1,NA,"OVC  ft","METAR CYXT 011000Z 05003KT 2SM -FZDZ BR OVC003 M00/M00 A3010 RMK ST8 ICE ON INDICATOR SLP205",2025-12-01 10:34:24.569968,2025-12-01 05:34:24.569968
"CYQQ",2025-12-01 10:00:00,2025-12-01 05:00:00,"VFR",4,3,93,0,0,32200,30.33,NA,"SCT  ft; BKN  ft; OVC  ft","METAR CYQQ 011000Z 00000KT 20SM -RA SCT013 BKN050 OVC075 04/03 A3033 RMK SC4SC3AC1 DENSITY ALT -1633FT SLP271",2025-12-01 10:34:24.653918,2025-12-01 05:34:24.653918
"CYYC",2025-12-01 10:00:00,2025-12-01 05:00:00,"VFR",-9,-12,79,220,6,24100,29.94,NA,"FEW  ft; SCT  ft","METAR CYYC 011000Z 22006KT 15SM FEW140 SCT250 M09/M12 A2994 RMK AC1CI2 SLP204",2025-12-01 10:34:24.737843,2025-12-01 05:34:24.737843
"CYEG",2025-12-01 10:00:00,2025-12-01 05:00:00,"VFR",-15,-16,92,190,5,32200,29.95,NA,"BKN  ft","METAR CYEG 011000Z 19005KT 20SM BKN052 M15/M16 A2995 RMK SC7 FROIN SLP196",2025-12-01 10:34:24.821747,2025-12-01 05:34:24.821747
"CYMM",2025-12-01 10:00:00,2025-12-01 05:00:00,"MVFR",-12,-13,92,190,3,14500,29.97,NA,"OVC  ft","METAR CYMM 011000Z AUTO 19003KT 9SM OVC013 M12/M13 A2997 RMK SLP185",2025-12-01 10:34:24.908835,2025-12-01 05:34:24.908835
"CYQF",2025-12-01 10:00:00,2025-12-01 05:00:00,"VFR",-12,-13,92,200,7,14500,29.96,NA,"CLR  ft","METAR CYQF 011000Z AUTO 20007KT 9SM CLR M12/M13 A2996 RMK SLP208",2025-12-01 10:34:24.991828,2025-12-01 05:34:24.991828
"CYXE",2025-12-01 10:00:00,2025-12-01 05:00:00,"VFR",-22,-24,84,280,7,24100,29.98,NA,"SCT  ft","METAR CYXE 011000Z 28007KT 15SM SCT060 M22/M24 A2998 RMK SC4 SLP207",2025-12-01 10:34:25.036321,2025-12-01 05:34:25.036321
"CYQR",2025-12-01 10:00:00,2025-12-01 05:00:00,"VFR",-17,-20,78,260,8,24100,29.95,NA,"OVC  ft","METAR CYQR 011000Z 26008KT 15SM OVC058 M17/M20 A2995 RMK SC8 SLP197",2025-12-01 10:34:25.118753,2025-12-01 05:34:25.118753
"CYWG",2025-12-01 10:00:00,2025-12-01 05:00:00,"VFR",-16,-19,78,210,10,9999,30.12,NA,"OVC  ft","METAR CYWG 011000Z 21010KT 10SM OVC190 M16/M19 A3012 RMK AC8 SLP222",2025-12-01 10:34:25.202163,2025-12-01 05:34:25.202163
"CYBR",2025-12-01 10:00:00,2025-12-01 05:00:00,"VFR",-17,-20,78,230,6,14500,30.02,NA,"BKN  ft; BKN  ft; BKN  ft","METAR CYBR 011000Z AUTO 23006KT 9SM BKN140 BKN160 BKN180 M17/M20 A3002 RMK SLP206",2025-12-01 10:34:25.285873,2025-12-01 05:34:25.285873
"CYUL",2025-12-01 10:00:00,2025-12-01 05:00:00,"MVFR",-2,-7,69,300,14,24100,30.13,NA,"OVC  ft","METAR CYUL 011000Z 30014G21KT 15SM OVC028 M02/M07 A3013 RMK SC8 PRESRR SLP205",2025-12-01 10:34:25.371058,2025-12-01 05:34:25.371058
"CYHU",2025-12-01 10:00:00,2025-12-01 05:00:00,"VFR",-1,-6,69,290,15,14500,30.09,NA,"OVC  ft","METAR CYHU 011000Z AUTO 29015G23KT 9SM OVC033 M01/M06 A3009 RMK PRESRR SLP193",2025-12-01 10:34:25.455904,2025-12-01 05:34:25.455904
"CYQB",2025-12-01 10:00:00,2025-12-01 05:00:00,"VFR",0,-3,80,310,6,9999,29.88,NA,"FEW  ft; FEW  ft; SCT  ft; BKN  ft","METAR CYQB 011000Z 31006G15KT 260V040 10SM FEW005 FEW010 SCT032 BKN057 M00/M03 A2988 RMK SF1ST1SC2SC4 SF TR SLP123",2025-12-01 10:34:25.539786,2025-12-01 05:34:25.539786
"CYVO",2025-12-01 10:00:00,2025-12-01 05:00:00,"MVFR",-12,-17,67,310,9,14500,30.2,NA,"OVC  ft","METAR CYVO 011000Z AUTO 31009G15KT 270V340 9SM -SN OVC027 M12/M17 A3020 RMK SLP259",2025-12-01 10:34:25.624955,2025-12-01 05:34:25.624955
"CYUY",2025-12-01 10:00:00,2025-12-01 05:00:00,"MVFR",-14,-18,72,330,5,12900,30.25,NA,"OVC  ft","METAR CYUY 011000Z 33005KT 8SM -SHSN OVC030 M14/M18 A3025 RMK SC8 CVCTV CLD EMBD SLP270",2025-12-01 10:34:25.70998,2025-12-01 05:34:25.70998
"CYZV",2025-12-01 10:27:00,2025-12-01 05:27:00,"VFR",-2,-2,100,300,7,24100,29.74,NA,"SCT  ft; BKN  ft; OVC  ft","SPECI CYZV 011027Z 30007KT 15SM -SN SCT009 BKN034 OVC130 M02/M02 A2974 RMK SF3SC4AC1 SLP075",2025-12-01 10:34:25.795953,2025-12-01 05:34:25.795953
"CYBC",2025-12-01 10:00:00,2025-12-01 05:00:00,"VFR",-2,-3,93,270,5,14500,29.78,NA,"FEW  ft; OVC  ft","METAR CYBC 011000Z AUTO 27005KT 9SM FEW048 OVC081 M02/M03 A2978 RMK SLP087",2025-12-01 10:34:25.880494,2025-12-01 05:34:25.880494
"CYRJ",2025-12-01 10:00:00,2025-12-01 05:00:00,"MVFR",-9,-13,73,310,16,19300,30.01,NA,"OVC  ft","METAR CYRJ 011000Z 31016G26KT 12SM -SN DRSN OVC017 M09/M13 A3001 RMK NS8 PRESRR SLP178",2025-12-01 10:34:25.965803,2025-12-01 05:34:25.965803
"CYHZ",2025-12-01 10:00:00,2025-12-01 05:00:00,"IFR",8,8,100,190,16,4800,29.89,NA,"OVC  ft","METAR CYHZ 011000Z 19016G25KT 3SM -RA BR OVC005 08/08 A2989 RMK NS8 SLP128",2025-12-01 10:34:26.050119,2025-12-01 05:34:26.050119
"CYYG",2025-12-01 10:00:00,2025-12-01 05:00:00,"MVFR",8,7,93,170,21,24100,29.79,NA,"BKN  ft; OVC  ft","METAR CYYG 011000Z 17021G29KT 15SM -RA BKN012 OVC045 08/07 A2979 RMK SC5SC3 PRESFR SLP093",2025-12-01 10:34:26.133759,2025-12-01 05:34:26.133759
"CYQM",2025-12-01 10:12:00,2025-12-01 05:12:00,"MVFR",5,5,100,240,11,9999,29.79,NA,"SCT  ft; OVC  ft","SPECI CYQM 011012Z 24011KT 10SM -RA SCT013 OVC029 05/05 A2979 RMK SC3SC5 SLP094",2025-12-01 10:34:26.216814,2025-12-01 05:34:26.216814
"CYFC",2025-12-01 10:00:00,2025-12-01 05:00:00,"VFR",-1,-1,100,270,3,14500,29.84,NA,"BKN  ft","METAR CYFC 011000Z AUTO 27003KT 9SM BKN086 M01/M01 A2984 RMK SLP108",2025-12-01 10:34:26.300764,2025-12-01 05:34:26.300764
"CYYT",2025-12-01 10:00:00,2025-12-01 05:00:00,"VFR",-2,-4,86,170,7,24100,30.35,NA,"FEW  ft; BKN  ft","METAR CYYT 011000Z 17007KT 15SM FEW020 BKN170 M02/M04 A3035 RMK SC1AC7 SC TR SLP287",2025-12-01 10:34:26.383871,2025-12-01 05:34:26.383871
"CYQY",2025-12-01 10:00:00,2025-12-01 05:00:00,"IFR",7,7,100,190,15,11300,30.03,NA,"OVC  ft","METAR CYQY 011000Z 19015G27KT 7SM -RA OVC007 07/07 A3003 RMK NS8 SLP172",2025-12-01 10:34:26.469361,2025-12-01 05:34:26.469361
"CYXY",2025-12-01 10:00:00,2025-12-01 05:00:00,"VFR",-2,-4,86,190,12,24100,29.49,NA,"SCT  ft; OVC  ft","METAR CYXY 011000Z 19012KT 15SM DRSN SCT050 OVC200 M02/M04 A2949 RMK SC4CS4 OBS TAKEN +7 SLP031",2025-12-01 10:34:26.551035,2025-12-01 05:34:26.551035
"CYZF",2025-12-01 10:00:00,2025-12-01 05:00:00,"MVFR",-13,-15,85,40,5,24100,29.91,NA,"OVC  ft","METAR CYZF 011000Z 04005KT 15SM -SN OVC013 M13/M15 A2991 RMK SC8 SLP152",2025-12-01 10:34:26.634994,2025-12-01 05:34:26.634994
"CYFB",2025-12-01 10:00:00,2025-12-01 05:00:00,"VFR",-8,-10,86,0,0,24100,29.45,NA,"BKN  ft","METAR CYFB 011000Z 00000KT 15SM -SN BKN066 M08/M10 A2945 RMK AC5 SLP979",2025-12-01 10:34:26.719099,2025-12-01 05:34:26.719099
"CYRT",2025-12-01 10:00:00,2025-12-01 05:00:00,"VFR",-31,-34,75,330,15,24100,29.76,NA,"SKC  ft","METAR CYRT 011000Z 33015KT 15SM SKC M31/M34 A2976 RMK SLP084",2025-12-01 10:34:26.801831,2025-12-01 05:34:26.801831
"CYBK",2025-12-01 10:00:00,2025-12-01 05:00:00,"VFR",-30,-33,75,300,18,24100,29.85,NA,"SKC  ft","METAR CYBK 011000Z 30018KT 15SM IC DRSN SKC M30/M33 A2985 RMK SLP112",2025-12-01 10:34:26.88571,2025-12-01 05:34:26.88571
"CYRB",2025-12-01 10:00:00,2025-12-01 05:00:00,"VFR",-21,-25,70,30,25,24100,29.68,NA,"OVC  ft","METAR CYRB 011000Z 03025KT 15SM IC DRSN OVC070 M21/M25 A2968 RMK AC8 SLP064",2025-12-01 10:34:26.980156,2025-12-01 05:34:26.980156
"CYCO",2025-12-01 10:00:00,2025-12-01 05:00:00,"MVFR",-27,-30,76,230,10,24100,30.07,NA,"OVC  ft","METAR CYCO 011000Z 23010KT 15SM IC OVC013 M27/M30 A3007 RMK SF8 SLP187",2025-12-01 10:34:27.025223,2025-12-01 05:34:27.025223
"CYER",2025-12-01 11:00:00,2025-12-01 06:00:00,"VFR",-21,-23,84,260,14,14500,29.86,NA,"BKN  ft","METAR CYER 011100Z AUTO 26014G22KT 9SM BKN240 M21/M23 A2986 RMK SLP115",2025-12-01 11:27:04.771315,2025-12-01 06:27:04.771315
"CYAT",2025-12-01 11:00:00,2025-12-01 06:00:00,"VFR",-14,-17,78,230,9,14500,30.02,NA,"OVC  ft","METAR CYAT 011100Z AUTO 23009KT 9SM OVC071 M14/M17 A3002 RMK SLP168",2025-12-01 11:27:04.852226,2025-12-01 06:27:04.852226
"CYMO",2025-12-01 11:03:00,2025-12-01 06:03:00,"VFR",-16,-19,78,220,11,14500,30.19,NA,"OVC  ft","SPECI CYMO 011103Z AUTO 22011G16KT 9SM -SN OVC042 M16/M19 A3019 RMK SLP227",2025-12-01 11:27:04.927271,2025-12-01 06:27:04.927271
"CYPL",2025-12-01 11:20:00,2025-12-01 06:20:00,"MVFR",-13,-16,78,240,10,14500,30.04,NA,"BKN  ft; OVC  ft","SPECI CYPL 011120Z AUTO 24010G15KT 9SM -SN BKN024 OVC055 M13/M16 A3004 RMK SLP211",2025-12-01 11:27:05.002425,2025-12-01 06:27:05.002425
"CYQT",2025-12-01 11:00:00,2025-12-01 06:00:00,"MVFR",-9,-14,67,230,6,24100,30.23,NA,"OVC  ft","METAR CYQT 011100Z 23006KT 15SM -SN OVC030 M09/M14 A3023 RMK SC8 -SN INTMT SLP256",2025-12-01 11:27:05.094185,2025-12-01 06:27:05.094185
"CYAM",2025-12-01 11:00:00,2025-12-01 06:00:00,"VFR",-5,-8,80,240,12,24100,30.31,NA,"FEW  ft; FEW  ft; OVC  ft","METAR CYAM 011100Z 24012G20KT 15SM -SHSN DRSN FEW009 FEW012 OVC042 M05/M08 A3031 RMK CF1CU1CU7 CF TR SLP278",2025-12-01 11:27:05.175844,2025-12-01 06:27:05.175844
"CYTS",2025-12-01 11:00:00,2025-12-01 06:00:00,"MVFR",-14,-17,78,220,3,24100,30.26,NA,"OVC  ft","METAR CYTS 011100Z 22003KT 180V260 15SM -SN OVC021 M14/M17 A3026 RMK SC8 SLP275",2025-12-01 11:27:05.248551,2025-12-01 06:27:05.248551
"CYSB",2025-12-01 11:00:00,2025-12-01 06:00:00,"MVFR",-11,-17,62,270,4,24100,30.29,NA,"OVC  ft","METAR CYSB 011100Z 27004KT 15SM OVC026 M11/M17 A3029 RMK SC8 SLP288",2025-12-01 11:27:05.322182,2025-12-01 06:27:05.322182
"CYYB",2025-12-01 11:24:00,2025-12-01 06:24:00,"MVFR",-12,-15,79,280,3,14500,30.29,NA,"OVC  ft","SPECI CYYB 011124Z AUTO 28003KT 9SM -SN OVC027 M12/M15 A3029 RMK RVR MISG SLP290",2025-12-01 11:27:05.396068,2025-12-01 06:27:05.396068
"CYOW",2025-12-01 11:00:00,2025-12-01 06:00:00,"VFR",-9,-13,73,300,9,24100,30.28,NA,"SCT  ft","METAR CYOW 011100Z 30009KT 15SM SCT022 M09/M13 A3028 RMK SC3 SLP263",2025-12-01 11:27:05.47496,2025-12-01 06:27:05.47496
"CYGK",2025-12-01 11:00:00,2025-12-01 06:00:00,"VFR",-5,-10,68,300,10,24100,30.33,NA,"SCT  ft","METAR CYGK 011100Z 30010KT 15SM SCT027 M05/M10 A3033 RMK SC4 SLP278",2025-12-01 11:27:05.55573,2025-12-01 06:27:05.55573
"CYQG",2025-12-01 11:00:00,2025-12-01 06:00:00,"VFR",-8,-10,86,270,7,14500,30.45,NA,"CLR  ft","METAR CYQG 011100Z AUTO 27007KT 9SM CLR M08/M10 A3045 RMK SLP322",2025-12-01 11:27:05.631564,2025-12-01 06:27:05.631564
"CYVV",2025-12-01 11:00:00,2025-12-01 06:00:00,"VFR",-7,-11,73,320,4,19300,30.37,NA,"SCT  ft","METAR CYVV 011100Z 32004KT 290V360 12SM SCT020 M07/M11 A3037 RMK SC3 SLP300",2025-12-01 11:27:05.709288,2025-12-01 06:27:05.709288
"CYYZ",2025-12-01 11:00:00,2025-12-01 06:00:00,"VFR",-6,-12,63,340,9,24100,30.38,NA,"FEW  ft","METAR CYYZ 011100Z 34009KT 15SM FEW029 M06/M12 A3038 RMK SC1 SLP299",2025-12-01 11:27:05.831556,2025-12-01 06:27:05.831556
"CYQA",2025-12-01 11:00:00,2025-12-01 06:00:00,"VFR",-13,-15,85,350,3,14500,30.34,NA,"CLR  ft","METAR CYQA 011100Z AUTO 35003KT 9SM CLR M13/M15 A3034 RMK SLP294",2025-12-01 11:27:05.948053,2025-12-01 06:27:05.948053
"CYVR",2025-12-01 11:00:00,2025-12-01 06:00:00,"VFR",4,3,93,90,3,32200,30.32,NA,"FEW  ft; BKN  ft; OVC  ft","METAR CYVR 011100Z 09003KT 20SM -RA FEW055 BKN093 OVC120 04/03 A3032 RMK SC1AC6AC1 SLP270",2025-12-01 11:27:06.023261,2025-12-01 06:27:06.023261
"CYYJ",2025-12-01 11:00:00,2025-12-01 06:00:00,"VFR",4,4,100,230,4,24100,30.31,NA,"BKN  ft; OVC  ft","METAR CYYJ 011100Z 23004KT 15SM BKN091 OVC120 04/04 A3031 RMK AC5AC3 SLP268",2025-12-01 11:27:06.099403,2025-12-01 06:27:06.099403
"CYLW",2025-12-01 11:00:00,2025-12-01 06:00:00,"MVFR",0,-2,87,0,0,14500,30.31,NA,"OVC  ft","METAR CYLW 011100Z AUTO 00000KT 9SM OVC025 M00/M02 A3031 RMK SLP287",2025-12-01 11:27:06.177269,2025-12-01 06:27:06.177269
"CYXS",2025-12-01 11:13:00,2025-12-01 06:13:00,"LIFR",-3,-4,93,170,10,1200,30.05,NA,"FEW  ft; BKN  ft; OVC  ft","SPECI CYXS 011113Z AUTO 17010G17KT 3/4SM -SN FEW005 BKN011 OVC019 M03/M04 A3005 RMK PRESFR SLP218",2025-12-01 11:27:06.294457,2025-12-01 06:27:06.294457
"CYXT",2025-12-01 11:00:00,2025-12-01 06:00:00,"LIFR",0,0,100,0,0,3200,30.1,NA,"BKN  ft; OVC  ft","METAR CYXT 011100Z 00000KT 2SM -FZDZ BR BKN003 OVC008 M00/M00 A3010 RMK ST6SC2 SLP205",2025-12-01 11:27:06.368413,2025-12-01 06:27:06.368413
"CYQQ",2025-12-01 11:00:00,2025-12-01 06:00:00,"VFR",4,3,93,0,0,32200,30.32,NA,"FEW  ft; SCT  ft; OVC  ft","METAR CYQQ 011100Z 00000KT 20SM -RA FEW015 SCT050 OVC073 04/03 A3032 RMK SC2SC2AC4 DENSITY ALT -1621FT SLP269",2025-12-01 11:27:06.485051,2025-12-01 06:27:06.485051
"CYYC",2025-12-01 11:00:00,2025-12-01 06:00:00,"VFR",-9,-12,79,220,5,24100,29.92,NA,"FEW  ft; FEW  ft","METAR CYYC 011100Z 22005KT 15SM FEW140 FEW250 M09/M12 A2992 RMK AC1CI1 AC TR CI TR SLP199",2025-12-01 11:27:06.603109,2025-12-01 06:27:06.603109
"CYEG",2025-12-01 11:00:00,2025-12-01 06:00:00,"VFR",-10,-11,92,170,5,32200,29.9,NA,"BKN  ft; BKN  ft","METAR CYEG 011100Z 17005KT 20SM BKN061 BKN081 M10/M11 A2990 RMK SC7AC1 AC TR FROIN SLP178",2025-12-01 11:27:06.721036,2025-12-01 06:27:06.721036
"CYMM",2025-12-01 11:00:00,2025-12-01 06:00:00,"MVFR",-11,-13,85,140,5,14500,29.93,NA,"OVC  ft","METAR CYMM 011100Z AUTO 14005KT 9SM OVC011 M11/M13 A2993 RMK SLP169",2025-12-01 11:27:06.840108,2025-12-01 06:27:06.840108
"CYQF",2025-12-01 11:00:00,2025-12-01 06:00:00,"VFR",-9,-12,79,200,5,14500,29.93,NA,"OVC  ft","METAR CYQF 011100Z AUTO 20005KT 9SM OVC076 M09/M12 A2993 RMK SLP198",2025-12-01 11:27:06.913308,2025-12-01 06:27:06.913308
"CYXE",2025-12-01 11:00:00,2025-12-01 06:00:00,"VFR",-23,-25,84,290,8,24100,29.97,NA,"FEW  ft; SCT  ft","METAR CYXE 011100Z 29008KT 15SM FEW010 SCT060 M23/M25 A2997 RMK SC1SC3 SLP204",2025-12-01 11:27:06.988096,2025-12-01 06:27:06.988096
"CYQR",2025-12-01 11:00:00,2025-12-01 06:00:00,"VFR",-17,-19,85,280,8,24100,29.95,NA,"SCT  ft; BKN  ft","METAR CYQR 011100Z 28008KT 15SM SCT060 BKN250 M17/M19 A2995 RMK SC3CI3 SLP197",2025-12-01 11:27:07.062165,2025-12-01 06:27:07.062165
"CYWG",2025-12-01 11:00:00,2025-12-01 06:00:00,"VFR",-16,-19,78,210,12,20900,30.1,NA,"OVC  ft","METAR CYWG 011100Z 21012KT 13SM OVC170 M16/M19 A3010 RMK AC8 SLP217",2025-12-01 11:27:07.141007,2025-12-01 06:27:07.141007
"CYBR",2025-12-01 11:00:00,2025-12-01 06:00:00,"VFR",-18,-21,78,240,5,14500,29.99,NA,"SCT  ft","METAR CYBR 011100Z AUTO 24005KT 9SM SCT140 M18/M21 A2999 RMK SLP199",2025-12-01 11:27:07.214118,2025-12-01 06:27:07.214118
"CYUL",2025-12-01 11:00:00,2025-12-01 06:00:00,"MVFR",-3,-8,69,300,17,24100,30.18,NA,"OVC  ft","METAR CYUL 011100Z 30017G26KT 15SM OVC023 M03/M08 A3018 RMK SC8 PRESRR SLP224",2025-12-01 11:27:07.290501,2025-12-01 06:27:07.290501
"CYHU",2025-12-01 11:00:00,2025-12-01 06:00:00,"VFR",-2,-7,69,300,16,14500,30.15,NA,"OVC  ft","METAR CYHU 011100Z AUTO 30016G22KT 9SM OVC035 M02/M07 A3015 RMK SLP214",2025-12-01 11:27:07.368134,2025-12-01 06:27:07.368134
"CYQB",2025-12-01 11:00:00,2025-12-01 06:00:00,"VFR",-2,-7,69,320,8,19300,29.95,NA,"FEW  ft; FEW  ft; BKN  ft; BKN  ft","METAR CYQB 011100Z 32008G17KT 260V360 12SM FEW005 FEW015 BKN060 BKN095 BKN110 M02/M07 A2995 RMK ST1SC1SC4AC1AC1 ST TR PRESRR SLP148",2025-12-01 11:27:07.442196,2025-12-01 06:27:07.442196
"CYVO",2025-12-01 11:00:00,2025-12-01 06:00:00,"MVFR",-13,-16,78,320,9,9999,30.23,NA,"OVC  ft","METAR CYVO 011100Z 32009KT 10SM OVC025 M13/M16 A3023 RMK SC8 SLP269",2025-12-01 11:27:07.518731,2025-12-01 06:27:07.518731
"CYUY",2025-12-01 11:00:00,2025-12-01 06:00:00,"MVFR",-14,-18,72,280,10,8000,30.27,NA,"OVC  ft","METAR CYUY 011100Z 28010G18KT 5SM -SHSN OVC020 M14/M18 A3027 RMK SC8 CVCTV CLD EMBD SLP279",2025-12-01 11:27:07.592793,2025-12-01 06:27:07.592793
"CYZV",2025-12-01 11:00:00,2025-12-01 06:00:00,"VFR",-2,-3,93,290,6,24100,29.74,NA,"FEW  ft; BKN  ft; BKN  ft","METAR CYZV 011100Z 29006KT 15SM -SN FEW008 BKN037 BKN110 M02/M03 A2974 RMK SF2SC3AC2 SLP075",2025-12-01 11:27:07.706334,2025-12-01 06:27:07.706334
"CYBC",2025-12-01 11:00:00,2025-12-01 06:00:00,"VFR",-2,-4,86,310,8,14500,29.81,NA,"OVC  ft","METAR CYBC 011100Z AUTO 31008KT 9SM -SN OVC032 M02/M04 A2981 RMK SLP099",2025-12-01 11:27:07.783617,2025-12-01 06:27:07.783617
"CYRJ",2025-12-01 11:00:00,2025-12-01 06:00:00,"MVFR",-10,-14,73,310,17,32200,30.07,NA,"BKN  ft","METAR CYRJ 011100Z 31017G25KT 20SM -SN BKN022 M10/M14 A3007 RMK SC7 PRESRR SLP199",2025-12-01 11:27:07.858039,2025-12-01 06:27:07.858039
"CYHZ",2025-12-01 11:00:00,2025-12-01 06:00:00,"IFR",9,9,100,200,19,4800,29.85,NA,"OVC  ft","METAR CYHZ 011100Z 20019G30KT 3SM -RA BR OVC006 09/09 A2985 RMK NS8 SLP116",2025-12-01 11:27:07.97159,2025-12-01 06:27:07.97159
"CYYG",2025-12-01 11:00:00,2025-12-01 06:00:00,"MVFR",8,7,93,170,19,24100,29.75,NA,"BKN  ft; OVC  ft","METAR CYYG 011100Z 17019G25KT 15SM -RA BKN017 OVC044 08/07 A2975 RMK SC5SC3 PRESFR SLP078",2025-12-01 11:27:08.086168,2025-12-01 06:27:08.086168
"CYQM",2025-12-01 11:20:00,2025-12-01 06:20:00,"MVFR",4,3,93,290,8,9999,29.81,NA,"FEW  ft; FEW  ft; BKN  ft; OVC  ft","SPECI CYQM 011120Z 29008KT 10SM -RA FEW005 FEW015 BKN030 OVC045 04/03 A2981 RMK SF1SC2SC4SC1 SLP099",2025-12-01 11:27:08.162343,2025-12-01 06:27:08.162343
"CYFC",2025-12-01 11:00:00,2025-12-01 06:00:00,"VFR",1,1,100,270,3,14500,29.85,NA,"BKN  ft; OVC  ft","METAR CYFC 011100Z AUTO 27003KT 9SM BKN060 OVC078 01/01 A2985 RMK SLP111",2025-12-01 11:27:08.234559,2025-12-01 06:27:08.234559
"CYYT",2025-12-01 11:00:00,2025-12-01 06:00:00,"VFR",-1,-3,86,190,11,24100,30.34,NA,"FEW  ft; BKN  ft; OVC  ft","METAR CYYT 011100Z 19011KT 15SM FEW020 BKN038 OVC150 M01/M03 A3034 RMK SC1SC7AC1 SC TR SLP284",2025-12-01 11:27:08.308676,2025-12-01 06:27:08.308676
"CYQY",2025-12-01 11:13:00,2025-12-01 06:13:00,"IFR",7,7,100,180,17,9999,29.97,NA,"OVC  ft","SPECI CYQY 011113Z 18017G27KT 10SM OVC008 07/07 A2997 RMK NS8 SLP154",2025-12-01 11:27:08.429574,2025-12-01 06:27:08.429574
"CYXY",2025-12-01 11:00:00,2025-12-01 06:00:00,"VFR",-2,-3,93,160,17,24100,29.48,NA,"OVC  ft","METAR CYXY 011100Z 16017G23KT 15SM DRSN OVC180 M02/M03 A2948 RMK AC8 SLP026",2025-12-01 11:27:08.505333,2025-12-01 06:27:08.505333
"CYZF",2025-12-01 11:00:00,2025-12-01 06:00:00,"MVFR",-13,-14,92,40,3,24100,29.89,NA,"OVC  ft","METAR CYZF 011100Z 04003KT 15SM -SN OVC015 M13/M14 A2989 RMK SC8 SLP145",2025-12-01 11:27:08.618139,2025-12-01 06:27:08.618139
"CYFB",2025-12-01 11:00:00,2025-12-01 06:00:00,"VFR",-6,-12,63,170,9,24100,29.44,NA,"BKN  ft; BKN  ft","METAR CYFB 011100Z 17009KT 15SM -SN BKN040 BKN100 M06/M12 A2944 RMK SC5AC2 SLP974",2025-12-01 11:27:08.692093,2025-12-01 06:27:08.692093
"CYRT",2025-12-01 11:00:00,2025-12-01 06:00:00,"VFR",-31,-34,75,340,19,24100,29.75,NA,"SKC  ft","METAR CYRT 011100Z 34019KT 15SM SKC M31/M34 A2975 RMK SLP081",2025-12-01 11:27:08.805005,2025-12-01 06:27:08.805005
"CYBK",2025-12-01 11:00:00,2025-12-01 06:00:00,"VFR",-29,-33,68,310,15,24100,29.85,NA,"SKC  ft","METAR CYBK 011100Z 31015KT 15SM IC DRSN SKC M29/M33 A2985 RMK SLP112",2025-12-01 11:27:08.919229,2025-12-01 06:27:08.919229
"CYRB",2025-12-01 11:00:00,2025-12-01 06:00:00,"VFR",-23,-27,70,30,26,24100,29.67,NA,"FEW  ft","METAR CYRB 011100Z 03026KT 15SM IC DRSN FEW067 M23/M27 A2967 RMK AC2 SLP060",2025-12-01 11:27:09.004092,2025-12-01 06:27:09.004092
"CYCO",2025-12-01 11:00:00,2025-12-01 06:00:00,"IFR",-27,-30,76,230,14,9999,30.06,NA,"BKN  ft; OVC  ft","METAR CYCO 011100Z 23014KT 10SM BKN006 OVC013 M27/M30 A3006 RMK ST7ST1 SLP184",2025-12-01 11:27:09.078144,2025-12-01 06:27:09.078144
"CYER",2025-12-01 12:00:00,2025-12-01 07:00:00,"VFR",-21,-23,84,260,11,14500,29.86,NA,"SCT  ft","METAR CYER 011200Z AUTO 26011G20KT 9SM SCT240 M21/M23 A2986 RMK SLP115",2025-12-01 12:59:47.540634,2025-12-01 07:59:47.540634
"CYAT",2025-12-01 12:53:00,2025-12-01 07:53:00,"VFR",-13,-16,78,230,10,14500,30.01,NA,"FEW  ft; OVC  ft","SPECI CYAT 011253Z AUTO 23010G17KT 9SM FEW055 OVC075 M13/M16 A3001 RMK SLP165",2025-12-01 12:59:47.607407,2025-12-01 07:59:47.607407
"CYMO",2025-12-01 12:00:00,2025-12-01 07:00:00,"VFR",-15,-18,78,190,10,14500,30.18,NA,"OVC  ft","METAR CYMO 011200Z AUTO 19010KT 9SM -SN OVC040 M15/M18 A3018 RMK SLP223",2025-12-01 12:59:47.664207,2025-12-01 07:59:47.664207
"CYPL",2025-12-01 12:00:00,2025-12-01 07:00:00,"MVFR",-13,-16,78,240,8,14500,30.03,NA,"BKN  ft; OVC  ft","METAR CYPL 011200Z AUTO 24008KT 9SM -SN BKN024 OVC055 M13/M16 A3003 RMK SLP209",2025-12-01 12:59:47.763975,2025-12-01 07:59:47.763975
"CYQT",2025-12-01 12:00:00,2025-12-01 07:00:00,"MVFR",-9,-14,67,250,9,24100,30.22,NA,"OVC  ft","METAR CYQT 011200Z 25009KT 15SM -SN OVC030 M09/M14 A3022 RMK SC8 SLP250",2025-12-01 12:59:47.827207,2025-12-01 07:59:47.827207
"CYAM",2025-12-01 12:00:00,2025-12-01 07:00:00,"VFR",-6,-10,74,240,9,24100,30.31,NA,"FEW  ft; SCT  ft; BKN  ft","METAR CYAM 011200Z CCA 24009G15KT 15SM DRSN FEW009 SCT039 BKN048 M06/M10 A3031 RMK CF1CU3SC3 CF TR OCNL -SHSN SLP280",2025-12-01 12:59:47.885602,2025-12-01 07:59:47.885602
"CYTS",2025-12-01 12:00:00,2025-12-01 07:00:00,"MVFR",-14,-17,78,200,3,24100,30.26,NA,"OVC  ft","METAR CYTS 011200Z 20003KT 15SM -SN OVC022 M14/M17 A3026 RMK SC8 SLP276",2025-12-01 12:59:47.943442,2025-12-01 07:59:47.943442
"CYSB",2025-12-01 12:00:00,2025-12-01 07:00:00,"MVFR",-12,-17,67,260,4,24100,30.32,NA,"OVC  ft","METAR CYSB 011200Z 26004KT 220V280 15SM OVC026 M12/M17 A3032 RMK SC8 SLP296",2025-12-01 12:59:48.001287,2025-12-01 07:59:48.001287
"CYYB",2025-12-01 12:00:00,2025-12-01 07:00:00,"MVFR",-12,-15,79,260,3,24100,30.3,NA,"OVC  ft","METAR CYYB 011200Z 26003KT 15SM -SN OVC027 M12/M15 A3030 RMK SC8 PCPN VRY LGT SLP291",2025-12-01 12:59:48.061224,2025-12-01 07:59:48.061224
"CYOW",2025-12-01 12:30:00,2025-12-01 07:30:00,"MVFR",-9,-13,73,320,14,9999,30.35,NA,"BKN  ft","SPECI CYOW 011230Z 32014KT 10SM -SN BKN027 M09/M13 A3035 RMK SC6 SLP286",2025-12-01 12:59:48.119419,2025-12-01 07:59:48.119419
"CYGK",2025-12-01 12:00:00,2025-12-01 07:00:00,"VFR",-6,-12,63,330,9,24100,30.37,NA,"FEW  ft","METAR CYGK 011200Z 33009G15KT 15SM FEW025 M06/M12 A3037 RMK SC2 SLP293",2025-12-01 12:59:48.182709,2025-12-01 07:59:48.182709
"CYQG",2025-12-01 12:00:00,2025-12-01 07:00:00,"VFR",-6,-9,80,310,4,14500,30.43,NA,"CLR  ft","METAR CYQG 011200Z AUTO 31004KT 9SM CLR M06/M09 A3043 RMK SLP318",2025-12-01 12:59:48.240968,2025-12-01 07:59:48.240968
"CYVV",2025-12-01 12:00:00,2025-12-01 07:00:00,"VFR",-7,-11,73,50,3,19300,30.38,NA,"FEW  ft; FEW  ft","METAR CYVV 011200Z CCA 05003KT 310V070 12SM FEW020 FEW044 M07/M11 A3038 RMK SC1SC1 SLP302",2025-12-01 12:59:48.298506,2025-12-01 07:59:48.298506
"CYYZ",2025-12-01 12:00:00,2025-12-01 07:00:00,"VFR",-6,-11,68,360,8,24100,30.4,NA,"FEW  ft; FEW  ft","METAR CYYZ 011200Z 36008KT 15SM FEW018 FEW028 M06/M11 A3040 RMK CF1SC1 CF TR SLP305",2025-12-01 12:59:48.357849,2025-12-01 07:59:48.357849
"CYQA",2025-12-01 12:00:00,2025-12-01 07:00:00,"VFR",-15,-16,92,0,0,14500,30.36,NA,"CLR  ft","METAR CYQA 011200Z AUTO 00000KT 9SM CLR M15/M16 A3036 RMK SLP305",2025-12-01 12:59:48.420366,2025-12-01 07:59:48.420366
"CYVR",2025-12-01 12:00:00,2025-12-01 07:00:00,"VFR",4,4,100,110,2,32200,30.31,NA,"OVC  ft","METAR CYVR 011200Z 11002KT 20SM -RA OVC078 04/04 A3031 RMK AC8 SLP266",2025-12-01 12:59:48.48466,2025-12-01 07:59:48.48466
"CYYJ",2025-12-01 12:00:00,2025-12-01 07:00:00,"VFR",4,4,100,210,4,24100,30.3,NA,"FEW  ft; OVC  ft","METAR CYYJ 011200Z 21004KT 15SM FEW018 OVC081 04/04 A3030 RMK SC1AC7 PRESFR SLP263",2025-12-01 12:59:48.583561,2025-12-01 07:59:48.583561
"CYLW",2025-12-01 12:00:00,2025-12-01 07:00:00,"MVFR",0,-2,87,0,0,14500,30.3,NA,"OVC  ft","METAR CYLW 011200Z AUTO 00000KT 9SM OVC027 M00/M02 A3030 RMK SLP282",2025-12-01 12:59:48.64837,2025-12-01 07:59:48.64837
"CYXS",2025-12-01 12:54:00,2025-12-01 07:54:00,"IFR",-3,-3,100,180,10,3200,30.03,NA,"FEW  ft; SCT  ft; OVC  ft","SPECI CYXS 011254Z AUTO 18010G15KT 2SM -SN FEW008 SCT012 OVC020 M03/M03 A3003 RMK SLP210",2025-12-01 12:59:48.709922,2025-12-01 07:59:48.709922
"CYXT",2025-12-01 12:13:00,2025-12-01 07:13:00,"LIFR",1,1,100,180,4,3200,30.06,NA,"BKN  ft; OVC  ft","SPECI CYXT 011213Z 18004KT 2SM -DZ BR BKN002 OVC005 01/01 A3006 RMK ST5SC3 SLP193",2025-12-01 12:59:48.769701,2025-12-01 07:59:48.769701
"CYQQ",2025-12-01 12:31:00,2025-12-01 07:31:00,"MVFR",4,3,93,270,2,24100,30.3,NA,"BKN  ft; OVC  ft","SPECI CYQQ 011231Z 27002KT 15SM -RA BKN013 OVC060 04/03 A3030 RMK SC5SC3 DENSITY ALT -1558FT CIG VRB 9-17 SLP263",2025-12-01 12:59:48.834532,2025-12-01 07:59:48.834532
"CYYC",2025-12-01 12:00:00,2025-12-01 07:00:00,"VFR",-8,-12,73,210,5,24100,29.89,NA,"SCT  ft","METAR CYYC 011200Z 21005KT 15SM SCT094 M08/M12 A2989 RMK AC4 SLP189",2025-12-01 12:59:48.894281,2025-12-01 07:59:48.894281
"CYEG",2025-12-01 12:00:00,2025-12-01 07:00:00,"VFR",-8,-9,93,180,5,32200,29.86,NA,"OVC  ft","METAR CYEG 011200Z 18005KT 20SM OVC060 M08/M09 A2986 RMK SC8 FROIN SLP162",2025-12-01 12:59:48.957469,2025-12-01 07:59:48.957469
"CYMM",2025-12-01 12:52:00,2025-12-01 07:52:00,"MVFR",-12,-14,85,130,6,14500,29.85,NA,"BKN  ft; OVC  ft","SPECI CYMM 011252Z AUTO 13006KT 9SM BKN016 OVC120 M12/M14 A2985 RMK SLP143",2025-12-01 12:59:49.022156,2025-12-01 07:59:49.022156
"CYQF",2025-12-01 12:00:00,2025-12-01 07:00:00,"VFR",-8,-11,79,190,5,14500,29.89,NA,"OVC  ft","METAR CYQF 011200Z AUTO 19005KT 9SM OVC081 M08/M11 A2989 RMK SLP184",2025-12-01 12:59:49.080193,2025-12-01 07:59:49.080193
"CYXE",2025-12-01 12:15:00,2025-12-01 07:15:00,"MVFR",-22,-24,84,340,3,24100,29.97,NA,"FEW  ft; OVC  ft","SPECI CYXE 011215Z 34003KT 15SM FEW004 OVC010 M22/M24 A2997 RMK SF2SC6 SLP203",2025-12-01 12:59:49.139265,2025-12-01 07:59:49.139265
"CYQR",2025-12-01 12:00:00,2025-12-01 07:00:00,"VFR",-19,-21,84,270,8,24100,29.94,NA,"FEW  ft","METAR CYQR 011200Z 27008KT 15SM FEW250 M19/M21 A2994 RMK CI2 SLP198",2025-12-01 12:59:49.197951,2025-12-01 07:59:49.197951
"CYWG",2025-12-01 12:00:00,2025-12-01 07:00:00,"VFR",-16,-19,78,200,11,20900,30.06,NA,"OVC  ft","METAR CYWG 011200Z 20011KT 13SM OVC150 M16/M19 A3006 RMK AC8 SLP205",2025-12-01 12:59:49.274476,2025-12-01 07:59:49.274476
"CYBR",2025-12-01 12:50:00,2025-12-01 07:50:00,"VFR",-19,-21,84,250,7,14500,29.96,NA,"BKN  ft; BKN  ft","SPECI CYBR 011250Z AUTO 25007KT 9SM BKN120 BKN170 M19/M21 A2996 RMK ICE MISG SLP192",2025-12-01 12:59:49.334732,2025-12-01 07:59:49.334732
"CYUL",2025-12-01 12:00:00,2025-12-01 07:00:00,"VFR",-5,-10,68,310,8,24100,30.24,NA,"SCT  ft","METAR CYUL 011200Z 31008G16KT 15SM SCT024 M05/M10 A3024 RMK SC4 SLP245",2025-12-01 12:59:49.392977,2025-12-01 07:59:49.392977
"CYHU",2025-12-01 12:00:00,2025-12-01 07:00:00,"MVFR",-3,-8,69,280,17,14500,30.22,NA,"BKN  ft; OVC  ft","METAR CYHU 011200Z AUTO 28017G23KT 9SM BKN026 OVC032 M03/M08 A3022 RMK SLP238",2025-12-01 12:59:49.49154,2025-12-01 07:59:49.49154
"CYQB",2025-12-01 12:00:00,2025-12-01 07:00:00,"VFR",-3,-9,64,300,5,40200,30.05,NA,"FEW  ft; FEW  ft; SCT  ft; SCT  ft","METAR CYQB 011200Z 30005KT 250V340 25SM FEW008 FEW025 SCT084 SCT100 BKN250 M03/M09 A3005 RMK SF1SC2AC1AC1CI1 SF TR PRESRR SLP181",2025-12-01 12:59:49.554775,2025-12-01 07:59:49.554775
"CYVO",2025-12-01 12:00:00,2025-12-01 07:00:00,"VFR",-14,-17,78,320,5,9999,30.25,NA,"SCT  ft; BKN  ft","METAR CYVO 011200Z 32005KT 10SM SCT020 BKN240 M14/M17 A3025 RMK SC4CI1 SLP278",2025-12-01 12:59:49.613975,2025-12-01 07:59:49.613975
"CYUY",2025-12-01 12:51:00,2025-12-01 07:51:00,"MVFR",-16,-19,78,260,5,24100,30.29,NA,"BKN  ft","SPECI CYUY 011251Z 26005KT 15SM BKN025 M16/M19 A3029 RMK SC6 SLP287",2025-12-01 12:59:49.677662,2025-12-01 07:59:49.677662
"CYZV",2025-12-01 12:00:00,2025-12-01 07:00:00,"VFR",-3,-4,93,290,7,48300,29.74,NA,"FEW  ft; BKN  ft; BKN  ft","METAR CYZV 011200Z 29007KT 30SM FEW036 BKN110 BKN230 M03/M04 A2974 RMK SC1AC6CI1 SC TR SLP076",2025-12-01 12:59:49.738573,2025-12-01 07:59:49.738573
"CYBC",2025-12-01 12:00:00,2025-12-01 07:00:00,"VFR",-3,-5,86,320,9,14500,29.84,NA,"BKN  ft; OVC  ft","METAR CYBC 011200Z AUTO 32009G15KT 290V350 9SM BKN055 OVC072 M03/M05 A2984 RMK SLP110",2025-12-01 12:59:49.796193,2025-12-01 07:59:49.796193
"CYRJ",2025-12-01 12:00:00,2025-12-01 07:00:00,"MVFR",-11,-16,67,300,13,40200,30.12,NA,"BKN  ft","METAR CYRJ 011200Z 30013KT 25SM BKN020 M11/M16 A3012 RMK SC5 PRESRR SLP216",2025-12-01 12:59:49.854897,2025-12-01 07:59:49.854897
"CYHZ",2025-12-01 12:00:00,2025-12-01 07:00:00,"IFR",10,10,100,200,14,4800,29.83,NA,"OVC  ft","METAR CYHZ 011200Z 20014G26KT 3SM -RA BR OVC006 10/10 A2983 RMK NS8 CIG RAG SLP106",2025-12-01 12:59:49.914094,2025-12-01 07:59:49.914094
"CYYG",2025-12-01 12:00:00,2025-12-01 07:00:00,"IFR",6,5,93,300,7,6400,29.78,NA,"OVC  ft","METAR CYYG 011200Z 30007KT 4SM -RA BR OVC007 06/05 A2978 RMK SF8 SLP090",2025-12-01 12:59:50.010204,2025-12-01 07:59:50.010204
"CYQM",2025-12-01 12:14:00,2025-12-01 07:14:00,"VFR",2,1,93,260,7,24100,29.82,NA,"FEW  ft; FEW  ft; FEW  ft; SCT  ft","SPECI CYQM 011214Z 26007KT 15SM FEW005 FEW010 FEW045 SCT220 BKN250 02/01 A2982 RMK SF1SC1SC1CI3CI1 SF TR SC TR SLP104",2025-12-01 12:59:50.112453,2025-12-01 07:59:50.112453
"CYFC",2025-12-01 12:00:00,2025-12-01 07:00:00,"VFR",1,1,100,0,0,14500,29.86,NA,"SCT  ft; OVC  ft","METAR CYFC 011200Z AUTO 00000KT 9SM SCT048 OVC066 01/01 A2986 RMK SLP115",2025-12-01 12:59:50.170474,2025-12-01 07:59:50.170474
"CYYT",2025-12-01 12:00:00,2025-12-01 07:00:00,"VFR",0,-2,87,180,12,24100,30.31,NA,"FEW  ft; SCT  ft; OVC  ft","METAR CYYT 011200Z 18012G17KT 15SM FEW020 SCT034 OVC090 00/M02 A3031 RMK SC1SC3AC5 SC TR SLP272",2025-12-01 12:59:50.229255,2025-12-01 07:59:50.229255
"CYQY",2025-12-01 12:39:00,2025-12-01 07:39:00,"IFR",8,8,100,180,21,11300,29.92,NA,"OVC  ft","SPECI CYQY 011239Z CCA 18021G32KT 7SM -RA OVC008 08/08 A2992 RMK SC8 PRESFR SLP135",2025-12-01 12:59:50.292808,2025-12-01 07:59:50.292808
"CYXY",2025-12-01 12:00:00,2025-12-01 07:00:00,"VFR",0,-2,87,170,14,24100,29.48,NA,"FEW  ft; FEW  ft; OVC  ft","METAR CYXY 011200Z CCA 17014G19KT 15SM DRSN FEW008 FEW061 OVC160 M00/M02 A2948 RMK ST1SC2AC6 ST TR SLP024",2025-12-01 12:59:50.354191,2025-12-01 07:59:50.354191
"CYZF",2025-12-01 12:00:00,2025-12-01 07:00:00,"MVFR",-13,-14,92,80,5,24100,29.87,NA,"OVC  ft","METAR CYZF 011200Z 08005KT 15SM -SN OVC017 M13/M14 A2987 RMK SC8 SLP138",2025-12-01 12:59:50.414497,2025-12-01 07:59:50.414497
"CYFB",2025-12-01 12:34:00,2025-12-01 07:34:00,"VFR",-6,-12,63,170,14,24100,29.42,NA,"BKN  ft; BKN  ft","SPECI CYFB 011234Z CCA 17014G20KT 15SM -SN DRSN BKN033 BKN051 M06/M12 A2942 RMK SC5SC2 SLP968",2025-12-01 12:59:50.478331,2025-12-01 07:59:50.478331
"CYRT",2025-12-01 12:00:00,2025-12-01 07:00:00,"VFR",-31,-34,75,330,17,24100,29.75,NA,"SKC  ft","METAR CYRT 011200Z 33017KT 15SM SKC M31/M34 A2975 RMK SLP081",2025-12-01 12:59:50.53569,2025-12-01 07:59:50.53569
"CYBK",2025-12-01 12:00:00,2025-12-01 07:00:00,"VFR",-30,-33,75,330,9,24100,29.84,NA,"SKC  ft","METAR CYBK 011200Z 33009KT 300V010 15SM IC DRSN SKC M30/M33 A2984 RMK SLP111",2025-12-01 12:59:50.592481,2025-12-01 07:59:50.592481
"CYRB",2025-12-01 12:00:00,2025-12-01 07:00:00,"VFR",-22,-26,70,30,29,24100,29.67,NA,"SCT  ft","METAR CYRB 011200Z 03029KT 15SM IC DRSN SCT096 M22/M26 A2967 RMK AC3 SLP061",2025-12-01 12:59:50.658448,2025-12-01 07:59:50.658448
"CYCO",2025-12-01 12:00:00,2025-12-01 07:00:00,"MVFR",-26,-29,76,230,13,24100,30.06,NA,"FEW  ft; OVC  ft","METAR CYCO 011200Z 23013KT 15SM FEW007 OVC013 M26/M29 A3006 RMK SF2ST6 SLP184",2025-12-01 12:59:50.715514,2025-12-01 07:59:50.715514
"CYER",2025-12-01 13:00:00,2025-12-01 08:00:00,"VFR",-22,-24,84,260,11,14500,29.86,NA,"SCT  ft","METAR CYER 011300Z AUTO 26011G19KT 9SM SCT240 M22/M24 A2986 RMK SLP116",2025-12-01 13:41:26.63662,2025-12-01 08:41:26.63662
"CYAT",2025-12-01 13:16:00,2025-12-01 08:16:00,"VFR",-13,-16,78,230,10,14500,30.01,NA,"OVC  ft","SPECI CYAT 011316Z AUTO 23010G19KT 9SM OVC076 M13/M16 A3001 RMK SLP164",2025-12-01 13:41:26.772146,2025-12-01 08:41:26.772146
"CYMO",2025-12-01 13:14:00,2025-12-01 08:14:00,"VFR",-15,-17,85,210,10,11300,30.16,NA,"OVC  ft","SPECI CYMO 011314Z AUTO 21010KT 7SM -SN OVC040 M15/M17 A3016 RMK SLP216",2025-12-01 13:41:26.900138,2025-12-01 08:41:26.900138
"CYPL",2025-12-01 13:00:00,2025-12-01 08:00:00,"MVFR",-13,-16,78,230,8,14500,30.02,NA,"SCT  ft; OVC  ft","METAR CYPL 011300Z AUTO 23008KT 9SM -SN SCT020 OVC025 M13/M16 A3002 RMK SLP206",2025-12-01 13:41:27.03256,2025-12-01 08:41:27.03256
"CYQT",2025-12-01 13:00:00,2025-12-01 08:00:00,"VFR",-9,-14,67,220,6,24100,30.2,NA,"OVC  ft","METAR CYQT 011300Z 22006KT 15SM -SN OVC031 M09/M14 A3020 RMK SC8 -SN INTMT SLP244",2025-12-01 13:41:27.125295,2025-12-01 08:41:27.125295
"CYAM",2025-12-01 13:00:00,2025-12-01 08:00:00,"VFR",-6,-10,74,240,13,24100,30.31,NA,"FEW  ft; SCT  ft; BKN  ft","METAR CYAM 011300Z 24013G18KT 15SM DRSN FEW009 SCT039 BKN046 M06/M10 A3031 RMK CF1CU3SC2 OCNL -SHSN SLP278",2025-12-01 13:41:27.252906,2025-12-01 08:41:27.252906
"CYTS",2025-12-01 13:00:00,2025-12-01 08:00:00,"MVFR",-14,-16,85,180,4,24100,30.25,NA,"OVC  ft","METAR CYTS 011300Z 18004KT 15SM -SN OVC027 M14/M16 A3025 RMK SC8 SLP272",2025-12-01 13:41:27.342028,2025-12-01 08:41:27.342028
"CYSB",2025-12-01 13:00:00,2025-12-01 08:00:00,"VFR",-13,-17,72,0,0,32200,30.31,NA,"BKN  ft; BKN  ft","METAR CYSB 011300Z 00000KT 20SM BKN031 BKN110 M13/M17 A3031 RMK SC5AC1 SLP295",2025-12-01 13:41:27.429034,2025-12-01 08:41:27.429034
"CYYB",2025-12-01 13:00:00,2025-12-01 08:00:00,"MVFR",-12,-16,72,270,5,48300,30.31,NA,"BKN  ft","METAR CYYB 011300Z 27005KT 220V290 30SM BKN027 M12/M16 A3031 RMK SC7 SLP294",2025-12-01 13:41:27.516309,2025-12-01 08:41:27.516309
"CYOW",2025-12-01 13:21:00,2025-12-01 08:21:00,"MVFR",-10,-14,73,330,11,24100,30.37,NA,"BKN  ft","SPECI CYOW 011321Z 33011G17KT 15SM BKN021 M10/M14 A3037 RMK SC5 SLP294",2025-12-01 13:41:27.645393,2025-12-01 08:41:27.645393
"CYGK",2025-12-01 13:00:00,2025-12-01 08:00:00,"VFR",-7,-12,68,320,10,24100,30.4,NA,"FEW  ft","METAR CYGK 011300Z 32010KT 15SM FEW025 M07/M12 A3040 RMK SC2 SLP303",2025-12-01 13:41:27.735189,2025-12-01 08:41:27.735189
"CYQG",2025-12-01 13:00:00,2025-12-01 08:00:00,"VFR",-9,-11,86,0,0,14500,30.45,NA,"BKN  ft","METAR CYQG 011300Z AUTO 00000KT 9SM BKN230 M09/M11 A3045 RMK SLP325",2025-12-01 13:41:27.830131,2025-12-01 08:41:27.830131
"CYVV",2025-12-01 13:00:00,2025-12-01 08:00:00,"VFR",-10,-11,92,120,3,24100,30.38,NA,"BKN  ft","METAR CYVV 011300Z 12003KT 100V190 15SM BKN042 M10/M11 A3038 RMK SC7 SLP305",2025-12-01 13:41:27.957844,2025-12-01 08:41:27.957844
"CYYZ",2025-12-01 13:00:00,2025-12-01 08:00:00,"VFR",-7,-10,79,20,7,24100,30.4,NA,"FEW  ft","METAR CYYZ 011300Z 02007KT 15SM FEW030 M07/M10 A3040 RMK SC1 SLP306",2025-12-01 13:41:28.086653,2025-12-01 08:41:28.086653
"CYQA",2025-12-01 13:00:00,2025-12-01 08:00:00,"VFR",-16,-17,92,0,0,14500,30.38,NA,"CLR  ft","METAR CYQA 011300Z AUTO 00000KT 9SM CLR M16/M17 A3038 RMK SLP310",2025-12-01 13:41:28.182165,2025-12-01 08:41:28.182165
"CYVR",2025-12-01 13:00:00,2025-12-01 08:00:00,"VFR",4,4,100,110,2,32200,30.3,NA,"OVC  ft","METAR CYVR 011300Z 11002KT 20SM -RA OVC074 04/04 A3030 RMK AC8 SLP264",2025-12-01 13:41:28.270528,2025-12-01 08:41:28.270528
"CYYJ",2025-12-01 13:00:00,2025-12-01 08:00:00,"VFR",4,4,100,230,4,24100,30.29,NA,"FEW  ft; OVC  ft","METAR CYYJ 011300Z 23004KT 15SM -RA FEW020 OVC076 04/04 A3029 RMK SC1AC7 SLP261",2025-12-01 13:41:28.398455,2025-12-01 08:41:28.398455
"CYLW",2025-12-01 13:00:00,2025-12-01 08:00:00,"MVFR",-1,-2,93,0,0,14500,30.29,NA,"OVC  ft","METAR CYLW 011300Z AUTO 00000KT 9SM OVC027 M01/M02 A3029 RMK SLP278",2025-12-01 13:41:28.531982,2025-12-01 08:41:28.531982
"CYXS",2025-12-01 13:32:00,2025-12-01 08:32:00,"IFR",-3,-3,100,180,11,3200,30.02,NA,"FEW  ft; OVC  ft","SPECI CYXS 011332Z AUTO 18011G16KT 2SM -SN FEW010 OVC022 M03/M03 A3002 RMK SLP208",2025-12-01 13:41:28.660584,2025-12-01 08:41:28.660584
"CYXT",2025-12-01 13:21:00,2025-12-01 08:21:00,"LIFR",0,0,100,150,2,1200,30.06,NA,"OVC  ft","SPECI CYXT 011321Z 15002KT 3/4SM -DZ BR OVC002 00/00 A3006 RMK ST8 SLP192",2025-12-01 13:41:28.789176,2025-12-01 08:41:28.789176
"CYQQ",2025-12-01 13:00:00,2025-12-01 08:00:00,"MVFR",4,3,93,0,0,24100,30.3,NA,"SCT  ft; BKN  ft; OVC  ft","METAR CYQQ 011300Z 00000KT 15SM -RA SCT012 BKN020 OVC070 04/03 A3030 RMK SC4SC3AC1 DENSITY ALT -1558FT SLP262",2025-12-01 13:41:28.879272,2025-12-01 08:41:28.879272
"CYYC",2025-12-01 13:00:00,2025-12-01 08:00:00,"VFR",-7,-11,73,190,2,24100,29.86,NA,"FEW  ft","METAR CYYC 011300Z 19002KT 15SM FEW085 M07/M11 A2986 RMK AC2 SLP179",2025-12-01 13:41:29.007648,2025-12-01 08:41:29.007648
"CYEG",2025-12-01 13:00:00,2025-12-01 08:00:00,"VFR",-7,-9,86,140,4,32200,29.84,NA,"OVC  ft","METAR CYEG 011300Z 14004KT 20SM OVC058 M07/M09 A2984 RMK SC8 SLP152",2025-12-01 13:41:29.135398,2025-12-01 08:41:29.135398
"CYMM",2025-12-01 13:36:00,2025-12-01 08:36:00,"VFR",-12,-14,85,120,5,14500,29.83,NA,"SCT  ft; BKN  ft; BKN  ft; OVC  ft","SPECI CYMM 011336Z AUTO 12005KT 9SM SCT018 BKN076 BKN100 OVC120 M12/M14 A2983 RMK SLP137",2025-12-01 13:41:29.226934,2025-12-01 08:41:29.226934
"CYQF",2025-12-01 13:00:00,2025-12-01 08:00:00,"VFR",-8,-11,79,210,4,14500,29.87,NA,"OVC  ft","METAR CYQF 011300Z AUTO 21004KT 9SM OVC071 M08/M11 A2987 RMK SLP179",2025-12-01 13:41:29.317133,2025-12-01 08:41:29.317133
"CYXE",2025-12-01 13:00:00,2025-12-01 08:00:00,"IFR",-23,-26,77,250,4,24100,29.97,NA,"OVC  ft","METAR CYXE 011300Z 25004KT 15SM OVC007 M23/M26 A2997 RMK SC8 SLP204",2025-12-01 13:41:29.446153,2025-12-01 08:41:29.446153
"CYQR",2025-12-01 13:00:00,2025-12-01 08:00:00,"VFR",-19,-21,84,280,8,24100,29.94,NA,"FEW  ft","METAR CYQR 011300Z 28008KT 15SM FEW230 M19/M21 A2994 RMK CI1 SLP197",2025-12-01 13:41:29.5748,2025-12-01 08:41:29.5748
"CYWG",2025-12-01 13:00:00,2025-12-01 08:00:00,"VFR",-16,-19,78,190,10,22500,30.05,NA,"SCT  ft","METAR CYWG 011300Z 19010KT 14SM SCT130 M16/M19 A3005 RMK AC3 SLP200",2025-12-01 13:41:29.666909,2025-12-01 08:41:29.666909
"CYBR",2025-12-01 13:00:00,2025-12-01 08:00:00,"VFR",-18,-21,78,260,7,9999,29.95,NA,"BKN  ft; BKN  ft","METAR CYBR 011300Z 26007KT 10SM BKN120 BKN170 M18/M21 A2995 RMK AC5AC2 SLP188",2025-12-01 13:41:29.760617,2025-12-01 08:41:29.760617
"CYUL",2025-12-01 13:00:00,2025-12-01 08:00:00,"VFR",-6,-11,68,300,13,24100,30.3,NA,"FEW  ft","METAR CYUL 011300Z 30013G20KT 15SM FEW025 M06/M11 A3030 RMK SC1 SLP265",2025-12-01 13:41:29.850007,2025-12-01 08:41:29.850007
"CYHU",2025-12-01 13:00:00,2025-12-01 08:00:00,"VFR",-5,-10,68,290,11,14500,30.28,NA,"BKN  ft","METAR CYHU 011300Z AUTO 29011G19KT 9SM BKN032 M05/M10 A3028 RMK SLP257",2025-12-01 13:41:29.93866,2025-12-01 08:41:29.93866
"CYQB",2025-12-01 13:00:00,2025-12-01 08:00:00,"VFR",-4,-9,69,330,4,40200,30.11,NA,"FEW  ft; FEW  ft; FEW  ft","METAR CYQB 011300Z 33004KT 280V010 25SM FEW012 FEW027 FEW110 M04/M09 A3011 RMK SF1SC2AC1 SF TR AC TR SLP204",2025-12-01 13:41:30.06727,2025-12-01 08:41:30.06727
"CYVO",2025-12-01 13:00:00,2025-12-01 08:00:00,"VFR",-17,-19,85,260,3,11300,30.27,NA,"FEW  ft; SCT  ft","METAR CYVO 011300Z 26003KT 7SM FEW025 SCT240 M17/M19 A3027 RMK SC2CI1 SLP286",2025-12-01 13:41:30.194891,2025-12-01 08:41:30.194891
"CYUY",2025-12-01 13:00:00,2025-12-01 08:00:00,"MVFR",-16,-19,78,260,4,24100,30.29,NA,"BKN  ft","METAR CYUY 011300Z 26004KT 15SM BKN025 M16/M19 A3029 RMK SC5 SLP289",2025-12-01 13:41:30.285131,2025-12-01 08:41:30.285131
"CYZV",2025-12-01 13:00:00,2025-12-01 08:00:00,"VFR",-2,-5,80,310,8,48300,29.76,NA,"FEW  ft; BKN  ft; OVC  ft","METAR CYZV 011300Z 31008KT 30SM FEW035 BKN088 OVC120 M02/M05 A2976 RMK SF1AC7AC1 SF TR SLP084",2025-12-01 13:41:30.379517,2025-12-01 08:41:30.379517
"CYBC",2025-12-01 13:00:00,2025-12-01 08:00:00,"VFR",-3,-6,80,300,7,14500,29.89,NA,"OVC  ft","METAR CYBC 011300Z AUTO 30007KT 9SM OVC071 M03/M06 A2989 RMK SLP127",2025-12-01 13:41:30.509139,2025-12-01 08:41:30.509139
"CYRJ",2025-12-01 13:34:00,2025-12-01 08:34:00,"MVFR",-11,-16,67,310,18,64400,30.18,NA,"BKN  ft","SPECI CYRJ 011334Z 31018G23KT 40SM -SN BKN024 M11/M16 A3018 RMK SC7 SLP235",2025-12-01 13:41:30.599893,2025-12-01 08:41:30.599893
"CYHZ",2025-12-01 13:00:00,2025-12-01 08:00:00,"IFR",9,9,100,220,15,4800,29.83,NA,"OVC  ft","METAR CYHZ 011300Z 22015G21KT 3SM -RA BR OVC005 09/09 A2983 RMK NS8 CIG RAG SLP108",2025-12-01 13:41:30.689277,2025-12-01 08:41:30.689277
"CYYG",2025-12-01 13:25:00,2025-12-01 08:25:00,"MVFR",5,4,93,290,9,24100,29.8,NA,"SCT  ft; BKN  ft","SPECI CYYG 011325Z 29009G15KT 15SM SCT004 BKN017 05/04 A2980 RMK SF4SC3 SLP096",2025-12-01 13:41:30.81597,2025-12-01 08:41:30.81597
"CYQM",2025-12-01 13:00:00,2025-12-01 08:00:00,"MVFR",3,2,93,250,8,24100,29.84,NA,"BKN  ft; BKN  ft; BKN  ft","METAR CYQM 011300Z 25008KT 15SM BKN030 BKN045 BKN250 03/02 A2984 RMK SC6SC1CI1 SC TR CU ASOCTD SLP109",2025-12-01 13:41:30.923105,2025-12-01 08:41:30.923105
"CYFC",2025-12-01 13:00:00,2025-12-01 08:00:00,"VFR",1,1,100,220,4,14500,29.88,NA,"SCT  ft; SCT  ft; OVC  ft","METAR CYFC 011300Z AUTO 22004KT 9SM SCT035 SCT048 OVC086 01/01 A2988 RMK SLP121",2025-12-01 13:41:31.010806,2025-12-01 08:41:31.010806
"CYYT",2025-12-01 13:00:00,2025-12-01 08:00:00,"VFR",2,-1,81,190,17,24100,30.27,NA,"FEW  ft; FEW  ft; SCT  ft; OVC  ft","METAR CYYT 011300Z 19017KT 15SM FEW020 FEW036 SCT082 OVC100 02/M01 A3027 RMK SC1SC1AC2AC4 SLP261",2025-12-01 13:41:31.135893,2025-12-01 08:41:31.135893
"CYQY",2025-12-01 13:17:00,2025-12-01 08:17:00,"IFR",8,8,100,180,15,8000,29.88,NA,"OVC  ft","SPECI CYQY 011317Z 18015G29KT 5SM -RA BR OVC008 08/08 A2988 RMK NS8 PRESFR SLP124",2025-12-01 13:41:31.267442,2025-12-01 08:41:31.267442
"CYXY",2025-12-01 13:00:00,2025-12-01 08:00:00,"VFR",-1,-2,93,180,14,24100,29.47,NA,"FEW  ft; FEW  ft; BKN  ft","METAR CYXY 011300Z 18014KT 15SM DRSN FEW008 FEW055 BKN110 M01/M02 A2947 RMK ST1SC2AC5 ST TR SLP021",2025-12-01 13:41:31.396388,2025-12-01 08:41:31.396388
"CYZF",2025-12-01 13:00:00,2025-12-01 08:00:00,"MVFR",-13,-14,92,60,5,24100,29.84,NA,"OVC  ft","METAR CYZF 011300Z 06005KT 15SM -SN OVC013 M13/M14 A2984 RMK SC8 SLP130",2025-12-01 13:41:31.526378,2025-12-01 08:41:31.526378
"CYFB",2025-12-01 13:00:00,2025-12-01 08:00:00,"VFR",-6,-11,68,190,16,24100,29.42,NA,"BKN  ft; BKN  ft","METAR CYFB 011300Z 19016G21KT 15SM -SN DRSN BKN034 BKN051 M06/M11 A2942 RMK SC6SC1 SLP968",2025-12-01 13:41:31.656591,2025-12-01 08:41:31.656591
"CYRT",2025-12-01 13:00:00,2025-12-01 08:00:00,"VFR",-31,-34,75,330,14,24100,29.74,NA,"SKC  ft","METAR CYRT 011300Z 33014KT 15SM SKC M31/M34 A2974 RMK SLP080",2025-12-01 13:41:31.75009,2025-12-01 08:41:31.75009
"CYBK",2025-12-01 13:00:00,2025-12-01 08:00:00,"VFR",-29,-32,75,300,12,24100,29.83,NA,"SKC  ft","METAR CYBK 011300Z 30012KT 15SM IC DRSN SKC M29/M32 A2983 RMK SLP105",2025-12-01 13:41:31.840312,2025-12-01 08:41:31.840312
"CYRB",2025-12-01 13:00:00,2025-12-01 08:00:00,"VFR",-21,-24,77,30,28,24100,29.69,NA,"BKN  ft","METAR CYRB 011300Z 03028KT 15SM IC DRSN BKN092 M21/M24 A2969 RMK AC7 SLP066",2025-12-01 13:41:31.982099,2025-12-01 08:41:31.982099
"CYCO",2025-12-01 13:33:00,2025-12-01 08:33:00,"IFR",-25,-28,76,220,12,9999,30.05,NA,"OVC  ft","SPECI CYCO 011333Z 22012KT 10SM IC OVC008 M25/M28 A3005 RMK ST8 SLP182",2025-12-01 13:41:32.070665,2025-12-01 08:41:32.070665
"CYER",2025-12-01 14:00:00,2025-12-01 09:00:00,"VFR",-22,-25,77,260,14,14500,29.86,NA,"SCT  ft","METAR CYER 011400Z AUTO 26014G19KT 9SM SCT240 M22/M25 A2986 RMK SLP116",2025-12-01 14:31:26.636222,2025-12-01 09:31:26.636222
"CYAT",2025-12-01 14:00:00,2025-12-01 09:00:00,"VFR",-13,-16,78,230,9,14500,30,NA,"OVC  ft","METAR CYAT 011400Z AUTO 23009KT 9SM OVC081 M13/M16 A3000 RMK SLP161",2025-12-01 14:31:26.71701,2025-12-01 09:31:26.71701
"CYMO",2025-12-01 14:20:00,2025-12-01 09:20:00,"VFR",-14,-16,85,200,12,14500,30.15,NA,"OVC  ft","SPECI CYMO 011420Z AUTO 20012KT 9SM OVC040 M14/M16 A3015 RMK SLP212",2025-12-01 14:31:26.791781,2025-12-01 09:31:26.791781
"CYPL",2025-12-01 14:00:00,2025-12-01 09:00:00,"MVFR",-13,-16,78,240,8,14500,30.02,NA,"OVC  ft","METAR CYPL 011400Z AUTO 24008KT 9SM OVC029 M13/M16 A3002 RMK SLP205",2025-12-01 14:31:26.864074,2025-12-01 09:31:26.864074
"CYQT",2025-12-01 14:00:00,2025-12-01 09:00:00,"VFR",-9,-14,67,240,6,24100,30.19,NA,"OVC  ft","METAR CYQT 011400Z 24006KT 15SM -SN OVC032 M09/M14 A3019 RMK SC8 -SN INTMT SLP241",2025-12-01 14:31:26.94017,2025-12-01 09:31:26.94017
"CYAM",2025-12-01 14:00:00,2025-12-01 09:00:00,"VFR",-5,-11,63,270,13,40200,30.3,NA,"BKN  ft; BKN  ft","METAR CYAM 011400Z 27013KT 25SM DRSN BKN040 BKN220 M05/M11 A3030 RMK SC6CI1 SLP276",2025-12-01 14:31:27.01303,2025-12-01 09:31:27.01303
"CYTS",2025-12-01 14:00:00,2025-12-01 09:00:00,"VFR",-13,-16,78,180,6,24100,30.24,NA,"OVC  ft","METAR CYTS 011400Z 18006KT 15SM -SN OVC031 M13/M16 A3024 RMK SC8 SLP269",2025-12-01 14:31:27.086462,2025-12-01 09:31:27.086462
"CYSB",2025-12-01 14:00:00,2025-12-01 09:00:00,"VFR",-12,-16,72,180,5,32200,30.32,NA,"OVC  ft","METAR CYSB 011400Z 18005KT 20SM OVC034 M12/M16 A3032 RMK SC8 SLP298",2025-12-01 14:31:27.158619,2025-12-01 09:31:27.158619
"CYYB",2025-12-01 14:00:00,2025-12-01 09:00:00,"MVFR",-11,-15,73,290,7,48300,30.32,NA,"BKN  ft","METAR CYYB 011400Z 29007KT 30SM BKN025 M11/M15 A3032 RMK SC7 SLP297",2025-12-01 14:31:27.231788,2025-12-01 09:31:27.231788
"CYOW",2025-12-01 14:00:00,2025-12-01 09:00:00,"MVFR",-9,-14,67,330,12,24100,30.38,NA,"BKN  ft","METAR CYOW 011400Z 33012KT 15SM BKN024 M09/M14 A3038 RMK SC6 SLP298",2025-12-01 14:31:27.303603,2025-12-01 09:31:27.303603
"CYGK",2025-12-01 14:00:00,2025-12-01 09:00:00,"VFR",-6,-12,63,310,10,24100,30.43,NA,"FEW  ft","METAR CYGK 011400Z 31010KT 15SM FEW025 M06/M12 A3043 RMK SC1 SLP311",2025-12-01 14:31:27.336348,2025-12-01 09:31:27.336348
"CYQG",2025-12-01 14:00:00,2025-12-01 09:00:00,"VFR",-7,-9,86,210,4,14500,30.46,NA,"FEW  ft","METAR CYQG 011400Z AUTO 21004KT 9SM FEW240 M07/M09 A3046 RMK SLP325",2025-12-01 14:31:27.406716,2025-12-01 09:31:27.406716
"CYVV",2025-12-01 14:17:00,2025-12-01 09:17:00,"VFR",-8,-10,86,150,4,20900,30.37,NA,"FEW  ft; OVC  ft","SPECI CYVV 011417Z 15004KT 13SM -SN FEW012 OVC042 M08/M10 A3037 RMK SF1SC8 SF TR SLP302",2025-12-01 14:31:27.479966,2025-12-01 09:31:27.479966
"CYYZ",2025-12-01 14:00:00,2025-12-01 09:00:00,"VFR",-6,-10,74,30,4,24100,30.43,NA,"FEW  ft; FEW  ft; FEW  ft","METAR CYYZ 011400Z 03004KT 15SM FEW020 FEW050 FEW260 M06/M10 A3043 RMK CF1SC1CI1 CF TR SLP315",2025-12-01 14:31:27.555121,2025-12-01 09:31:27.555121
"CYQA",2025-12-01 14:00:00,2025-12-01 09:00:00,"VFR",-14,-15,92,0,0,14500,30.37,NA,"CLR  ft","METAR CYQA 011400Z AUTO 00000KT 9SM CLR M14/M15 A3037 RMK SLP307",2025-12-01 14:31:27.627538,2025-12-01 09:31:27.627538
"CYVR",2025-12-01 14:00:00,2025-12-01 09:00:00,"VFR",4,4,100,120,4,32200,30.3,NA,"OVC  ft","METAR CYVR 011400Z 12004KT 20SM -RA OVC065 04/04 A3030 RMK SC8 SLP262",2025-12-01 14:31:27.701269,2025-12-01 09:31:27.701269
"CYYJ",2025-12-01 14:00:00,2025-12-01 09:00:00,"VFR",4,4,100,0,2,24100,30.29,NA,"FEW  ft; BKN  ft; OVC  ft","METAR CYYJ 011400Z VRB02KT 15SM -RA FEW020 BKN068 OVC090 04/04 A3029 RMK SC1AC4AC3 SLP258",2025-12-01 14:31:27.776097,2025-12-01 09:31:27.776097
"CYLW",2025-12-01 14:00:00,2025-12-01 09:00:00,"MVFR",0,-2,87,0,0,14500,30.27,NA,"OVC  ft","METAR CYLW 011400Z AUTO 00000KT 9SM OVC025 M00/M02 A3027 RMK SLP272",2025-12-01 14:31:27.85001,2025-12-01 09:31:27.85001
"CYXS",2025-12-01 14:11:00,2025-12-01 09:11:00,"IFR",-3,-3,100,190,10,3600,30.01,NA,"FEW  ft; OVC  ft","SPECI CYXS 011411Z AUTO 19010G16KT 2 1/4SM -SN FEW008 OVC020 M03/M03 A3001 RMK SLP202",2025-12-01 14:31:27.921076,2025-12-01 09:31:27.921076
"CYXT",2025-12-01 14:23:00,2025-12-01 09:23:00,"LIFR",0,0,100,0,0,1200,30.03,NA,"OVC  ft","SPECI CYXT 011423Z 00000KT 3/4SM -FZDZ BR OVC002 M00/M00 A3003 RMK SF8 SLP183",2025-12-01 14:31:27.992694,2025-12-01 09:31:27.992694
"CYQQ",2025-12-01 14:00:00,2025-12-01 09:00:00,"MVFR",4,4,100,310,4,32200,30.32,NA,"BKN  ft; OVC  ft","METAR CYQQ 011400Z 31004KT 20SM -RA BKN018 OVC055 04/04 A3032 RMK SC6SC2 DENSITY ALT -1568FT SLP269",2025-12-01 14:31:28.065308,2025-12-01 09:31:28.065308
"CYYC",2025-12-01 14:00:00,2025-12-01 09:00:00,"VFR",-9,-12,79,0,0,24100,29.85,NA,"FEW  ft","METAR CYYC 011400Z 00000KT 15SM FEW100 M09/M12 A2985 RMK AC1 SLP182",2025-12-01 14:31:28.138043,2025-12-01 09:31:28.138043
"CYEG",2025-12-01 14:00:00,2025-12-01 09:00:00,"VFR",-5,-7,86,170,5,32200,29.83,NA,"OVC  ft","METAR CYEG 011400Z 17005KT 20SM OVC055 M05/M07 A2983 RMK SC8 SLP146",2025-12-01 14:31:28.211584,2025-12-01 09:31:28.211584
"CYMM",2025-12-01 14:23:00,2025-12-01 09:23:00,"VFR",-11,-13,85,110,5,14500,29.81,NA,"OVC  ft","SPECI CYMM 011423Z AUTO 11005KT 9SM -SN OVC055 M11/M13 A2981 RMK SLP130",2025-12-01 14:31:28.288166,2025-12-01 09:31:28.288166
"CYQF",2025-12-01 14:00:00,2025-12-01 09:00:00,"VFR",-7,-11,73,220,5,14500,29.85,NA,"OVC  ft","METAR CYQF 011400Z AUTO 22005KT 9SM OVC060 M07/M11 A2985 RMK SLP169",2025-12-01 14:31:28.360697,2025-12-01 09:31:28.360697
"CYXE",2025-12-01 14:00:00,2025-12-01 09:00:00,"IFR",-22,-24,84,250,5,24100,29.97,NA,"SCT  ft; OVC  ft","METAR CYXE 011400Z 25005KT 15SM SCT002 OVC007 M22/M24 A2997 RMK SF4SC4 SLP201",2025-12-01 14:31:28.433002,2025-12-01 09:31:28.433002
"CYQR",2025-12-01 14:10:00,2025-12-01 09:10:00,"MVFR",-19,-21,84,270,7,19300,29.93,NA,"BKN  ft","SPECI CYQR 011410Z 27007KT 12SM BKN012 M19/M21 A2993 RMK SC6 SLP196",2025-12-01 14:31:28.465724,2025-12-01 09:31:28.465724
"CYWG",2025-12-01 14:00:00,2025-12-01 09:00:00,"VFR",-16,-19,78,190,11,20900,30.03,NA,"BKN  ft","METAR CYWG 011400Z 19011G16KT 13SM BKN120 M16/M19 A3003 RMK AC6 SLP194",2025-12-01 14:31:28.539931,2025-12-01 09:31:28.539931
"CYBR",2025-12-01 14:00:00,2025-12-01 09:00:00,"VFR",-18,-20,84,260,6,19300,29.95,NA,"OVC  ft","METAR CYBR 011400Z 26006KT 12SM OVC110 M18/M20 A2995 RMK AC8 SLP186",2025-12-01 14:31:28.611855,2025-12-01 09:31:28.611855
"CYUL",2025-12-01 14:00:00,2025-12-01 09:00:00,"VFR",-6,-11,68,300,14,24100,30.33,NA,"FEW  ft","METAR CYUL 011400Z 30014KT 15SM FEW028 M06/M11 A3033 RMK SC1 SLP276",2025-12-01 14:31:28.690331,2025-12-01 09:31:28.690331
"CYHU",2025-12-01 14:00:00,2025-12-01 09:00:00,"VFR",-5,-11,63,300,14,14500,30.31,NA,"FEW  ft","METAR CYHU 011400Z AUTO 30014G19KT 9SM FEW030 M05/M11 A3031 RMK SLP268",2025-12-01 14:31:28.765939,2025-12-01 09:31:28.765939
"CYQB",2025-12-01 14:00:00,2025-12-01 09:00:00,"MVFR",-5,-9,74,270,11,40200,30.16,NA,"BKN  ft; BKN  ft; BKN  ft","METAR CYQB 011400Z 27011KT 25SM -SHSN BKN020 BKN035 BKN110 M05/M09 A3016 RMK SC5SC1AC1 AC TR CVCTV CLD EMBD VIS LWR NW SLP219",2025-12-01 14:31:28.842824,2025-12-01 09:31:28.842824
"CYVO",2025-12-01 14:00:00,2025-12-01 09:00:00,"MVFR",-15,-18,78,300,4,4800,30.28,NA,"BKN  ft; BKN  ft","METAR CYVO 011400Z 30004KT 250V340 3SM -SN BKN020 BKN028 M15/M18 A3028 RMK SC5SC2 SLP288",2025-12-01 14:31:28.916984,2025-12-01 09:31:28.916984
"CYUY",2025-12-01 14:00:00,2025-12-01 09:00:00,"MVFR",-14,-18,72,230,5,24100,30.3,NA,"BKN  ft","METAR CYUY 011400Z 23005KT 15SM BKN024 M14/M18 A3030 RMK SC7 SLP291",2025-12-01 14:31:28.988859,2025-12-01 09:31:28.988859
"CYZV",2025-12-01 14:00:00,2025-12-01 09:00:00,"VFR",-2,-6,74,320,7,48300,29.78,NA,"FEW  ft; BKN  ft; OVC  ft","METAR CYZV 011400Z 32007G16KT 30SM FEW030 BKN090 OVC120 M02/M06 A2978 RMK SF1AC7AC1 SF TR SLP089",2025-12-01 14:31:29.062918,2025-12-01 09:31:29.062918
"CYBC",2025-12-01 14:00:00,2025-12-01 09:00:00,"VFR",-4,-8,74,310,11,14500,29.94,NA,"FEW  ft; SCT  ft; BKN  ft","METAR CYBC 011400Z AUTO 31011G17KT 9SM FEW029 SCT081 BKN100 M04/M08 A2994 RMK SLP141",2025-12-01 14:31:29.136301,2025-12-01 09:31:29.136301
"CYRJ",2025-12-01 14:00:00,2025-12-01 09:00:00,"MVFR",-10,-15,67,300,17,64400,30.2,NA,"BKN  ft","METAR CYRJ 011400Z 30017G24KT 40SM -SN DRSN BKN023 M10/M15 A3020 RMK SC7 SLP242",2025-12-01 14:31:29.212363,2025-12-01 09:31:29.212363
"CYHZ",2025-12-01 14:00:00,2025-12-01 09:00:00,"VFR",8,7,93,260,11,24100,29.84,NA,"FEW  ft; BKN  ft; BKN  ft","METAR CYHZ 011400Z 26011G17KT 15SM FEW050 BKN073 BKN200 08/07 A2984 RMK SC2AC3CI2 SF ASOCTD SLP111",2025-12-01 14:31:29.286563,2025-12-01 09:31:29.286563
"CYYG",2025-12-01 14:00:00,2025-12-01 09:00:00,"MVFR",5,3,87,280,6,24100,29.81,NA,"SCT  ft; BKN  ft; BKN  ft","METAR CYYG 011400Z 28006KT 15SM SCT010 BKN019 BKN050 05/03 A2981 RMK SF3SC2SC1 SLP100",2025-12-01 14:31:29.359557,2025-12-01 09:31:29.359557
"CYQM",2025-12-01 14:12:00,2025-12-01 09:12:00,"IFR",4,3,93,240,11,24100,29.85,NA,"BKN  ft; BKN  ft; BKN  ft","SPECI CYQM 011412Z 24011G16KT 15SM BKN005 BKN030 BKN055 04/03 A2985 RMK CF5SC1SC1 SLP113",2025-12-01 14:31:29.43404,2025-12-01 09:31:29.43404
"CYFC",2025-12-01 14:00:00,2025-12-01 09:00:00,"VFR",3,3,100,260,6,14500,29.89,NA,"FEW  ft","METAR CYFC 011400Z AUTO 26006KT 9SM FEW060 03/03 A2989 RMK SLP126",2025-12-01 14:31:29.50873,2025-12-01 09:31:29.50873
"CYYT",2025-12-01 14:00:00,2025-12-01 09:00:00,"MVFR",3,1,87,180,19,24100,30.23,NA,"BKN  ft; BKN  ft; OVC  ft","METAR CYYT 011400Z 18019KT 15SM BKN014 BKN053 OVC100 03/01 A3023 RMK SC5SC2AC1 PRESFR SLP246",2025-12-01 14:31:29.582534,2025-12-01 09:31:29.582534
"CYQY",2025-12-01 14:22:00,2025-12-01 09:22:00,"IFR",9,9,100,190,24,9999,29.81,NA,"OVC  ft","SPECI CYQY 011422Z 19024G36KT 10SM OVC007 09/09 A2981 RMK NS8 PRESFR SLP100",2025-12-01 14:31:29.65796,2025-12-01 09:31:29.65796
"CYXY",2025-12-01 14:00:00,2025-12-01 09:00:00,"VFR",0,-2,87,200,8,24100,29.47,NA,"FEW  ft; FEW  ft; BKN  ft","METAR CYXY 011400Z 20008KT 15SM DRSN FEW008 FEW055 BKN150 M00/M02 A2947 RMK ST1SC1AC7 ST TR SC TR SLP020",2025-12-01 14:31:29.731205,2025-12-01 09:31:29.731205
"CYZF",2025-12-01 14:00:00,2025-12-01 09:00:00,"MVFR",-13,-14,92,50,6,24100,29.82,NA,"OVC  ft","METAR CYZF 011400Z 05006KT 15SM -SN OVC013 M13/M14 A2982 RMK SC8 SLP124",2025-12-01 14:31:29.803345,2025-12-01 09:31:29.803345
"CYFB",2025-12-01 14:19:00,2025-12-01 09:19:00,"VFR",-7,-12,68,190,8,48300,29.44,NA,"FEW  ft; SCT  ft; BKN  ft; BKN  ft","SPECI CYFB 011419Z 19008KT 30SM FEW010 SCT026 BKN088 BKN200 M07/M12 A2944 RMK SC1SC3AC4CI1 SC TR CI TR SLP974",2025-12-01 14:31:29.878829,2025-12-01 09:31:29.878829
"CYRT",2025-12-01 14:00:00,2025-12-01 09:00:00,"VFR",-31,-34,75,340,12,9999,29.75,NA,"FEW  ft","METAR CYRT 011400Z 34012KT 10SM IC FEW010 M31/M34 A2975 RMK SC1 SLP082",2025-12-01 14:31:29.952278,2025-12-01 09:31:29.952278
"CYBK",2025-12-01 14:00:00,2025-12-01 09:00:00,"VFR",-28,-31,75,0,3,24100,29.83,NA,"FEW  ft","METAR CYBK 011400Z VRB03KT 15SM IC FEW054 M28/M31 A2983 RMK SC1 SC TR SLP106",2025-12-01 14:31:30.026073,2025-12-01 09:31:30.026073
"CYRB",2025-12-01 14:00:00,2025-12-01 09:00:00,"VFR",-22,-25,77,30,26,19300,29.7,NA,"BKN  ft","METAR CYRB 011400Z 03026KT 12SM IC DRSN BKN086 M22/M25 A2970 RMK AC7 SLP071",2025-12-01 14:31:30.112536,2025-12-01 09:31:30.112536
"CYCO",2025-12-01 14:24:00,2025-12-01 09:24:00,"IFR",-24,-27,76,230,13,9999,30.04,NA,"OVC  ft","SPECI CYCO 011424Z 23013KT 10SM IC OVC007 M24/M27 A3004 RMK ST8 SLP179",2025-12-01 14:31:30.189194,2025-12-01 09:31:30.189194
"CYER",2025-12-01 15:00:00,2025-12-01 10:00:00,"VFR",-22,-25,77,250,12,14500,29.86,NA,"SCT  ft","METAR CYER 011500Z AUTO 25012G19KT 9SM SCT240 M22/M25 A2986 RMK SLP114",2025-12-01 15:31:40.250519,2025-12-01 10:31:40.250519
"CYAT",2025-12-01 15:00:00,2025-12-01 10:00:00,"VFR",-12,-16,72,220,10,14500,29.98,NA,"OVC  ft","METAR CYAT 011500Z AUTO 22010G16KT 9SM OVC081 M12/M16 A2998 RMK SLP156",2025-12-01 15:31:40.331149,2025-12-01 10:31:40.331149
"CYMO",2025-12-01 15:00:00,2025-12-01 10:00:00,"VFR",-13,-16,78,220,12,14500,30.14,NA,"FEW  ft","METAR CYMO 011500Z AUTO 22012G17KT 9SM FEW036 M13/M16 A3014 RMK SLP209",2025-12-01 15:31:40.402258,2025-12-01 10:31:40.402258
"CYPL",2025-12-01 15:00:00,2025-12-01 10:00:00,"VFR",-13,-16,78,240,9,14500,30.01,NA,"FEW  ft; BKN  ft; BKN  ft","METAR CYPL 011500Z AUTO 24009KT 9SM FEW024 BKN035 BKN130 M13/M16 A3001 RMK SLP199",2025-12-01 15:31:40.522572,2025-12-01 10:31:40.522572
"CYQT",2025-12-01 15:00:00,2025-12-01 10:00:00,"VFR",-9,-13,73,250,7,24100,30.17,NA,"OVC  ft","METAR CYQT 011500Z 25007KT 15SM -SN OVC036 M09/M13 A3017 RMK SC8 -SN INTMT SLP236",2025-12-01 15:31:40.599896,2025-12-01 10:31:40.599896
"CYAM",2025-12-01 15:00:00,2025-12-01 10:00:00,"VFR",-5,-11,63,240,11,40200,30.29,NA,"BKN  ft; BKN  ft","METAR CYAM 011500Z 24011KT 25SM BKN040 BKN220 M05/M11 A3029 RMK SC6CI1 SLP271",2025-12-01 15:31:40.671255,2025-12-01 10:31:40.671255
"CYTS",2025-12-01 15:00:00,2025-12-01 10:00:00,"VFR",-12,-15,79,210,4,24100,30.23,NA,"OVC  ft","METAR CYTS 011500Z 21004KT 160V220 15SM -SN OVC041 M12/M15 A3023 RMK SC8 SLP266",2025-12-01 15:31:40.782616,2025-12-01 10:31:40.782616
"CYSB",2025-12-01 15:26:00,2025-12-01 10:26:00,"VFR",-11,-16,67,190,6,32200,30.31,NA,"OVC  ft","SPECI CYSB 011526Z 19006KT 20SM -SN OVC040 M11/M16 A3031 RMK SC8 SLP295",2025-12-01 15:31:40.855169,2025-12-01 10:31:40.855169
"CYYB",2025-12-01 15:00:00,2025-12-01 10:00:00,"VFR",-11,-16,67,270,8,48300,30.33,NA,"SCT  ft","METAR CYYB 011500Z 27008KT 30SM SCT023 M11/M16 A3033 RMK SC4 SLP301",2025-12-01 15:31:40.927418,2025-12-01 10:31:40.927418
"CYOW",2025-12-01 15:00:00,2025-12-01 10:00:00,"MVFR",-9,-14,67,320,10,24100,30.41,NA,"BKN  ft","METAR CYOW 011500Z 32010G15KT 15SM BKN021 M09/M14 A3041 RMK SC7 SLP306",2025-12-01 15:31:40.99962,2025-12-01 10:31:40.99962
"CYGK",2025-12-01 15:00:00,2025-12-01 10:00:00,"VFR",-6,-11,68,340,8,24100,30.42,NA,"FEW  ft","METAR CYGK 011500Z 34008KT 15SM FEW025 M06/M11 A3042 RMK SC1 SLP310",2025-12-01 15:31:41.074473,2025-12-01 10:31:41.074473
"CYQG",2025-12-01 15:00:00,2025-12-01 10:00:00,"VFR",-4,-7,80,80,3,14500,30.44,NA,"BKN  ft","METAR CYQG 011500Z AUTO 08003KT 9SM BKN190 M04/M07 A3044 RMK SLP319",2025-12-01 15:31:41.148659,2025-12-01 10:31:41.148659
"CYVV",2025-12-01 15:00:00,2025-12-01 10:00:00,"VFR",-6,-9,80,150,6,24100,30.38,NA,"FEW  ft; OVC  ft","METAR CYVV 011500Z 15006KT 15SM -SN FEW012 OVC041 M06/M09 A3038 RMK SF1SC8 SF TR SLP302",2025-12-01 15:31:41.221473,2025-12-01 10:31:41.221473
"CYYZ",2025-12-01 15:00:00,2025-12-01 10:00:00,"VFR",-5,-10,68,10,3,24100,30.44,NA,"FEW  ft; SCT  ft","METAR CYYZ 011500Z 01003KT 350V060 15SM FEW050 SCT260 M05/M10 A3044 RMK SC2CI1 SLP319",2025-12-01 15:31:41.293756,2025-12-01 10:31:41.293756
"CYQA",2025-12-01 15:00:00,2025-12-01 10:00:00,"VFR",-10,-14,73,40,3,14500,30.38,NA,"CLR  ft","METAR CYQA 011500Z AUTO 04003KT 330V080 9SM CLR M10/M14 A3038 RMK SLP309",2025-12-01 15:31:41.364944,2025-12-01 10:31:41.364944
"CYVR",2025-12-01 15:00:00,2025-12-01 10:00:00,"MVFR",4,3,93,110,3,24100,30.31,NA,"OVC  ft","METAR CYVR 011500Z 11003KT 15SM -RA OVC028 04/03 A3031 RMK SC8 SLP266",2025-12-01 15:31:41.436421,2025-12-01 10:31:41.436421
"CYYJ",2025-12-01 15:00:00,2025-12-01 10:00:00,"VFR",4,4,100,250,5,19300,30.31,NA,"FEW  ft; BKN  ft; OVC  ft","METAR CYYJ 011500Z 25005KT 12SM -RA FEW014 BKN062 OVC085 04/04 A3031 RMK SC1SC4AC3 PRESRR SLP267",2025-12-01 15:31:41.508569,2025-12-01 10:31:41.508569
"CYLW",2025-12-01 15:00:00,2025-12-01 10:00:00,"MVFR",0,-2,87,170,3,14500,30.26,NA,"OVC  ft","METAR CYLW 011500Z AUTO 17003KT 150V220 9SM OVC025 M00/M02 A3026 RMK SLP268",2025-12-01 15:31:41.584721,2025-12-01 10:31:41.584721
"CYXS",2025-12-01 15:28:00,2025-12-01 10:28:00,"MVFR",-2,-3,93,180,15,9700,29.97,NA,"FEW  ft; SCT  ft; OVC  ft","SPECI CYXS 011528Z AUTO 18015G21KT 6SM -SN FEW008 SCT012 OVC021 M02/M03 A2997 RMK SLP188",2025-12-01 15:31:41.659342,2025-12-01 10:31:41.659342
"CYXT",2025-12-01 15:00:00,2025-12-01 10:00:00,"LIFR",0,0,100,0,2,1200,30.02,NA,"OVC  ft","METAR CYXT 011500Z VRB02KT 3/4SM -DZ BR OVC003 00/00 A3002 RMK FG2SF6 SLP180",2025-12-01 15:31:41.734253,2025-12-01 10:31:41.734253
"CYQQ",2025-12-01 15:00:00,2025-12-01 10:00:00,"MVFR",4,4,100,310,4,32200,30.31,NA,"FEW  ft; OVC  ft","METAR CYQQ 011500Z 31004KT 20SM FEW012 OVC018 04/04 A3031 RMK SC1SC7 DENSITY ALT -1543FT SLP267",2025-12-01 15:31:41.847429,2025-12-01 10:31:41.847429
"CYYC",2025-12-01 15:00:00,2025-12-01 10:00:00,"VFR",-10,-13,79,190,4,64400,29.82,NA,"SCT  ft; BKN  ft","METAR CYYC 011500Z 19004KT 40SM SCT066 BKN180 M10/M13 A2982 RMK AC3AC3 SLP175",2025-12-01 15:31:41.921385,2025-12-01 10:31:41.921385
"CYEG",2025-12-01 15:00:00,2025-12-01 10:00:00,"VFR",-4,-7,80,180,5,32200,29.78,NA,"BKN  ft","METAR CYEG 011500Z 18005KT 20SM BKN052 M04/M07 A2978 RMK SC7 SLP127",2025-12-01 15:31:41.994673,2025-12-01 10:31:41.994673
"CYMM",2025-12-01 15:00:00,2025-12-01 10:00:00,"VFR",-11,-13,85,110,6,14500,29.79,NA,"OVC  ft","METAR CYMM 011500Z AUTO 11006KT 9SM -SN OVC044 M11/M13 A2979 RMK SLP122",2025-12-01 15:31:42.07092,2025-12-01 10:31:42.07092
"CYQF",2025-12-01 15:00:00,2025-12-01 10:00:00,"VFR",-7,-10,79,190,5,14500,29.82,NA,"OVC  ft","METAR CYQF 011500Z AUTO 19005KT 9SM OVC060 M07/M10 A2982 RMK SLP155",2025-12-01 15:31:42.144369,2025-12-01 10:31:42.144369
"CYXE",2025-12-01 15:22:00,2025-12-01 10:22:00,"LIFR",-19,-21,84,260,6,800,29.95,NA,"OVC  ft","SPECI CYXE 011522Z 26006KT 1/2SM R09/2000V2200FT/N FZFG OVC002 M19/M21 A2995 RMK ST8 SLP195",2025-12-01 15:31:42.217393,2025-12-01 10:31:42.217393
"CYQR",2025-12-01 15:00:00,2025-12-01 10:00:00,"VFR",-17,-20,78,300,9,19300,29.94,NA,"FEW  ft; FEW  ft","METAR CYQR 011500Z 30009KT 12SM FEW012 FEW060 M17/M20 A2994 RMK SC1SC1 SLP197",2025-12-01 15:31:42.291624,2025-12-01 10:31:42.291624
"CYWG",2025-12-01 15:00:00,2025-12-01 10:00:00,"VFR",-16,-18,85,190,10,24100,30.02,NA,"BKN  ft","METAR CYWG 011500Z 19010KT 15SM BKN120 M16/M18 A3002 RMK AC6 SLP191",2025-12-01 15:31:42.365646,2025-12-01 10:31:42.365646
"CYBR",2025-12-01 15:00:00,2025-12-01 10:00:00,"VFR",-17,-20,78,260,8,24100,29.94,NA,"BKN  ft","METAR CYBR 011500Z 26008KT 15SM BKN100 M17/M20 A2994 RMK AC7 SLP183",2025-12-01 15:31:42.439752,2025-12-01 10:31:42.439752
"CYUL",2025-12-01 15:00:00,2025-12-01 10:00:00,"VFR",-6,-12,63,300,14,48300,30.36,NA,"FEW  ft; FEW  ft","METAR CYUL 011500Z 30014KT 30SM FEW025 FEW250 M06/M12 A3036 RMK SC1CI1 CI TR SLP285",2025-12-01 15:31:42.552587,2025-12-01 10:31:42.552587
"CYHU",2025-12-01 15:00:00,2025-12-01 10:00:00,"VFR",-5,-11,63,290,11,14500,30.34,NA,"FEW  ft","METAR CYHU 011500Z AUTO 29011G18KT 9SM FEW026 M05/M11 A3034 RMK SLP278",2025-12-01 15:31:42.665532,2025-12-01 10:31:42.665532
"CYQB",2025-12-01 15:00:00,2025-12-01 10:00:00,"VFR",-5,-11,63,280,6,48300,30.2,NA,"FEW  ft","METAR CYQB 011500Z 28006KT 250V320 30SM FEW026 M05/M11 A3020 RMK SC2 SLP233",2025-12-01 15:31:42.777717,2025-12-01 10:31:42.777717
"CYVO",2025-12-01 15:00:00,2025-12-01 10:00:00,"MVFR",-14,-18,72,270,6,24100,30.29,NA,"OVC  ft","METAR CYVO 011500Z 27006KT 240V310 15SM OVC021 M14/M18 A3029 RMK SC8 SLP292",2025-12-01 15:31:42.892831,2025-12-01 10:31:42.892831
"CYUY",2025-12-01 15:08:00,2025-12-01 10:08:00,"MVFR",-13,-17,72,250,7,24100,30.29,NA,"OVC  ft","SPECI CYUY 011508Z 25007KT 15SM -SN OVC022 M13/M17 A3029 RMK SC8 SLP287",2025-12-01 15:31:42.964376,2025-12-01 10:31:42.964376
"CYZV",2025-12-01 15:00:00,2025-12-01 10:00:00,"VFR",-2,-7,69,330,12,48300,29.8,NA,"FEW  ft; BKN  ft; BKN  ft","METAR CYZV 011500Z 33012G18KT 30SM DRSN FEW026 BKN094 BKN210 M02/M07 A2980 RMK SC1AC5CI1 SLP097",2025-12-01 15:31:43.037396,2025-12-01 10:31:43.037396
"CYBC",2025-12-01 15:00:00,2025-12-01 10:00:00,"VFR",-5,-9,74,310,12,14500,29.97,NA,"SCT  ft; SCT  ft","METAR CYBC 011500Z AUTO 31012G20KT 9SM SCT022 SCT030 M05/M09 A2997 RMK SLP154",2025-12-01 15:31:43.11092,2025-12-01 10:31:43.11092
"CYRJ",2025-12-01 15:00:00,2025-12-01 10:00:00,"MVFR",-10,-16,62,300,12,40200,30.22,NA,"BKN  ft","METAR CYRJ 011500Z 30012G18KT 25SM -SN DRSN BKN024 M10/M16 A3022 RMK SC7 SLP248",2025-12-01 15:31:43.229855,2025-12-01 10:31:43.229855
"CYHZ",2025-12-01 15:15:00,2025-12-01 10:15:00,"VFR",6,4,87,300,17,24100,29.85,NA,"FEW  ft; SCT  ft; BKN  ft","SPECI CYHZ 011515Z 30017G24KT 250V310 15SM -SHRA FEW015 SCT040TCU BKN220 06/04 A2985 RMK SC3TCU2CI2 VIS LWR NE SF ASOCTD SLP114",2025-12-01 15:31:43.307214,2025-12-01 10:31:43.307214
"CYYG",2025-12-01 15:00:00,2025-12-01 10:00:00,"VFR",5,2,81,280,11,24100,29.82,NA,"SCT  ft; BKN  ft","METAR CYYG 011500Z 28011KT 15SM SCT011 BKN070 05/02 A2982 RMK ST3AC2 SLP101",2025-12-01 15:31:43.382841,2025-12-01 10:31:43.382841
"CYQM",2025-12-01 15:00:00,2025-12-01 10:00:00,"IFR",4,3,93,250,10,24100,29.85,NA,"BKN  ft; BKN  ft","METAR CYQM 011500Z 25010KT 15SM -SHRA BKN006 BKN025 04/03 A2985 RMK CU5SC2 SLP113",2025-12-01 15:31:43.456186,2025-12-01 10:31:43.456186
"CYFC",2025-12-01 15:00:00,2025-12-01 10:00:00,"VFR",5,2,81,250,9,14500,29.91,NA,"FEW  ft; SCT  ft","METAR CYFC 011500Z AUTO 25009G17KT 220V290 9SM FEW026 SCT032 05/02 A2991 RMK SLP130",2025-12-01 15:31:43.532585,2025-12-01 10:31:43.532585
"CYYT",2025-12-01 15:00:00,2025-12-01 10:00:00,"IFR",4,2,87,190,19,24100,30.17,NA,"OVC  ft","METAR CYYT 011500Z 19019G26KT 15SM OVC009 04/02 A3017 RMK SF8 PRESFR SLP224",2025-12-01 15:31:43.608139,2025-12-01 10:31:43.608139
"CYQY",2025-12-01 15:00:00,2025-12-01 10:00:00,"IFR",9,9,100,190,17,11300,29.77,NA,"OVC  ft","METAR CYQY 011500Z 19017G31KT 7SM -RA OVC008 09/09 A2977 RMK NS8 PRESFR SLP084",2025-12-01 15:31:43.685647,2025-12-01 10:31:43.685647
"CYXY",2025-12-01 15:00:00,2025-12-01 10:00:00,"VFR",0,-2,87,200,8,24100,29.47,NA,"FEW  ft; FEW  ft; BKN  ft","METAR CYXY 011500Z 20008KT 15SM DRSN FEW008 FEW055 BKN160 M00/M02 A2947 RMK ST1SC1AC6 ST TR SLP022",2025-12-01 15:31:43.760218,2025-12-01 10:31:43.760218
"CYZF",2025-12-01 15:00:00,2025-12-01 10:00:00,"MVFR",-13,-14,92,30,5,24100,29.82,NA,"OVC  ft","METAR CYZF 011500Z 03005KT 020V090 15SM -SN OVC013 M13/M14 A2982 RMK SC8 SLP121",2025-12-01 15:31:43.834349,2025-12-01 10:31:43.834349
"CYFB",2025-12-01 15:00:00,2025-12-01 10:00:00,"VFR",-7,-13,63,0,0,48300,29.44,NA,"FEW  ft; SCT  ft; BKN  ft; BKN  ft","METAR CYFB 011500Z 00000KT 30SM FEW010 SCT031 BKN090 BKN200 M07/M13 A2944 RMK SC1SC3AC3CI1 SC TR SLP976",2025-12-01 15:31:43.912462,2025-12-01 10:31:43.912462
"CYRT",2025-12-01 15:00:00,2025-12-01 10:00:00,"VFR",-31,-34,75,330,15,9999,29.73,NA,"FEW  ft","METAR CYRT 011500Z 33015KT 10SM IC DRSN FEW010 M31/M34 A2973 RMK SC1 SLP077",2025-12-01 15:31:43.988016,2025-12-01 10:31:43.988016
"CYBK",2025-12-01 15:00:00,2025-12-01 10:00:00,"VFR",-31,-34,75,0,3,32200,29.81,NA,"SCT  ft","METAR CYBK 011500Z VRB03KT 20SM IC SCT027 M31/M34 A2981 RMK SC4 SLP100",2025-12-01 15:31:44.062072,2025-12-01 10:31:44.062072
"CYRB",2025-12-01 15:00:00,2025-12-01 10:00:00,"VFR",-21,-25,70,50,30,24100,29.71,NA,"OVC  ft","METAR CYRB 011500Z 05030KT 15SM IC DRSN OVC076 M21/M25 A2971 RMK AC8 PRESFR SLP075",2025-12-01 15:31:44.190139,2025-12-01 10:31:44.190139
"CYCO",2025-12-01 15:00:00,2025-12-01 10:00:00,"IFR",-24,-27,76,230,14,19300,30.05,NA,"OVC  ft","METAR CYCO 011500Z 23014KT 12SM IC OVC007 M24/M27 A3005 RMK ST8 FROIN SLP181",2025-12-01 15:31:44.264896,2025-12-01 10:31:44.264896
"CYER",2025-12-01 16:00:00,2025-12-01 11:00:00,"VFR",-21,-25,70,260,11,14500,29.86,NA,"SCT  ft","METAR CYER 011600Z AUTO 26011G19KT 9SM SCT240 M21/M25 A2986 RMK SLP115",2025-12-01 16:39:25.898854,2025-12-01 11:39:25.898854
"CYAT",2025-12-01 16:00:00,2025-12-01 11:00:00,"VFR",-11,-15,73,230,9,14500,29.97,NA,"OVC  ft","METAR CYAT 011600Z AUTO 23009G15KT 9SM OVC081 M11/M15 A2997 RMK SLP152",2025-12-01 16:39:25.989586,2025-12-01 11:39:25.989586
"CYMO",2025-12-01 16:28:00,2025-12-01 11:28:00,"VFR",-11,-15,73,220,11,14500,30.11,NA,"OVC  ft","SPECI CYMO 011628Z AUTO 22011G17KT 9SM OVC081 M11/M15 A3011 RMK SLP198",2025-12-01 16:39:26.077581,2025-12-01 11:39:26.077581
"CYPL",2025-12-01 16:00:00,2025-12-01 11:00:00,"VFR",-12,-16,72,240,7,14500,29.99,NA,"BKN  ft","METAR CYPL 011600Z AUTO 24007KT 9SM BKN130 M12/M16 A2999 RMK SLP192",2025-12-01 16:39:26.163784,2025-12-01 11:39:26.163784
"CYQT",2025-12-01 16:00:00,2025-12-01 11:00:00,"VFR",-9,-16,57,260,8,24100,30.16,NA,"OVC  ft","METAR CYQT 011600Z 26008G15KT 15SM -SN OVC037 M09/M16 A3016 RMK SC8 SLP233",2025-12-01 16:39:26.251174,2025-12-01 11:39:26.251174
"CYAM",2025-12-01 16:00:00,2025-12-01 11:00:00,"VFR",-5,-11,63,250,7,40200,30.26,NA,"BKN  ft; BKN  ft","METAR CYAM 011600Z 25007KT 25SM BKN040 BKN220 M05/M11 A3026 RMK SC5CI2 SLP264",2025-12-01 16:39:26.337377,2025-12-01 11:39:26.337377
"CYTS",2025-12-01 16:00:00,2025-12-01 11:00:00,"VFR",-12,-14,85,150,5,24100,30.2,NA,"OVC  ft","METAR CYTS 011600Z 15005KT 15SM -SN OVC042 M12/M14 A3020 RMK SC8 PRESFR SLP255",2025-12-01 16:39:26.461676,2025-12-01 11:39:26.461676
"CYSB",2025-12-01 16:27:00,2025-12-01 11:27:00,"VFR",-10,-15,67,160,9,32200,30.28,NA,"OVC  ft","SPECI CYSB 011627Z 16009KT 20SM -SN OVC039 M10/M15 A3028 RMK SC8 SLP283",2025-12-01 16:39:26.545676,2025-12-01 11:39:26.545676
"CYYB",2025-12-01 16:00:00,2025-12-01 11:00:00,"MVFR",-10,-15,67,220,7,48300,30.32,NA,"BKN  ft","METAR CYYB 011600Z CCA 22007KT 30SM BKN030 M10/M15 A3032 RMK SC7 SLP298",2025-12-01 16:39:26.670549,2025-12-01 11:39:26.670549
"CYOW",2025-12-01 16:00:00,2025-12-01 11:00:00,"MVFR",-9,-14,67,300,9,24100,30.4,NA,"BKN  ft","METAR CYOW 011600Z 30009KT 15SM BKN024 M09/M14 A3040 RMK SC6 SLP305",2025-12-01 16:39:26.792353,2025-12-01 11:39:26.792353
"CYGK",2025-12-01 16:00:00,2025-12-01 11:00:00,"VFR",-5,-11,63,360,6,24100,30.42,NA,"SCT  ft","METAR CYGK 011600Z 36006KT 310V030 15SM SCT025 M05/M11 A3042 RMK SC3 SLP310",2025-12-01 16:39:26.878452,2025-12-01 11:39:26.878452
"CYQG",2025-12-01 16:00:00,2025-12-01 11:00:00,"VFR",-3,-7,74,0,2,14500,30.44,NA,"SCT  ft; BKN  ft","METAR CYQG 011600Z AUTO VRB02KT 9SM SCT170 BKN190 M03/M07 A3044 RMK SLP318",2025-12-01 16:39:26.962948,2025-12-01 11:39:26.962948
"CYVV",2025-12-01 16:25:00,2025-12-01 11:25:00,"IFR",-5,-7,86,190,8,1600,30.36,NA,"OVC  ft","SPECI CYVV 011625Z 19008KT 1SM -SN OVC040 M05/M07 A3036 RMK SN3SC5 SLP295",2025-12-01 16:39:27.090528,2025-12-01 11:39:27.090528
"CYYZ",2025-12-01 16:00:00,2025-12-01 11:00:00,"VFR",-4,-11,59,10,3,24100,30.42,NA,"FEW  ft; FEW  ft; BKN  ft","METAR CYYZ 011600Z 01003KT 310V090 15SM FEW020 FEW040 BKN260 M04/M11 A3042 RMK CF1SC1CI4 CF TR SLP313",2025-12-01 16:39:27.17358,2025-12-01 11:39:27.17358
"CYQA",2025-12-01 16:00:00,2025-12-01 11:00:00,"VFR",-9,-14,67,0,0,14500,30.38,NA,"CLR  ft","METAR CYQA 011600Z AUTO 00000KT 9SM CLR M09/M14 A3038 RMK SLP309",2025-12-01 16:39:27.297238,2025-12-01 11:39:27.297238
"CYVR",2025-12-01 16:00:00,2025-12-01 11:00:00,"MVFR",4,4,100,90,3,32200,30.3,NA,"OVC  ft","METAR CYVR 011600Z 09003KT 010V100 20SM -RA OVC021 04/04 A3030 RMK SC8 SLP264",2025-12-01 16:39:27.381067,2025-12-01 11:39:27.381067
"CYYJ",2025-12-01 16:00:00,2025-12-01 11:00:00,"VFR",4,4,100,200,2,24100,30.29,NA,"FEW  ft; OVC  ft","METAR CYYJ 011600Z 20002KT 15SM FEW009 OVC059 04/04 A3029 RMK SF1SC8 SF TR SLP261",2025-12-01 16:39:27.466641,2025-12-01 11:39:27.466641
"CYLW",2025-12-01 16:36:00,2025-12-01 11:36:00,"MVFR",0,-2,87,210,4,14500,30.27,NA,"OVC  ft","SPECI CYLW 011636Z AUTO 21004KT 160V250 9SM -RA -UP OVC025 00/M02 A3027 RMK SLP271",2025-12-01 16:39:27.552378,2025-12-01 11:39:27.552378
"CYXS",2025-12-01 16:30:00,2025-12-01 11:30:00,"VFR",-2,-3,93,180,16,14500,29.95,NA,"OVC  ft","SPECI CYXS 011630Z AUTO 18016G24KT 9SM OVC031 M02/M03 A2995 RMK SLP183",2025-12-01 16:39:27.636201,2025-12-01 11:39:27.636201
"CYXT",2025-12-01 16:09:00,2025-12-01 11:09:00,"LIFR",1,1,100,120,4,NA,30.01,NA,"OVX  ft","SPECI CYXT 011609Z 12004KT 3/4SM -RA BR VV003 01/01 A3001 RMK FG8 SLP174",2025-12-01 16:39:27.72065,2025-12-01 11:39:27.72065
"CYQQ",2025-12-01 16:00:00,2025-12-01 11:00:00,"MVFR",4,4,100,240,3,32200,30.29,NA,"FEW  ft; BKN  ft; OVC  ft","METAR CYQQ 011600Z 24003KT 20SM FEW012 BKN020 OVC060 04/04 A3029 RMK SF1SC6SC2 DENSITY ALT -1507FT SLP260",2025-12-01 16:39:27.804723,2025-12-01 11:39:27.804723
"CYYC",2025-12-01 16:00:00,2025-12-01 11:00:00,"VFR",-9,-12,79,0,0,64400,29.81,NA,"FEW  ft; SCT  ft; BKN  ft","METAR CYYC 011600Z 00000KT 40SM FEW065 SCT190 BKN250 M09/M12 A2981 RMK SC1AC2CI2 SLP165",2025-12-01 16:39:27.889313,2025-12-01 11:39:27.889313
"CYEG",2025-12-01 16:00:00,2025-12-01 11:00:00,"VFR",-3,-6,80,180,8,32200,29.75,NA,"BKN  ft; OVC  ft","METAR CYEG 011600Z 18008KT 20SM BKN047 OVC100 M03/M06 A2975 RMK SC7AC1 VIRGA PTCHS SLP119",2025-12-01 16:39:27.972587,2025-12-01 11:39:27.972587
"CYMM",2025-12-01 16:00:00,2025-12-01 11:00:00,"VFR",-11,-13,85,110,8,14500,29.74,NA,"FEW  ft; OVC  ft","METAR CYMM 011600Z AUTO 11008KT 9SM -SN FEW055 OVC094 M11/M13 A2974 RMK SLP106",2025-12-01 16:39:28.057732,2025-12-01 11:39:28.057732
"CYQF",2025-12-01 16:00:00,2025-12-01 11:00:00,"VFR",-6,-10,74,230,4,14500,29.8,NA,"OVC  ft","METAR CYQF 011600Z AUTO 23004KT 9SM OVC055 M06/M10 A2980 RMK SLP146",2025-12-01 16:39:28.142694,2025-12-01 11:39:28.142694
"CYXE",2025-12-01 16:26:00,2025-12-01 11:26:00,"LIFR",-19,-21,84,240,5,9700,29.94,NA,"BKN  ft; OVC  ft","SPECI CYXE 011626Z 24005KT 6SM BR BKN004 OVC110 M19/M21 A2994 RMK ST6AC2 SLP192",2025-12-01 16:39:28.227359,2025-12-01 11:39:28.227359
"CYQR",2025-12-01 16:00:00,2025-12-01 11:00:00,"VFR",-16,-19,78,290,7,24100,29.92,NA,"BKN  ft","METAR CYQR 011600Z 29007KT 15SM BKN260 M16/M19 A2992 RMK CI6 SLP191",2025-12-01 16:39:28.357729,2025-12-01 11:39:28.357729
"CYWG",2025-12-01 16:00:00,2025-12-01 11:00:00,"VFR",-15,-18,78,200,11,24100,30.01,NA,"BKN  ft","METAR CYWG 011600Z 20011KT 15SM BKN120 M15/M18 A3001 RMK AC7 SLP187",2025-12-01 16:39:28.442638,2025-12-01 11:39:28.442638
"CYBR",2025-12-01 16:00:00,2025-12-01 11:00:00,"VFR",-17,-20,78,270,9,24100,29.92,NA,"BKN  ft","METAR CYBR 011600Z 27009KT 15SM BKN100 M17/M20 A2992 RMK AC5 SLP180",2025-12-01 16:39:28.567505,2025-12-01 11:39:28.567505
"CYUL",2025-12-01 16:00:00,2025-12-01 11:00:00,"VFR",-6,-12,63,290,11,48300,30.37,NA,"SCT  ft; SCT  ft","METAR CYUL 011600Z 29011G16KT 30SM SCT025 SCT250 M06/M12 A3037 RMK SC3CI1 CI TR SLP288",2025-12-01 16:39:28.660546,2025-12-01 11:39:28.660546
"CYHU",2025-12-01 16:00:00,2025-12-01 11:00:00,"MVFR",-5,-11,63,280,11,14500,30.35,NA,"BKN  ft","METAR CYHU 011600Z AUTO 28011G16KT 9SM BKN028 M05/M11 A3035 RMK SLP281",2025-12-01 16:39:28.748203,2025-12-01 11:39:28.748203
"CYQB",2025-12-01 16:00:00,2025-12-01 11:00:00,"VFR",-6,-12,63,300,7,48300,30.23,NA,"FEW  ft","METAR CYQB 011600Z 30007KT 260V030 30SM FEW024 M06/M12 A3023 RMK SC1 SC TR SLP245",2025-12-01 16:39:28.833179,2025-12-01 11:39:28.833179
"CYVO",2025-12-01 16:00:00,2025-12-01 11:00:00,"MVFR",-13,-17,72,260,9,9700,30.29,NA,"OVC  ft","METAR CYVO 011600Z 26009G15KT 220V300 6SM VCSH OVC021 M13/M17 A3029 RMK SC8 CVCTV CLD EMBD SLP291",2025-12-01 16:39:28.961653,2025-12-01 11:39:28.961653
"CYUY",2025-12-01 16:00:00,2025-12-01 11:00:00,"MVFR",-12,-16,72,220,9,24100,30.26,NA,"OVC  ft","METAR CYUY 011600Z 22009KT 15SM -SN OVC028 M12/M16 A3026 RMK SC8 PRESFR SLP275",2025-12-01 16:39:29.084503,2025-12-01 11:39:29.084503
"CYZV",2025-12-01 16:00:00,2025-12-01 11:00:00,"VFR",-3,-9,64,320,12,48300,29.82,NA,"FEW  ft; FEW  ft; SCT  ft","METAR CYZV 011600Z 32012G18KT 30SM FEW028 FEW038 SCT091 M03/M09 A2982 RMK SF1SC2AC2 SF TR SLP105",2025-12-01 16:39:29.168753,2025-12-01 11:39:29.168753
"CYBC",2025-12-01 16:00:00,2025-12-01 11:00:00,"VFR",-5,-10,68,310,9,14500,30.01,NA,"SCT  ft","METAR CYBC 011600Z AUTO 31009G18KT 9SM SCT028 M05/M10 A3001 RMK SLP166",2025-12-01 16:39:29.251589,2025-12-01 11:39:29.251589
"CYRJ",2025-12-01 16:00:00,2025-12-01 11:00:00,"MVFR",-10,-15,67,290,12,40200,30.22,NA,"BKN  ft","METAR CYRJ 011600Z 29012G17KT 25SM BKN027 M10/M15 A3022 RMK SC6 SLP250",2025-12-01 16:39:29.338506,2025-12-01 11:39:29.338506
"CYHZ",2025-12-01 16:00:00,2025-12-01 11:00:00,"VFR",7,5,87,270,13,24100,29.84,NA,"FEW  ft; FEW  ft; BKN  ft","METAR CYHZ 011600Z 27013KT 15SM FEW050 FEW080 BKN220 07/05 A2984 RMK CU2AC1CI3 AC TR SF ASOCTD SLP112",2025-12-01 16:39:29.42187,2025-12-01 11:39:29.42187
"CYYG",2025-12-01 16:00:00,2025-12-01 11:00:00,"MVFR",6,1,71,280,12,24100,29.81,NA,"BKN  ft; BKN  ft","METAR CYYG 011600Z 28012G18KT 250V310 15SM BKN020 BKN078 06/01 A2981 RMK SC5AC1 SLP098",2025-12-01 16:39:29.505166,2025-12-01 11:39:29.505166
"CYQM",2025-12-01 16:00:00,2025-12-01 11:00:00,"MVFR",4,1,81,270,16,24100,29.84,NA,"BKN  ft; BKN  ft","METAR CYQM 011600Z 27016G21KT 15SM BKN012 BKN030 04/01 A2984 RMK CU6SC1 SLP111",2025-12-01 16:39:29.588684,2025-12-01 11:39:29.588684
"CYFC",2025-12-01 16:00:00,2025-12-01 11:00:00,"VFR",5,0,70,280,12,14500,29.91,NA,"SCT  ft; BKN  ft; BKN  ft","METAR CYFC 011600Z AUTO 28012G24KT 220V310 9SM SCT028 BKN036 BKN042 05/00 A2991 RMK SLP133",2025-12-01 16:39:29.672581,2025-12-01 11:39:29.672581
"CYYT",2025-12-01 16:00:00,2025-12-01 11:00:00,"IFR",4,4,100,180,21,24100,30.09,NA,"OVC  ft","METAR CYYT 011600Z 18021G34KT 15SM -DZ OVC007 04/04 A3009 RMK ST8 VIS E-SE 4 PRESFR SLP199",2025-12-01 16:39:29.759694,2025-12-01 11:39:29.759694
"CYQY",2025-12-01 16:33:00,2025-12-01 11:33:00,"IFR",8,8,100,290,21,8000,29.74,NA,"BKN  ft; OVC  ft","SPECI CYQY 011633Z 29021G37KT 200V310 5SM RA BR BKN008 OVC019 08/08 A2974 RMK NS7SC1 PRESRR SLP074",2025-12-01 16:39:29.847231,2025-12-01 11:39:29.847231
"CYXY",2025-12-01 16:00:00,2025-12-01 11:00:00,"VFR",0,-2,87,230,4,24100,29.49,NA,"SCT  ft; BKN  ft; BKN  ft","METAR CYXY 011600Z 23004KT 170V250 15SM SCT055 BKN160 BKN220 M00/M02 A2949 RMK SC4AC1CI2 SLP029",2025-12-01 16:39:29.930934,2025-12-01 11:39:29.930934
"CYZF",2025-12-01 16:00:00,2025-12-01 11:00:00,"MVFR",-13,-14,92,40,8,24100,29.8,NA,"OVC  ft","METAR CYZF 011600Z 04008KT 15SM -SN OVC014 M13/M14 A2980 RMK SC8 SLP116",2025-12-01 16:39:30.054779,2025-12-01 11:39:30.054779
"CYFB",2025-12-01 16:00:00,2025-12-01 11:00:00,"VFR",-7,-13,63,190,13,48300,29.43,NA,"FEW  ft; FEW  ft; BKN  ft; BKN  ft","METAR CYFB 011600Z 19013G20KT 30SM FEW010 FEW031 BKN100 BKN220 M07/M13 A2943 RMK SC1SC2AC3CI1 SC TR SLP972",2025-12-01 16:39:30.137619,2025-12-01 11:39:30.137619
"CYRT",2025-12-01 16:00:00,2025-12-01 11:00:00,"VFR",-31,-34,75,340,12,9999,29.73,NA,"FEW  ft","METAR CYRT 011600Z 34012KT 10SM IC DRSN FEW010 M31/M34 A2973 RMK SC1 SLP075",2025-12-01 16:39:30.221808,2025-12-01 11:39:30.221808
"CYBK",2025-12-01 16:00:00,2025-12-01 11:00:00,"VFR",-31,-34,75,220,2,32200,29.8,NA,"FEW  ft; BKN  ft","METAR CYBK 011600Z 22002KT 20SM IC FEW024 BKN064 M31/M34 A2980 RMK SC2SC4 SLP096",2025-12-01 16:39:30.306514,2025-12-01 11:39:30.306514
"CYRB",2025-12-01 16:00:00,2025-12-01 11:00:00,"VFR",-21,-25,70,50,28,32200,29.73,NA,"FEW  ft","METAR CYRB 011600Z 05028KT 20SM IC DRSN FEW066 M21/M25 A2973 RMK AC2 SLP079",2025-12-01 16:39:30.4006,2025-12-01 11:39:30.4006
"CYCO",2025-12-01 16:00:00,2025-12-01 11:00:00,"IFR",-24,-26,84,240,12,9999,30.04,NA,"BKN  ft; OVC  ft","METAR CYCO 011600Z 24012KT 10SM -SN BKN007 OVC015 M24/M26 A3004 RMK ST7SC1 SLP179",2025-12-01 16:39:30.484691,2025-12-01 11:39:30.484691
"CYER",2025-12-01 17:00:00,2025-12-01 12:00:00,"VFR",-21,-25,70,260,13,14500,29.85,NA,"SCT  ft","METAR CYER 011700Z AUTO 26013G21KT 9SM SCT240 M21/M25 A2985 RMK SLP113",2025-12-01 17:29:59.648571,2025-12-01 12:29:59.648571
"CYAT",2025-12-01 17:00:00,2025-12-01 12:00:00,"VFR",-11,-14,79,240,10,14500,29.95,NA,"BKN  ft","METAR CYAT 011700Z AUTO 24010G15KT 9SM BKN086 M11/M14 A2995 RMK SLP146",2025-12-01 17:29:59.733835,2025-12-01 12:29:59.733835
"CYMO",2025-12-01 17:00:00,2025-12-01 12:00:00,"VFR",-10,-15,67,230,12,14500,30.09,NA,"SCT  ft; OVC  ft","METAR CYMO 011700Z AUTO 23012G17KT 9SM SCT026 OVC081 M10/M15 A3009 RMK SLP192",2025-12-01 17:29:59.811458,2025-12-01 12:29:59.811458
"CYPL",2025-12-01 17:00:00,2025-12-01 12:00:00,"VFR",-11,-16,67,230,7,14500,29.97,NA,"OVC  ft","METAR CYPL 011700Z AUTO 23007KT 210V280 9SM OVC035 M11/M16 A2997 RMK SLP184",2025-12-01 17:29:59.888467,2025-12-01 12:29:59.888467
"CYQT",2025-12-01 17:00:00,2025-12-01 12:00:00,"VFR",-9,-16,57,300,9,32200,30.13,NA,"OVC  ft","METAR CYQT 011700Z 30009KT 20SM -SN OVC033 M09/M16 A3013 RMK SC8 -SN INTMT SLP222",2025-12-01 17:29:59.964461,2025-12-01 12:29:59.964461
"CYAM",2025-12-01 17:00:00,2025-12-01 12:00:00,"MVFR",-5,-10,68,230,5,40200,30.24,NA,"FEW  ft; BKN  ft; BKN  ft","METAR CYAM 011700Z CCA 23005KT 180V260 25SM FEW024 BKN028 BKN210 M05/M10 A3024 RMK CU2SC3CI2 SLP255",2025-12-01 17:30:00.039243,2025-12-01 12:30:00.039243
"CYTS",2025-12-01 17:00:00,2025-12-01 12:00:00,"VFR",-11,-14,79,150,5,9700,30.17,NA,"OVC  ft","METAR CYTS 011700Z 15005KT 6SM -SN OVC031 M11/M14 A3017 RMK SC8 PRESFR SLP245",2025-12-01 17:30:00.116803,2025-12-01 12:30:00.116803
"CYSB",2025-12-01 17:00:00,2025-12-01 12:00:00,"VFR",-10,-15,67,180,9,32200,30.26,NA,"OVC  ft","METAR CYSB 011700Z 18009KT 20SM -SN OVC038 M10/M15 A3026 RMK SC8 SLP277",2025-12-01 17:30:00.193324,2025-12-01 12:30:00.193324
"CYYB",2025-12-01 17:00:00,2025-12-01 12:00:00,"VFR",-9,-15,62,210,3,48300,30.29,NA,"OVC  ft","METAR CYYB 011700Z 21003KT 30SM OVC032 M09/M15 A3029 RMK SC8 SLP289",2025-12-01 17:30:00.269343,2025-12-01 12:30:00.269343
"CYOW",2025-12-01 17:00:00,2025-12-01 12:00:00,"VFR",-8,-14,62,300,9,24100,30.39,NA,"SCT  ft","METAR CYOW 011700Z 30009KT 15SM SCT024 M08/M14 A3039 RMK SC4 SLP301",2025-12-01 17:30:00.391602,2025-12-01 12:30:00.391602
"CYGK",2025-12-01 17:00:00,2025-12-01 12:00:00,"VFR",-5,-12,58,0,5,24100,30.42,NA,"FEW  ft","METAR CYGK 011700Z VRB05KT 15SM FEW024 M05/M12 A3042 RMK SC2 SLP307",2025-12-01 17:30:00.508416,2025-12-01 12:30:00.508416
"CYQG",2025-12-01 17:00:00,2025-12-01 12:00:00,"VFR",-2,-7,69,140,3,14500,30.4,NA,"FEW  ft; SCT  ft","METAR CYQG 011700Z AUTO 14003KT 100V160 9SM FEW160 SCT180 M02/M07 A3040 RMK SLP307",2025-12-01 17:30:00.625421,2025-12-01 12:30:00.625421
"CYVV",2025-12-01 17:00:00,2025-12-01 12:00:00,"VFR",-5,-8,80,190,8,9999,30.34,NA,"OVC  ft","METAR CYVV 011700Z 19008KT 10SM -SN OVC040 M05/M08 A3034 RMK SC8 SLP291",2025-12-01 17:30:00.743423,2025-12-01 12:30:00.743423
"CYYZ",2025-12-01 17:00:00,2025-12-01 12:00:00,"VFR",-3,-10,59,260,4,24100,30.39,NA,"FEW  ft; BKN  ft; BKN  ft","METAR CYYZ 011700Z 26004KT 210V280 15SM FEW025 BKN042 BKN260 M03/M10 A3039 RMK CU1SC6CI1 CU TR SLP303",2025-12-01 17:30:00.821429,2025-12-01 12:30:00.821429
"CYQA",2025-12-01 17:00:00,2025-12-01 12:00:00,"VFR",-8,-13,68,0,2,14500,30.36,NA,"SCT  ft","METAR CYQA 011700Z AUTO VRB02KT 9SM SCT038 M08/M13 A3036 RMK SLP301",2025-12-01 17:30:00.898287,2025-12-01 12:30:00.898287
"CYVR",2025-12-01 17:00:00,2025-12-01 12:00:00,"VFR",4,4,100,100,5,40200,30.29,NA,"FEW  ft; OVC  ft","METAR CYVR 011700Z 10005KT 25SM FEW026 OVC051 04/04 A3029 RMK CU1SC8 CU TR SLP259",2025-12-01 17:30:01.013081,2025-12-01 12:30:01.013081
"CYYJ",2025-12-01 17:00:00,2025-12-01 12:00:00,"MVFR",5,5,100,220,3,24100,30.29,NA,"BKN  ft; OVC  ft","METAR CYYJ 011700Z 22003KT 15SM BKN015 OVC060 05/05 A3029 RMK SC5SC3 SLP258",2025-12-01 17:30:01.139813,2025-12-01 12:30:01.139813
"CYLW",2025-12-01 17:15:00,2025-12-01 12:15:00,"MVFR",-1,-1,100,180,6,4800,30.26,NA,"BKN  ft; BKN  ft; OVC  ft","SPECI CYLW 011715Z AUTO 18006KT 3SM -SN BKN021 BKN027 OVC032 M01/M01 A3026 RMK SLP268",2025-12-01 17:30:01.259321,2025-12-01 12:30:01.259321
"CYXS",2025-12-01 17:00:00,2025-12-01 12:00:00,"VFR",-2,-3,93,190,15,14500,29.94,NA,"OVC  ft","METAR CYXS 011700Z AUTO 19015G22KT 9SM OVC033 M02/M03 A2994 RMK SLP179",2025-12-01 17:30:01.377101,2025-12-01 12:30:01.377101
"CYXT",2025-12-01 17:21:00,2025-12-01 12:21:00,"LIFR",0,0,100,0,0,NA,30.01,NA,"OVX  ft","SPECI CYXT 011721Z 00000KT 1/4SM FG VV002 00/00 A3001 RMK FG8 SLP174",2025-12-01 17:30:01.497338,2025-12-01 12:30:01.497338
"CYQQ",2025-12-01 17:00:00,2025-12-01 12:00:00,"MVFR",5,4,93,200,3,32200,30.28,NA,"FEW  ft; BKN  ft; OVC  ft","METAR CYQQ 011700Z 20003KT 180V250 20SM FEW012 BKN018 OVC050 05/04 A3028 RMK SF1SC6SC2 DENSITY ALT -1483FT SLP254",2025-12-01 17:30:01.586718,2025-12-01 12:30:01.586718
"CYYC",2025-12-01 17:00:00,2025-12-01 12:00:00,"VFR",-5,-10,68,230,9,64400,29.79,NA,"SCT  ft; SCT  ft; BKN  ft","METAR CYYC 011700Z 23009KT 40SM SCT059 SCT190 BKN250 M05/M10 A2979 RMK SC3AC1CI3 SLP152",2025-12-01 17:30:01.705885,2025-12-01 12:30:01.705885
"CYEG",2025-12-01 17:00:00,2025-12-01 12:00:00,"VFR",-2,-5,80,190,6,32200,29.74,NA,"OVC  ft","METAR CYEG 011700Z 19006KT 20SM OVC041 M02/M05 A2974 RMK SC8 SLP113",2025-12-01 17:30:01.800275,2025-12-01 12:30:01.800275
"CYMM",2025-12-01 17:19:00,2025-12-01 12:19:00,"VFR",-10,-13,79,110,7,11300,29.71,NA,"FEW  ft; BKN  ft; BKN  ft; OVC  ft","SPECI CYMM 011719Z AUTO 11007KT 7SM -SN FEW026 BKN041 BKN066 OVC085 M10/M13 A2971 RMK SLP094",2025-12-01 17:30:01.921687,2025-12-01 12:30:01.921687
"CYQF",2025-12-01 17:00:00,2025-12-01 12:00:00,"VFR",-5,-9,74,210,7,14500,29.77,NA,"OVC  ft","METAR CYQF 011700Z AUTO 21007KT 9SM OVC055 M05/M09 A2977 RMK SLP135",2025-12-01 17:30:02.058616,2025-12-01 12:30:02.058616
"CYXE",2025-12-01 17:00:00,2025-12-01 12:00:00,"IFR",-18,-20,84,230,4,8000,29.93,NA,"BKN  ft; OVC  ft","METAR CYXE 011700Z 23004KT 5SM BR BKN005 OVC110 M18/M20 A2993 RMK ST5AC3 SLP189",2025-12-01 17:30:02.153418,2025-12-01 12:30:02.153418
"CYQR",2025-12-01 17:00:00,2025-12-01 12:00:00,"VFR",-15,-18,78,310,7,24100,29.92,NA,"BKN  ft","METAR CYQR 011700Z 31007KT 15SM BKN210 M15/M18 A2992 RMK CI6 SLP190",2025-12-01 17:30:02.273188,2025-12-01 12:30:02.273188
"CYWG",2025-12-01 17:00:00,2025-12-01 12:00:00,"VFR",-14,-17,78,190,9,24100,29.99,NA,"BKN  ft","METAR CYWG 011700Z 19009KT 15SM BKN110 M14/M17 A2999 RMK AC7 SLP181",2025-12-01 17:30:02.421908,2025-12-01 12:30:02.421908
"CYBR",2025-12-01 17:00:00,2025-12-01 12:00:00,"VFR",-16,-19,78,290,7,24100,29.92,NA,"BKN  ft","METAR CYBR 011700Z 29007KT 15SM BKN095 M16/M19 A2992 RMK AC6 SLP178",2025-12-01 17:30:02.584464,2025-12-01 12:30:02.584464
"CYUL",2025-12-01 17:00:00,2025-12-01 12:00:00,"MVFR",-6,-11,68,260,12,48300,30.37,NA,"BKN  ft","METAR CYUL 011700Z 26012KT 30SM BKN025 M06/M11 A3037 RMK SC6 SLP289",2025-12-01 17:30:02.733836,2025-12-01 12:30:02.733836
"CYHU",2025-12-01 17:00:00,2025-12-01 12:00:00,"VFR",-5,-11,63,290,11,14500,30.35,NA,"FEW  ft","METAR CYHU 011700Z AUTO 29011G16KT 9SM FEW028 M05/M11 A3035 RMK SLP281",2025-12-01 17:30:02.813781,2025-12-01 12:30:02.813781
"CYQB",2025-12-01 17:00:00,2025-12-01 12:00:00,"VFR",-6,-13,58,270,6,48300,30.25,NA,"FEW  ft","METAR CYQB 011700Z 27006KT 250V310 30SM FEW027 M06/M13 A3025 RMK SC1 SLP250",2025-12-01 17:30:02.947895,2025-12-01 12:30:02.947895
"CYVO",2025-12-01 17:00:00,2025-12-01 12:00:00,"MVFR",-13,-16,78,240,8,24100,30.26,NA,"OVC  ft","METAR CYVO 011700Z 24008G16KT 15SM -SN OVC021 M13/M16 A3026 RMK SC8 SLP282",2025-12-01 17:30:03.055896,2025-12-01 12:30:03.055896
"CYUY",2025-12-01 17:00:00,2025-12-01 12:00:00,"VFR",-11,-15,73,220,8,24100,30.24,NA,"OVC  ft","METAR CYUY 011700Z 22008KT 15SM -SN OVC035 M11/M15 A3024 RMK SC8 SLP268",2025-12-01 17:30:03.234957,2025-12-01 12:30:03.234957
"CYZV",2025-12-01 17:00:00,2025-12-01 12:00:00,"VFR",-4,-9,69,330,9,48300,29.86,NA,"FEW  ft; SCT  ft","METAR CYZV 011700Z 33009G17KT 30SM FEW021 SCT036 M04/M09 A2986 RMK SF1SC4 SF TR PCPN DIST N SLP116",2025-12-01 17:30:03.403558,2025-12-01 12:30:03.403558
"CYBC",2025-12-01 17:00:00,2025-12-01 12:00:00,"MVFR",-6,-11,68,310,11,14500,30.05,NA,"BKN  ft","METAR CYBC 011700Z AUTO 31011G20KT 9SM BKN030 M06/M11 A3005 RMK SLP178",2025-12-01 17:30:03.589605,2025-12-01 12:30:03.589605
"CYRJ",2025-12-01 17:00:00,2025-12-01 12:00:00,"MVFR",-9,-16,57,270,12,64400,30.22,NA,"BKN  ft","METAR CYRJ 011700Z 27012G17KT 40SM BKN029 M09/M16 A3022 RMK SC6 SLP247",2025-12-01 17:30:03.735386,2025-12-01 12:30:03.735386
"CYHZ",2025-12-01 17:00:00,2025-12-01 12:00:00,"VFR",7,3,76,280,13,24100,29.85,NA,"SCT  ft; SCT  ft; BKN  ft","METAR CYHZ 011700Z 28013G18KT 15SM SCT060 SCT080 BKN220 07/03 A2985 RMK CU3AC1CI4 AC TR SF ASOCTD SLP114",2025-12-01 17:30:03.813176,2025-12-01 12:30:03.813176
"CYYG",2025-12-01 17:00:00,2025-12-01 12:00:00,"VFR",6,0,66,290,12,24100,29.82,NA,"SCT  ft; BKN  ft; BKN  ft","METAR CYYG 011700Z 29012G21KT 15SM SCT028 BKN078 BKN250 06/00 A2982 RMK CU4AC1CI1 SLP101",2025-12-01 17:30:03.889505,2025-12-01 12:30:03.889505
"CYQM",2025-12-01 17:00:00,2025-12-01 12:00:00,"MVFR",4,1,81,270,11,24100,29.86,NA,"BKN  ft; BKN  ft","METAR CYQM 011700Z 27011G21KT 15SM BKN012 BKN030 04/01 A2986 RMK SC6SC1 CU ASOCTD SLP116",2025-12-01 17:30:03.966216,2025-12-01 12:30:03.966216
"CYFC",2025-12-01 17:20:00,2025-12-01 12:20:00,"VFR",3,-1,75,300,16,14500,29.95,NA,"FEW  ft; SCT  ft; BKN  ft","SPECI CYFC 011720Z AUTO 30016G27KT 9SM FEW027 SCT043 BKN066 03/M01 A2995 RMK SLP144",2025-12-01 17:30:04.093206,2025-12-01 12:30:04.093206
"CYYT",2025-12-01 17:23:00,2025-12-01 12:23:00,"IFR",5,5,100,180,22,4800,30.02,NA,"OVC  ft","SPECI CYYT 011723Z 18022G33KT 3SM -SHRA BR OVC005 05/05 A3002 RMK ST8 TCU EMBD SLP173",2025-12-01 17:30:04.197541,2025-12-01 12:30:04.197541
"CYQY",2025-12-01 17:00:00,2025-12-01 12:00:00,"MVFR",7,7,100,290,12,11300,29.75,NA,"FEW  ft; OVC  ft","METAR CYQY 011700Z 29012G18KT 7SM FEW008 OVC030 07/07 A2975 RMK NS2SC6 SLP077",2025-12-01 17:30:04.29026,2025-12-01 12:30:04.29026
"CYXY",2025-12-01 17:00:00,2025-12-01 12:00:00,"VFR",0,-2,87,170,3,24100,29.51,NA,"FEW  ft; SCT  ft; BKN  ft; BKN  ft","METAR CYXY 011700Z 17003KT 080V190 15SM FEW004 SCT054 BKN160 BKN190 M00/M02 A2951 RMK ST1SC4AC1CI2 ST TR SLP035",2025-12-01 17:30:04.381091,2025-12-01 12:30:04.381091
"CYZF",2025-12-01 17:00:00,2025-12-01 12:00:00,"MVFR",-12,-14,85,40,7,9700,29.8,NA,"OVC  ft","METAR CYZF 011700Z 04007KT 6SM -SN OVC013 M12/M14 A2980 RMK SC8 SLP115",2025-12-01 17:30:04.501176,2025-12-01 12:30:04.501176
"CYFB",2025-12-01 17:00:00,2025-12-01 12:00:00,"VFR",-7,-13,63,190,11,48300,29.43,NA,"FEW  ft; FEW  ft; SCT  ft; BKN  ft","METAR CYFB 011700Z 19011G21KT 30SM DRSN FEW010 FEW031 SCT110 BKN180 M07/M13 A2943 RMK SC1SC1AC2AC3 SC TR CU ASOCTD SLP970",2025-12-01 17:30:04.618705,2025-12-01 12:30:04.618705
"CYRT",2025-12-01 17:00:00,2025-12-01 12:00:00,"VFR",-31,-34,75,340,14,9999,29.72,NA,"FEW  ft","METAR CYRT 011700Z CCA 34014KT 10SM IC DRSN FEW010 M31/M34 A2972 RMK SC1 SLP073",2025-12-01 17:30:04.738022,2025-12-01 12:30:04.738022
"CYBK",2025-12-01 17:00:00,2025-12-01 12:00:00,"VFR",-26,-29,76,280,12,32200,29.78,NA,"FEW  ft; BKN  ft","METAR CYBK 011700Z 28012KT 20SM IC FEW025 BKN055 M26/M29 A2978 RMK SC2SC4 SLP089",2025-12-01 17:30:04.817843,2025-12-01 12:30:04.817843
"CYRB",2025-12-01 17:00:00,2025-12-01 12:00:00,"VFR",-21,-25,70,50,26,40200,29.73,NA,"FEW  ft","METAR CYRB 011700Z 05026KT 25SM IC DRSN FEW050 M21/M25 A2973 RMK SC2 SLP082",2025-12-01 17:30:04.974361,2025-12-01 12:30:04.974361
"CYCO",2025-12-01 17:00:00,2025-12-01 12:00:00,"IFR",-24,-26,84,240,13,12900,30.04,NA,"OVC  ft","METAR CYCO 011700Z 24013KT 8SM -SN OVC007 M24/M26 A3004 RMK ST8 SLP180",2025-12-01 17:30:05.097962,2025-12-01 12:30:05.097962
"CYER",2025-12-01 18:00:00,2025-12-01 13:00:00,"VFR",-20,-25,65,270,13,14500,29.85,NA,"FEW  ft","METAR CYER 011800Z AUTO 27013G19KT 9SM FEW240 M20/M25 A2985 RMK SLP111",2025-12-01 18:45:41.715455,2025-12-01 13:45:41.715455
"CYAT",2025-12-01 18:38:00,2025-12-01 13:38:00,"VFR",-9,-13,73,250,13,14500,29.93,NA,"FEW  ft; SCT  ft","SPECI CYAT 011838Z AUTO 25013KT 9SM -SN FEW031 SCT081 M09/M13 A2993 RMK SLP138",2025-12-01 18:45:41.794952,2025-12-01 13:45:41.794952
"CYMO",2025-12-01 18:00:00,2025-12-01 13:00:00,"VFR",-9,-14,67,220,14,14500,30.06,NA,"SCT  ft; OVC  ft","METAR CYMO 011800Z AUTO 22014G19KT 9SM SCT028 OVC081 M09/M14 A3006 RMK SLP184",2025-12-01 18:45:41.870157,2025-12-01 13:45:41.870157
"CYPL",2025-12-01 18:42:00,2025-12-01 13:42:00,"MVFR",-11,-16,67,260,8,14500,29.92,NA,"BKN  ft; BKN  ft; OVC  ft","SPECI CYPL 011842Z AUTO 26008G16KT 9SM -SN BKN028 BKN034 OVC043 M11/M16 A2992 RMK SLP166",2025-12-01 18:45:41.943541,2025-12-01 13:45:41.943541
"CYQT",2025-12-01 18:00:00,2025-12-01 13:00:00,"VFR",-9,-16,57,280,12,32200,30.11,NA,"BKN  ft","METAR CYQT 011800Z 28012G18KT 20SM BKN033 M09/M16 A3011 RMK SC7 SLP213",2025-12-01 18:45:41.984182,2025-12-01 13:45:41.984182
"CYAM",2025-12-01 18:00:00,2025-12-01 13:00:00,"VFR",-4,-9,69,220,6,40200,30.2,NA,"SCT  ft; BKN  ft; BKN  ft","METAR CYAM 011800Z 22006KT 190V250 25SM SCT019 BKN180 BKN210 M04/M09 A3020 RMK CU4AC1CI2 SLP243",2025-12-01 18:45:42.055987,2025-12-01 13:45:42.055987
"CYTS",2025-12-01 18:00:00,2025-12-01 13:00:00,"IFR",-10,-13,79,150,7,3200,30.13,NA,"OVC  ft","METAR CYTS 011800Z CCA 15007KT 2SM -SN OVC025 M10/M13 A3013 RMK SC8 SLP232",2025-12-01 18:45:42.128205,2025-12-01 13:45:42.128205
"CYSB",2025-12-01 18:00:00,2025-12-01 13:00:00,"VFR",-9,-14,67,160,10,24100,30.22,NA,"OVC  ft","METAR CYSB 011800Z 16010KT 15SM -SN OVC036 M09/M14 A3022 RMK SC8 SLP263",2025-12-01 18:45:42.202358,2025-12-01 13:45:42.202358
"CYYB",2025-12-01 18:00:00,2025-12-01 13:00:00,"VFR",-9,-13,73,140,5,48300,30.25,NA,"OVC  ft","METAR CYYB 011800Z 14005KT 100V180 30SM -SN OVC036 M09/M13 A3025 RMK SC8 PRESFR SLP274",2025-12-01 18:45:42.233731,2025-12-01 13:45:42.233731
"CYOW",2025-12-01 18:00:00,2025-12-01 13:00:00,"VFR",-8,-14,62,290,7,24100,30.37,NA,"SCT  ft","METAR CYOW 011800Z CCA 29007KT 15SM SCT028 M08/M14 A3037 RMK SC3 SLP294",2025-12-01 18:45:42.304659,2025-12-01 13:45:42.304659
"CYGK",2025-12-01 18:00:00,2025-12-01 13:00:00,"VFR",-5,-13,54,0,0,24100,30.39,NA,"FEW  ft; FEW  ft","METAR CYGK 011800Z 00000KT 15SM FEW025 FEW250 M05/M13 A3039 RMK SC1CI1 SLP298",2025-12-01 18:45:42.380177,2025-12-01 13:45:42.380177
"CYQG",2025-12-01 18:00:00,2025-12-01 13:00:00,"VFR",-2,-9,59,170,4,14500,30.37,NA,"SCT  ft; BKN  ft","METAR CYQG 011800Z AUTO 17004KT 9SM SCT170 BKN190 M02/M09 A3037 RMK SLP294",2025-12-01 18:45:42.412229,2025-12-01 13:45:42.412229
"CYVV",2025-12-01 18:00:00,2025-12-01 13:00:00,"VFR",-5,-8,80,170,8,22500,30.3,NA,"OVC  ft","METAR CYVV 011800Z 17008KT 14SM -SN OVC036 M05/M08 A3030 RMK SC8 SLP277",2025-12-01 18:45:42.486035,2025-12-01 13:45:42.486035
"CYYZ",2025-12-01 18:35:00,2025-12-01 13:35:00,"VFR",-3,-8,69,160,5,24100,30.35,NA,"FEW  ft; OVC  ft","SPECI CYYZ 011835Z 16005KT 130V200 15SM -SN FEW030 OVC040 M03/M08 A3035 RMK CU1SC8 CU TR SLP288",2025-12-01 18:45:42.559346,2025-12-01 13:45:42.559346
"CYQA",2025-12-01 18:00:00,2025-12-01 13:00:00,"VFR",-7,-13,63,0,0,14500,30.31,NA,"SCT  ft","METAR CYQA 011800Z AUTO 00000KT 9SM SCT038 M07/M13 A3031 RMK SLP285",2025-12-01 18:45:42.637636,2025-12-01 13:45:42.637636
"CYVR",2025-12-01 18:00:00,2025-12-01 13:00:00,"MVFR",5,4,93,110,5,40200,30.29,NA,"BKN  ft; BKN  ft","METAR CYVR 011800Z 11005KT 25SM BKN020 BKN046 05/04 A3029 RMK SC5SC2 SLP260",2025-12-01 18:45:42.712989,2025-12-01 13:45:42.712989
"CYYJ",2025-12-01 18:00:00,2025-12-01 13:00:00,"VFR",6,5,93,0,0,24100,30.29,NA,"FEW  ft; SCT  ft; BKN  ft; BKN  ft","METAR CYYJ 011800Z 00000KT 15SM FEW008 SCT017 BKN071 BKN100 06/05 A3029 RMK SC1SC3AC3AC1 SC TR SLP260",2025-12-01 18:45:42.787404,2025-12-01 13:45:42.787404
"CYLW",2025-12-01 18:40:00,2025-12-01 13:40:00,"MVFR",-1,-1,100,190,3,4800,30.24,NA,"FEW  ft; BKN  ft; BKN  ft; OVC  ft","SPECI CYLW 011840Z AUTO 19003KT 3SM -SN FEW005 BKN030 BKN039 OVC060 M01/M01 A3024 RMK SLP263",2025-12-01 18:45:42.863418,2025-12-01 13:45:42.863418
"CYXS",2025-12-01 18:00:00,2025-12-01 13:00:00,"VFR",-1,-3,86,180,16,14500,29.95,NA,"OVC  ft","METAR CYXS 011800Z AUTO 18016G21KT 9SM OVC031 M01/M03 A2995 RMK SLP181",2025-12-01 18:45:42.9369,2025-12-01 13:45:42.9369
"CYXT",2025-12-01 18:32:00,2025-12-01 13:32:00,"LIFR",0,0,100,0,2,1200,30.01,NA,"OVC  ft","SPECI CYXT 011832Z VRB02KT 3/4SM -RA BR OVC002 00/00 A3001 RMK FG2SF6 SLP174",2025-12-01 18:45:43.010029,2025-12-01 13:45:43.010029
"CYQQ",2025-12-01 18:07:00,2025-12-01 13:07:00,"MVFR",5,4,93,210,2,8000,30.28,NA,"BKN  ft; OVC  ft","SPECI CYQQ 011807Z 21002KT 5SM -RA BR BKN012 OVC045 05/04 A3028 RMK SC7SC1 DENSITY ALT -1458FT SLP255",2025-12-01 18:45:43.082253,2025-12-01 13:45:43.082253
"CYYC",2025-12-01 18:00:00,2025-12-01 13:00:00,"VFR",-2,-9,59,220,4,64400,29.78,NA,"FEW  ft; SCT  ft; BKN  ft","METAR CYYC 011800Z 22004KT 40SM FEW060 SCT100 BKN190 M02/M09 A2978 RMK SC2AC2AC3 VIRGA S AND W SLP143",2025-12-01 18:45:43.154084,2025-12-01 13:45:43.154084
"CYEG",2025-12-01 18:39:00,2025-12-01 13:39:00,"IFR",0,-1,93,260,13,2000,29.71,NA,"OVC  ft","SPECI CYEG 011839Z 26013KT 1 1/4SM -SN OVC030 00/M01 A2971 RMK SN2SC6 SLP101",2025-12-01 18:45:43.225396,2025-12-01 13:45:43.225396
"CYMM",2025-12-01 18:00:00,2025-12-01 13:00:00,"VFR",-10,-12,85,110,8,14500,29.69,NA,"OVC  ft","METAR CYMM 011800Z AUTO 11008KT 9SM -SN OVC041 M10/M12 A2969 RMK PRESFR SLP087",2025-12-01 18:45:43.301347,2025-12-01 13:45:43.301347
"CYQF",2025-12-01 18:00:00,2025-12-01 13:00:00,"VFR",-3,-9,64,240,7,14500,29.76,NA,"OVC  ft","METAR CYQF 011800Z AUTO 24007KT 9SM OVC055 M03/M09 A2976 RMK SLP134",2025-12-01 18:45:43.374,2025-12-01 13:45:43.374
"CYXE",2025-12-01 18:00:00,2025-12-01 13:00:00,"IFR",-17,-19,85,230,5,4800,29.89,NA,"BKN  ft; OVC  ft","METAR CYXE 011800Z 23005KT 3SM BR BKN005 OVC120 M17/M19 A2989 RMK ST5AC3 SLP177",2025-12-01 18:45:43.446908,2025-12-01 13:45:43.446908
"CYQR",2025-12-01 18:00:00,2025-12-01 13:00:00,"VFR",-14,-17,78,290,10,24100,29.92,NA,"FEW  ft; SCT  ft","METAR CYQR 011800Z 29010KT 15SM FEW006 SCT210 M14/M17 A2992 RMK SF1CI4 SF TR SLP188",2025-12-01 18:45:43.520039,2025-12-01 13:45:43.520039
"CYWG",2025-12-01 18:00:00,2025-12-01 13:00:00,"VFR",-13,-16,78,200,7,24100,29.97,NA,"BKN  ft","METAR CYWG 011800Z 20007KT 15SM BKN110 M13/M16 A2997 RMK AC7 SLP173",2025-12-01 18:45:43.592889,2025-12-01 13:45:43.592889
"CYBR",2025-12-01 18:00:00,2025-12-01 13:00:00,"VFR",-14,-17,78,290,7,24100,29.91,NA,"SCT  ft","METAR CYBR 011800Z 29007KT 15SM SCT095 M14/M17 A2991 RMK AC4 SLP170",2025-12-01 18:45:43.624275,2025-12-01 13:45:43.624275
"CYUL",2025-12-01 18:30:00,2025-12-01 13:30:00,"MVFR",-6,-11,68,270,11,24100,30.35,NA,"FEW  ft; BKN  ft","SPECI CYUL 011830Z 27011KT 15SM -SHSN FEW018 BKN023 M06/M11 A3035 RMK CU1SC5 SLP283",2025-12-01 18:45:43.697375,2025-12-01 13:45:43.697375
"CYHU",2025-12-01 18:00:00,2025-12-01 13:00:00,"MVFR",-6,-11,68,300,9,14500,30.34,NA,"BKN  ft","METAR CYHU 011800Z AUTO 30009KT 9SM BKN028 M06/M11 A3034 RMK SLP279",2025-12-01 18:45:43.768631,2025-12-01 13:45:43.768631
"CYQB",2025-12-01 18:00:00,2025-12-01 13:00:00,"VFR",-7,-13,63,270,8,48300,30.26,NA,"SCT  ft","METAR CYQB 011800Z 27008KT 250V320 30SM SCT027 M07/M13 A3026 RMK SC3 SLP254",2025-12-01 18:45:43.840625,2025-12-01 13:45:43.840625
"CYVO",2025-12-01 18:00:00,2025-12-01 13:00:00,"VFR",-12,-15,79,200,8,9999,30.23,NA,"SCT  ft; BKN  ft","METAR CYVO 011800Z 20008G16KT 10SM SCT032 BKN040 M12/M15 A3023 RMK SC3SC2 SLP271",2025-12-01 18:45:43.911998,2025-12-01 13:45:43.911998
"CYUY",2025-12-01 18:37:00,2025-12-01 13:37:00,"VFR",-10,-14,73,190,7,24100,30.18,NA,"OVC  ft","SPECI CYUY 011837Z 19007KT 180V240 15SM OVC044 M10/M14 A3018 RMK SC8 SLP247",2025-12-01 18:45:43.98391,2025-12-01 13:45:43.98391
"CYZV",2025-12-01 18:00:00,2025-12-01 13:00:00,"VFR",-5,-12,58,300,12,48300,29.9,NA,"SCT  ft; BKN  ft","METAR CYZV 011800Z CCA 30012G22KT 30SM DRSN SCT036 BKN200 M05/M12 A2990 RMK CF3CI2 SLP130",2025-12-01 18:45:44.056219,2025-12-01 13:45:44.056219
"CYBC",2025-12-01 18:00:00,2025-12-01 13:00:00,"MVFR",-7,-13,63,300,13,14500,30.08,NA,"BKN  ft","METAR CYBC 011800Z AUTO 30013G19KT 9SM BKN030 M07/M13 A3008 RMK SLP190",2025-12-01 18:45:44.087106,2025-12-01 13:45:44.087106
"CYRJ",2025-12-01 18:00:00,2025-12-01 13:00:00,"MVFR",-10,-16,62,330,5,40200,30.21,NA,"BKN  ft","METAR CYRJ 011800Z 33005KT 25SM BKN028 M10/M16 A3021 RMK SC6 SLP247",2025-12-01 18:45:44.161169,2025-12-01 13:45:44.161169
"CYHZ",2025-12-01 18:27:00,2025-12-01 13:27:00,"VFR",5,3,87,290,10,24100,29.87,NA,"FEW  ft; FEW  ft; FEW  ft; BKN  ft","SPECI CYHZ 011827Z 29010KT 15SM FEW018 FEW060 FEW070 BKN220 05/03 A2987 RMK CF1CU2AC1CI4 CF TR AC TR SLP121",2025-12-01 18:45:44.194278,2025-12-01 13:45:44.194278
"CYYG",2025-12-01 18:00:00,2025-12-01 13:00:00,"VFR",5,0,70,270,14,24100,29.83,NA,"SCT  ft; SCT  ft; BKN  ft","METAR CYYG 011800Z 27014G23KT 15SM SCT028 SCT057 BKN250 05/00 A2983 RMK CU3SC1CI1 SLP105",2025-12-01 18:45:44.265539,2025-12-01 13:45:44.265539
"CYQM",2025-12-01 18:00:00,2025-12-01 13:00:00,"MVFR",4,0,75,270,12,24100,29.87,NA,"FEW  ft; BKN  ft","METAR CYQM 011800Z 27012KT 15SM FEW010 BKN030 04/M00 A2987 RMK CF1SC6 SH SW AND N SLP121",2025-12-01 18:45:44.337547,2025-12-01 13:45:44.337547
"CYFC",2025-12-01 18:00:00,2025-12-01 13:00:00,"VFR",2,-3,70,300,14,14500,29.99,NA,"SCT  ft; BKN  ft","METAR CYFC 011800Z AUTO 30014G28KT 9SM SCT029 BKN034 02/M03 A2999 RMK PRESRR SLP158",2025-12-01 18:45:44.410745,2025-12-01 13:45:44.410745
"CYYT",2025-12-01 18:39:00,2025-12-01 13:39:00,"IFR",5,5,100,190,23,8000,29.93,NA,"OVC  ft","SPECI CYYT 011839Z 19023G33KT 5SM -RA BR OVC005 05/05 A2993 RMK ST8 VIS LWR E-SE PRESFR SLP143",2025-12-01 18:45:44.482999,2025-12-01 13:45:44.482999
"CYQY",2025-12-01 18:10:00,2025-12-01 13:10:00,"MVFR",7,6,93,290,10,24100,29.75,NA,"FEW  ft; BKN  ft","SPECI CYQY 011810Z 29010KT 15SM FEW013 BKN021 07/06 A2975 RMK SF2SC5 SLP080",2025-12-01 18:45:44.558969,2025-12-01 13:45:44.558969
"CYXY",2025-12-01 18:00:00,2025-12-01 13:00:00,"VFR",-1,-2,93,190,10,64400,29.52,NA,"FEW  ft; BKN  ft; BKN  ft","METAR CYXY 011800Z 19010KT 40SM FEW008 BKN056 BKN220 M01/M02 A2952 RMK SF1SC5CI2 SF TR SLP039",2025-12-01 18:45:44.635301,2025-12-01 13:45:44.635301
"CYZF",2025-12-01 18:00:00,2025-12-01 13:00:00,"MVFR",-12,-13,92,50,8,24100,29.8,NA,"OVC  ft","METAR CYZF 011800Z 05008KT 15SM -SN OVC014 M12/M13 A2980 RMK SC8 SLP114",2025-12-01 18:45:44.70929,2025-12-01 13:45:44.70929
"CYFB",2025-12-01 18:00:00,2025-12-01 13:00:00,"VFR",-8,-14,62,190,11,48300,29.43,NA,"FEW  ft; BKN  ft; BKN  ft","METAR CYFB 011800Z 19011KT 30SM FEW028 BKN140 BKN180 M08/M14 A2943 RMK CU1AC5AC2 CU TR SLP972",2025-12-01 18:45:44.74252,2025-12-01 13:45:44.74252
"CYRT",2025-12-01 18:00:00,2025-12-01 13:00:00,"VFR",-31,-34,75,340,15,9999,29.72,NA,"FEW  ft","METAR CYRT 011800Z 34015KT 10SM IC DRSN FEW010 M31/M34 A2972 RMK SC1 SLP072",2025-12-01 18:45:44.814206,2025-12-01 13:45:44.814206
"CYBK",2025-12-01 18:00:00,2025-12-01 13:00:00,"VFR",-27,-30,76,280,11,32200,29.76,NA,"FEW  ft; SCT  ft; BKN  ft","METAR CYBK 011800Z 28011KT 20SM IC FEW025 SCT046 BKN060 M27/M30 A2976 RMK SC1SC1SC4 SLP084",2025-12-01 18:45:44.885809,2025-12-01 13:45:44.885809
"CYRB",2025-12-01 18:00:00,2025-12-01 13:00:00,"VFR",-20,-24,71,50,28,40200,29.74,NA,"FEW  ft","METAR CYRB 011800Z 05028KT 25SM IC DRSN FEW050 M20/M24 A2974 RMK SC1 SLP085",2025-12-01 18:45:44.968261,2025-12-01 13:45:44.968261
"CYCO",2025-12-01 18:00:00,2025-12-01 13:00:00,"IFR",-24,-26,84,250,13,9700,30.05,NA,"OVC  ft","METAR CYCO 011800Z 25013KT 6SM -SN BR OVC007 M24/M26 A3005 RMK ST8 SLP183",2025-12-01 18:45:45.039051,2025-12-01 13:45:45.039051
"CYER",2025-12-01 19:00:00,2025-12-01 14:00:00,"VFR",-20,-25,65,260,12,14500,29.84,NA,"SCT  ft","METAR CYER 011900Z AUTO 26012G21KT 9SM SCT240 M20/M25 A2984 RMK SLP107",2025-12-01 19:28:56.486298,2025-12-01 14:28:56.486298
"CYAT",2025-12-01 19:00:00,2025-12-01 14:00:00,"VFR",-9,-13,73,250,13,14500,29.93,NA,"CLR  ft","METAR CYAT 011900Z AUTO 25013G19KT 9SM CLR M09/M13 A2993 RMK SLP137",2025-12-01 19:28:56.578868,2025-12-01 14:28:56.578868
"CYMO",2025-12-01 19:00:00,2025-12-01 14:00:00,"VFR",-8,-14,62,230,11,14500,30.05,NA,"BKN  ft","METAR CYMO 011900Z AUTO 23011G16KT 9SM BKN081 M08/M14 A3005 RMK SLP178",2025-12-01 19:28:56.662432,2025-12-01 14:28:56.662432
"CYPL",2025-12-01 19:26:00,2025-12-01 14:26:00,"VFR",-11,-16,67,260,9,14500,29.9,NA,"FEW  ft; OVC  ft","SPECI CYPL 011926Z AUTO 26009KT 9SM -SN FEW033 OVC040 M11/M16 A2990 RMK SLP158",2025-12-01 19:28:56.745817,2025-12-01 14:28:56.745817
"CYQT",2025-12-01 19:00:00,2025-12-01 14:00:00,"VFR",-8,-15,58,280,6,32200,30.07,NA,"OVC  ft","METAR CYQT 011900Z 28006KT 230V300 20SM OVC033 M08/M15 A3007 RMK SC8 SLP201",2025-12-01 19:28:56.877234,2025-12-01 14:28:56.877234
"CYAM",2025-12-01 19:00:00,2025-12-01 14:00:00,"VFR",-4,-8,74,240,11,32200,30.17,NA,"SCT  ft; BKN  ft; BKN  ft","METAR CYAM 011900Z 24011G18KT 20SM SCT019 BKN170 BKN210 M04/M08 A3017 RMK CU3AC2CI2 SLP230",2025-12-01 19:28:57.002566,2025-12-01 14:28:57.002566
"CYTS",2025-12-01 19:00:00,2025-12-01 14:00:00,"IFR",-9,-12,79,160,5,3200,30.09,NA,"OVC  ft","METAR CYTS 011900Z 16005KT 2SM -SN OVC025 M09/M12 A3009 RMK SC8 SLP218",2025-12-01 19:28:57.085805,2025-12-01 14:28:57.085805
"CYSB",2025-12-01 19:00:00,2025-12-01 14:00:00,"MVFR",-9,-13,73,170,8,4800,30.2,NA,"OVC  ft","METAR CYSB 011900Z 17008KT 3SM -SN BR OVC022 M09/M13 A3020 RMK SC8 ICE ON INDICATOR SLP256",2025-12-01 19:28:57.21424,2025-12-01 14:28:57.21424
"CYYB",2025-12-01 19:00:00,2025-12-01 14:00:00,"VFR",-9,-13,73,170,7,48300,30.23,NA,"OVC  ft","METAR CYYB 011900Z 17007KT 30SM -SN OVC036 M09/M13 A3023 RMK SC8 SLP266",2025-12-01 19:28:57.303755,2025-12-01 14:28:57.303755
"CYOW",2025-12-01 19:00:00,2025-12-01 14:00:00,"VFR",-8,-14,62,300,7,24100,30.35,NA,"SCT  ft","METAR CYOW 011900Z 30007KT 15SM SCT029 M08/M14 A3035 RMK SC4 SLP289",2025-12-01 19:28:57.432561,2025-12-01 14:28:57.432561
"CYGK",2025-12-01 19:00:00,2025-12-01 14:00:00,"VFR",-4,-13,50,0,2,24100,30.36,NA,"FEW  ft; BKN  ft","METAR CYGK 011900Z VRB02KT 15SM FEW025 BKN250 M04/M13 A3036 RMK CU1CI5 SLP288",2025-12-01 19:28:57.564229,2025-12-01 14:28:57.564229
"CYQG",2025-12-01 19:00:00,2025-12-01 14:00:00,"VFR",-2,-9,59,190,5,14500,30.32,NA,"BKN  ft","METAR CYQG 011900Z AUTO 19005KT 9SM BKN160 M02/M09 A3032 RMK SLP279",2025-12-01 19:28:57.647299,2025-12-01 14:28:57.647299
"CYVV",2025-12-01 19:00:00,2025-12-01 14:00:00,"VFR",-5,-7,86,170,9,22500,30.28,NA,"OVC  ft","METAR CYVV 011900Z 17009KT 14SM -SN OVC034 M05/M07 A3028 RMK SC8 SLP269",2025-12-01 19:28:57.732142,2025-12-01 14:28:57.732142
"CYYZ",2025-12-01 19:00:00,2025-12-01 14:00:00,"VFR",-3,-8,69,170,8,24100,30.35,NA,"FEW  ft; OVC  ft","METAR CYYZ 011900Z 17008KT 140V200 15SM -SN FEW030 OVC040 M03/M08 A3035 RMK CU1SC8 CU TR SLP288",2025-12-01 19:28:57.858797,2025-12-01 14:28:57.858797
"CYQA",2025-12-01 19:06:00,2025-12-01 14:06:00,"VFR",-6,-11,68,140,5,14500,30.29,NA,"OVC  ft","SPECI CYQA 011906Z AUTO 14005KT 9SM -SN OVC038 M06/M11 A3029 RMK SLP276",2025-12-01 19:28:57.94438,2025-12-01 14:28:57.94438
"CYVR",2025-12-01 19:00:00,2025-12-01 14:00:00,"VFR",5,4,93,110,8,40200,30.28,NA,"FEW  ft; SCT  ft; BKN  ft; BKN  ft","METAR CYVR 011900Z 11008KT 25SM FEW023 SCT041 BKN075 BKN120 05/04 A3028 RMK SC3CU1AC3AS1 AS TR SLP255",2025-12-01 19:28:58.070192,2025-12-01 14:28:58.070192
"CYYJ",2025-12-01 19:00:00,2025-12-01 14:00:00,"VFR",6,3,81,120,3,24100,30.27,NA,"FEW  ft; BKN  ft; BKN  ft","METAR CYYJ 011900Z 12003KT 080V140 15SM FEW014 BKN060 BKN100 06/03 A3027 RMK SC1SC5AC1 SLP254",2025-12-01 19:28:58.158351,2025-12-01 14:28:58.158351
"CYLW",2025-12-01 19:26:00,2025-12-01 14:26:00,"MVFR",-1,-1,100,130,5,14500,30.23,NA,"FEW  ft; BKN  ft; OVC  ft","SPECI CYLW 011926Z AUTO 13005KT 9SM -SN FEW010 BKN023 OVC035 M01/M01 A3023 RMK SLP258",2025-12-01 19:28:58.249084,2025-12-01 14:28:58.249084
"CYXS",2025-12-01 19:05:00,2025-12-01 14:05:00,"VFR",-1,-3,86,190,15,14500,29.93,NA,"OVC  ft","SPECI CYXS 011905Z AUTO 19015G23KT 9SM -SN OVC037 M01/M03 A2993 RMK SLP175",2025-12-01 19:28:58.334157,2025-12-01 14:28:58.334157
"CYXT",2025-12-01 19:19:00,2025-12-01 14:19:00,"LIFR",1,1,100,0,3,800,30.01,NA,"OVC  ft","SPECI CYXT 011919Z VRB03KT 1/2SM -RA FG OVC002 01/01 A3001 RMK FG6SF2 SLP174",2025-12-01 19:28:58.418207,2025-12-01 14:28:58.418207
"CYQQ",2025-12-01 19:00:00,2025-12-01 14:00:00,"MVFR",5,4,93,180,3,9700,30.26,NA,"BKN  ft; OVC  ft","METAR CYQQ 011900Z 18003KT 6SM -RA BR BKN012 OVC022 05/04 A3026 RMK SC7SC1 DENSITY ALT -1434FT SLP249",2025-12-01 19:28:58.501532,2025-12-01 14:28:58.501532
"CYYC",2025-12-01 19:00:00,2025-12-01 14:00:00,"VFR",-1,-7,64,230,2,64400,29.76,NA,"SCT  ft; BKN  ft; OVC  ft","METAR CYYC 011900Z 23002KT 40SM SCT072 BKN100 OVC190 M01/M07 A2976 RMK AC4AC3AC1 VIRGA S-W SLP135",2025-12-01 19:28:58.587778,2025-12-01 14:28:58.587778
"CYEG",2025-12-01 19:19:00,2025-12-01 14:19:00,"VFR",1,-1,87,250,10,19300,29.68,NA,"FEW  ft; OVC  ft","SPECI CYEG 011919Z 25010KT 12SM FEW013 OVC051 01/M01 A2968 RMK SC2SC6 SLP094",2025-12-01 19:28:58.712833,2025-12-01 14:28:58.712833
"CYMM",2025-12-01 19:21:00,2025-12-01 14:21:00,"MVFR",-9,-11,86,100,4,8000,29.66,NA,"OVC  ft","SPECI CYMM 011921Z AUTO 10004KT 5SM -SN OVC037 M09/M11 A2966 RMK SLP076",2025-12-01 19:28:58.797443,2025-12-01 14:28:58.797443
"CYQF",2025-12-01 19:00:00,2025-12-01 14:00:00,"VFR",-2,-7,69,250,7,14500,29.75,NA,"BKN  ft; OVC  ft","METAR CYQF 011900Z AUTO 25007KT 9SM BKN040 OVC050 M02/M07 A2975 RMK SLP130",2025-12-01 19:28:58.882384,2025-12-01 14:28:58.882384
"CYXE",2025-12-01 19:00:00,2025-12-01 14:00:00,"IFR",-16,-18,85,170,4,8000,29.88,NA,"BKN  ft; OVC  ft","METAR CYXE 011900Z 17004KT 5SM BR BKN006 OVC100 M16/M18 A2988 RMK ST5AC3 SLP169",2025-12-01 19:28:58.965959,2025-12-01 14:28:58.965959
"CYQR",2025-12-01 19:00:00,2025-12-01 14:00:00,"VFR",-13,-16,78,300,8,19300,29.88,NA,"FEW  ft; BKN  ft; BKN  ft","METAR CYQR 011900Z 30008KT 12SM FEW060 BKN120 BKN210 M13/M16 A2988 RMK SC1AC5CI1 SC TR VIS 4 S-W SLP175",2025-12-01 19:28:59.048802,2025-12-01 14:28:59.048802
"CYWG",2025-12-01 19:00:00,2025-12-01 14:00:00,"VFR",-12,-16,72,240,5,24100,29.95,NA,"SCT  ft; BKN  ft","METAR CYWG 011900Z 24005KT 220V290 15SM SCT013 BKN100 M12/M16 A2995 RMK CF3AC3 SLP166",2025-12-01 19:28:59.129366,2025-12-01 14:28:59.129366
"CYBR",2025-12-01 19:00:00,2025-12-01 14:00:00,"VFR",-13,-17,72,290,8,24100,29.89,NA,"FEW  ft; SCT  ft","METAR CYBR 011900Z 29008KT 15SM FEW095 SCT250 M13/M17 A2989 RMK AC2CI1 SLP164",2025-12-01 19:28:59.248909,2025-12-01 14:28:59.248909
"CYUL",2025-12-01 19:00:00,2025-12-01 14:00:00,"MVFR",-6,-11,68,280,11,24100,30.35,NA,"FEW  ft; BKN  ft","METAR CYUL 011900Z 28011KT 240V310 15SM -SHSN FEW018 BKN022 M06/M11 A3035 RMK CU1SC5 SLP283",2025-12-01 19:28:59.338886,2025-12-01 14:28:59.338886
"CYHU",2025-12-01 19:00:00,2025-12-01 14:00:00,"VFR",-6,-12,63,270,9,14500,30.34,NA,"FEW  ft","METAR CYHU 011900Z AUTO 27009G15KT 9SM FEW028 M06/M12 A3034 RMK SLP279",2025-12-01 19:28:59.422876,2025-12-01 14:28:59.422876
"CYQB",2025-12-01 19:00:00,2025-12-01 14:00:00,"VFR",-7,-13,63,260,9,48300,30.28,NA,"SCT  ft","METAR CYQB 011900Z 26009KT 30SM SCT029 M07/M13 A3028 RMK SC4 SLP259",2025-12-01 19:28:59.550025,2025-12-01 14:28:59.550025
"CYVO",2025-12-01 19:00:00,2025-12-01 14:00:00,"VFR",-11,-14,79,180,9,24100,30.18,NA,"OVC  ft","METAR CYVO 011900Z 18009KT 15SM OVC042 M11/M14 A3018 RMK SC8 SLP254",2025-12-01 19:28:59.633403,2025-12-01 14:28:59.633403
"CYUY",2025-12-01 19:20:00,2025-12-01 14:20:00,"VFR",-10,-13,79,210,5,24100,30.16,NA,"OVC  ft","SPECI CYUY 011920Z 21005KT 15SM -SHSN OVC037 M10/M13 A3016 RMK SC8 CVCTV CLD EMBD SLP241",2025-12-01 19:28:59.717163,2025-12-01 14:28:59.717163
"CYZV",2025-12-01 19:00:00,2025-12-01 14:00:00,"VFR",-7,-13,63,300,13,48300,29.95,NA,"SCT  ft; SCT  ft","METAR CYZV 011900Z 30013G22KT 30SM DRSN SCT041 SCT210 M07/M13 A2995 RMK SC4CI1 CI TR PRESRR SLP147",2025-12-01 19:28:59.839119,2025-12-01 14:28:59.839119
"CYBC",2025-12-01 19:00:00,2025-12-01 14:00:00,"MVFR",-9,-14,67,300,12,14500,30.12,NA,"BKN  ft","METAR CYBC 011900Z AUTO 30012G20KT 9SM BKN030 M09/M14 A3012 RMK SLP202",2025-12-01 19:28:59.922472,2025-12-01 14:28:59.922472
"CYRJ",2025-12-01 19:00:00,2025-12-01 14:00:00,"MVFR",-10,-17,57,280,9,64400,30.22,NA,"BKN  ft","METAR CYRJ 011900Z 28009KT 40SM BKN030 M10/M17 A3022 RMK SC5 SLP250",2025-12-01 19:29:00.010635,2025-12-01 14:29:00.010635
"CYHZ",2025-12-01 19:00:00,2025-12-01 14:00:00,"VFR",5,2,81,310,11,24100,29.89,NA,"FEW  ft; SCT  ft; BKN  ft","METAR CYHZ 011900Z 31011G16KT 15SM FEW020 SCT037 BKN220 05/02 A2989 RMK CF1CU4CI3 CF TR SLP127",2025-12-01 19:29:00.093379,2025-12-01 14:29:00.093379
"CYYG",2025-12-01 19:00:00,2025-12-01 14:00:00,"MVFR",4,0,75,260,12,24100,29.86,NA,"BKN  ft","METAR CYYG 011900Z 26012G17KT 15SM BKN026 04/00 A2986 RMK SC7 SLP114",2025-12-01 19:29:00.17678,2025-12-01 14:29:00.17678
"CYQM",2025-12-01 19:17:00,2025-12-01 14:17:00,"IFR",2,1,93,320,12,24100,29.93,NA,"BKN  ft; OVC  ft","SPECI CYQM 011917Z 32012G22KT 15SM BKN008 OVC020 02/01 A2993 RMK SF7SC1 SH ALQDS PRESRR SLP141",2025-12-01 19:29:00.264559,2025-12-01 14:29:00.264559
"CYFC",2025-12-01 19:00:00,2025-12-01 14:00:00,"VFR",1,-6,60,300,16,14500,30.04,NA,"FEW  ft","METAR CYFC 011900Z AUTO 30016G30KT 260V330 9SM FEW034 01/M06 A3004 RMK PRESRR SLP175",2025-12-01 19:29:00.3481,2025-12-01 14:29:00.3481
"CYYT",2025-12-01 19:00:00,2025-12-01 14:00:00,"IFR",5,5,100,180,24,19300,29.9,NA,"OVC  ft","METAR CYYT 011900Z 18024G33KT 12SM -RA OVC006 05/05 A2990 RMK ST8 VIS LWR E-SE PRESFR SLP134",2025-12-01 19:29:00.474714,2025-12-01 14:29:00.474714
"CYQY",2025-12-01 19:00:00,2025-12-01 14:00:00,"VFR",5,3,87,290,11,24100,29.79,NA,"SCT  ft; BKN  ft","METAR CYQY 011900Z 29011G18KT 15SM SCT018 BKN240 05/03 A2979 RMK SC3CI3 SLP091",2025-12-01 19:29:00.562282,2025-12-01 14:29:00.562282
"CYXY",2025-12-01 19:00:00,2025-12-01 14:00:00,"VFR",-1,-2,93,200,3,64400,29.55,NA,"FEW  ft; BKN  ft; BKN  ft","METAR CYXY 011900Z 20003KT 180V250 40SM FEW005 BKN052 BKN200 M01/M02 A2955 RMK ST1SC5CI2 ST TR SLP050",2025-12-01 19:29:00.651144,2025-12-01 14:29:00.651144
"CYZF",2025-12-01 19:00:00,2025-12-01 14:00:00,"MVFR",-12,-13,92,50,9,9700,29.8,NA,"OVC  ft","METAR CYZF 011900Z 05009KT 6SM -SN OVC018 M12/M13 A2980 RMK SC8 SLP115",2025-12-01 19:29:00.732646,2025-12-01 14:29:00.732646
"CYFB",2025-12-01 19:00:00,2025-12-01 14:00:00,"VFR",-8,-14,62,170,7,48300,29.43,NA,"FEW  ft; BKN  ft; BKN  ft; BKN  ft","METAR CYFB 011900Z 17007KT 30SM FEW028 BKN110 BKN170 BKN250 M08/M14 A2943 RMK SC1AC5AC2CI1 SC TR CI TR SLP971",2025-12-01 19:29:00.817899,2025-12-01 14:29:00.817899
"CYRT",2025-12-01 19:00:00,2025-12-01 14:00:00,"VFR",-30,-34,68,350,13,9999,29.71,NA,"FEW  ft","METAR CYRT 011900Z 35013KT 10SM IC DRSN FEW010 M30/M34 A2971 RMK SC1 SC TR SLP070",2025-12-01 19:29:00.942756,2025-12-01 14:29:00.942756
"CYBK",2025-12-01 19:00:00,2025-12-01 14:00:00,"VFR",-27,-30,76,310,12,32200,29.75,NA,"FEW  ft; SCT  ft","METAR CYBK 011900Z 31012KT 20SM IC FEW025 SCT057 M27/M30 A2975 RMK SC1SC3 SLP079",2025-12-01 19:29:01.03293,2025-12-01 14:29:01.03293
"CYRB",2025-12-01 19:00:00,2025-12-01 14:00:00,"VFR",-20,-24,71,50,29,40200,29.76,NA,"BKN  ft","METAR CYRB 011900Z 05029KT 25SM IC DRSN BKN050 M20/M24 A2976 RMK SC5 SLP091",2025-12-01 19:29:01.12478,2025-12-01 14:29:01.12478
"CYCO",2025-12-01 19:25:00,2025-12-01 14:25:00,"MVFR",-24,-26,84,250,14,9700,30.07,NA,"SCT  ft; BKN  ft","SPECI CYCO 011925Z 25014KT 6SM -SN BR SCT007 BKN013 M24/M26 A3007 RMK ST4SC3 SLP188",2025-12-01 19:29:01.207157,2025-12-01 14:29:01.207157
"CYER",2025-12-01 20:00:00,2025-12-01 15:00:00,"VFR",-20,-26,59,260,12,14500,29.84,NA,"SCT  ft","METAR CYER 012000Z AUTO 26012G20KT 9SM SCT240 M20/M26 A2984 RMK SLP108",2025-12-01 20:29:10.634875,2025-12-01 15:29:10.634875
"CYAT",2025-12-01 20:00:00,2025-12-01 15:00:00,"MVFR",-9,-13,73,250,11,14500,29.91,NA,"OVC  ft","METAR CYAT 012000Z AUTO 25011KT 9SM OVC025 M09/M13 A2991 RMK SLP133",2025-12-01 20:29:10.730816,2025-12-01 15:29:10.730816
"CYMO",2025-12-01 20:00:00,2025-12-01 15:00:00,"VFR",-8,-13,68,220,14,14500,30.02,NA,"BKN  ft","METAR CYMO 012000Z AUTO 22014KT 9SM BKN043 M08/M13 A3002 RMK SLP170",2025-12-01 20:29:10.820585,2025-12-01 15:29:10.820585
"CYPL",2025-12-01 20:12:00,2025-12-01 15:12:00,"VFR",-11,-15,73,220,8,9700,29.89,NA,"OVC  ft","SPECI CYPL 012012Z AUTO 22008KT 6SM -SN OVC038 M11/M15 A2989 RMK SLP155",2025-12-01 20:29:10.910145,2025-12-01 15:29:10.910145
"CYQT",2025-12-01 20:00:00,2025-12-01 15:00:00,"VFR",-8,-15,58,240,6,32200,30.05,NA,"BKN  ft","METAR CYQT 012000Z 24006KT 210V270 20SM BKN033 M08/M15 A3005 RMK SC7 SLP192",2025-12-01 20:29:11.04429,2025-12-01 15:29:11.04429
"CYAM",2025-12-01 20:00:00,2025-12-01 15:00:00,"VFR",-4,-8,74,230,13,32200,30.14,NA,"SCT  ft; BKN  ft; BKN  ft","METAR CYAM 012000Z 23013G21KT 20SM SCT019 BKN150 BKN210 M04/M08 A3014 RMK CU3AS3CS1 SLP221",2025-12-01 20:29:11.132126,2025-12-01 15:29:11.132126
"CYTS",2025-12-01 20:00:00,2025-12-01 15:00:00,"VFR",-8,-11,79,160,7,11300,30.06,NA,"OVC  ft","METAR CYTS 012000Z 16007KT 7SM -SN OVC052 M08/M11 A3006 RMK SC8 SLP207",2025-12-01 20:29:11.259907,2025-12-01 15:29:11.259907
"CYSB",2025-12-01 20:00:00,2025-12-01 15:00:00,"IFR",-9,-12,79,150,11,4000,30.16,NA,"BKN  ft; OVC  ft","METAR CYSB 012000Z 15011KT 2 1/2SM -SN BR BKN016 OVC040 M09/M12 A3016 RMK SC6SC2 VIS VRB 2-3 PRESFR SLP242",2025-12-01 20:29:11.346579,2025-12-01 15:29:11.346579
"CYYB",2025-12-01 20:00:00,2025-12-01 15:00:00,"VFR",-8,-12,73,170,7,19300,30.2,NA,"OVC  ft","METAR CYYB 012000Z 17007KT 12SM -SN OVC036 M08/M12 A3020 RMK SC8 SLP259",2025-12-01 20:29:11.43487,2025-12-01 15:29:11.43487
"CYOW",2025-12-01 20:00:00,2025-12-01 15:00:00,"VFR",-8,-15,58,250,5,24100,30.34,NA,"SCT  ft","METAR CYOW 012000Z 25005KT 15SM SCT025 M08/M15 A3034 RMK SC3 SLP285",2025-12-01 20:29:11.523945,2025-12-01 15:29:11.523945
"CYGK",2025-12-01 20:00:00,2025-12-01 15:00:00,"VFR",-5,-13,54,200,6,24100,30.37,NA,"FEW  ft; BKN  ft","METAR CYGK 012000Z 20006KT 15SM FEW025 BKN250 M05/M13 A3037 RMK SC1CI6 SLP292",2025-12-01 20:29:11.653647,2025-12-01 15:29:11.653647
"CYQG",2025-12-01 20:00:00,2025-12-01 15:00:00,"VFR",-1,-10,51,180,4,14500,30.29,NA,"BKN  ft","METAR CYQG 012000Z AUTO 18004KT 9SM BKN150 M01/M10 A3029 RMK SLP270",2025-12-01 20:29:11.746109,2025-12-01 15:29:11.746109
"CYVV",2025-12-01 20:00:00,2025-12-01 15:00:00,"MVFR",-5,-7,86,170,9,22500,30.25,NA,"FEW  ft; OVC  ft","METAR CYVV 012000Z 17009KT 14SM -SN FEW012 OVC028 M05/M07 A3025 RMK SF1SC8 SF TR SLP259",2025-12-01 20:29:11.835504,2025-12-01 15:29:11.835504
"CYYZ",2025-12-01 20:00:00,2025-12-01 15:00:00,"VFR",-3,-8,69,120,5,24100,30.32,NA,"FEW  ft; OVC  ft","METAR CYYZ 012000Z 12005KT 15SM FEW020 OVC041 M03/M08 A3032 RMK CF1SC8 CF TR SLP279",2025-12-01 20:29:11.962788,2025-12-01 15:29:11.962788
"CYQA",2025-12-01 20:06:00,2025-12-01 15:06:00,"VFR",-6,-11,68,150,5,14500,30.27,NA,"OVC  ft","SPECI CYQA 012006Z AUTO 15005KT 9SM -SN OVC038 M06/M11 A3027 RMK SLP271",2025-12-01 20:29:12.0495,2025-12-01 15:29:12.0495
"CYVR",2025-12-01 20:00:00,2025-12-01 15:00:00,"MVFR",5,3,87,100,6,40200,30.27,NA,"FEW  ft; BKN  ft; OVC  ft","METAR CYVR 012000Z 10006KT 25SM FEW017 BKN022 OVC027 05/03 A3027 RMK SC1SC5SC3 SC TR SLP252",2025-12-01 20:29:12.137999,2025-12-01 15:29:12.137999
"CYYJ",2025-12-01 20:00:00,2025-12-01 15:00:00,"MVFR",7,4,81,140,4,32200,30.25,NA,"BKN  ft; OVC  ft","METAR CYYJ 012000Z 14004KT 070V160 20SM BKN019 OVC067 07/04 A3025 RMK SC6AC2 SLP246",2025-12-01 20:29:12.26673,2025-12-01 15:29:12.26673
"CYLW",2025-12-01 20:23:00,2025-12-01 15:23:00,"VFR",0,-1,93,160,4,14500,30.2,NA,"SCT  ft; BKN  ft; OVC  ft","SPECI CYLW 012023Z AUTO 16004KT 9SM -RA SCT037 BKN047 OVC055 00/M01 A3020 RMK SLP247",2025-12-01 20:29:12.357485,2025-12-01 15:29:12.357485
"CYXS",2025-12-01 20:00:00,2025-12-01 15:00:00,"VFR",-1,-2,93,180,14,14500,29.92,NA,"SCT  ft; SCT  ft; OVC  ft","METAR CYXS 012000Z AUTO 18014G22KT 9SM SCT037 SCT049 OVC055 M01/M02 A2992 RMK SLP170",2025-12-01 20:29:12.445939,2025-12-01 15:29:12.445939
"CYXT",2025-12-01 20:05:00,2025-12-01 15:05:00,"LIFR",1,1,100,290,3,1200,30.01,NA,"OVC  ft","SPECI CYXT 012005Z 29003KT 3/4SM -RA BR OVC002 01/01 A3001 RMK FG4SF4 SLP176",2025-12-01 20:29:12.574103,2025-12-01 15:29:12.574103
"CYQQ",2025-12-01 20:00:00,2025-12-01 15:00:00,"MVFR",5,4,93,200,3,4800,30.26,NA,"OVC  ft","METAR CYQQ 012000Z 20003KT 3SM -RA BR OVC012 05/04 A3026 RMK SC8 DENSITY ALT -1382FT SLP247",2025-12-01 20:29:12.662806,2025-12-01 15:29:12.662806
"CYYC",2025-12-01 20:00:00,2025-12-01 15:00:00,"VFR",2,-6,56,260,3,64400,29.74,NA,"BKN  ft; BKN  ft; BKN  ft","METAR CYYC 012000Z 26003KT 210V310 40SM BKN049 BKN100 BKN190 02/M06 A2974 RMK SC5AC2AC1 AC TR SLP129",2025-12-01 20:29:12.750945,2025-12-01 15:29:12.750945
"CYEG",2025-12-01 20:00:00,2025-12-01 15:00:00,"VFR",1,0,93,220,8,24100,29.66,NA,"FEW  ft; SCT  ft; OVC  ft","METAR CYEG 012000Z 22008KT 15SM -RA FEW015 SCT036 OVC088 01/M00 A2966 RMK SC1SC3AS4 SLP086",2025-12-01 20:29:12.839993,2025-12-01 15:29:12.839993
"CYMM",2025-12-01 20:13:00,2025-12-01 15:13:00,"MVFR",-8,-10,86,90,5,8000,29.63,NA,"OVC  ft","SPECI CYMM 012013Z AUTO 09005KT 5SM -SN OVC024 M08/M10 A2963 RMK SLP065",2025-12-01 20:29:12.930377,2025-12-01 15:29:12.930377
"CYQF",2025-12-01 20:15:00,2025-12-01 15:15:00,"VFR",0,-3,80,190,4,11300,29.7,NA,"BKN  ft; OVC  ft","SPECI CYQF 012015Z AUTO 19004KT 7SM -SN BKN041 OVC055 M00/M03 A2970 RMK SLP101",2025-12-01 20:29:13.019592,2025-12-01 15:29:13.019592
"CYXE",2025-12-01 20:00:00,2025-12-01 15:00:00,"IFR",-15,-16,92,190,7,9700,29.84,NA,"BKN  ft; OVC  ft","METAR CYXE 012000Z 19007KT 6SM BR BKN006 OVC110 M15/M16 A2984 RMK ST5AC3 SLP159",2025-12-01 20:29:13.14897,2025-12-01 15:29:13.14897
"CYQR",2025-12-01 20:22:00,2025-12-01 15:22:00,"MVFR",-12,-15,79,280,7,9999,29.86,NA,"BKN  ft; OVC  ft","SPECI CYQR 012022Z 28007KT 250V320 10SM -SN BKN012 OVC110 M12/M15 A2986 RMK SC5AC3 SLP168",2025-12-01 20:29:13.236081,2025-12-01 15:29:13.236081
"CYWG",2025-12-01 20:00:00,2025-12-01 15:00:00,"VFR",-11,-16,67,180,5,24100,29.93,NA,"FEW  ft","METAR CYWG 012000Z 18005KT 15SM FEW100 M11/M16 A2993 RMK AC1 AC TR SLP160",2025-12-01 20:29:13.323833,2025-12-01 15:29:13.323833
"CYBR",2025-12-01 20:00:00,2025-12-01 15:00:00,"VFR",-12,-16,72,290,8,24100,29.88,NA,"FEW  ft; FEW  ft","METAR CYBR 012000Z 29008KT 15SM FEW095 FEW240 M12/M16 A2988 RMK AC1CI1 SLP159",2025-12-01 20:29:13.414726,2025-12-01 15:29:13.414726
"CYUL",2025-12-01 20:04:00,2025-12-01 15:04:00,"MVFR",-7,-12,68,270,13,24100,30.36,NA,"FEW  ft; BKN  ft","SPECI CYUL 012004Z 27013KT 15SM -SHSN FEW018 BKN023 M07/M12 A3036 RMK CU1SC6 SLP285",2025-12-01 20:29:13.513172,2025-12-01 15:29:13.513172
"CYHU",2025-12-01 20:18:00,2025-12-01 15:18:00,"MVFR",-7,-11,73,290,8,14500,30.35,NA,"BKN  ft","SPECI CYHU 012018Z AUTO 29008KT 9SM -SN BKN024 M07/M11 A3035 RMK SLP282",2025-12-01 20:29:13.645275,2025-12-01 15:29:13.645275
"CYQB",2025-12-01 20:00:00,2025-12-01 15:00:00,"MVFR",-8,-13,68,280,7,48300,30.29,NA,"BKN  ft","METAR CYQB 012000Z 28007KT 30SM BKN030 M08/M13 A3029 RMK SC5 SLP263",2025-12-01 20:29:13.736539,2025-12-01 15:29:13.736539
"CYVO",2025-12-01 20:00:00,2025-12-01 15:00:00,"VFR",-11,-14,79,190,9,24100,30.17,NA,"OVC  ft","METAR CYVO 012000Z 19009G16KT 15SM OVC044 M11/M14 A3017 RMK SC8 SLP249",2025-12-01 20:29:13.828101,2025-12-01 15:29:13.828101
"CYUY",2025-12-01 20:00:00,2025-12-01 15:00:00,"VFR",-10,-13,79,200,8,19300,30.16,NA,"OVC  ft","METAR CYUY 012000Z 20008KT 12SM -SHSN OVC035 M10/M13 A3016 RMK SC8 CVCTV CLD EMBD SLP240",2025-12-01 20:29:13.957152,2025-12-01 15:29:13.957152
"CYZV",2025-12-01 20:00:00,2025-12-01 15:00:00,"VFR",-9,-14,67,300,13,48300,30,NA,"FEW  ft; SCT  ft; SCT  ft","METAR CYZV 012000Z 30013G25KT 30SM DRSN FEW032 SCT047 SCT220 M09/M14 A3000 RMK SF1SC3CI1 SF TR CI TR PCPN DIST NW PRESRR SLP164",2025-12-01 20:29:14.051041,2025-12-01 15:29:14.051041
"CYBC",2025-12-01 20:00:00,2025-12-01 15:00:00,"VFR",-9,-14,67,300,8,14500,30.15,NA,"CLR  ft","METAR CYBC 012000Z AUTO 30008KT 9SM CLR M09/M14 A3015 RMK SLP213",2025-12-01 20:29:14.141102,2025-12-01 15:29:14.141102
"CYRJ",2025-12-01 20:00:00,2025-12-01 15:00:00,"MVFR",-10,-16,62,280,8,64400,30.22,NA,"BKN  ft","METAR CYRJ 012000Z 28008KT 40SM BKN028 M10/M16 A3022 RMK SC5 SLP251",2025-12-01 20:29:14.230996,2025-12-01 15:29:14.230996
"CYHZ",2025-12-01 20:16:00,2025-12-01 15:16:00,"VFR",4,1,81,310,16,24100,29.94,NA,"FEW  ft; BKN  ft; BKN  ft","SPECI CYHZ 012016Z 31016G24KT 15SM -SHRA FEW019TCU BKN050 BKN220 04/01 A2994 RMK TCU2CU3CI2 VIS LWR NW-N SC ASOCTD SLP146",2025-12-01 20:29:14.318807,2025-12-01 15:29:14.318807
"CYYG",2025-12-01 20:14:00,2025-12-01 15:14:00,"VFR",1,0,93,310,12,24100,29.92,NA,"SCT  ft; BKN  ft","SPECI CYYG 012014Z 31012G22KT 15SM -SHSN SCT007 BKN035 01/00 A2992 RMK SF4SC3 VIS E-S LWR CVCTV CLD EMBD SLP136",2025-12-01 20:29:14.409305,2025-12-01 15:29:14.409305
"CYQM",2025-12-01 20:00:00,2025-12-01 15:00:00,"MVFR",1,-1,87,320,15,24100,29.98,NA,"SCT  ft; BKN  ft","METAR CYQM 012000Z 32015G22KT 15SM SCT010 BKN025 01/M01 A2998 RMK CF4SC4 PRESRR SLP158",2025-12-01 20:29:14.537078,2025-12-01 15:29:14.537078
"CYFC",2025-12-01 20:00:00,2025-12-01 15:00:00,"VFR",0,-7,60,320,11,14500,30.09,NA,"BKN  ft","METAR CYFC 012000Z AUTO 32011G25KT 260V340 9SM BKN036 00/M07 A3009 RMK PRESRR SLP193",2025-12-01 20:29:14.62752,2025-12-01 15:29:14.62752
"CYYT",2025-12-01 20:00:00,2025-12-01 15:00:00,"IFR",6,6,100,190,26,9999,29.84,NA,"OVC  ft","METAR CYYT 012000Z 19026G39KT 10SM -RA OVC006 06/06 A2984 RMK ST8 PRESFR SLP113",2025-12-01 20:29:14.715757,2025-12-01 15:29:14.715757
"CYQY",2025-12-01 20:00:00,2025-12-01 15:00:00,"VFR",4,1,81,280,10,24100,29.82,NA,"SCT  ft; BKN  ft","METAR CYQY 012000Z 28010KT 15SM SCT034 BKN240 04/01 A2982 RMK SC3CI3 SLP101",2025-12-01 20:29:14.806225,2025-12-01 15:29:14.806225
"CYXY",2025-12-01 20:00:00,2025-12-01 15:00:00,"VFR",-1,-3,86,0,2,64400,29.58,NA,"FEW  ft; SCT  ft; BKN  ft; BKN  ft","METAR CYXY 012000Z VRB02KT 40SM FEW005 SCT050 BKN120 BKN200 M01/M03 A2958 RMK ST1SC3AC3CI1 ST TR CU ASOCTD SLP057",2025-12-01 20:29:14.93537,2025-12-01 15:29:14.93537
"CYZF",2025-12-01 20:00:00,2025-12-01 15:00:00,"MVFR",-12,-13,92,50,7,9700,29.81,NA,"OVC  ft","METAR CYZF 012000Z 05007KT 6SM -SN OVC021 M12/M13 A2981 RMK SC8 SLP117",2025-12-01 20:29:15.064516,2025-12-01 15:29:15.064516
"CYFB",2025-12-01 20:00:00,2025-12-01 15:00:00,"VFR",-8,-14,62,190,9,48300,29.43,NA,"SCT  ft; BKN  ft; BKN  ft","METAR CYFB 012000Z 19009KT 30SM SCT034 BKN110 BKN250 M08/M14 A2943 RMK SC4AC3CI1 CI TR SLP971",2025-12-01 20:29:15.194587,2025-12-01 15:29:15.194587
"CYRT",2025-12-01 20:00:00,2025-12-01 15:00:00,"VFR",-30,-33,75,340,12,9999,29.71,NA,"FEW  ft","METAR CYRT 012000Z 34012G18KT 10SM IC FEW010 M30/M33 A2971 RMK SC1 SLP068",2025-12-01 20:29:15.322173,2025-12-01 15:29:15.322173
"CYBK",2025-12-01 20:00:00,2025-12-01 15:00:00,"VFR",-28,-31,75,300,13,32200,29.75,NA,"FEW  ft; SCT  ft","METAR CYBK 012000Z 30013KT 20SM IC FEW015 SCT057 M28/M31 A2975 RMK SC2SC2 SLP079",2025-12-01 20:29:15.453035,2025-12-01 15:29:15.453035
"CYRB",2025-12-01 20:00:00,2025-12-01 15:00:00,"VFR",-21,-25,70,50,22,40200,29.78,NA,"BKN  ft; BKN  ft","METAR CYRB 012000Z 05022KT 25SM IC DRSN BKN093 BKN100 M21/M25 A2978 RMK AC5AC2 SLP096",2025-12-01 20:29:15.557502,2025-12-01 15:29:15.557502
"CYCO",2025-12-01 20:00:00,2025-12-01 15:00:00,"VFR",-25,-27,83,260,15,9700,30.08,NA,"FEW  ft; SCT  ft","METAR CYCO 012000Z 26015KT 6SM BR VCSH FEW007 SCT013 M25/M27 A3008 RMK ST1SC2 SLP191",2025-12-01 20:29:15.645843,2025-12-01 15:29:15.645843
"CYER",2025-12-01 21:00:00,2025-12-01 16:00:00,"VFR",-21,-26,64,260,11,14500,29.84,NA,"SCT  ft","METAR CYER 012100Z AUTO 26011G17KT 9SM SCT240 M21/M26 A2984 RMK SLP109",2025-12-01 21:24:08.679459,2025-12-01 16:24:08.679459
"CYAT",2025-12-01 21:05:00,2025-12-01 16:05:00,"MVFR",-9,-13,73,250,14,14500,29.92,NA,"OVC  ft","SPECI CYAT 012105Z AUTO 25014KT 9SM -SN OVC027 M09/M13 A2992 RMK SLP134",2025-12-01 21:24:08.762654,2025-12-01 16:24:08.762654
"CYMO",2025-12-01 21:00:00,2025-12-01 16:00:00,"VFR",-8,-14,62,220,9,14500,30.02,NA,"FEW  ft","METAR CYMO 012100Z AUTO 22009G15KT 9SM FEW055 M08/M14 A3002 RMK SLP170",2025-12-01 21:24:08.838929,2025-12-01 16:24:08.838929
"CYPL",2025-12-01 21:17:00,2025-12-01 16:17:00,"VFR",-11,-14,79,210,6,9700,29.87,NA,"OVC  ft","SPECI CYPL 012117Z AUTO 21006KT 6SM -SN OVC032 M11/M14 A2987 RMK SLP151",2025-12-01 21:24:08.917563,2025-12-01 16:24:08.917563
"CYQT",2025-12-01 21:00:00,2025-12-01 16:00:00,"VFR",-8,-16,53,270,5,32200,30.03,NA,"SCT  ft; BKN  ft","METAR CYQT 012100Z 27005KT 20SM SCT034 BKN250 M08/M16 A3003 RMK SC3CI4 SLP186",2025-12-01 21:24:09.000621,2025-12-01 16:24:09.000621
"CYAM",2025-12-01 21:00:00,2025-12-01 16:00:00,"VFR",-4,-8,74,240,11,40200,30.12,NA,"FEW  ft; BKN  ft; OVC  ft","METAR CYAM 012100Z 24011G20KT 25SM FEW019 BKN130 OVC210 M04/M08 A3012 RMK CU2AS4CS2 SLP215",2025-12-01 21:24:09.075747,2025-12-01 16:24:09.075747
"CYTS",2025-12-01 21:00:00,2025-12-01 16:00:00,"VFR",-8,-10,86,160,10,9999,30.03,NA,"OVC  ft","METAR CYTS 012100Z 16010KT 10SM -SN OVC050 M08/M10 A3003 RMK SC8 SLP195",2025-12-01 21:24:09.159296,2025-12-01 16:24:09.159296
"CYSB",2025-12-01 21:00:00,2025-12-01 16:00:00,"MVFR",-9,-11,86,160,14,4800,30.14,NA,"SCT  ft; OVC  ft","METAR CYSB 012100Z 16014KT 3SM -SN BR SCT014 OVC041 M09/M11 A3014 RMK SC4SC4 SLP237",2025-12-01 21:24:09.279552,2025-12-01 16:24:09.279552
"CYYB",2025-12-01 21:09:00,2025-12-01 16:09:00,"IFR",-8,-11,79,140,8,3200,30.18,NA,"OVC  ft","SPECI CYYB 012109Z 14008KT 2SM -SN OVC034 M08/M11 A3018 RMK SN2SC6 SLP250",2025-12-01 21:24:09.354101,2025-12-01 16:24:09.354101
"CYOW",2025-12-01 21:00:00,2025-12-01 16:00:00,"VFR",-9,-15,62,250,6,24100,30.37,NA,"FEW  ft; SCT  ft","METAR CYOW 012100Z 25006KT 15SM FEW025 SCT250 M09/M15 A3037 RMK SC2CI1 SLP294",2025-12-01 21:24:09.429713,2025-12-01 16:24:09.429713
"CYGK",2025-12-01 21:00:00,2025-12-01 16:00:00,"VFR",-5,-13,54,280,4,24100,30.37,NA,"FEW  ft; BKN  ft","METAR CYGK 012100Z 28004KT 15SM FEW025 BKN210 M05/M13 A3037 RMK CU1CI6 SLP293",2025-12-01 21:24:09.506143,2025-12-01 16:24:09.506143
"CYQG",2025-12-01 21:00:00,2025-12-01 16:00:00,"VFR",-2,-9,59,180,4,14500,30.28,NA,"FEW  ft","METAR CYQG 012100Z AUTO 18004KT 9SM FEW130 M02/M09 A3028 RMK SLP266",2025-12-01 21:24:09.583072,2025-12-01 16:24:09.583072
"CYVV",2025-12-01 21:00:00,2025-12-01 16:00:00,"MVFR",-4,-7,80,180,10,22500,30.23,NA,"FEW  ft; OVC  ft","METAR CYVV 012100Z 18010KT 14SM -SN FEW012 OVC026 M04/M07 A3023 RMK SF1SC8 SF TR SLP255",2025-12-01 21:24:09.657893,2025-12-01 16:24:09.657893
"CYYZ",2025-12-01 21:00:00,2025-12-01 16:00:00,"VFR",-3,-7,74,150,7,24100,30.31,NA,"FEW  ft; OVC  ft","METAR CYYZ 012100Z 15007KT 15SM -SN FEW018 OVC040 M03/M07 A3031 RMK CF1SC7 SLP275",2025-12-01 21:24:09.734796,2025-12-01 16:24:09.734796
"CYQA",2025-12-01 21:04:00,2025-12-01 16:04:00,"VFR",-6,-10,74,150,3,14500,30.26,NA,"OVC  ft","SPECI CYQA 012104Z AUTO 15003KT 9SM -SN OVC036 M06/M10 A3026 RMK SLP266",2025-12-01 21:24:09.808738,2025-12-01 16:24:09.808738
"CYVR",2025-12-01 21:16:00,2025-12-01 16:16:00,"IFR",5,3,87,90,6,4000,30.23,NA,"BKN  ft; OVC  ft","SPECI CYVR 012116Z 09006KT 2 1/2SM RA BR BKN033 OVC046 05/03 A3023 RMK SC6NS2 PRESFR SLP240",2025-12-01 21:24:09.883388,2025-12-01 16:24:09.883388
"CYYJ",2025-12-01 21:00:00,2025-12-01 16:00:00,"MVFR",6,4,87,160,3,12900,30.22,NA,"BKN  ft; OVC  ft","METAR CYYJ 012100Z 16003KT 100V190 8SM -RA BKN018 OVC060 06/04 A3022 RMK SC7SC1 SLP236",2025-12-01 21:24:09.955168,2025-12-01 16:24:09.955168
"CYLW",2025-12-01 21:10:00,2025-12-01 16:10:00,"MVFR",1,-1,87,130,5,14500,30.16,NA,"SCT  ft; BKN  ft; OVC  ft","SPECI CYLW 012110Z AUTO 13005KT 120V190 9SM SCT012 BKN019 OVC046 01/M01 A3016 RMK SLP235",2025-12-01 21:24:10.028722,2025-12-01 16:24:10.028722
"CYXS",2025-12-01 21:00:00,2025-12-01 16:00:00,"VFR",-1,-2,93,180,13,14500,29.91,NA,"BKN  ft; BKN  ft; BKN  ft","METAR CYXS 012100Z AUTO 18013G18KT 9SM BKN035 BKN140 BKN160 M01/M02 A2991 RMK SLP167",2025-12-01 21:24:10.108258,2025-12-01 16:24:10.108258
"CYXT",2025-12-01 21:00:00,2025-12-01 16:00:00,"LIFR",0,0,100,360,4,NA,30.01,NA,"OVX  ft","METAR CYXT 012100Z 36004KT 300V040 1SM -RA BR VV003 00/00 A3001 RMK FG8 SLP174",2025-12-01 21:24:10.185909,2025-12-01 16:24:10.185909
"CYQQ",2025-12-01 21:00:00,2025-12-01 16:00:00,"MVFR",5,4,93,200,2,9999,30.24,NA,"OVC  ft","METAR CYQQ 012100Z 20002KT 10SM -DZ OVC012 05/04 A3024 RMK SC8 DENSITY ALT -1347FT CIG RAG SLP241",2025-12-01 21:24:10.259861,2025-12-01 16:24:10.259861
"CYYC",2025-12-01 21:00:00,2025-12-01 16:00:00,"VFR",4,-5,52,290,4,64400,29.7,NA,"SCT  ft; BKN  ft; BKN  ft","METAR CYYC 012100Z 29004KT 220V310 40SM SCT066 BKN090 BKN250 04/M05 A2970 RMK AC4AC2CI1 SLP109",2025-12-01 21:24:10.334707,2025-12-01 16:24:10.334707
"CYEG",2025-12-01 21:11:00,2025-12-01 16:11:00,"VFR",1,1,100,230,5,32200,29.62,NA,"FEW  ft; OVC  ft","SPECI CYEG 012111Z 23005KT 20SM -SHRA FEW015 OVC045 01/01 A2962 RMK SC1SC8 SC TR CVCTV CLD EMBD SLP073",2025-12-01 21:24:10.445765,2025-12-01 16:24:10.445765
"CYMM",2025-12-01 21:17:00,2025-12-01 16:17:00,"MVFR",-8,-10,86,90,2,14500,29.6,NA,"BKN  ft; BKN  ft; OVC  ft","SPECI CYMM 012117Z AUTO 09002KT 9SM BKN021 BKN039 OVC055 M08/M10 A2960 RMK SLP055",2025-12-01 21:24:10.519649,2025-12-01 16:24:10.519649
"CYQF",2025-12-01 21:00:00,2025-12-01 16:00:00,"VFR",0,-2,87,180,3,14500,29.67,NA,"SCT  ft; OVC  ft","METAR CYQF 012100Z AUTO 18003KT 9SM SCT028 OVC066 00/M02 A2967 RMK PRESFR SLP101",2025-12-01 21:24:10.595617,2025-12-01 16:24:10.595617
"CYXE",2025-12-01 21:00:00,2025-12-01 16:00:00,"VFR",-13,-15,85,160,7,9700,29.8,NA,"SCT  ft; OVC  ft","METAR CYXE 012100Z 16007KT 6SM BR SCT006 OVC100 M13/M15 A2980 RMK ST3AC5 PRESFR SLP142",2025-12-01 21:24:10.668487,2025-12-01 16:24:10.668487
"CYQR",2025-12-01 21:00:00,2025-12-01 16:00:00,"MVFR",-12,-15,79,240,9,9700,29.85,NA,"BKN  ft; OVC  ft","METAR CYQR 012100Z 24009KT 6SM -SN BKN012 OVC120 M12/M15 A2985 RMK SC7AC1 SLP161",2025-12-01 21:24:10.742593,2025-12-01 16:24:10.742593
"CYWG",2025-12-01 21:00:00,2025-12-01 16:00:00,"VFR",-12,-16,72,190,5,24100,29.92,NA,"FEW  ft; FEW  ft","METAR CYWG 012100Z 19005KT 130V210 15SM FEW015 FEW100 M12/M16 A2992 RMK CF1AC1 CF TR SLP157",2025-12-01 21:24:10.815985,2025-12-01 16:24:10.815985
"CYBR",2025-12-01 21:00:00,2025-12-01 16:00:00,"VFR",-13,-16,78,250,6,24100,29.86,NA,"FEW  ft; FEW  ft","METAR CYBR 012100Z 25006KT 15SM FEW090 FEW250 M13/M16 A2986 RMK AC1CI1 SLP155",2025-12-01 21:24:10.891062,2025-12-01 16:24:10.891062
"CYUL",2025-12-01 21:00:00,2025-12-01 16:00:00,"MVFR",-7,-13,63,290,8,24100,30.37,NA,"FEW  ft; BKN  ft","METAR CYUL 012100Z 29008KT 250V320 15SM -SHSN FEW017 BKN024 M07/M13 A3037 RMK CU1SC6 SLP287",2025-12-01 21:24:10.965014,2025-12-01 16:24:10.965014
"CYHU",2025-12-01 21:00:00,2025-12-01 16:00:00,"MVFR",-7,-11,73,240,11,14500,30.35,NA,"OVC  ft","METAR CYHU 012100Z AUTO 24011KT 9SM -SN OVC024 M07/M11 A3035 RMK SLP280",2025-12-01 21:24:11.04585,2025-12-01 16:24:11.04585
"CYQB",2025-12-01 21:00:00,2025-12-01 16:00:00,"MVFR",-8,-13,68,270,8,48300,30.29,NA,"BKN  ft","METAR CYQB 012100Z 27008KT 30SM BKN028 M08/M13 A3029 RMK SC6 DIST SH S SLP264",2025-12-01 21:24:11.118676,2025-12-01 16:24:11.118676
"CYVO",2025-12-01 21:00:00,2025-12-01 16:00:00,"VFR",-11,-14,79,190,9,24100,30.16,NA,"OVC  ft","METAR CYVO 012100Z 19009KT 15SM -SN OVC042 M11/M14 A3016 RMK SC8 SLP248",2025-12-01 21:24:11.191693,2025-12-01 16:24:11.191693
"CYUY",2025-12-01 21:00:00,2025-12-01 16:00:00,"MVFR",-10,-12,85,180,6,4800,30.14,NA,"FEW  ft; OVC  ft","METAR CYUY 012100Z 18006KT 3SM -SHSN FEW020 OVC045 M10/M12 A3014 RMK SC2SC6 CVCTV CLD EMBD SLP233",2025-12-01 21:24:11.263266,2025-12-01 16:24:11.263266
"CYZV",2025-12-01 21:00:00,2025-12-01 16:00:00,"VFR",-10,-15,67,300,14,48300,30.05,NA,"FEW  ft","METAR CYZV 012100Z 30014G20KT 30SM DRSN FEW037 M10/M15 A3005 RMK SC2 PRESRR SLP182",2025-12-01 21:24:11.335305,2025-12-01 16:24:11.335305
"CYBC",2025-12-01 21:00:00,2025-12-01 16:00:00,"VFR",-9,-14,67,280,6,14500,30.16,NA,"OVC  ft","METAR CYBC 012100Z AUTO 28006KT 9SM OVC034 M09/M14 A3016 RMK SLP218",2025-12-01 21:24:11.409252,2025-12-01 16:24:11.409252
"CYRJ",2025-12-01 21:00:00,2025-12-01 16:00:00,"MVFR",-12,-17,67,250,2,64400,30.23,NA,"BKN  ft","METAR CYRJ 012100Z 25002KT 40SM BKN030 M12/M17 A3023 RMK SC7 SLP255",2025-12-01 21:24:11.482973,2025-12-01 16:24:11.482973
"CYHZ",2025-12-01 21:00:00,2025-12-01 16:00:00,"VFR",2,1,93,310,13,24100,29.97,NA,"FEW  ft; SCT  ft; SCT  ft","METAR CYHZ 012100Z 31013KT 15SM FEW027 SCT054 SCT220 02/01 A2997 RMK SC2CU2CI1 CI TR CF ASOCTD SLP157",2025-12-01 21:24:11.55493,2025-12-01 16:24:11.55493
"CYYG",2025-12-01 21:00:00,2025-12-01 16:00:00,"VFR",1,-1,87,300,14,24100,29.96,NA,"FEW  ft; FEW  ft; SCT  ft; BKN  ft","METAR CYYG 012100Z 30014G20KT 15SM FEW007 FEW016 SCT025 BKN062 01/M01 A2996 RMK SF1CU1SC3SC3 SF TR CU TR SH SE MOVG SE SLP150",2025-12-01 21:24:11.628277,2025-12-01 16:24:11.628277
"CYQM",2025-12-01 21:00:00,2025-12-01 16:00:00,"VFR",0,-3,80,280,10,24100,30.04,NA,"FEW  ft; BKN  ft","METAR CYQM 012100Z 28010KT 15SM FEW012 BKN032 M00/M03 A3004 RMK CF1SC6 CF TR SLP176",2025-12-01 21:24:11.700341,2025-12-01 16:24:11.700341
"CYFC",2025-12-01 21:00:00,2025-12-01 16:00:00,"VFR",-2,-9,59,300,11,14500,30.14,NA,"FEW  ft","METAR CYFC 012100Z AUTO 30011G23KT 9SM FEW036 M02/M09 A3014 RMK PRESRR SLP211",2025-12-01 21:24:11.772408,2025-12-01 16:24:11.772408
"CYYT",2025-12-01 21:00:00,2025-12-01 16:00:00,"IFR",6,6,100,200,31,9999,29.79,NA,"OVC  ft","METAR CYYT 012100Z 20031G41KT 10SM -RA OVC006 06/06 A2979 RMK ST8 SLP095",2025-12-01 21:24:11.844703,2025-12-01 16:24:11.844703
"CYQY",2025-12-01 21:00:00,2025-12-01 16:00:00,"VFR",3,1,87,290,10,24100,29.85,NA,"SCT  ft; BKN  ft","METAR CYQY 012100Z 29010KT 15SM SCT033 BKN240 03/01 A2985 RMK SC3CI3 SLP111",2025-12-01 21:24:11.923049,2025-12-01 16:24:11.923049
"CYXY",2025-12-01 21:00:00,2025-12-01 16:00:00,"VFR",0,-2,87,0,3,64400,29.61,NA,"FEW  ft; BKN  ft; BKN  ft","METAR CYXY 012100Z CCA VRB03KT 40SM FEW050 BKN150 BKN200 00/M02 A2961 RMK SC2AC4CI1 FU DIST S-W VIRGA SLP066",2025-12-01 21:24:11.995493,2025-12-01 16:24:11.995493
"CYZF",2025-12-01 21:00:00,2025-12-01 16:00:00,"MVFR",-12,-13,92,60,7,9700,29.8,NA,"OVC  ft","METAR CYZF 012100Z 06007KT 6SM -SN OVC024 M12/M13 A2980 RMK SC8 SLP115",2025-12-01 21:24:12.069578,2025-12-01 16:24:12.069578
"CYFB",2025-12-01 21:00:00,2025-12-01 16:00:00,"VFR",-8,-15,58,180,7,24100,29.43,NA,"FEW  ft; BKN  ft","METAR CYFB 012100Z 18007KT 15SM FEW032 BKN140 M08/M15 A2943 RMK SC2AC5 SLP972",2025-12-01 21:24:12.151056,2025-12-01 16:24:12.151056
"CYRT",2025-12-01 21:00:00,2025-12-01 16:00:00,"VFR",-30,-33,75,340,14,9999,29.71,NA,"FEW  ft","METAR CYRT 012100Z 34014KT 10SM IC FEW010 M30/M33 A2971 RMK SC1 SLP067",2025-12-01 21:24:12.225082,2025-12-01 16:24:12.225082
"CYBK",2025-12-01 21:00:00,2025-12-01 16:00:00,"VFR",-28,-31,75,300,14,24100,29.75,NA,"FEW  ft","METAR CYBK 012100Z 30014KT 15SM IC FEW015 M28/M31 A2975 RMK SC2 SLP080",2025-12-01 21:24:12.300465,2025-12-01 16:24:12.300465
"CYRB",2025-12-01 21:00:00,2025-12-01 16:00:00,"VFR",-21,-25,70,40,25,32200,29.79,NA,"BKN  ft","METAR CYRB 012100Z 04025KT 20SM IC DRSN BKN130 M21/M25 A2979 RMK AC5 SLP099",2025-12-01 21:24:12.38974,2025-12-01 16:24:12.38974
"CYCO",2025-12-01 21:00:00,2025-12-01 16:00:00,"MVFR",-25,-28,76,260,16,8000,30.08,NA,"SCT  ft; SCT  ft","METAR CYCO 012100Z 26016KT 5SM BR SCT003 SCT013 M25/M28 A3008 RMK ST3SC1 SLP193",2025-12-01 21:24:12.465909,2025-12-01 16:24:12.465909
"CYER",2025-12-01 22:00:00,2025-12-01 17:00:00,"VFR",-21,-26,64,260,11,14500,29.84,NA,"SCT  ft","METAR CYER 012200Z AUTO 26011G17KT 9SM SCT240 M21/M26 A2984 RMK SLP108",2025-12-01 22:27:42.57709,2025-12-01 17:27:42.57709
"CYAT",2025-12-01 22:07:00,2025-12-01 17:07:00,"MVFR",-9,-12,79,250,6,14500,29.92,NA,"OVC  ft","SPECI CYAT 012207Z AUTO 25006KT 9SM -SN OVC027 M09/M12 A2992 RMK SLP135",2025-12-01 22:27:42.680722,2025-12-01 17:27:42.680722
"CYMO",2025-12-01 22:00:00,2025-12-01 17:00:00,"VFR",-10,-14,73,220,7,14500,30.02,NA,"CLR  ft","METAR CYMO 012200Z AUTO 22007KT 9SM CLR M10/M14 A3002 RMK SLP170",2025-12-01 22:27:42.775034,2025-12-01 17:27:42.775034
"CYPL",2025-12-01 22:20:00,2025-12-01 17:20:00,"MVFR",-11,-14,79,220,6,8000,29.86,NA,"OVC  ft","SPECI CYPL 012220Z AUTO 22006KT 5SM -SN OVC030 M11/M14 A2986 RMK SLP148",2025-12-01 22:27:42.867866,2025-12-01 17:27:42.867866
"CYQT",2025-12-01 22:00:00,2025-12-01 17:00:00,"VFR",-9,-16,57,220,3,32200,30.01,NA,"FEW  ft; BKN  ft","METAR CYQT 012200Z 22003KT 20SM FEW038 BKN250 M09/M16 A3001 RMK SC2CI4 SLP181",2025-12-01 22:27:42.968349,2025-12-01 17:27:42.968349
"CYAM",2025-12-01 22:00:00,2025-12-01 17:00:00,"VFR",-4,-8,74,240,10,32200,30.1,NA,"FEW  ft; BKN  ft; OVC  ft","METAR CYAM 012200Z 24010G18KT 20SM FEW019 BKN120 OVC210 M04/M08 A3010 RMK CU2AS5CS1 SLP209",2025-12-01 22:27:43.06407,2025-12-01 17:27:43.06407
"CYTS",2025-12-01 22:00:00,2025-12-01 17:00:00,"VFR",-8,-10,86,190,8,9999,30.01,NA,"OVC  ft","METAR CYTS 012200Z 19008KT 10SM -SN OVC056 M08/M10 A3001 RMK SC8 SLP188",2025-12-01 22:27:43.156777,2025-12-01 17:27:43.156777
"CYSB",2025-12-01 22:00:00,2025-12-01 17:00:00,"VFR",-9,-11,86,150,12,24100,30.12,NA,"FEW  ft; OVC  ft","METAR CYSB 012200Z 15012G19KT 15SM FEW010 OVC046 M09/M11 A3012 RMK SC1SC8 SC TR SLP230",2025-12-01 22:27:43.250723,2025-12-01 17:27:43.250723
"CYYB",2025-12-01 22:00:00,2025-12-01 17:00:00,"MVFR",-8,-10,86,150,7,9700,30.17,NA,"OVC  ft","METAR CYYB 012200Z 15007KT 6SM -SN OVC023 M08/M10 A3017 RMK SC8 SLP246",2025-12-01 22:27:43.384962,2025-12-01 17:27:43.384962
"CYOW",2025-12-01 22:00:00,2025-12-01 17:00:00,"VFR",-10,-15,67,250,3,24100,30.36,NA,"FEW  ft; SCT  ft","METAR CYOW 012200Z 25003KT 15SM FEW025 SCT230 M10/M15 A3036 RMK SC1CI3 SLP291",2025-12-01 22:27:43.519039,2025-12-01 17:27:43.519039
"CYGK",2025-12-01 22:00:00,2025-12-01 17:00:00,"VFR",-6,-12,63,330,2,24100,30.36,NA,"FEW  ft; BKN  ft","METAR CYGK 012200Z 33002KT 15SM FEW025 BKN180 M06/M12 A3036 RMK CU1CI6 SLP289",2025-12-01 22:27:43.616839,2025-12-01 17:27:43.616839
"CYQG",2025-12-01 22:00:00,2025-12-01 17:00:00,"VFR",-2,-9,59,160,2,14500,30.27,NA,"OVC  ft","METAR CYQG 012200Z AUTO 16002KT 9SM OVC140 M02/M09 A3027 RMK SLP262",2025-12-01 22:27:43.710661,2025-12-01 17:27:43.710661
"CYVV",2025-12-01 22:00:00,2025-12-01 17:00:00,"MVFR",-4,-6,86,170,9,6400,30.21,NA,"OVC  ft","METAR CYVV 012200Z 17009KT 4SM -SN OVC029 M04/M06 A3021 RMK SC8 SLP247",2025-12-01 22:27:43.803639,2025-12-01 17:27:43.803639
"CYYZ",2025-12-01 22:00:00,2025-12-01 17:00:00,"VFR",-3,-7,74,150,4,24100,30.29,NA,"FEW  ft; OVC  ft","METAR CYYZ 012200Z 15004KT 15SM -SN FEW016 OVC039 M03/M07 A3029 RMK CF1SC7 SLP269",2025-12-01 22:27:43.897258,2025-12-01 17:27:43.897258
"CYQA",2025-12-01 22:00:00,2025-12-01 17:00:00,"VFR",-7,-10,79,170,7,14500,30.25,NA,"OVC  ft","METAR CYQA 012200Z AUTO 17007KT 9SM -SN OVC034 M07/M10 A3025 RMK SLP267",2025-12-01 22:27:43.98983,2025-12-01 17:27:43.98983
"CYVR",2025-12-01 22:00:00,2025-12-01 17:00:00,"MVFR",5,3,87,90,5,4800,30.23,NA,"BKN  ft; OVC  ft","METAR CYVR 012200Z 09005KT 360V100 3SM -RA BR BKN025 OVC033 05/03 A3023 RMK SC7SC1 SLP238",2025-12-01 22:27:44.084006,2025-12-01 17:27:44.084006
"CYYJ",2025-12-01 22:00:00,2025-12-01 17:00:00,"MVFR",5,5,100,130,5,6400,30.21,NA,"FEW  ft; FEW  ft; OVC  ft","METAR CYYJ 012200Z CCA 13005KT 4SM -RA FEW007 FEW018 OVC058 05/05 A3021 RMK SF1SC2SC6 SF TR SLP231",2025-12-01 22:27:44.217911,2025-12-01 17:27:44.217911
"CYLW",2025-12-01 22:24:00,2025-12-01 17:24:00,"VFR",1,-1,87,130,4,14500,30.15,NA,"FEW  ft; OVC  ft","SPECI CYLW 012224Z AUTO 13004KT 9SM -RA FEW016 OVC046 01/M01 A3015 RMK SLP230",2025-12-01 22:27:44.354472,2025-12-01 17:27:44.354472
"CYXS",2025-12-01 22:00:00,2025-12-01 17:00:00,"VFR",0,-2,87,180,11,14500,29.9,NA,"BKN  ft; OVC  ft","METAR CYXS 012200Z AUTO 18011G18KT 9SM BKN066 OVC085 M00/M02 A2990 RMK SLP162",2025-12-01 22:27:44.449381,2025-12-01 17:27:44.449381
"CYXT",2025-12-01 22:00:00,2025-12-01 17:00:00,"LIFR",0,0,100,310,4,NA,30,NA,"OVX  ft","METAR CYXT 012200Z 31004KT 3/4SM -RA BR VV002 00/00 A3000 RMK FG8 SLP173",2025-12-01 22:27:44.583718,2025-12-01 17:27:44.583718
"CYQQ",2025-12-01 22:00:00,2025-12-01 17:00:00,"MVFR",5,5,100,0,0,12900,30.24,NA,"OVC  ft","METAR CYQQ 012200Z 00000KT 8SM -RA OVC010 05/05 A3024 RMK SC8 DENSITY ALT -1319FT SLP240",2025-12-01 22:27:44.67967,2025-12-01 17:27:44.67967
"CYYC",2025-12-01 22:00:00,2025-12-01 17:00:00,"VFR",4,-5,52,230,7,64400,29.66,NA,"FEW  ft; SCT  ft; BKN  ft","METAR CYYC 012200Z 23007KT 40SM FEW069 SCT087 BKN220 04/M05 A2966 RMK AC2AC2CI1 SLP097",2025-12-01 22:27:44.774887,2025-12-01 17:27:44.774887
"CYEG",2025-12-01 22:00:00,2025-12-01 17:00:00,"VFR",1,1,100,210,5,32200,29.6,NA,"BKN  ft","METAR CYEG 012200Z 21005KT 20SM BKN047 01/01 A2960 RMK SC7 SLP069",2025-12-01 22:27:44.874692,2025-12-01 17:27:44.874692
"CYMM",2025-12-01 22:00:00,2025-12-01 17:00:00,"MVFR",-8,-10,86,0,0,14500,29.59,NA,"BKN  ft; OVC  ft","METAR CYMM 012200Z AUTO 00000KT 9SM -SN BKN021 OVC048 M08/M10 A2959 RMK SLP051",2025-12-01 22:27:44.972056,2025-12-01 17:27:44.972056
"CYQF",2025-12-01 22:00:00,2025-12-01 17:00:00,"VFR",1,-2,81,250,4,14500,29.66,NA,"OVC  ft","METAR CYQF 012200Z AUTO 25004KT 9SM OVC060 01/M02 A2966 RMK SLP097",2025-12-01 22:27:45.068878,2025-12-01 17:27:45.068878
"CYXE",2025-12-01 22:00:00,2025-12-01 17:00:00,"VFR",-12,-14,85,180,8,12900,29.76,NA,"SCT  ft; BKN  ft; BKN  ft","METAR CYXE 012200Z 18008KT 8SM SCT079 BKN100 BKN130 M12/M14 A2976 RMK AC3AC2AC2 BR SLP128",2025-12-01 22:27:45.161201,2025-12-01 17:27:45.161201
"CYQR",2025-12-01 22:19:00,2025-12-01 17:19:00,"VFR",-12,-15,79,240,7,24100,29.82,NA,"SCT  ft; BKN  ft","SPECI CYQR 012219Z 24007KT 15SM -SN SCT009 BKN120 M12/M15 A2982 RMK SC3AC5 SLP149",2025-12-01 22:27:45.25893,2025-12-01 17:27:45.25893
"CYWG",2025-12-01 22:00:00,2025-12-01 17:00:00,"MVFR",-12,-16,72,210,5,24100,29.92,NA,"BKN  ft","METAR CYWG 012200Z 21005KT 15SM BKN018 M12/M16 A2992 RMK SC5 SLP156",2025-12-01 22:27:45.357801,2025-12-01 17:27:45.357801
"CYBR",2025-12-01 22:00:00,2025-12-01 17:00:00,"VFR",-13,-16,78,260,8,24100,29.86,NA,"FEW  ft; BKN  ft","METAR CYBR 012200Z 26008KT 15SM FEW090 BKN250 M13/M16 A2986 RMK AC2CI3 SLP152",2025-12-01 22:27:45.455982,2025-12-01 17:27:45.455982
"CYUL",2025-12-01 22:00:00,2025-12-01 17:00:00,"MVFR",-7,-13,63,300,9,24100,30.39,NA,"BKN  ft","METAR CYUL 012200Z 30009KT 15SM -SHSN BKN024 M07/M13 A3039 RMK SC7 CVCTV CLD EMBD SLP294",2025-12-01 22:27:45.551784,2025-12-01 17:27:45.551784
"CYHU",2025-12-01 22:00:00,2025-12-01 17:00:00,"MVFR",-7,-11,73,250,10,14500,30.37,NA,"OVC  ft","METAR CYHU 012200Z AUTO 25010G16KT 9SM -SN OVC024 M07/M11 A3037 RMK SLP289",2025-12-01 22:27:45.689252,2025-12-01 17:27:45.689252
"CYQB",2025-12-01 22:00:00,2025-12-01 17:00:00,"MVFR",-8,-13,68,290,5,24100,30.31,NA,"BKN  ft","METAR CYQB 012200Z 29005KT 250V310 15SM BKN028 M08/M13 A3031 RMK SC7 SH DIST E-W SLP269",2025-12-01 22:27:45.789088,2025-12-01 17:27:45.789088
"CYVO",2025-12-01 22:00:00,2025-12-01 17:00:00,"VFR",-11,-13,85,170,9,24100,30.14,NA,"FEW  ft; OVC  ft","METAR CYVO 012200Z 17009KT 15SM -SN FEW035 OVC043 M11/M13 A3014 RMK SC2SC6 SLP240",2025-12-01 22:27:45.887281,2025-12-01 17:27:45.887281
"CYUY",2025-12-01 22:00:00,2025-12-01 17:00:00,"VFR",-10,-12,85,180,7,24100,30.11,NA,"OVC  ft","METAR CYUY 012200Z 18007KT 15SM -SHSN OVC049 M10/M12 A3011 RMK SC8 CVCTV CLD EMBD SLP226",2025-12-01 22:27:45.981033,2025-12-01 17:27:45.981033
"CYZV",2025-12-01 22:00:00,2025-12-01 17:00:00,"VFR",-11,-16,67,300,4,48300,30.08,NA,"FEW  ft; FEW  ft","METAR CYZV 012200Z 30004KT 260V320 30SM FEW031 FEW053 M11/M16 A3008 RMK SF1SF1 SF TR SF TR SLP193",2025-12-01 22:27:46.118277,2025-12-01 17:27:46.118277
"CYBC",2025-12-01 22:00:00,2025-12-01 17:00:00,"VFR",-10,-13,79,280,4,14500,30.19,NA,"OVC  ft","METAR CYBC 012200Z AUTO 28004KT 9SM OVC034 M10/M13 A3019 RMK SLP227",2025-12-01 22:27:46.22428,2025-12-01 17:27:46.22428
"CYRJ",2025-12-01 22:00:00,2025-12-01 17:00:00,"MVFR",-11,-17,62,250,4,40200,30.24,NA,"BKN  ft","METAR CYRJ 012200Z 25004KT 25SM BKN027 M11/M17 A3024 RMK SC7 SLP258",2025-12-01 22:27:46.362345,2025-12-01 17:27:46.362345
"CYHZ",2025-12-01 22:00:00,2025-12-01 17:00:00,"MVFR",2,1,93,290,9,24100,30.02,NA,"BKN  ft; BKN  ft","METAR CYHZ 012200Z 29009KT 15SM -SN BKN027 BKN067 02/01 A3002 RMK NS6AC1 AC TR SC ASOCTD PRESRR SLP173",2025-12-01 22:27:46.497522,2025-12-01 17:27:46.497522
"CYYG",2025-12-01 22:00:00,2025-12-01 17:00:00,"VFR",0,-4,75,300,9,24100,30.02,NA,"BKN  ft","METAR CYYG 012200Z 30009G19KT 15SM BKN033 00/M04 A3002 RMK SC7 SLP168",2025-12-01 22:27:46.594078,2025-12-01 17:27:46.594078
"CYQM",2025-12-01 22:00:00,2025-12-01 17:00:00,"VFR",-1,-5,75,310,11,24100,30.09,NA,"FEW  ft; FEW  ft; SCT  ft","METAR CYQM 012200Z 31011G20KT 15SM FEW012 FEW020 SCT035 M01/M05 A3009 RMK CF1SC1SC3 CF TR PRESRR SLP194",2025-12-01 22:27:46.687646,2025-12-01 17:27:46.687646
"CYFC",2025-12-01 22:00:00,2025-12-01 17:00:00,"VFR",-2,-9,59,300,7,14500,30.19,NA,"CLR  ft","METAR CYFC 012200Z AUTO 30007G20KT 280V340 9SM CLR M02/M09 A3019 RMK PRESRR SLP225",2025-12-01 22:27:46.786878,2025-12-01 17:27:46.786878
"CYYT",2025-12-01 22:19:00,2025-12-01 17:19:00,"IFR",7,7,100,190,28,9700,29.71,NA,"BKN  ft; OVC  ft","SPECI CYYT 012219Z 19028G37KT 6SM RA BR BKN006 OVC015 07/07 A2971 RMK SF7ST1 SLP070",2025-12-01 22:27:46.882866,2025-12-01 17:27:46.882866
"CYQY",2025-12-01 22:00:00,2025-12-01 17:00:00,"VFR",3,1,87,280,14,24100,29.88,NA,"BKN  ft","METAR CYQY 012200Z 28014G20KT 15SM BKN045 03/01 A2988 RMK SC5 SLP122",2025-12-01 22:27:47.021001,2025-12-01 17:27:47.021001
"CYXY",2025-12-01 22:00:00,2025-12-01 17:00:00,"VFR",1,-1,87,210,3,64400,29.62,NA,"BKN  ft; BKN  ft; BKN  ft; BKN  ft","METAR CYXY 012200Z 21003KT 40SM VCSH BKN093 BKN120 BKN160 BKN220 01/M01 A2962 RMK AC5AC1AC1CI1 CI TR VIS 8 SW-W SH ACC ASOCTD AC LENT SLP071",2025-12-01 22:27:47.155117,2025-12-01 17:27:47.155117
"CYZF",2025-12-01 22:00:00,2025-12-01 17:00:00,"MVFR",-12,-13,92,50,8,9700,29.81,NA,"SCT  ft; OVC  ft","METAR CYZF 012200Z 05008KT 6SM -SN SCT010 OVC024 M12/M13 A2981 RMK SC4SC4 SLP119",2025-12-01 22:27:47.250452,2025-12-01 17:27:47.250452
"CYFB",2025-12-01 22:00:00,2025-12-01 17:00:00,"VFR",-8,-15,58,190,9,24100,29.43,NA,"BKN  ft; BKN  ft","METAR CYFB 012200Z 19009KT 15SM BKN035 BKN140 M08/M15 A2943 RMK SC5AC1 SLP971",2025-12-01 22:27:47.344898,2025-12-01 17:27:47.344898
"CYRT",2025-12-01 22:00:00,2025-12-01 17:00:00,"VFR",-30,-33,75,330,9,9999,29.71,NA,"FEW  ft","METAR CYRT 012200Z 33009KT 10SM IC FEW010 M30/M33 A2971 RMK SC1 SLP069",2025-12-01 22:27:47.439324,2025-12-01 17:27:47.439324
"CYBK",2025-12-01 22:00:00,2025-12-01 17:00:00,"VFR",-29,-32,75,300,13,32200,29.74,NA,"FEW  ft; SCT  ft","METAR CYBK 012200Z 30013KT 20SM IC FEW015 SCT045 M29/M32 A2974 RMK SC1SC3 SLP077",2025-12-01 22:27:47.53103,2025-12-01 17:27:47.53103
"CYRB",2025-12-01 22:00:00,2025-12-01 17:00:00,"VFR",-22,-25,77,40,27,32200,29.8,NA,"BKN  ft","METAR CYRB 012200Z 04027KT 20SM IC DRSN BKN110 M22/M25 A2980 RMK AC7 SLP105",2025-12-01 22:27:47.676678,2025-12-01 17:27:47.676678
"CYCO",2025-12-01 22:00:00,2025-12-01 17:00:00,"MVFR",-26,-29,76,250,14,8000,30.1,NA,"FEW  ft; FEW  ft","METAR CYCO 012200Z 25014KT 5SM BR FEW003 FEW013 M26/M29 A3010 RMK ST1SC1 SC TR SLP198",2025-12-01 22:27:47.76918,2025-12-01 17:27:47.76918
"CYER",2025-12-01 23:00:00,2025-12-01 18:00:00,"VFR",-21,-25,70,260,12,14500,29.83,NA,"SCT  ft","METAR CYER 012300Z AUTO 26012G19KT 9SM SCT240 M21/M25 A2983 RMK SLP105",2025-12-01 23:27:39.297762,2025-12-01 18:27:39.297762
"CYAT",2025-12-01 23:00:00,2025-12-01 18:00:00,"MVFR",-9,-12,79,250,7,14500,29.93,NA,"OVC  ft","METAR CYAT 012300Z AUTO 25007KT 9SM -SN OVC027 M09/M12 A2993 RMK SLP137",2025-12-01 23:27:39.353713,2025-12-01 18:27:39.353713
"CYMO",2025-12-01 23:01:00,2025-12-01 18:01:00,"VFR",-9,-13,73,220,8,14500,30.03,NA,"BKN  ft; OVC  ft","SPECI CYMO 012301Z AUTO 22008KT 9SM -SN BKN038 OVC046 M09/M13 A3003 RMK SLP171",2025-12-01 23:27:39.443682,2025-12-01 18:27:39.443682
"CYPL",2025-12-01 23:00:00,2025-12-01 18:00:00,"MVFR",-11,-14,79,190,5,14500,29.85,NA,"OVC  ft","METAR CYPL 012300Z AUTO 19005KT 9SM -SN OVC030 M11/M14 A2985 RMK SLP144",2025-12-01 23:27:39.532095,2025-12-01 18:27:39.532095
"CYQT",2025-12-01 23:00:00,2025-12-01 18:00:00,"VFR",-12,-16,72,0,0,24100,30,NA,"FEW  ft; SCT  ft","METAR CYQT 012300Z 00000KT 15SM FEW038 SCT260 M12/M16 A3000 RMK SC1CI3 SC TR SLP178",2025-12-01 23:27:39.621936,2025-12-01 18:27:39.621936
"CYAM",2025-12-01 23:00:00,2025-12-01 18:00:00,"VFR",-4,-9,69,240,13,32200,30.1,NA,"SCT  ft; BKN  ft; OVC  ft","METAR CYAM 012300Z 24013G18KT 20SM SCT019 BKN072 OVC120 M04/M09 A3010 RMK CU3AS3AS2 SLP206",2025-12-01 23:27:39.667167,2025-12-01 18:27:39.667167
"CYTS",2025-12-01 23:00:00,2025-12-01 18:00:00,"VFR",-7,-9,86,180,9,24100,29.99,NA,"OVC  ft","METAR CYTS 012300Z 18009G15KT 15SM -SN OVC048 M07/M09 A2999 RMK SC8 SLP184",2025-12-01 23:27:39.752189,2025-12-01 18:27:39.752189
"CYSB",2025-12-01 23:00:00,2025-12-01 18:00:00,"VFR",-9,-10,93,150,11,24100,30.11,NA,"FEW  ft; OVC  ft","METAR CYSB 012300Z 15011KT 15SM FEW007 OVC046 M09/M10 A3011 RMK SC1SC8 SC TR SLP225",2025-12-01 23:27:39.838545,2025-12-01 18:27:39.838545
"CYYB",2025-12-01 23:00:00,2025-12-01 18:00:00,"MVFR",-8,-10,86,140,6,8000,30.15,NA,"OVC  ft","METAR CYYB 012300Z 14006KT 5SM -SN OVC023 M08/M10 A3015 RMK SC8 SLP238",2025-12-01 23:27:39.923424,2025-12-01 18:27:39.923424
"CYOW",2025-12-01 23:00:00,2025-12-01 18:00:00,"VFR",-11,-15,73,290,2,24100,30.34,NA,"FEW  ft; SCT  ft","METAR CYOW 012300Z 29002KT 15SM FEW025 SCT200 M11/M15 A3034 RMK SC1CI4 SC TR SLP285",2025-12-01 23:27:40.008198,2025-12-01 18:27:40.008198
"CYGK",2025-12-01 23:00:00,2025-12-01 18:00:00,"VFR",-7,-12,68,360,4,24100,30.34,NA,"FEW  ft; BKN  ft","METAR CYGK 012300Z 36004KT 15SM FEW025 BKN170 M07/M12 A3034 RMK CU1AC6 SLP281",2025-12-01 23:27:40.096503,2025-12-01 18:27:40.096503
"CYQG",2025-12-01 23:00:00,2025-12-01 18:00:00,"VFR",-3,-8,69,150,4,14500,30.24,NA,"OVC  ft","METAR CYQG 012300Z AUTO 15004KT 9SM OVC120 M03/M08 A3024 RMK SLP254",2025-12-01 23:27:40.146719,2025-12-01 18:27:40.146719
"CYVV",2025-12-01 23:00:00,2025-12-01 18:00:00,"MVFR",-4,-6,86,170,9,8000,30.21,NA,"OVC  ft","METAR CYVV 012300Z 17009KT 5SM -SN OVC042 M04/M06 A3021 RMK SC8 SLP246",2025-12-01 23:27:40.196049,2025-12-01 18:27:40.196049
"CYYZ",2025-12-01 23:00:00,2025-12-01 18:00:00,"MVFR",-3,-6,80,140,6,24100,30.28,NA,"FEW  ft; BKN  ft; OVC  ft","METAR CYYZ 012300Z 14006KT 15SM -SN FEW016 BKN022 OVC046 M03/M06 A3028 RMK CF1SC5SC2 SLP266",2025-12-01 23:27:40.281362,2025-12-01 18:27:40.281362
"CYQA",2025-12-01 23:00:00,2025-12-01 18:00:00,"VFR",-7,-10,79,160,9,14500,30.23,NA,"OVC  ft","METAR CYQA 012300Z AUTO 16009KT 9SM -SN OVC040 M07/M10 A3023 RMK SLP260",2025-12-01 23:27:40.367519,2025-12-01 18:27:40.367519
"CYVR",2025-12-01 23:00:00,2025-12-01 18:00:00,"VFR",5,3,87,80,6,12900,30.23,NA,"OVC  ft","METAR CYVR 012300Z 08006KT 8SM -RA OVC034 05/03 A3023 RMK SC8 SLP239",2025-12-01 23:27:40.453616,2025-12-01 18:27:40.453616
"CYYJ",2025-12-01 23:00:00,2025-12-01 18:00:00,"MVFR",5,5,100,0,2,19300,30.22,NA,"OVC  ft","METAR CYYJ 012300Z VRB02KT 12SM -RA OVC014 05/05 A3022 RMK SC8 SLP236",2025-12-01 23:27:40.53847,2025-12-01 18:27:40.53847
"CYLW",2025-12-01 23:11:00,2025-12-01 18:11:00,"MVFR",1,-1,87,140,8,6400,30.12,NA,"FEW  ft; SCT  ft; OVC  ft","SPECI CYLW 012311Z AUTO 14008KT 4SM -SN FEW014 SCT026 OVC044 01/M01 A3012 RMK PRESFR SLP220",2025-12-01 23:27:40.587821,2025-12-01 18:27:40.587821
"CYXS",2025-12-01 23:00:00,2025-12-01 18:00:00,"VFR",0,-2,87,180,12,12900,29.89,NA,"SCT  ft; BKN  ft; OVC  ft","METAR CYXS 012300Z AUTO 18012G17KT 8SM -SN SCT032 BKN046 OVC066 M00/M02 A2989 RMK SLP159",2025-12-01 23:27:40.673651,2025-12-01 18:27:40.673651
"CYXT",2025-12-01 23:13:00,2025-12-01 18:13:00,"LIFR",1,1,100,250,3,3200,30.01,NA,"OVC  ft","SPECI CYXT 012313Z 25003KT 2SM BR OVC003 01/01 A3001 RMK FG4SF4 VIS HYR NW SLP174",2025-12-01 23:27:40.759196,2025-12-01 18:27:40.759196
"CYQQ",2025-12-01 23:00:00,2025-12-01 18:00:00,"MVFR",5,5,100,200,2,9999,30.21,NA,"OVC  ft","METAR CYQQ 012300Z 20002KT 10SM -RA OVC010 05/05 A3021 RMK SC8 DENSITY ALT -1298FT PCPN VRY LGT SLP232",2025-12-01 23:27:40.848153,2025-12-01 18:27:40.848153
"CYYC",2025-12-01 23:13:00,2025-12-01 18:13:00,"VFR",2,-4,65,170,3,64400,29.65,NA,"BKN  ft; BKN  ft; BKN  ft","SPECI CYYC 012313Z 17003KT 130V290 40SM BKN063 BKN085 BKN220 02/M04 A2965 RMK SC5AC1CI1 SLP094",2025-12-01 23:27:40.93629,2025-12-01 18:27:40.93629
"CYEG",2025-12-01 23:00:00,2025-12-01 18:00:00,"VFR",1,1,100,260,2,32200,29.59,NA,"BKN  ft","METAR CYEG 012300Z 26002KT 20SM BKN053 01/01 A2959 RMK SC7 SLP059",2025-12-01 23:27:41.023063,2025-12-01 18:27:41.023063
"CYMM",2025-12-01 23:12:00,2025-12-01 18:12:00,"IFR",-9,-10,93,80,3,2800,29.59,NA,"SCT  ft; OVC  ft","SPECI CYMM 012312Z AUTO 08003KT 1 3/4SM -SN SCT021 OVC040 M09/M10 A2959 RMK SLP051",2025-12-01 23:27:41.069107,2025-12-01 18:27:41.069107
"CYQF",2025-12-01 23:00:00,2025-12-01 18:00:00,"VFR",1,-1,87,210,7,14500,29.62,NA,"FEW  ft; BKN  ft; BKN  ft","METAR CYQF 012300Z AUTO 21007KT 9SM FEW066 BKN220 BKN240 01/M01 A2962 RMK SLP078",2025-12-01 23:27:41.154781,2025-12-01 18:27:41.154781
"CYXE",2025-12-01 23:00:00,2025-12-01 18:00:00,"VFR",-11,-13,85,170,8,9700,29.72,NA,"OVC  ft","METAR CYXE 012300Z 17008KT 6SM BR OVC034 M11/M13 A2972 RMK SC8 SLP113",2025-12-01 23:27:41.240373,2025-12-01 18:27:41.240373
"CYQR",2025-12-01 23:00:00,2025-12-01 18:00:00,"VFR",-12,-15,79,210,6,19300,29.79,NA,"BKN  ft","METAR CYQR 012300Z 21006KT 12SM BKN120 M12/M15 A2979 RMK AC7 PRESFR SLP140",2025-12-01 23:27:41.288414,2025-12-01 18:27:41.288414
"CYWG",2025-12-01 23:00:00,2025-12-01 18:00:00,"MVFR",-13,-16,78,160,6,24100,29.91,NA,"BKN  ft","METAR CYWG 012300Z 16006KT 15SM BKN019 M13/M16 A2991 RMK SC7 SLP152",2025-12-01 23:27:41.374919,2025-12-01 18:27:41.374919
"CYBR",2025-12-01 23:00:00,2025-12-01 18:00:00,"VFR",-16,-19,78,270,7,24100,29.84,NA,"FEW  ft; FEW  ft","METAR CYBR 012300Z 27007KT 15SM FEW100 FEW240 M16/M19 A2984 RMK AC1CI2 AC TR SLP151",2025-12-01 23:27:41.461555,2025-12-01 18:27:41.461555
"CYUL",2025-12-01 23:00:00,2025-12-01 18:00:00,"VFR",-8,-13,68,300,6,24100,30.38,NA,"FEW  ft; FEW  ft","METAR CYUL 012300Z 30006KT 15SM FEW025 FEW230 M08/M13 A3038 RMK SC1CI2 SC TR SLP293",2025-12-01 23:27:41.550347,2025-12-01 18:27:41.550347
"CYHU",2025-12-01 23:09:00,2025-12-01 18:09:00,"MVFR",-8,-13,68,270,6,14500,30.38,NA,"BKN  ft; BKN  ft","SPECI CYHU 012309Z AUTO 27006KT 9SM BKN028 BKN230 M08/M13 A3038 RMK SLP292",2025-12-01 23:27:41.599213,2025-12-01 18:27:41.599213
"CYQB",2025-12-01 23:00:00,2025-12-01 18:00:00,"MVFR",-9,-13,73,270,5,24100,30.32,NA,"OVC  ft","METAR CYQB 012300Z 27005KT 15SM OVC028 M09/M13 A3032 RMK SC8 SLP276",2025-12-01 23:27:41.686591,2025-12-01 18:27:41.686591
"CYVO",2025-12-01 23:00:00,2025-12-01 18:00:00,"VFR",-11,-13,85,170,9,24100,30.13,NA,"OVC  ft","METAR CYVO 012300Z 17009KT 15SM -SN OVC049 M11/M13 A3013 RMK SC8 SLP235",2025-12-01 23:27:41.776675,2025-12-01 18:27:41.776675
"CYUY",2025-12-01 23:00:00,2025-12-01 18:00:00,"VFR",-10,-12,85,180,8,24100,30.09,NA,"OVC  ft","METAR CYUY 012300Z 18008KT 15SM -SHSN OVC050 M10/M12 A3009 RMK SC8 CVCTV CLD EMBD SLP219",2025-12-01 23:27:41.864367,2025-12-01 18:27:41.864367
"CYZV",2025-12-01 23:00:00,2025-12-01 18:00:00,"VFR",-11,-16,67,310,8,24100,30.1,NA,"FEW  ft","METAR CYZV 012300Z 31008KT 15SM FEW036 M11/M16 A3010 RMK SF1 SF TR SLP199",2025-12-01 23:27:41.912091,2025-12-01 18:27:41.912091
"CYBC",2025-12-01 23:00:00,2025-12-01 18:00:00,"VFR",-10,-14,73,270,9,14500,30.2,NA,"BKN  ft","METAR CYBC 012300Z AUTO 27009KT 9SM BKN032 M10/M14 A3020 RMK SLP231",2025-12-01 23:27:42.003434,2025-12-01 18:27:42.003434
"CYRJ",2025-12-01 23:00:00,2025-12-01 18:00:00,"VFR",-14,-18,72,260,3,40200,30.25,NA,"SCT  ft; BKN  ft","METAR CYRJ 012300Z 26003KT 25SM SCT029 BKN240 M14/M18 A3025 RMK SC4CS1 SLP260",2025-12-01 23:27:42.057454,2025-12-01 18:27:42.057454
"CYHZ",2025-12-01 23:00:00,2025-12-01 18:00:00,"MVFR",1,0,93,330,14,12900,30.07,NA,"FEW  ft; BKN  ft","METAR CYHZ 012300Z 33014G20KT 8SM -SN FEW005 BKN014 01/M00 A3007 RMK SF1NS6 SLP188",2025-12-01 23:27:42.146095,2025-12-01 18:27:42.146095
"CYYG",2025-12-01 23:00:00,2025-12-01 18:00:00,"VFR",0,-6,64,310,16,24100,30.07,NA,"BKN  ft","METAR CYYG 012300Z 31016G25KT 15SM BKN035 M00/M06 A3007 RMK SC6 SLP186",2025-12-01 23:27:42.231871,2025-12-01 18:27:42.231871
"CYQM",2025-12-01 23:00:00,2025-12-01 18:00:00,"VFR",-2,-7,69,310,13,24100,30.12,NA,"SCT  ft","METAR CYQM 012300Z 31013G18KT 15SM SCT035 M02/M07 A3012 RMK SC4 PRESRR SLP207",2025-12-01 23:27:42.319437,2025-12-01 18:27:42.319437
"CYFC",2025-12-01 23:00:00,2025-12-01 18:00:00,"VFR",-4,-11,59,310,8,14500,30.23,NA,"CLR  ft","METAR CYFC 012300Z AUTO 31008G15KT 9SM CLR M04/M11 A3023 RMK SLP239",2025-12-01 23:27:42.406504,2025-12-01 18:27:42.406504
"CYYT",2025-12-01 23:00:00,2025-12-01 18:00:00,"IFR",8,8,100,200,24,19300,29.68,NA,"BKN  ft; OVC  ft","METAR CYYT 012300Z 20024G38KT 12SM -RA BKN008 OVC016 08/08 A2968 RMK SF6ST2 PRESFR SLP056",2025-12-01 23:27:42.49181,2025-12-01 18:27:42.49181
"CYQY",2025-12-01 23:00:00,2025-12-01 18:00:00,"VFR",3,-1,75,300,13,24100,29.92,NA,"SCT  ft","METAR CYQY 012300Z 30013G25KT 15SM SCT029 03/M01 A2992 RMK SC4 SLP137",2025-12-01 23:27:42.540617,2025-12-01 18:27:42.540617
"CYXY",2025-12-01 23:00:00,2025-12-01 18:00:00,"VFR",0,-1,93,140,3,64400,29.64,NA,"FEW  ft; BKN  ft; BKN  ft; BKN  ft","METAR CYXY 012300Z 14003KT 40SM -SHSN FEW053 BKN074 BKN097 BKN220 00/M01 A2964 RMK SC2AC3AC1CI1 VIS SE 8 ACC ASOCTD SLP078",2025-12-01 23:27:42.628044,2025-12-01 18:27:42.628044
"CYZF",2025-12-01 23:00:00,2025-12-01 18:00:00,"MVFR",-12,-13,92,50,7,9700,29.83,NA,"BKN  ft; OVC  ft","METAR CYZF 012300Z 05007KT 6SM -SN BKN015 OVC024 M12/M13 A2983 RMK SC6SC2 SLP124",2025-12-01 23:27:42.714732,2025-12-01 18:27:42.714732
"CYFB",2025-12-01 23:00:00,2025-12-01 18:00:00,"VFR",-9,-15,62,200,7,24100,29.43,NA,"FEW  ft; BKN  ft","METAR CYFB 012300Z 20007KT 15SM FEW040 BKN130 M09/M15 A2943 RMK SC2AC4 SLP971",2025-12-01 23:27:42.800568,2025-12-01 18:27:42.800568
"CYRT",2025-12-01 23:00:00,2025-12-01 18:00:00,"VFR",-31,-33,82,340,10,9999,29.7,NA,"SKC  ft","METAR CYRT 012300Z 34010KT 10SM IC SKC M31/M33 A2970 RMK SLP064",2025-12-01 23:27:42.888401,2025-12-01 18:27:42.888401
"CYBK",2025-12-01 23:00:00,2025-12-01 18:00:00,"VFR",-29,-32,75,300,10,24100,29.75,NA,"FEW  ft; SCT  ft","METAR CYBK 012300Z 30010KT 15SM IC FEW015 SCT045 M29/M32 A2975 RMK SC1SC2 SLP078",2025-12-01 23:27:42.976354,2025-12-01 18:27:42.976354
"CYRB",2025-12-01 23:00:00,2025-12-01 18:00:00,"VFR",-21,-25,70,330,4,40200,29.84,NA,"BKN  ft","METAR CYRB 012300Z 33004KT 300V110 25SM IC BKN041 M21/M25 A2984 RMK SC6 SLP118",2025-12-01 23:27:43.078095,2025-12-01 18:27:43.078095
"CYCO",2025-12-01 23:00:00,2025-12-01 18:00:00,"VFR",-27,-30,76,240,12,9700,30.1,NA,"FEW  ft; FEW  ft","METAR CYCO 012300Z 24012KT 6SM IC BR FEW003 FEW013 M27/M30 A3010 RMK SF1SC1 SF TR SC TR FROIN SLP200",2025-12-01 23:27:43.129213,2025-12-01 18:27:43.129213
"CYER",2025-12-02 01:00:00,2025-12-01 20:00:00,"VFR",-22,-26,70,260,10,14500,29.81,NA,"FEW  ft; SCT  ft","METAR CYER 020100Z AUTO 26010G15KT 9SM FEW120 SCT240 M22/M26 A2981 RMK SLP099",2025-12-02 02:07:54.389755,2025-12-01 21:07:54.389755
"CYAT",2025-12-02 01:00:00,2025-12-01 20:00:00,"VFR",-10,-13,79,220,5,14500,29.91,NA,"OVC  ft","METAR CYAT 020100Z AUTO 22005KT 9SM OVC046 M10/M13 A2991 RMK SLP132",2025-12-02 02:07:54.439908,2025-12-01 21:07:54.439908
"CYMO",2025-12-02 01:23:00,2025-12-01 20:23:00,"VFR",-10,-12,85,200,10,14500,29.99,NA,"OVC  ft","SPECI CYMO 020123Z AUTO 20010G15KT 9SM OVC066 M10/M12 A2999 RMK SLP158",2025-12-02 02:07:54.521322,2025-12-01 21:07:54.521322
"CYPL",2025-12-02 01:53:00,2025-12-01 20:53:00,"MVFR",-12,-16,72,240,7,14500,29.82,NA,"OVC  ft","SPECI CYPL 020153Z AUTO 24007KT 9SM -SN OVC024 M12/M16 A2982 RMK SLP134",2025-12-02 02:07:54.604258,2025-12-01 21:07:54.604258
"CYQT",2025-12-02 01:00:00,2025-12-01 20:00:00,"VFR",-13,-17,72,230,3,24100,29.98,NA,"OVC  ft","METAR CYQT 020100Z 23003KT 15SM OVC140 M13/M17 A2998 RMK AC8 SLP170",2025-12-02 02:07:54.692371,2025-12-01 21:07:54.692371
"CYAM",2025-12-02 01:00:00,2025-12-01 20:00:00,"VFR",-5,-9,74,280,12,24100,30.04,NA,"BKN  ft; BKN  ft; OVC  ft","METAR CYAM 020100Z CCA 28012KT 15SM DRSN BKN060 BKN081 OVC130 M05/M09 A3004 RMK SC5AS2AS1 SLP189",2025-12-02 02:07:54.739044,2025-12-01 21:07:54.739044
"CYTS",2025-12-02 01:00:00,2025-12-01 20:00:00,"VFR",-7,-9,86,200,9,9700,29.96,NA,"OVC  ft","METAR CYTS 020100Z CCA 20009KT 6SM -SN OVC043 M07/M09 A2996 RMK SC8 SLP172",2025-12-02 02:07:54.823207,2025-12-01 21:07:54.823207
"CYSB",2025-12-02 01:42:00,2025-12-01 20:42:00,"MVFR",-8,-9,93,150,6,4800,30.03,NA,"FEW  ft; OVC  ft","SPECI CYSB 020142Z 15006KT 3SM -SN FEW005 OVC030 M08/M09 A3003 RMK SF1SC8 SF TR PRESFR SLP199",2025-12-02 02:07:54.909381,2025-12-01 21:07:54.909381
"CYYB",2025-12-02 01:00:00,2025-12-01 20:00:00,"MVFR",-8,-10,86,160,7,19300,30.11,NA,"OVC  ft","METAR CYYB 020100Z 16007KT 12SM -SN OVC013 M08/M10 A3011 RMK SC8 SLP227",2025-12-02 02:07:54.994128,2025-12-01 21:07:54.994128
"CYOW",2025-12-02 01:00:00,2025-12-01 20:00:00,"VFR",-11,-15,73,50,4,24100,30.32,NA,"BKN  ft","METAR CYOW 020100Z 05004KT 360V060 15SM BKN180 M11/M15 A3032 RMK AC7 SLP278",2025-12-02 02:07:55.076073,2025-12-01 21:07:55.076073
"CYGK",2025-12-02 01:00:00,2025-12-01 20:00:00,"VFR",-8,-12,73,350,4,24100,30.32,NA,"BKN  ft","METAR CYGK 020100Z 35004KT 15SM BKN170 M08/M12 A3032 RMK AC6 SLP277",2025-12-02 02:07:55.160703,2025-12-01 21:07:55.160703
"CYQG",2025-12-02 01:52:00,2025-12-01 20:52:00,"VFR",-3,-7,74,110,4,14500,30.17,NA,"OVC  ft","SPECI CYQG 020152Z AUTO 11004KT 9SM OVC036 M03/M07 A3017 RMK SLP227",2025-12-02 02:07:55.243409,2025-12-01 21:07:55.243409
"CYVV",2025-12-02 01:00:00,2025-12-01 20:00:00,"VFR",-4,-6,86,170,11,12900,30.14,NA,"OVC  ft","METAR CYVV 020100Z 17011KT 8SM -SN OVC039 M04/M06 A3014 RMK SC8 SLP223",2025-12-02 02:07:55.33051,2025-12-01 21:07:55.33051
"CYYZ",2025-12-02 01:00:00,2025-12-01 20:00:00,"MVFR",-3,-6,80,100,6,24100,30.22,NA,"BKN  ft; OVC  ft","METAR CYYZ 020100Z 10006KT 15SM -SN BKN024 OVC038 M03/M06 A3022 RMK SC6SC2 SLP247",2025-12-02 02:07:55.41533,2025-12-01 21:07:55.41533
"CYQA",2025-12-02 01:37:00,2025-12-01 20:37:00,"MVFR",-7,-10,79,150,7,14500,30.16,NA,"SCT  ft; BKN  ft; OVC  ft","SPECI CYQA 020137Z AUTO 15007KT 9SM -SN SCT013 BKN018 OVC037 M07/M10 A3016 RMK SLP234",2025-12-02 02:07:55.503341,2025-12-01 21:07:55.503341
"CYVR",2025-12-02 01:00:00,2025-12-01 20:00:00,"MVFR",4,4,100,100,9,12900,30.19,NA,"SCT  ft; OVC  ft","METAR CYVR 020100Z 10009KT 8SM -RA SCT020 OVC026 04/04 A3019 RMK SC3SC5 SLP226",2025-12-02 02:07:55.603539,2025-12-01 21:07:55.603539
"CYYJ",2025-12-02 01:00:00,2025-12-01 20:00:00,"IFR",5,5,100,140,7,8000,30.18,NA,"OVC  ft","METAR CYYJ 020100Z 14007KT 5SM BR OVC008 05/05 A3018 RMK SC8 SLP222",2025-12-02 02:07:55.656663,2025-12-01 21:07:55.656663
"CYLW",2025-12-02 02:02:00,2025-12-01 21:02:00,"MVFR",0,0,100,0,0,8000,30.07,NA,"OVC  ft","SPECI CYLW 020202Z AUTO 00000KT 5SM -SN -UP OVC015 00/M00 A3007 RMK SLP204",2025-12-02 02:07:55.746643,2025-12-01 21:07:55.746643
"CYXS",2025-12-02 02:01:00,2025-12-01 21:01:00,"VFR",-1,-1,100,180,12,14500,29.84,NA,"SCT  ft; BKN  ft; BKN  ft; OVC  ft","SPECI CYXS 020201Z AUTO 18012G19KT 9SM -SN SCT005 BKN060 BKN084 OVC120 M01/M01 A2984 RMK SLP142",2025-12-02 02:07:55.83338,2025-12-01 21:07:55.83338
"CYXT",2025-12-02 01:34:00,2025-12-01 20:34:00,"LIFR",1,1,100,0,2,1600,30.03,NA,"OVC  ft","SPECI CYXT 020134Z VRB02KT 1SM -DZ BR OVC003 01/01 A3003 RMK FG7SF1 SLP183",2025-12-02 02:07:55.918303,2025-12-01 21:07:55.918303
"CYQQ",2025-12-02 01:00:00,2025-12-01 20:00:00,"MVFR",6,5,93,150,7,24100,30.17,NA,"OVC  ft","METAR CYQQ 020100Z 15007KT 15SM OVC010 06/05 A3017 RMK SC8 DENSITY ALT -1214FT SLP217",2025-12-02 02:07:56.007973,2025-12-01 21:07:56.007973
"CYYC",2025-12-02 01:00:00,2025-12-01 20:00:00,"VFR",5,-5,49,270,18,24100,29.64,NA,"FEW  ft; SCT  ft; BKN  ft","METAR CYYC 020100Z 27018G25KT 15SM FEW082 SCT170 BKN200 05/M05 A2964 RMK AC2AC2CI2 SLP084",2025-12-02 02:07:56.091192,2025-12-01 21:07:56.091192
"CYEG",2025-12-02 01:00:00,2025-12-01 20:00:00,"VFR",2,1,93,280,5,32200,29.58,NA,"OVC  ft","METAR CYEG 020100Z 28005KT 20SM OVC048 02/01 A2958 RMK SC8 SLP052",2025-12-02 02:07:56.173189,2025-12-01 21:07:56.173189
"CYMM",2025-12-02 01:57:00,2025-12-01 20:57:00,"MVFR",-9,-10,93,0,2,8000,29.58,NA,"FEW  ft; OVC  ft","SPECI CYMM 020157Z AUTO VRB02KT 5SM -SN FEW024 OVC044 M09/M10 A2958 RMK SLP050",2025-12-02 02:07:56.257252,2025-12-01 21:07:56.257252
"CYQF",2025-12-02 01:00:00,2025-12-01 20:00:00,"VFR",1,-2,81,240,5,14500,29.61,NA,"OVC  ft","METAR CYQF 020100Z AUTO 24005KT 9SM OVC076 01/M02 A2961 RMK SLP076",2025-12-02 02:07:56.343349,2025-12-01 21:07:56.343349
"CYXE",2025-12-02 01:56:00,2025-12-01 20:56:00,"VFR",-9,-11,86,180,11,9700,29.61,NA,"OVC  ft","SPECI CYXE 020156Z 18011KT 6SM -SN BR OVC040 M09/M11 A2961 RMK SC8 SLP075",2025-12-02 02:07:56.428367,2025-12-01 21:07:56.428367
"CYQR",2025-12-02 01:00:00,2025-12-01 20:00:00,"VFR",-12,-14,85,160,7,24100,29.72,NA,"OVC  ft","METAR CYQR 020100Z 16007KT 15SM OVC075 M12/M14 A2972 RMK AC8 SLP119",2025-12-02 02:07:56.514554,2025-12-01 21:07:56.514554
"CYWG",2025-12-02 01:00:00,2025-12-01 20:00:00,"VFR",-15,-17,85,180,6,24100,29.88,NA,"SKC  ft","METAR CYWG 020100Z 18006KT 15SM SKC M15/M17 A2988 RMK SLP142",2025-12-02 02:07:56.598366,2025-12-01 21:07:56.598366
"CYBR",2025-12-02 02:00:00,2025-12-01 21:00:00,"VFR",-19,-21,84,230,6,24100,29.79,NA,"SKC  ft","METAR CYBR 020200Z 23006KT 15SM SKC M19/M21 A2979 RMK SLP134",2025-12-02 02:07:56.680084,2025-12-01 21:07:56.680084
"CYUL",2025-12-02 01:00:00,2025-12-01 20:00:00,"VFR",-9,-13,73,10,2,24100,30.35,NA,"BKN  ft","METAR CYUL 020100Z 01002KT 15SM BKN180 M09/M13 A3035 RMK AC5 SLP283",2025-12-02 02:07:56.767139,2025-12-01 21:07:56.767139
"CYHU",2025-12-02 01:00:00,2025-12-01 20:00:00,"VFR",-9,-13,73,330,4,14500,30.35,NA,"FEW  ft","METAR CYHU 020100Z AUTO 33004KT 9SM FEW180 M09/M13 A3035 RMK SLP282",2025-12-02 02:07:56.852077,2025-12-01 21:07:56.852077
"CYQB",2025-12-02 01:00:00,2025-12-01 20:00:00,"VFR",-9,-14,67,290,4,24100,30.33,NA,"BKN  ft","METAR CYQB 020100Z 29004KT 260V320 15SM BKN031 M09/M14 A3033 RMK SC7 SLP278",2025-12-02 02:07:56.93813,2025-12-01 21:07:56.93813
"CYVO",2025-12-02 01:00:00,2025-12-01 20:00:00,"VFR",-10,-12,85,180,10,9999,30.09,NA,"OVC  ft","METAR CYVO 020100Z 18010KT 10SM -SN OVC049 M10/M12 A3009 RMK SC8 SLP223",2025-12-02 02:07:57.021544,2025-12-01 21:07:57.021544
"CYUY",2025-12-02 01:50:00,2025-12-01 20:50:00,"IFR",-9,-10,93,200,7,4000,30.03,NA,"BKN  ft; OVC  ft","SPECI CYUY 020150Z 20007KT 2 1/2SM -SHSN BKN013 OVC025 M09/M10 A3003 RMK SC7SC1 CVCTV CLD EMBD SLP197",2025-12-02 02:07:57.107024,2025-12-01 21:07:57.107024
"CYZV",2025-12-02 01:00:00,2025-12-01 20:00:00,"VFR",-14,-18,72,290,7,24100,30.12,NA,"FEW  ft","METAR CYZV 020100Z 29007KT 15SM FEW050 M14/M18 A3012 RMK SC1 SC TR SLP207",2025-12-02 02:07:57.189023,2025-12-01 21:07:57.189023
"CYBC",2025-12-02 01:00:00,2025-12-01 20:00:00,"MVFR",-13,-15,85,250,5,14500,30.21,NA,"BKN  ft","METAR CYBC 020100Z AUTO 25005KT 9SM BKN028 M13/M15 A3021 RMK SLP235",2025-12-02 02:07:57.273212,2025-12-01 21:07:57.273212
"CYRJ",2025-12-02 01:00:00,2025-12-01 20:00:00,"VFR",-18,-21,78,220,2,40200,30.24,NA,"FEW  ft; SCT  ft","METAR CYRJ 020100Z 22002KT 25SM FEW190 SCT230 M18/M21 A3024 RMK AS2CI1 SLP260",2025-12-02 02:07:57.355186,2025-12-01 21:07:57.355186
"CYHZ",2025-12-02 01:00:00,2025-12-01 20:00:00,"VFR",-1,-6,69,350,10,24100,30.15,NA,"SCT  ft","METAR CYHZ 020100Z 35010G16KT 15SM SCT035 M01/M06 A3015 RMK SC3 SLP216",2025-12-02 02:07:57.438515,2025-12-01 21:07:57.438515
"CYYG",2025-12-02 01:00:00,2025-12-01 20:00:00,"VFR",-2,-8,64,300,12,24100,30.14,NA,"OVC  ft","METAR CYYG 020100Z 30012G19KT 15SM OVC033 M02/M08 A3014 RMK SC8 SLP210",2025-12-02 02:07:57.521012,2025-12-01 21:07:57.521012
"CYQM",2025-12-02 01:00:00,2025-12-01 20:00:00,"VFR",-5,-9,74,310,8,24100,30.2,NA,"FEW  ft","METAR CYQM 020100Z 31008KT 15SM FEW035 M05/M09 A3020 RMK SC1 SC TR SLP231",2025-12-02 02:07:57.604446,2025-12-01 21:07:57.604446
"CYFC",2025-12-02 01:00:00,2025-12-01 20:00:00,"VFR",-5,-11,63,320,6,14500,30.26,NA,"CLR  ft","METAR CYFC 020100Z AUTO 32006KT 9SM CLR M05/M11 A3026 RMK SLP251",2025-12-02 02:07:57.685809,2025-12-01 21:07:57.685809
"CYYT",2025-12-02 01:50:00,2025-12-01 20:50:00,"MVFR",6,6,100,290,18,24100,29.65,NA,"SCT  ft; OVC  ft","SPECI CYYT 020150Z 29018G28KT 15SM -RA SCT008 OVC019 06/06 A2965 RMK SF3ST5 SLP048",2025-12-02 02:07:57.768082,2025-12-01 21:07:57.768082
"CYQY",2025-12-02 01:20:00,2025-12-01 20:20:00,"MVFR",1,0,93,320,8,8000,30.02,NA,"OVC  ft","SPECI CYQY 020120Z 32008KT 5SM -SN OVC013 01/00 A3002 RMK SC8 SLP171",2025-12-02 02:07:57.854167,2025-12-01 21:07:57.854167
"CYXY",2025-12-02 01:00:00,2025-12-01 20:00:00,"VFR",-2,-3,93,170,5,24100,29.68,NA,"FEW  ft; BKN  ft; BKN  ft","METAR CYXY 020100Z 17005KT 15SM FEW050 BKN079 BKN100 M02/M03 A2968 RMK SC1AC6AC1 SC TR SLP093",2025-12-02 02:07:57.938169,2025-12-01 21:07:57.938169
"CYZF",2025-12-02 01:34:00,2025-12-01 20:34:00,"MVFR",-13,-14,92,40,8,12900,29.88,NA,"BKN  ft; OVC  ft","SPECI CYZF 020134Z 04008KT 8SM -SN BKN012 OVC020 M13/M14 A2988 RMK SC6SC2 SLP142",2025-12-02 02:07:58.021901,2025-12-01 21:07:58.021901
"CYFB",2025-12-02 01:00:00,2025-12-01 20:00:00,"VFR",-10,-13,79,0,0,24100,29.41,NA,"FEW  ft; SCT  ft; BKN  ft","METAR CYFB 020100Z 00000KT 15SM FEW025 SCT055 BKN130 M10/M13 A2941 RMK SC2SC2AC3 SLP966",2025-12-02 02:07:58.107417,2025-12-01 21:07:58.107417
"CYRT",2025-12-02 01:00:00,2025-12-01 20:00:00,"VFR",-31,-34,75,320,9,9999,29.67,NA,"FEW  ft","METAR CYRT 020100Z 32009KT 10SM IC FEW250 M31/M34 A2967 RMK CI1 SLP055",2025-12-02 02:07:58.190058,2025-12-01 21:07:58.190058
"CYBK",2025-12-02 01:00:00,2025-12-01 20:00:00,"VFR",-29,-33,68,300,17,24100,29.72,NA,"FEW  ft; BKN  ft","METAR CYBK 020100Z 30017KT 15SM IC DRSN FEW015 BKN045 M29/M33 A2972 RMK SC1SC5 SLP068",2025-12-02 02:07:58.234358,2025-12-01 21:07:58.234358
"CYRB",2025-12-02 01:00:00,2025-12-01 20:00:00,"VFR",-22,-26,70,0,2,40200,29.84,NA,"FEW  ft","METAR CYRB 020100Z VRB02KT 25SM IC FEW039 M22/M26 A2984 RMK SC2 SLP119",2025-12-02 02:07:58.334818,2025-12-01 21:07:58.334818
"CYCO",2025-12-02 01:25:00,2025-12-01 20:25:00,"VFR",-27,-30,76,240,16,12900,30.12,NA,"SCT  ft","SPECI CYCO 020125Z 24016KT 8SM IC SCT016 M27/M30 A3012 RMK SC3 SLP205",2025-12-02 02:07:58.381511,2025-12-01 21:07:58.381511
"CYER",2025-12-02 02:00:00,2025-12-01 21:00:00,"VFR",-22,-25,77,260,14,14500,29.79,NA,"FEW  ft; BKN  ft","METAR CYER 020200Z AUTO 26014G20KT 9SM FEW066 BKN250 M22/M25 A2979 RMK SLP093",2025-12-02 02:25:33.214367,2025-12-01 21:25:33.214367
"CYAT",2025-12-02 02:00:00,2025-12-01 21:00:00,NA,-10,-13,79,220,6,NA,29.9,NA,"OVC  ft","METAR CYAT 020200Z AUTO 22006KT OVC046 M10/M13 A2990 RMK WX MISG VIS MISG SLP128",2025-12-02 02:25:33.30901,2025-12-01 21:25:33.30901
"CYMO",2025-12-02 02:00:00,2025-12-01 21:00:00,"VFR",-10,-12,85,220,10,14500,29.98,NA,"OVC  ft","METAR CYMO 020200Z AUTO 22010KT 9SM OVC066 M10/M12 A2998 RMK SLP154",2025-12-02 02:25:33.394983,2025-12-01 21:25:33.394983
"CYPL",2025-12-02 02:00:00,2025-12-01 21:00:00,"MVFR",-12,-16,72,240,7,14500,29.82,NA,"OVC  ft","METAR CYPL 020200Z AUTO 24007KT 9SM -SN OVC024 M12/M16 A2982 RMK SLP134",2025-12-02 02:25:33.482119,2025-12-01 21:25:33.482119
"CYQT",2025-12-02 02:00:00,2025-12-01 21:00:00,"VFR",-14,-17,78,280,2,24100,29.96,NA,"OVC  ft","METAR CYQT 020200Z 28002KT 15SM OVC140 M14/M17 A2996 RMK AC8 SLP165",2025-12-02 02:25:33.569664,2025-12-01 21:25:33.569664
"CYAM",2025-12-02 02:00:00,2025-12-01 21:00:00,"VFR",-5,-8,80,260,10,24100,30.03,NA,"FEW  ft; BKN  ft; BKN  ft; OVC  ft","METAR CYAM 020200Z 26010KT 15SM DRSN FEW017 BKN041 BKN066 OVC250 M05/M08 A3003 RMK CF2SC3AS2CS1 SLP182",2025-12-02 02:25:33.658483,2025-12-01 21:25:33.658483
"CYTS",2025-12-02 02:00:00,2025-12-01 21:00:00,"VFR",-7,-9,86,200,6,9700,29.94,NA,"OVC  ft","METAR CYTS 020200Z 20006KT 180V240 6SM -SN OVC048 M07/M09 A2994 RMK SC8 SLP164",2025-12-02 02:25:33.744573,2025-12-01 21:25:33.744573
"CYSB",2025-12-02 02:00:00,2025-12-01 21:00:00,"IFR",-8,-9,93,150,6,NA,30.03,NA,"OVX  ft","METAR CYSB 020200Z 15006KT 1 1/2SM -SN VV014 M08/M09 A3003 RMK SN8 SLP197",2025-12-02 02:25:33.832771,2025-12-01 21:25:33.832771
"CYYB",2025-12-02 02:00:00,2025-12-01 21:00:00,"MVFR",-7,-9,86,160,8,24100,30.07,NA,"BKN  ft; OVC  ft","METAR CYYB 020200Z 16008KT 15SM -SN BKN011 OVC040 M07/M09 A3007 RMK SC7SC1 SLP213",2025-12-02 02:25:33.919323,2025-12-01 21:25:33.919323
"CYOW",2025-12-02 02:00:00,2025-12-01 21:00:00,"VFR",-11,-14,79,90,4,24100,30.3,NA,"BKN  ft","METAR CYOW 020200Z 09004KT 15SM BKN170 M11/M14 A3030 RMK AC7 SLP273",2025-12-02 02:25:34.006002,2025-12-01 21:25:34.006002
"CYGK",2025-12-02 02:00:00,2025-12-01 21:00:00,"VFR",-8,-12,73,10,3,24100,30.29,NA,"BKN  ft","METAR CYGK 020200Z 01003KT 15SM BKN160 M08/M12 A3029 RMK AC7 SLP267",2025-12-02 02:25:34.091538,2025-12-01 21:25:34.091538
"CYQG",2025-12-02 02:17:00,2025-12-01 21:17:00,"VFR",-3,-7,74,150,7,14500,30.15,NA,"OVC  ft","SPECI CYQG 020217Z AUTO 15007KT 9SM -SN OVC040 M03/M07 A3015 RMK SLP221",2025-12-02 02:25:34.176258,2025-12-01 21:25:34.176258
"CYVV",2025-12-02 02:00:00,2025-12-01 21:00:00,"VFR",-4,-7,80,180,13,9999,30.12,NA,"OVC  ft","METAR CYVV 020200Z 18013KT 10SM -SN OVC036 M04/M07 A3012 RMK SC8 SLP215",2025-12-02 02:25:34.262897,2025-12-01 21:25:34.262897
"CYYZ",2025-12-02 02:00:00,2025-12-01 21:00:00,"MVFR",-2,-6,74,100,4,24100,30.19,NA,"OVC  ft","METAR CYYZ 020200Z 10004KT 070V130 15SM -SN OVC025 M02/M06 A3019 RMK SC8 SLP234",2025-12-02 02:25:34.349662,2025-12-01 21:25:34.349662
"CYQA",2025-12-02 02:19:00,2025-12-01 21:19:00,"MVFR",-7,-9,86,150,6,14500,30.13,NA,"BKN  ft; OVC  ft","SPECI CYQA 020219Z AUTO 15006KT 9SM -SN BKN011 OVC037 M07/M09 A3013 RMK SLP225",2025-12-02 02:25:34.431976,2025-12-01 21:25:34.431976
"CYVR",2025-12-02 02:18:00,2025-12-01 21:18:00,"MVFR",4,4,100,100,7,12900,30.18,NA,"FEW  ft; OVC  ft","SPECI CYVR 020218Z 10007KT 8SM -RA FEW013 OVC017 04/04 A3018 RMK SC2SC6 SLP221",2025-12-02 02:25:34.558539,2025-12-01 21:25:34.558539
"CYYJ",2025-12-02 02:00:00,2025-12-01 21:00:00,"IFR",5,5,100,140,7,12900,30.16,NA,"OVC  ft","METAR CYYJ 020200Z 14007KT 8SM OVC006 05/05 A3016 RMK ST8 SLP217",2025-12-02 02:25:34.645558,2025-12-01 21:25:34.645558
"CYLW",2025-12-02 02:21:00,2025-12-01 21:21:00,"IFR",0,0,100,60,3,3200,30.07,NA,"BKN  ft; OVC  ft","SPECI CYLW 020221Z AUTO 06003KT 2SM -SN -UP BKN015 OVC021 00/M00 A3007 RMK SLP203",2025-12-02 02:25:34.73378,2025-12-01 21:25:34.73378
"CYXS",2025-12-02 02:19:00,2025-12-01 21:19:00,"VFR",-1,-1,100,170,15,14500,29.84,NA,"FEW  ft; SCT  ft; BKN  ft; BKN  ft","SPECI CYXS 020219Z AUTO 17015G21KT 9SM FEW005 SCT060 BKN094 BKN110 M01/M01 A2984 RMK SLP141",2025-12-02 02:25:34.858556,2025-12-01 21:25:34.858556
"CYXT",2025-12-02 02:00:00,2025-12-01 21:00:00,"LIFR",1,1,100,0,0,1600,30.04,NA,"OVC  ft","METAR CYXT 020200Z 00000KT 1SM -DZ BR OVC003 01/01 A3004 RMK FG7SF1 SLP184",2025-12-02 02:25:34.98448,2025-12-01 21:25:34.98448
"CYQQ",2025-12-02 02:00:00,2025-12-01 21:00:00,"MVFR",6,4,87,140,8,24100,30.18,NA,"BKN  ft; OVC  ft","METAR CYQQ 020200Z 14008KT 15SM BKN010 OVC015 06/04 A3018 RMK SC6SC2 DENSITY ALT -1227FT SLP221",2025-12-02 02:25:35.066571,2025-12-01 21:25:35.066571
"CYYC",2025-12-02 02:00:00,2025-12-01 21:00:00,"VFR",5,-5,49,270,18,24100,29.61,NA,"BKN  ft; BKN  ft","METAR CYYC 020200Z 27018G30KT 15SM BKN087 BKN180 05/M05 A2961 RMK AC5AC1 SLP078",2025-12-02 02:25:35.147777,2025-12-01 21:25:35.147777
"CYEG",2025-12-02 02:00:00,2025-12-01 21:00:00,"VFR",2,0,87,270,8,32200,29.57,NA,"OVC  ft","METAR CYEG 020200Z 27008KT 20SM OVC060 02/00 A2957 RMK SC8 SLP048",2025-12-02 02:25:35.234448,2025-12-01 21:25:35.234448
"CYMM",2025-12-02 02:19:00,2025-12-01 21:19:00,"VFR",-9,-10,93,320,4,14500,29.59,NA,"OVC  ft","SPECI CYMM 020219Z AUTO 32004KT 9SM -SN OVC050 M09/M10 A2959 RMK SLP053",2025-12-02 02:25:35.319389,2025-12-01 21:25:35.319389
"CYQF",2025-12-02 02:00:00,2025-12-01 21:00:00,"VFR",-2,-4,86,190,4,14500,29.61,NA,"SCT  ft; BKN  ft","METAR CYQF 020200Z AUTO 19004KT 9SM SCT081 BKN240 M02/M04 A2961 RMK SLP076",2025-12-02 02:25:35.401943,2025-12-01 21:25:35.401943
"CYXE",2025-12-02 02:00:00,2025-12-01 21:00:00,"VFR",-9,-11,86,170,11,9700,29.61,NA,"OVC  ft","METAR CYXE 020200Z 17011KT 6SM -SN BR OVC040 M09/M11 A2961 RMK SC8 SLP073",2025-12-02 02:25:35.526742,2025-12-01 21:25:35.526742
"CYQR",2025-12-02 02:00:00,2025-12-01 21:00:00,"VFR",-12,-14,85,140,9,24100,29.69,NA,"BKN  ft; OVC  ft","METAR CYQR 020200Z 14009KT 15SM BKN051 OVC072 M12/M14 A2969 RMK SC6AC2 SLP107",2025-12-02 02:25:35.652456,2025-12-01 21:25:35.652456
"CYWG",2025-12-02 02:00:00,2025-12-01 21:00:00,"VFR",-14,-17,78,200,5,24100,29.86,NA,"SKC  ft","METAR CYWG 020200Z 20005KT 15SM SKC M14/M17 A2986 RMK SLP138",2025-12-02 02:25:35.736745,2025-12-01 21:25:35.736745
"CYBR",2025-12-02 02:00:00,2025-12-01 21:00:00,"VFR",-19,-21,84,230,6,24100,29.79,NA,"SKC  ft","METAR CYBR 020200Z 23006KT 15SM SKC M19/M21 A2979 RMK SLP134",2025-12-02 02:25:35.823755,2025-12-01 21:25:35.823755
"CYUL",2025-12-02 02:00:00,2025-12-01 21:00:00,"VFR",-9,-13,73,0,0,24100,30.34,NA,"SCT  ft; BKN  ft","METAR CYUL 020200Z 00000KT 15SM SCT030 BKN190 M09/M13 A3034 RMK SC4AC3 SLP279",2025-12-02 02:25:35.953583,2025-12-01 21:25:35.953583
"CYHU",2025-12-02 02:00:00,2025-12-01 21:00:00,"VFR",-9,-13,73,0,0,14500,30.34,NA,"BKN  ft","METAR CYHU 020200Z AUTO 00000KT 9SM BKN190 M09/M13 A3034 RMK SLP279",2025-12-02 02:25:36.039594,2025-12-01 21:25:36.039594
"CYQB",2025-12-02 02:00:00,2025-12-01 21:00:00,"VFR",-9,-14,67,280,3,24100,30.32,NA,"BKN  ft","METAR CYQB 020200Z 28003KT 15SM BKN032 M09/M14 A3032 RMK SC7 SLP275",2025-12-02 02:25:36.163383,2025-12-01 21:25:36.163383
"CYVO",2025-12-02 02:00:00,2025-12-01 21:00:00,"VFR",-10,-12,85,180,12,9999,30.06,NA,"FEW  ft; OVC  ft","METAR CYVO 020200Z 18012G17KT 10SM -SN FEW037 OVC048 M10/M12 A3006 RMK SC2SC6 SLP212",2025-12-02 02:25:36.29173,2025-12-01 21:25:36.29173
"CYUY",2025-12-02 02:00:00,2025-12-01 21:00:00,"IFR",-9,-10,93,200,7,4000,30.03,NA,"BKN  ft; OVC  ft","METAR CYUY 020200Z 20007KT 180V240 2 1/2SM -SHSN BKN013 OVC025 M09/M10 A3003 RMK SC7SC1 CVCTV CLD EMBD SLP196",2025-12-02 02:25:36.418687,2025-12-01 21:25:36.418687
"CYZV",2025-12-02 02:00:00,2025-12-01 21:00:00,"VFR",-13,-17,72,270,4,24100,30.13,NA,"FEW  ft","METAR CYZV 020200Z 27004KT 15SM FEW050 M13/M17 A3013 RMK SC1 SC TR SLP211",2025-12-02 02:25:36.502785,2025-12-01 21:25:36.502785
"CYBC",2025-12-02 02:00:00,2025-12-01 21:00:00,"VFR",-13,-16,78,260,8,14500,30.22,NA,"CLR  ft","METAR CYBC 020200Z AUTO 26008KT 9SM CLR M13/M16 A3022 RMK SLP238",2025-12-02 02:25:36.586886,2025-12-01 21:25:36.586886
"CYRJ",2025-12-02 02:00:00,2025-12-01 21:00:00,"VFR",-15,-18,78,240,3,40200,30.23,NA,"SCT  ft; BKN  ft","METAR CYRJ 020200Z 24003KT 25SM SCT180 BKN240 M15/M18 A3023 RMK AS3CI3 SLP255",2025-12-02 02:25:36.669951,2025-12-01 21:25:36.669951
"CYHZ",2025-12-02 02:00:00,2025-12-01 21:00:00,"VFR",-2,-5,80,350,8,24100,30.16,NA,"FEW  ft","METAR CYHZ 020200Z 35008KT 15SM FEW028 M02/M05 A3016 RMK SC2 SLP221",2025-12-02 02:25:36.757297,2025-12-01 21:25:36.757297
"CYYG",2025-12-02 02:00:00,2025-12-01 21:00:00,"MVFR",-3,-8,69,310,14,24100,30.16,NA,"OVC  ft","METAR CYYG 020200Z 31014G20KT 15SM OVC028 M03/M08 A3016 RMK SC8 SLP216",2025-12-02 02:25:36.844416,2025-12-01 21:25:36.844416
"CYQM",2025-12-02 02:00:00,2025-12-01 21:00:00,"VFR",-6,-11,68,290,7,24100,30.21,NA,"SKC  ft","METAR CYQM 020200Z 29007KT 15SM SKC M06/M11 A3021 RMK SLP236",2025-12-02 02:25:36.929284,2025-12-01 21:25:36.929284
"CYFC",2025-12-02 02:00:00,2025-12-01 21:00:00,"VFR",-6,-11,68,300,4,14500,30.29,NA,"CLR  ft","METAR CYFC 020200Z AUTO 30004KT 260V320 9SM CLR M06/M11 A3029 RMK SLP260",2025-12-02 02:25:37.016836,2025-12-01 21:25:37.016836
"CYYT",2025-12-02 02:00:00,2025-12-01 21:00:00,"MVFR",5,4,93,300,21,24100,29.65,NA,"FEW  ft; OVC  ft","METAR CYYT 020200Z 30021G29KT 15SM -RA FEW008 OVC024 05/04 A2965 RMK SF2ST6 SLP048",2025-12-02 02:25:37.105182,2025-12-01 21:25:37.105182
"CYQY",2025-12-02 02:00:00,2025-12-01 21:00:00,"MVFR",1,-2,81,330,11,9999,30.03,NA,"BKN  ft; OVC  ft","METAR CYQY 020200Z 33011G17KT 270V350 10SM -SN BKN013 OVC029 01/M02 A3003 RMK SC6SC2 SLP175",2025-12-02 02:25:37.193637,2025-12-01 21:25:37.193637
"CYXY",2025-12-02 02:00:00,2025-12-01 21:00:00,"VFR",0,-1,93,0,0,24100,29.71,NA,"BKN  ft","METAR CYXY 020200Z 00000KT 15SM BKN087 M00/M01 A2971 RMK AC5 SLP101",2025-12-02 02:25:37.320527,2025-12-01 21:25:37.320527
"CYZF",2025-12-02 02:00:00,2025-12-01 21:00:00,"MVFR",-13,-14,92,30,6,12900,29.89,NA,"OVC  ft","METAR CYZF 020200Z 03006KT 8SM -SN OVC011 M13/M14 A2989 RMK SC8 SLP145",2025-12-02 02:25:37.405324,2025-12-01 21:25:37.405324
"CYFB",2025-12-02 02:00:00,2025-12-01 21:00:00,"VFR",-11,-14,79,0,2,24100,29.41,NA,"BKN  ft","METAR CYFB 020200Z VRB02KT 15SM BKN033 M11/M14 A2941 RMK SC7 SLP963",2025-12-02 02:25:37.486821,2025-12-01 21:25:37.486821
"CYRT",2025-12-02 02:00:00,2025-12-01 21:00:00,"VFR",-31,-34,75,320,6,9999,29.67,NA,"FEW  ft","METAR CYRT 020200Z 32006KT 10SM IC FEW250 M31/M34 A2967 RMK CI1 SLP054",2025-12-02 02:25:37.566666,2025-12-01 21:25:37.566666
"CYBK",2025-12-02 02:00:00,2025-12-01 21:00:00,"MVFR",-29,-33,68,310,17,24100,29.71,NA,"FEW  ft; BKN  ft","METAR CYBK 020200Z 31017KT 15SM IC DRSN FEW015 BKN027 M29/M33 A2971 RMK SC1SC5 SLP065",2025-12-02 02:25:37.651017,2025-12-01 21:25:37.651017
"CYRB",2025-12-02 02:00:00,2025-12-01 21:00:00,"VFR",-22,-26,70,50,11,40200,29.85,NA,"FEW  ft","METAR CYRB 020200Z 05011KT 25SM IC FEW039 M22/M26 A2985 RMK SC1 SLP122",2025-12-02 02:25:37.742895,2025-12-01 21:25:37.742895
"CYCO",2025-12-02 02:00:00,2025-12-01 21:00:00,"MVFR",-27,-30,76,240,15,12900,30.13,NA,"BKN  ft","METAR CYCO 020200Z 24015KT 8SM IC BKN018 M27/M30 A3013 RMK SC6 FROIN SLP208",2025-12-02 02:25:37.825447,2025-12-01 21:25:37.825447
"CYER",2025-12-02 03:00:00,2025-12-01 22:00:00,"VFR",-22,-25,77,260,12,14500,29.78,NA,"FEW  ft; BKN  ft","METAR CYER 020300Z AUTO 26012G18KT 9SM FEW071 BKN240 M22/M25 A2978 RMK SLP087",2025-12-02 03:56:34.229472,2025-12-01 22:56:34.229472
"CYAT",2025-12-02 03:01:00,2025-12-01 22:01:00,"VFR",-11,-13,85,240,5,14500,29.89,NA,"OVC  ft","SPECI CYAT 020301Z AUTO 24005KT 9SM OVC046 M11/M13 A2989 RMK SLP125",2025-12-02 03:56:34.318584,2025-12-01 22:56:34.318584
"CYMO",2025-12-02 03:45:00,2025-12-01 22:45:00,"MVFR",-11,-13,85,240,6,8000,29.95,NA,"OVC  ft","SPECI CYMO 020345Z AUTO 24006KT 5SM -SN OVC038 M11/M13 A2995 RMK SLP145",2025-12-02 03:56:34.400943,2025-12-01 22:56:34.400943
"CYPL",2025-12-02 03:00:00,2025-12-01 22:00:00,"MVFR",-12,-16,72,230,9,14500,29.8,NA,"OVC  ft","METAR CYPL 020300Z AUTO 23009KT 9SM -SN OVC024 M12/M16 A2980 RMK SLP128",2025-12-02 03:56:34.483248,2025-12-01 22:56:34.483248
"CYQT",2025-12-02 03:00:00,2025-12-01 22:00:00,"VFR",-15,-16,92,220,2,24100,29.95,NA,"SCT  ft; OVC  ft","METAR CYQT 020300Z 22002KT 15SM SCT028 OVC140 M15/M16 A2995 RMK SC4AC4 SLP161",2025-12-02 03:56:34.568303,2025-12-01 22:56:34.568303
"CYAM",2025-12-02 03:00:00,2025-12-01 22:00:00,"VFR",-5,-9,74,220,6,9999,30.01,NA,"FEW  ft; FEW  ft; BKN  ft; BKN  ft","METAR CYAM 020300Z 22006KT 10SM -SHSN FEW016 FEW031 BKN057 BKN069 OVC250 M05/M09 A3001 RMK CF1CU2SC3AS1CS2 CF TR SLP175",2025-12-02 03:56:34.651056,2025-12-01 22:56:34.651056
"CYTS",2025-12-02 03:00:00,2025-12-01 22:00:00,"VFR",-7,-9,86,210,6,9700,29.92,NA,"OVC  ft","METAR CYTS 020300Z 21006KT 6SM -SN OVC038 M07/M09 A2992 RMK SC8 SLP158",2025-12-02 03:56:34.732678,2025-12-01 22:56:34.732678
"CYSB",2025-12-02 03:30:00,2025-12-01 22:30:00,"IFR",-8,-9,93,150,7,NA,29.99,NA,"OVX  ft","SPECI CYSB 020330Z 15007KT 2 1/2SM -SN VV022 M08/M09 A2999 RMK SN8 SLP184",2025-12-02 03:56:34.815978,2025-12-01 22:56:34.815978
"CYYB",2025-12-02 03:52:00,2025-12-01 22:52:00,"MVFR",-7,-9,86,140,8,14500,30.02,NA,"OVC  ft","SPECI CYYB 020352Z AUTO 14008KT 9SM OVC011 M07/M09 A3002 RMK RVR MISG SLP192",2025-12-02 03:56:34.900723,2025-12-01 22:56:34.900723
"CYOW",2025-12-02 03:00:00,2025-12-01 22:00:00,"VFR",-11,-15,73,90,4,24100,30.27,NA,"BKN  ft","METAR CYOW 020300Z 09004KT 15SM BKN170 M11/M15 A3027 RMK AC7 SLP261",2025-12-02 03:56:34.983089,2025-12-01 22:56:34.983089
"CYGK",2025-12-02 03:00:00,2025-12-01 22:00:00,"VFR",-7,-12,68,40,5,24100,30.25,NA,"BKN  ft","METAR CYGK 020300Z 04005KT 15SM BKN150 M07/M12 A3025 RMK AC7 SLP251",2025-12-02 03:56:35.112587,2025-12-01 22:56:35.112587
"CYQG",2025-12-02 03:39:00,2025-12-01 22:39:00,"MVFR",-4,-4,100,120,3,8000,30.1,NA,"OVC  ft","SPECI CYQG 020339Z AUTO 12003KT 5SM -SN OVC046 M04/M04 A3010 RMK SLP203",2025-12-02 03:56:35.196475,2025-12-01 22:56:35.196475
"CYVV",2025-12-02 03:00:00,2025-12-01 22:00:00,"VFR",-4,-7,80,180,14,12900,30.09,NA,"BKN  ft","METAR CYVV 020300Z 18014KT 8SM -SN BKN033 M04/M07 A3009 RMK SC7 SLP206",2025-12-02 03:56:35.317866,2025-12-01 22:56:35.317866
"CYYZ",2025-12-02 03:46:00,2025-12-01 22:46:00,"IFR",-2,-6,74,170,5,4000,30.14,NA,"OVC  ft","SPECI CYYZ 020346Z 17005KT 2 1/2SM -SN OVC022 M02/M06 A3014 RMK SC8 SLP219",2025-12-02 03:56:35.402556,2025-12-01 22:56:35.402556
"CYQA",2025-12-02 03:52:00,2025-12-01 22:52:00,"MVFR",-6,-8,86,160,8,14500,30.1,NA,"OVC  ft","SPECI CYQA 020352Z AUTO 16008KT 9SM OVC011 M06/M08 A3010 RMK SLP214",2025-12-02 03:56:35.48447,2025-12-01 22:56:35.48447
"CYVR",2025-12-02 03:25:00,2025-12-01 22:25:00,"MVFR",4,4,100,80,6,4800,30.17,NA,"FEW  ft; BKN  ft; OVC  ft","SPECI CYVR 020325Z 08006KT 3SM -RA BR FEW006 BKN010 OVC015 04/04 A3017 RMK ST1SC5SC2 SLP220",2025-12-02 03:56:35.565194,2025-12-01 22:56:35.565194
"CYYJ",2025-12-02 03:00:00,2025-12-01 22:00:00,"IFR",6,5,93,140,5,12900,30.15,NA,"OVC  ft","METAR CYYJ 020300Z 14005KT 8SM OVC007 06/05 A3015 RMK ST8 SLP214",2025-12-02 03:56:35.687982,2025-12-01 22:56:35.687982
"CYLW",2025-12-02 03:48:00,2025-12-01 22:48:00,"IFR",0,0,100,160,4,3200,30.06,NA,"FEW  ft; OVC  ft","SPECI CYLW 020348Z AUTO 16004KT 2SM -SN FEW009 OVC025 00/M00 A3006 RMK PCPN 0.5MM PAST HR SLP199",2025-12-02 03:56:35.772743,2025-12-01 22:56:35.772743
"CYXS",2025-12-02 03:29:00,2025-12-01 22:29:00,"IFR",-1,-1,100,160,7,14500,29.86,NA,"BKN  ft; BKN  ft; BKN  ft","SPECI CYXS 020329Z AUTO 16007KT 9SM BKN006 BKN013 BKN110 M01/M01 A2986 RMK SLP149",2025-12-02 03:56:35.855218,2025-12-01 22:56:35.855218
"CYXT",2025-12-02 03:00:00,2025-12-01 22:00:00,"LIFR",1,1,100,330,5,NA,30.04,NA,"OVX  ft","METAR CYXT 020300Z 33005KT 270V050 1/2SM -DZ FG VV002 01/01 A3004 RMK FG8 SLP186",2025-12-02 03:56:35.937326,2025-12-01 22:56:35.937326
"CYQQ",2025-12-02 03:52:00,2025-12-01 22:52:00,"MVFR",6,4,87,140,8,24100,30.16,NA,"OVC  ft","SPECI CYQQ 020352Z 14008KT 15SM -DZ OVC010 06/04 A3016 RMK ST8 DENSITY ALT -1192FT SLP215",2025-12-02 03:56:36.018303,2025-12-01 22:56:36.018303
"CYYC",2025-12-02 03:00:00,2025-12-01 22:00:00,"VFR",5,-5,49,290,6,24100,29.61,NA,"SCT  ft; BKN  ft; BKN  ft","METAR CYYC 020300Z 29006G15KT 270V360 15SM SCT087 BKN160 BKN230 05/M05 A2961 RMK AC3AC2CI1 SLP078",2025-12-02 03:56:36.101575,2025-12-01 22:56:36.101575
"CYEG",2025-12-02 03:00:00,2025-12-01 22:00:00,"VFR",3,0,81,270,7,32200,29.57,NA,"SCT  ft","METAR CYEG 020300Z 27007KT 20SM SCT061 03/M00 A2957 RMK SC3 SLP045",2025-12-02 03:56:36.225245,2025-12-01 22:56:36.225245
"CYMM",2025-12-02 03:22:00,2025-12-01 22:22:00,"VFR",-9,-10,93,350,6,14500,29.61,NA,"SCT  ft; OVC  ft","SPECI CYMM 020322Z AUTO 35006KT 9SM SCT060 OVC097 M09/M10 A2961 RMK SLP059",2025-12-02 03:56:36.352568,2025-12-01 22:56:36.352568
"CYQF",2025-12-02 03:00:00,2025-12-01 22:00:00,"VFR",-2,-4,86,220,3,14500,29.6,NA,"OVC  ft","METAR CYQF 020300Z AUTO 22003KT 210V280 9SM OVC076 M02/M04 A2960 RMK SLP074",2025-12-02 03:56:36.476408,2025-12-01 22:56:36.476408
"CYXE",2025-12-02 03:00:00,2025-12-01 22:00:00,"MVFR",-8,-10,86,170,8,9700,29.57,NA,"OVC  ft","METAR CYXE 020300Z 17008KT 6SM -SN BR OVC029 M08/M10 A2957 RMK SC8 SLP057",2025-12-02 03:56:36.558975,2025-12-01 22:56:36.558975
"CYQR",2025-12-02 03:04:00,2025-12-01 22:04:00,"VFR",-11,-13,85,150,6,24100,29.67,NA,"OVC  ft","SPECI CYQR 020304Z 15006KT 15SM -SN OVC043 M11/M13 A2967 RMK SC8 SLP098",2025-12-02 03:56:36.648789,2025-12-01 22:56:36.648789
"CYWG",2025-12-02 03:00:00,2025-12-01 22:00:00,"VFR",-15,-17,85,230,4,24100,29.84,NA,"SKC  ft","METAR CYWG 020300Z 23004KT 15SM SKC M15/M17 A2984 RMK SLP131",2025-12-02 03:56:36.733558,2025-12-01 22:56:36.733558
"CYBR",2025-12-02 03:00:00,2025-12-01 22:00:00,"VFR",-15,-17,85,240,6,24100,29.77,NA,"OVC  ft","METAR CYBR 020300Z 24006KT 15SM OVC130 M15/M17 A2977 RMK AC8 SLP126",2025-12-02 03:56:36.855045,2025-12-01 22:56:36.855045
"CYUL",2025-12-02 03:00:00,2025-12-01 22:00:00,"MVFR",-8,-13,68,50,2,24100,30.32,NA,"BKN  ft; BKN  ft","METAR CYUL 020300Z 05002KT 15SM BKN030 BKN190 M08/M13 A3032 RMK SC5AC1 AC TR SLP272",2025-12-02 03:56:36.940263,2025-12-01 22:56:36.940263
"CYHU",2025-12-02 03:00:00,2025-12-01 22:00:00,"MVFR",-8,-12,73,120,2,14500,30.33,NA,"OVC  ft","METAR CYHU 020300Z AUTO 12002KT 9SM OVC030 M08/M12 A3033 RMK SLP274",2025-12-02 03:56:37.023342,2025-12-01 22:56:37.023342
"CYQB",2025-12-02 03:00:00,2025-12-01 22:00:00,"VFR",-11,-14,79,230,2,24100,30.31,NA,"BKN  ft","METAR CYQB 020300Z 23002KT 15SM BKN033 M11/M14 A3031 RMK SC6 SLP271",2025-12-02 03:56:37.106093,2025-12-01 22:56:37.106093
"CYVO",2025-12-02 03:48:00,2025-12-01 22:48:00,"VFR",-10,-12,85,180,13,9700,29.99,NA,"FEW  ft; BKN  ft; OVC  ft","SPECI CYVO 020348Z AUTO 18013G21KT 6SM -SN FEW035 BKN044 OVC055 M10/M12 A2999 RMK SLP188",2025-12-02 03:56:37.188771,2025-12-01 22:56:37.188771
"CYUY",2025-12-02 03:00:00,2025-12-01 22:00:00,"MVFR",-8,-10,86,190,8,9700,29.99,NA,"OVC  ft","METAR CYUY 020300Z 19008KT 6SM -SHSN OVC013 M08/M10 A2999 RMK SC8 /S01/ CVCTV CLD EMBD SLP184",2025-12-02 03:56:37.271469,2025-12-01 22:56:37.271469
"CYZV",2025-12-02 03:00:00,2025-12-01 22:00:00,"VFR",-16,-19,78,290,3,24100,30.14,NA,"FEW  ft","METAR CYZV 020300Z 29003KT 260V330 15SM FEW050 M16/M19 A3014 RMK SC1 SLP213",2025-12-02 03:56:37.353764,2025-12-01 22:56:37.353764
"CYBC",2025-12-02 03:00:00,2025-12-01 22:00:00,"VFR",-12,-16,72,280,8,14500,30.23,NA,"CLR  ft","METAR CYBC 020300Z AUTO 28008KT 9SM CLR M12/M16 A3023 RMK SLP239",2025-12-02 03:56:37.43743,2025-12-01 22:56:37.43743
"CYRJ",2025-12-02 03:00:00,2025-12-01 22:00:00,"VFR",-14,-18,72,250,4,40200,30.2,NA,"SCT  ft; BKN  ft","METAR CYRJ 020300Z 25004KT 200V260 25SM SCT160 BKN210 M14/M18 A3020 RMK AS3CI3 SLP245",2025-12-02 03:56:37.518453,2025-12-01 22:56:37.518453
"CYHZ",2025-12-02 03:00:00,2025-12-01 22:00:00,"VFR",-2,-5,80,360,8,24100,30.2,NA,"SCT  ft","METAR CYHZ 020300Z 36008KT 15SM SCT031 M02/M05 A3020 RMK SC3 SLP234",2025-12-02 03:56:37.598895,2025-12-01 22:56:37.598895
"CYYG",2025-12-02 03:00:00,2025-12-01 22:00:00,"VFR",-4,-9,69,290,9,24100,30.18,NA,"SCT  ft","METAR CYYG 020300Z 29009KT 15SM SCT027 M04/M09 A3018 RMK SC4 SLP223",2025-12-02 03:56:37.682087,2025-12-01 22:56:37.682087
"CYQM",2025-12-02 03:00:00,2025-12-01 22:00:00,"VFR",-6,-11,68,280,8,24100,30.23,NA,"SKC  ft","METAR CYQM 020300Z 28008KT 15SM SKC M06/M11 A3023 RMK SLP244",2025-12-02 03:56:37.764007,2025-12-01 22:56:37.764007
"CYFC",2025-12-02 03:00:00,2025-12-01 22:00:00,"VFR",-7,-11,73,350,6,14500,30.27,NA,"BKN  ft; OVC  ft","METAR CYFC 020300Z AUTO 35006KT 9SM BKN220 OVC240 M07/M11 A3027 RMK SLP253",2025-12-02 03:56:37.847273,2025-12-01 22:56:37.847273
"CYYT",2025-12-02 03:00:00,2025-12-01 22:00:00,"VFR",4,2,87,300,21,24100,29.67,NA,"FEW  ft; FEW  ft; SCT  ft; BKN  ft","METAR CYYT 020300Z 30021G30KT 15SM FEW008 FEW018 SCT067 BKN140 04/02 A2967 RMK SF1SC1AC2AC3 SLP053",2025-12-02 03:56:37.929876,2025-12-01 22:56:37.929876
"CYQY",2025-12-02 03:00:00,2025-12-01 22:00:00,"MVFR",1,-3,75,310,11,24100,30.07,NA,"SCT  ft; OVC  ft","METAR CYQY 020300Z 31011G19KT 15SM -SN SCT015 OVC029 01/M03 A3007 RMK SC3SC5 SLP186",2025-12-02 03:56:38.013955,2025-12-01 22:56:38.013955
"CYXY",2025-12-02 03:00:00,2025-12-01 22:00:00,"VFR",-2,-2,100,0,0,24100,29.74,NA,"BKN  ft","METAR CYXY 020300Z 00000KT 15SM BKN099 M02/M02 A2974 RMK AC6 SLP111",2025-12-02 03:56:38.094973,2025-12-01 22:56:38.094973
"CYZF",2025-12-02 03:40:00,2025-12-01 22:40:00,"MVFR",-15,-17,85,30,11,24100,29.93,NA,"SCT  ft; OVC  ft","SPECI CYZF 020340Z 03011KT 15SM -SN SCT012 OVC019 M15/M17 A2993 RMK SC3SC5 SLP160",2025-12-02 03:56:38.177339,2025-12-01 22:56:38.177339
"CYFB",2025-12-02 03:00:00,2025-12-01 22:00:00,"VFR",-9,-16,57,190,8,24100,29.4,NA,"BKN  ft","METAR CYFB 020300Z 19008KT 15SM BKN045 M09/M16 A2940 RMK SC7 SLP960",2025-12-02 03:56:38.259825,2025-12-01 22:56:38.259825
"CYRT",2025-12-02 03:00:00,2025-12-01 22:00:00,"VFR",-30,-33,75,320,9,24100,29.65,NA,"SCT  ft","METAR CYRT 020300Z 32009KT 15SM IC SCT098 M30/M33 A2965 RMK AC3 SLP049",2025-12-02 03:56:38.34358,2025-12-01 22:56:38.34358
"CYBK",2025-12-02 03:00:00,2025-12-01 22:00:00,"VFR",-31,-34,75,310,20,24100,29.7,NA,"FEW  ft; SCT  ft","METAR CYBK 020300Z 31020KT 15SM IC DRSN FEW015 SCT027 M31/M34 A2970 RMK SC1SC2 SLP063",2025-12-02 03:56:38.425971,2025-12-01 22:56:38.425971
"CYRB",2025-12-02 03:00:00,2025-12-01 22:00:00,"VFR",-23,-27,70,40,13,40200,29.86,NA,"SCT  ft","METAR CYRB 020300Z 04013G19KT 25SM IC SCT091 M23/M27 A2986 RMK AC3 SLP125",2025-12-02 03:56:38.523726,2025-12-01 22:56:38.523726
"CYCO",2025-12-02 03:00:00,2025-12-01 22:00:00,"MVFR",-25,-28,76,260,18,12900,30.14,NA,"OVC  ft","METAR CYCO 020300Z 26018KT 8SM IC DRSN OVC020 M25/M28 A3014 RMK SC8 MOON DIMLY VISBL SLP211",2025-12-02 03:56:38.648724,2025-12-01 22:56:38.648724
"CYER",2025-12-02 04:00:00,2025-12-01 23:00:00,"VFR",-22,-25,77,250,10,14500,29.77,NA,"SCT  ft","METAR CYER 020400Z AUTO 25010G16KT 9SM SCT250 M22/M25 A2977 RMK SLP084",2025-12-02 04:38:10.997858,2025-12-01 23:38:10.997858
"CYAT",2025-12-02 04:00:00,2025-12-01 23:00:00,"VFR",-11,-13,85,250,6,14500,29.88,NA,"OVC  ft","METAR CYAT 020400Z AUTO 25006KT 9SM OVC046 M11/M13 A2988 RMK SLP122",2025-12-02 04:38:11.076774,2025-12-01 23:38:11.076774
"CYMO",2025-12-02 04:05:00,2025-12-01 23:05:00,"VFR",-11,-13,85,220,6,14500,29.95,NA,"SCT  ft","SPECI CYMO 020405Z AUTO 22006KT 9SM SCT028 M11/M13 A2995 RMK SLP144",2025-12-02 04:38:11.14608,2025-12-01 23:38:11.14608
"CYPL",2025-12-02 04:00:00,2025-12-01 23:00:00,"MVFR",-12,-16,72,230,6,14500,29.78,NA,"OVC  ft","METAR CYPL 020400Z AUTO 23006KT 9SM -SN OVC024 M12/M16 A2978 RMK SLP120",2025-12-02 04:38:11.212634,2025-12-01 23:38:11.212634
"CYQT",2025-12-02 04:00:00,2025-12-01 23:00:00,"MVFR",-14,-16,85,300,2,24100,29.93,NA,"BKN  ft; OVC  ft","METAR CYQT 020400Z 30002KT 15SM BKN027 OVC120 M14/M16 A2993 RMK SC6AC2 SLP155",2025-12-02 04:38:11.323374,2025-12-01 23:38:11.323374
"CYAM",2025-12-02 04:00:00,2025-12-01 23:00:00,"MVFR",-6,-9,80,210,4,4800,29.99,NA,"FEW  ft; BKN  ft; OVC  ft","METAR CYAM 020400Z 21004KT 3SM -SN FEW027 BKN086 OVC250 M06/M09 A2999 RMK SC2AC5CS1 SLP170",2025-12-02 04:38:11.390175,2025-12-01 23:38:11.390175
"CYTS",2025-12-02 04:00:00,2025-12-01 23:00:00,"MVFR",-7,-9,86,220,6,9700,29.92,NA,"OVC  ft","METAR CYTS 020400Z 22006KT 6SM -SN OVC025 M07/M09 A2992 RMK SC8 SLP156",2025-12-02 04:38:11.457606,2025-12-01 23:38:11.457606
"CYSB",2025-12-02 04:00:00,2025-12-01 23:00:00,"IFR",-8,-9,93,150,7,NA,29.98,NA,"OVX  ft","METAR CYSB 020400Z 15007KT 2 1/2SM -SN VV020 M08/M09 A2998 RMK SN8 SLP179",2025-12-02 04:38:11.526041,2025-12-01 23:38:11.526041
"CYYB",2025-12-02 04:17:00,2025-12-01 23:17:00,"IFR",-7,-9,86,150,6,2800,30.02,NA,"OVC  ft","SPECI CYYB 020417Z AUTO 15006KT 1 3/4SM -SN OVC011 M07/M09 A3002 RMK RVR MISG SLP191",2025-12-02 04:38:11.596133,2025-12-01 23:38:11.596133
"CYOW",2025-12-02 04:00:00,2025-12-01 23:00:00,"VFR",-11,-14,79,110,6,24100,30.24,NA,"BKN  ft","METAR CYOW 020400Z 11006KT 15SM BKN160 M11/M14 A3024 RMK AS7 SLP253",2025-12-02 04:38:11.667476,2025-12-01 23:38:11.667476
"CYGK",2025-12-02 04:00:00,2025-12-01 23:00:00,"VFR",-6,-11,68,50,5,24100,30.24,NA,"BKN  ft","METAR CYGK 020400Z 05005KT 15SM BKN140 M06/M11 A3024 RMK AC7 LAST STFD OBS/ NXT 021100Z SLP248",2025-12-02 04:38:11.7414,2025-12-01 23:38:11.7414
"CYQG",2025-12-02 04:00:00,2025-12-01 23:00:00,"MVFR",-4,-4,100,80,3,4800,30.08,NA,"OVC  ft","METAR CYQG 020400Z AUTO 08003KT 3SM -SN OVC036 M04/M04 A3008 RMK SLP198",2025-12-02 04:38:11.81685,2025-12-01 23:38:11.81685
"CYVV",2025-12-02 04:00:00,2025-12-01 23:00:00,"VFR",-4,-7,80,180,12,9700,30.08,NA,"BKN  ft; OVC  ft","METAR CYVV 020400Z 18012G18KT 6SM -SN DRSN BKN056 OVC250 M04/M07 A3008 RMK SC5CS3 SLP200",2025-12-02 04:38:11.891985,2025-12-01 23:38:11.891985
"CYYZ",2025-12-02 04:25:00,2025-12-01 23:25:00,"LIFR",-3,-5,86,150,4,NA,30.13,NA,"OVX  ft","SPECI CYYZ 020425Z 15004KT 3/4SM R15R/P6000FT/D R15L/P6000FT/D R06R/P6000FT/D R05/6000FT/D -SN VV007 M03/M05 A3013 RMK SN8 SLP213",2025-12-02 04:38:11.965387,2025-12-01 23:38:11.965387
"CYQA",2025-12-02 04:15:00,2025-12-01 23:15:00,"MVFR",-6,-8,86,150,8,8000,30.09,NA,"OVC  ft","SPECI CYQA 020415Z AUTO 15008KT 5SM -SN OVC011 M06/M08 A3009 RMK SLP209",2025-12-02 04:38:12.035086,2025-12-01 23:38:12.035086
"CYVR",2025-12-02 04:27:00,2025-12-01 23:27:00,"IFR",4,4,100,90,6,4000,30.18,NA,"FEW  ft; BKN  ft; OVC  ft","SPECI CYVR 020427Z 09006KT 2 1/2SM -RA BR FEW006 BKN015 OVC035 04/04 A3018 RMK SF1SC6SC1 SLP221",2025-12-02 04:38:12.10557,2025-12-01 23:38:12.10557
"CYYJ",2025-12-02 04:00:00,2025-12-01 23:00:00,"MVFR",6,6,100,150,6,24100,30.15,NA,"SCT  ft; BKN  ft; BKN  ft; BKN  ft","METAR CYYJ 020400Z 15006KT 15SM SCT007 BKN025 BKN051 BKN068 06/06 A3015 RMK SF4SC1SC1AC1 SLP213",2025-12-02 04:38:12.177398,2025-12-01 23:38:12.177398
"CYLW",2025-12-02 04:35:00,2025-12-01 23:35:00,"MVFR",0,0,100,0,2,4800,30.06,NA,"BKN  ft; BKN  ft; OVC  ft","SPECI CYLW 020435Z AUTO VRB02KT 3SM -SNRA BKN011 BKN022 OVC029 00/00 A3006 RMK SLP200",2025-12-02 04:38:12.249678,2025-12-01 23:38:12.249678
"CYXS",2025-12-02 04:16:00,2025-12-01 23:16:00,"VFR",-1,-1,100,180,13,14500,29.84,NA,"SCT  ft; BKN  ft; BKN  ft","SPECI CYXS 020416Z AUTO 18013G18KT 9SM SCT006 BKN130 BKN170 M01/M01 A2984 RMK SLP142",2025-12-02 04:38:12.358693,2025-12-01 23:38:12.358693
"CYXT",2025-12-02 04:00:00,2025-12-01 23:00:00,"LIFR",1,1,100,0,3,NA,30.06,NA,"OVX  ft","METAR CYXT 020400Z VRB03KT 1/2SM -DZ FG VV003 01/01 A3006 RMK FG8 SLP192",2025-12-02 04:38:12.432155,2025-12-01 23:38:12.432155
"CYQQ",2025-12-02 04:00:00,2025-12-01 23:00:00,"MVFR",6,4,87,160,7,24100,30.16,NA,"OVC  ft","METAR CYQQ 020400Z 16007KT 15SM -DZ OVC010 06/04 A3016 RMK ST8 DENSITY ALT -1179FT SLP215",2025-12-02 04:38:12.50276,2025-12-01 23:38:12.50276
"CYYC",2025-12-02 04:00:00,2025-12-01 23:00:00,"VFR",5,-5,49,280,16,24100,29.62,NA,"BKN  ft; BKN  ft","METAR CYYC 020400Z 28016G25KT 15SM BKN092 BKN170 05/M05 A2962 RMK AC5AC2 SLP079",2025-12-02 04:38:12.57095,2025-12-01 23:38:12.57095
"CYEG",2025-12-02 04:00:00,2025-12-01 23:00:00,"VFR",2,-1,81,280,9,32200,29.56,NA,"BKN  ft; BKN  ft","METAR CYEG 020400Z 28009KT 20SM BKN066 BKN210 02/M01 A2956 RMK AC6CI1 SLP043",2025-12-02 04:38:12.641666,2025-12-01 23:38:12.641666
"CYMM",2025-12-02 04:22:00,2025-12-01 23:22:00,"MVFR",-9,-11,86,350,3,14500,29.63,NA,"OVC  ft","SPECI CYMM 020422Z AUTO 35003KT 9SM -SN OVC015 M09/M11 A2963 RMK SLP066",2025-12-02 04:38:12.71386,2025-12-01 23:38:12.71386
"CYQF",2025-12-02 04:00:00,2025-12-01 23:00:00,"VFR",-1,-3,86,210,6,14500,29.62,NA,"OVC  ft","METAR CYQF 020400Z AUTO 21006KT 9SM OVC071 M01/M03 A2962 RMK SLP078",2025-12-02 04:38:12.781081,2025-12-01 23:38:12.781081
"CYXE",2025-12-02 04:00:00,2025-12-01 23:00:00,"MVFR",-7,-9,86,190,7,6400,29.54,NA,"OVC  ft","METAR CYXE 020400Z 19007KT 4SM -SN BR OVC036 M07/M09 A2954 RMK SN3SC5 SLP046",2025-12-02 04:38:12.852531,2025-12-01 23:38:12.852531
"CYQR",2025-12-02 04:00:00,2025-12-01 23:00:00,"VFR",-10,-12,85,130,9,9999,29.64,NA,"SCT  ft; OVC  ft","METAR CYQR 020400Z 13009KT 10SM -SN SCT047 OVC060 M10/M12 A2964 RMK SC3SC5 SLP086",2025-12-02 04:38:12.922695,2025-12-01 23:38:12.922695
"CYWG",2025-12-02 04:00:00,2025-12-01 23:00:00,"VFR",-16,-18,85,220,4,24100,29.83,NA,"SKC  ft","METAR CYWG 020400Z 22004KT 15SM SKC M16/M18 A2983 RMK SLP127",2025-12-02 04:38:12.995686,2025-12-01 23:38:12.995686
"CYBR",2025-12-02 04:00:00,2025-12-01 23:00:00,"VFR",-14,-16,85,240,6,24100,29.74,NA,"OVC  ft","METAR CYBR 020400Z 24006KT 15SM OVC110 M14/M16 A2974 RMK AC8 LAST STFD OBS/NEXT 021300Z SLP114",2025-12-02 04:38:13.067357,2025-12-01 23:38:13.067357
"CYUL",2025-12-02 04:00:00,2025-12-01 23:00:00,"MVFR",-8,-13,68,130,4,24100,30.3,NA,"BKN  ft","METAR CYUL 020400Z 13004KT 15SM BKN030 M08/M13 A3030 RMK SC6 SLP266",2025-12-02 04:38:13.140644,2025-12-01 23:38:13.140644
"CYHU",2025-12-02 04:00:00,2025-12-01 23:00:00,"MVFR",-9,-12,79,0,0,14500,30.3,NA,"OVC  ft","METAR CYHU 020400Z AUTO 00000KT 9SM OVC030 M09/M12 A3030 RMK SLP265",2025-12-02 04:38:13.210107,2025-12-01 23:38:13.210107
"CYQB",2025-12-02 04:00:00,2025-12-01 23:00:00,"VFR",-11,-14,79,0,2,24100,30.3,NA,"BKN  ft; BKN  ft","METAR CYQB 020400Z VRB02KT 15SM BKN032 BKN180 M11/M14 A3030 RMK SC6CI1 SLP269",2025-12-02 04:38:13.280666,2025-12-01 23:38:13.280666
"CYVO",2025-12-02 04:00:00,2025-12-01 23:00:00,"VFR",-10,-12,85,170,12,14500,29.99,NA,"FEW  ft; BKN  ft; OVC  ft","METAR CYVO 020400Z AUTO 17012G17KT 9SM -SN FEW039 BKN055 OVC100 M10/M12 A2999 RMK SLP189",2025-12-02 04:38:13.352451,2025-12-01 23:38:13.352451
"CYUY",2025-12-02 04:00:00,2025-12-01 23:00:00,"MVFR",-8,-9,93,210,8,9700,29.97,NA,"BKN  ft; OVC  ft","METAR CYUY 020400Z 21008KT 6SM -SHSN BKN012 OVC025 M08/M09 A2997 RMK SC7SC1 CVCTV CLD EMBD SLP173",2025-12-02 04:38:13.421121,2025-12-01 23:38:13.421121
"CYZV",2025-12-02 04:00:00,2025-12-01 23:00:00,"VFR",-13,-18,66,290,9,24100,30.16,NA,"FEW  ft; SCT  ft","METAR CYZV 020400Z 29009G16KT 15SM FEW050 SCT120 M13/M18 A3016 RMK SC1AC2 SLP219",2025-12-02 04:38:13.489619,2025-12-01 23:38:13.489619
"CYBC",2025-12-02 04:00:00,2025-12-01 23:00:00,"VFR",-14,-17,78,260,7,14500,30.24,NA,"SCT  ft","METAR CYBC 020400Z AUTO 26007KT 9SM SCT210 M14/M17 A3024 RMK SLP243",2025-12-02 04:38:13.560053,2025-12-01 23:38:13.560053
"CYRJ",2025-12-02 04:00:00,2025-12-01 23:00:00,"VFR",-13,-17,72,220,9,40200,30.18,NA,"SCT  ft; BKN  ft","METAR CYRJ 020400Z 22009KT 25SM SCT055 BKN190 M13/M17 A3018 RMK SC4AS3 SLP238",2025-12-02 04:38:13.630086,2025-12-01 23:38:13.630086
"CYHZ",2025-12-02 04:00:00,2025-12-01 23:00:00,"MVFR",-3,-6,80,10,5,24100,30.23,NA,"BKN  ft","METAR CYHZ 020400Z 01005KT 15SM BKN028 M03/M06 A3023 RMK SC5 SLP245",2025-12-02 04:38:13.701338,2025-12-01 23:38:13.701338
"CYYG",2025-12-02 04:00:00,2025-12-01 23:00:00,"VFR",-5,-9,74,290,7,24100,30.2,NA,"SCT  ft","METAR CYYG 020400Z 29007KT 15SM SCT025 M05/M09 A3020 RMK SC3 SLP231",2025-12-02 04:38:13.77124,2025-12-01 23:38:13.77124
"CYQM",2025-12-02 04:00:00,2025-12-01 23:00:00,"VFR",-7,-11,73,270,5,24100,30.24,NA,"SKC  ft","METAR CYQM 020400Z 27005KT 15SM SKC M07/M11 A3024 RMK SLP246",2025-12-02 04:38:13.839272,2025-12-01 23:38:13.839272
"CYFC",2025-12-02 04:00:00,2025-12-01 23:00:00,"VFR",-8,-12,73,0,3,14500,30.29,NA,"FEW  ft","METAR CYFC 020400Z AUTO VRB03KT 9SM FEW200 M08/M12 A3029 RMK SLP260",2025-12-02 04:38:13.907612,2025-12-01 23:38:13.907612
"CYYT",2025-12-02 04:00:00,2025-12-01 23:00:00,"VFR",2,0,87,310,20,24100,29.7,NA,"FEW  ft; SCT  ft; BKN  ft","METAR CYYT 020400Z 31020G27KT 15SM FEW021 SCT170 BKN220 02/00 A2970 RMK SC2AC1CI2 SLP063",2025-12-02 04:38:13.975538,2025-12-01 23:38:13.975538
"CYQY",2025-12-02 04:00:00,2025-12-01 23:00:00,"MVFR",0,-6,64,310,18,24100,30.1,NA,"BKN  ft","METAR CYQY 020400Z 31018G24KT 15SM -SN BKN024 M00/M06 A3010 RMK SC7 SLP196",2025-12-02 04:38:14.047281,2025-12-01 23:38:14.047281
"CYXY",2025-12-02 04:04:00,2025-12-01 23:04:00,"VFR",-3,-3,100,320,3,24100,29.78,NA,"SCT  ft; OVC  ft","SPECI CYXY 020404Z 32003KT 15SM SCT004 OVC091 M03/M03 A2978 RMK ST4AC4 SLP125",2025-12-02 04:38:14.117349,2025-12-01 23:38:14.117349
"CYZF",2025-12-02 04:00:00,2025-12-01 23:00:00,"MVFR",-15,-17,85,20,9,24100,29.94,NA,"FEW  ft; OVC  ft","METAR CYZF 020400Z 02009KT 15SM -SN FEW012 OVC016 M15/M17 A2994 RMK SF1SC8 SF TR SLP164",2025-12-02 04:38:14.186803,2025-12-01 23:38:14.186803
"CYFB",2025-12-02 04:00:00,2025-12-01 23:00:00,"VFR",-9,-16,57,190,7,24100,29.38,NA,"BKN  ft","METAR CYFB 020400Z 19007KT 15SM BKN047 M09/M16 A2938 RMK SC7 SLP956",2025-12-02 04:38:14.293317,2025-12-01 23:38:14.293317
"CYRT",2025-12-02 04:00:00,2025-12-01 23:00:00,"VFR",-30,-33,75,300,10,24100,29.64,NA,"FEW  ft","METAR CYRT 020400Z 30010KT 15SM IC FEW090 M30/M33 A2964 RMK AC2 SLP045",2025-12-02 04:38:14.365714,2025-12-01 23:38:14.365714
"CYBK",2025-12-02 04:00:00,2025-12-01 23:00:00,"VFR",-31,-35,68,310,20,24100,29.7,NA,"FEW  ft","METAR CYBK 020400Z 31020KT 15SM IC DRSN FEW027 M31/M35 A2970 RMK SC2 SLP063",2025-12-02 04:38:14.436669,2025-12-01 23:38:14.436669
"CYRB",2025-12-02 04:00:00,2025-12-01 23:00:00,"VFR",-22,-26,70,70,13,40200,29.87,NA,"FEW  ft","METAR CYRB 020400Z 07013KT 25SM IC FEW091 M22/M26 A2987 RMK AC1 SLP128",2025-12-02 04:38:14.515725,2025-12-01 23:38:14.515725
"CYCO",2025-12-02 04:00:00,2025-12-01 23:00:00,"MVFR",-25,-28,76,260,13,12900,30.15,NA,"OVC  ft","METAR CYCO 020400Z 26013KT 8SM IC DRSN OVC021 M25/M28 A3015 RMK SC8 MOON VISBL SLP217",2025-12-02 04:38:14.58706,2025-12-01 23:38:14.58706
"CYER",2025-12-02 05:00:00,2025-12-02,"VFR",-22,-25,77,250,11,14500,29.75,NA,"SCT  ft","METAR CYER 020500Z AUTO 25011G16KT 9SM SCT250 M22/M25 A2975 RMK SLP077",2025-12-02 05:28:55.728108,2025-12-02 00:28:55.728108
"CYAT",2025-12-02 05:00:00,2025-12-02,"VFR",-11,-13,85,240,4,14500,29.88,NA,"OVC  ft","METAR CYAT 020500Z AUTO 24004KT 9SM OVC042 M11/M13 A2988 RMK SLP120",2025-12-02 05:28:55.862184,2025-12-02 00:28:55.862184
"CYMO",2025-12-02 05:00:00,2025-12-02,"VFR",-11,-13,85,220,7,14500,29.93,NA,"OVC  ft","METAR CYMO 020500Z AUTO 22007KT 9SM OVC049 M11/M13 A2993 RMK SLP140",2025-12-02 05:28:55.949927,2025-12-02 00:28:55.949927
"CYPL",2025-12-02 05:00:00,2025-12-02,"MVFR",-12,-15,79,250,5,14500,29.76,NA,"OVC  ft","METAR CYPL 020500Z AUTO 25005KT 9SM -SN OVC022 M12/M15 A2976 RMK SLP113",2025-12-02 05:28:56.03932,2025-12-02 00:28:56.03932
"CYQT",2025-12-02 05:00:00,2025-12-02,"MVFR",-12,-15,79,210,2,24100,29.92,NA,"OVC  ft","METAR CYQT 020500Z 21002KT 15SM OVC027 M12/M15 A2992 RMK SC8 SLP152",2025-12-02 05:28:56.170738,2025-12-02 00:28:56.170738
"CYAM",2025-12-02 05:00:00,2025-12-02,"MVFR",-6,-8,86,210,5,4800,29.98,NA,"BKN  ft; BKN  ft; OVC  ft","METAR CYAM 020500Z 21005KT 3SM -SN BKN027 BKN087 OVC250 M06/M08 A2998 RMK SC5AC2CS1 SLP166",2025-12-02 05:28:56.260425,2025-12-02 00:28:56.260425
"CYTS",2025-12-02 05:00:00,2025-12-02,"MVFR",-7,-9,86,230,4,9700,29.91,NA,"OVC  ft","METAR CYTS 020500Z 23004KT 200V270 6SM -SN OVC025 M07/M09 A2991 RMK SC8 SLP155",2025-12-02 05:28:56.349967,2025-12-02 00:28:56.349967
"CYSB",2025-12-02 05:00:00,2025-12-02,"IFR",-7,-8,93,160,7,NA,29.97,NA,"OVX  ft","METAR CYSB 020500Z 16007KT 2 1/2SM -SN VV041 M07/M08 A2997 RMK SN8 SLP175",2025-12-02 05:28:56.438251,2025-12-02 00:28:56.438251
"CYYB",2025-12-02 05:14:00,2025-12-02 00:14:00,"IFR",-7,-8,93,150,7,3200,29.99,NA,"OVC  ft","SPECI CYYB 020514Z AUTO 15007KT 2SM -SN OVC011 M07/M08 A2999 RMK VIS VRB 1 1/2-3 RVR MISG SLP183",2025-12-02 05:28:56.566168,2025-12-02 00:28:56.566168
"CYOW",2025-12-02 05:00:00,2025-12-02,"VFR",-10,-14,73,120,8,24100,30.21,NA,"BKN  ft","METAR CYOW 020500Z 12008KT 15SM BKN140 M10/M14 A3021 RMK AS7 SLP242",2025-12-02 05:28:56.654655,2025-12-02 00:28:56.654655
"CYGK",2025-12-02 04:00:00,2025-12-01 23:00:00,"VFR",-6,-11,68,50,5,24100,30.24,NA,"BKN  ft","METAR CYGK 020400Z 05005KT 15SM BKN140 M06/M11 A3024 RMK AC7 LAST STFD OBS/ NXT 021100Z SLP248",2025-12-02 05:28:56.744146,2025-12-02 00:28:56.744146
"CYQG",2025-12-02 05:16:00,2025-12-02 00:16:00,"MVFR",-4,-4,100,70,4,4800,30.04,NA,"FEW  ft; OVC  ft","SPECI CYQG 020516Z AUTO 07004KT 3SM -SN FEW023 OVC034 M04/M04 A3004 RMK SLP185",2025-12-02 05:28:56.832389,2025-12-02 00:28:56.832389
"CYVV",2025-12-02 05:00:00,2025-12-02,"VFR",-5,-6,93,170,13,9999,30.05,NA,"SCT  ft; OVC  ft","METAR CYVV 020500Z 17013G18KT 10SM -SN DRSN SCT044 OVC140 M05/M06 A3005 RMK SC4AS4 SLP191",2025-12-02 05:28:56.919878,2025-12-02 00:28:56.919878
"CYYZ",2025-12-02 05:00:00,2025-12-02,"IFR",-3,-4,93,130,7,3200,30.1,NA,"SCT  ft; OVC  ft","METAR CYYZ 020500Z 13007KT 2SM -SN SCT008 OVC013 M03/M04 A3010 RMK SN2SF2SC4 /S01/ SLP205",2025-12-02 05:28:57.008206,2025-12-02 00:28:57.008206
"CYQA",2025-12-02 05:26:00,2025-12-02 00:26:00,"MVFR",-6,-8,86,150,8,14500,30.06,NA,"OVC  ft","SPECI CYQA 020526Z AUTO 15008KT 9SM -SN OVC015 M06/M08 A3006 RMK SLP201",2025-12-02 05:28:57.095981,2025-12-02 00:28:57.095981
"CYVR",2025-12-02 05:00:00,2025-12-02,"MVFR",4,4,100,70,7,6400,30.18,NA,"FEW  ft; FEW  ft; OVC  ft","METAR CYVR 020500Z 07007KT 4SM -RA BR FEW005 FEW018 OVC039 04/04 A3018 RMK SF1SC2SC6 SF TR SLP221",2025-12-02 05:28:57.185282,2025-12-02 00:28:57.185282
"CYYJ",2025-12-02 05:15:00,2025-12-02 00:15:00,"MVFR",5,5,100,180,2,24100,30.15,NA,"SCT  ft; BKN  ft; OVC  ft","SPECI CYYJ 020515Z 18002KT 15SM -RA SCT009 BKN030 OVC062 05/05 A3015 RMK SF3SC3SC2 SLP213",2025-12-02 05:28:57.271396,2025-12-02 00:28:57.271396
"CYLW",2025-12-02 05:17:00,2025-12-02 00:17:00,"MVFR",0,0,100,130,4,14500,30.06,NA,"FEW  ft; OVC  ft","SPECI CYLW 020517Z AUTO 13004KT 9SM -RA FEW011 OVC020 00/00 A3006 RMK SLP201",2025-12-02 05:28:57.362547,2025-12-02 00:28:57.362547
"CYXS",2025-12-02 05:22:00,2025-12-02 00:22:00,"VFR",-1,-1,100,140,10,14500,29.87,NA,"FEW  ft; SCT  ft; OVC  ft","SPECI CYXS 020522Z AUTO 14010KT 9SM FEW005 SCT025 OVC120 M01/M01 A2987 RMK SLP151",2025-12-02 05:28:57.45156,2025-12-02 00:28:57.45156
"CYXT",2025-12-02 05:00:00,2025-12-02,"LIFR",1,1,100,0,0,NA,30.07,NA,"OVX  ft","METAR CYXT 020500Z 00000KT 1/2SM -DZ FG VV003 01/01 A3007 RMK FG8 SLP194",2025-12-02 05:28:57.53797,2025-12-02 00:28:57.53797
"CYQQ",2025-12-02 05:15:00,2025-12-02 00:15:00,"MVFR",6,4,87,130,6,24100,30.17,NA,"OVC  ft","SPECI CYQQ 020515Z 13006KT 15SM OVC010 06/04 A3017 RMK ST8 DENSITY ALT -1203FT SLP218",2025-12-02 05:28:57.626563,2025-12-02 00:28:57.626563
"CYYC",2025-12-02 05:00:00,2025-12-02,"VFR",5,-6,45,280,15,24100,29.63,NA,"BKN  ft","METAR CYYC 020500Z 28015G22KT 15SM BKN092 05/M06 A2963 RMK AC6 SLP076",2025-12-02 05:28:57.754327,2025-12-02 00:28:57.754327
"CYEG",2025-12-02 05:00:00,2025-12-02,"VFR",2,-1,81,290,7,32200,29.57,NA,"SCT  ft; BKN  ft; BKN  ft","METAR CYEG 020500Z 29007KT 20SM SCT054 BKN075 BKN084 02/M01 A2957 RMK SC3AC3AC1 SLP047",2025-12-02 05:28:57.844712,2025-12-02 00:28:57.844712
"CYMM",2025-12-02 05:00:00,2025-12-02,"VFR",-9,-11,86,350,6,14500,29.65,NA,"SCT  ft; OVC  ft","METAR CYMM 020500Z AUTO 35006KT 9SM -SN SCT015 OVC130 M09/M11 A2965 RMK SLP071",2025-12-02 05:28:57.936476,2025-12-02 00:28:57.936476
"CYQF",2025-12-02 05:00:00,2025-12-02,"VFR",0,-2,87,220,7,14500,29.62,NA,"OVC  ft","METAR CYQF 020500Z AUTO 22007KT 9SM OVC071 M00/M02 A2962 RMK SLP076",2025-12-02 05:28:58.024848,2025-12-02 00:28:58.024848
"CYXE",2025-12-02 05:00:00,2025-12-02,"MVFR",-7,-8,93,180,4,4800,29.51,NA,"OVC  ft","METAR CYXE 020500Z 18004KT 3SM -SN BR OVC030 M07/M08 A2951 RMK SN4SC4 SLP036",2025-12-02 05:28:58.112587,2025-12-02 00:28:58.112587
"CYQR",2025-12-02 05:20:00,2025-12-02 00:20:00,"VFR",-9,-11,86,140,11,24100,29.58,NA,"FEW  ft; OVC  ft","SPECI CYQR 020520Z 14011KT 15SM FEW045 OVC075 M09/M11 A2958 RMK SC2AC6 PRESFR SLP063",2025-12-02 05:28:58.199671,2025-12-02 00:28:58.199671
"CYWG",2025-12-02 05:00:00,2025-12-02,"VFR",-15,-17,85,200,7,24100,29.8,NA,"FEW  ft","METAR CYWG 020500Z 20007KT 15SM FEW150 M15/M17 A2980 RMK AC2 SLP116",2025-12-02 05:28:58.287229,2025-12-02 00:28:58.287229
"CYBR",2025-12-02 05:00:00,2025-12-02,"VFR",-13,-16,78,250,6,14500,29.74,NA,"OVC  ft","METAR CYBR 020500Z AUTO 25006KT 9SM OVC100 M13/M16 A2974 RMK SLP112",2025-12-02 05:28:58.37482,2025-12-02 00:28:58.37482
"CYUL",2025-12-02 05:00:00,2025-12-02,"VFR",-8,-13,68,60,4,24100,30.27,NA,"FEW  ft; BKN  ft","METAR CYUL 020500Z 06004KT 15SM FEW030 BKN140 M08/M13 A3027 RMK SC1AC6 SLP255",2025-12-02 05:28:58.463787,2025-12-02 00:28:58.463787
"CYHU",2025-12-02 05:00:00,2025-12-02,"VFR",-8,-12,73,80,3,14500,30.28,NA,"SCT  ft; OVC  ft","METAR CYHU 020500Z AUTO 08003KT 9SM SCT030 OVC160 M08/M12 A3028 RMK SLP257",2025-12-02 05:28:58.553271,2025-12-02 00:28:58.553271
"CYQB",2025-12-02 05:00:00,2025-12-02,"VFR",-11,-14,79,0,2,24100,30.27,NA,"BKN  ft; BKN  ft","METAR CYQB 020500Z CCA VRB02KT 15SM BKN032 BKN180 M11/M14 A3027 RMK SC6CI1 CI TR DIST SH S SLP258",2025-12-02 05:28:58.682036,2025-12-02 00:28:58.682036
"CYVO",2025-12-02 05:06:00,2025-12-02 00:06:00,"IFR",-9,-11,86,190,13,2800,29.98,NA,"OVC  ft","SPECI CYVO 020506Z AUTO 19013G18KT 1 3/4SM -SN OVC038 M09/M11 A2998 RMK SLP181",2025-12-02 05:28:58.773268,2025-12-02 00:28:58.773268
"CYUY",2025-12-02 05:00:00,2025-12-02,"MVFR",-8,-9,93,200,5,NA,29.95,NA,"OVX  ft","METAR CYUY 020500Z CCA 20005KT 3SM -SHSN FEW011 VV030 M08/M09 A2995 RMK SC1SN8 SC TR /S02/ CVCTV CLD EMBD SLP169",2025-12-02 05:28:58.861526,2025-12-02 00:28:58.861526
"CYZV",2025-12-02 05:00:00,2025-12-02,"VFR",-15,-18,78,340,4,24100,30.15,NA,"FEW  ft; BKN  ft","METAR CYZV 020500Z 34004KT 15SM FEW032 BKN120 M15/M18 A3015 RMK SC2AC4 SLP216",2025-12-02 05:28:58.995728,2025-12-02 00:28:58.995728
"CYBC",2025-12-02 05:00:00,2025-12-02,"VFR",-14,-18,72,260,7,14500,30.23,NA,"CLR  ft","METAR CYBC 020500Z AUTO 26007KT 9SM CLR M14/M18 A3023 RMK SLP241",2025-12-02 05:28:59.086944,2025-12-02 00:28:59.086944
"CYRJ",2025-12-02 05:00:00,2025-12-02,"VFR",-12,-17,67,220,11,40200,30.15,NA,"FEW  ft; BKN  ft; BKN  ft","METAR CYRJ 020500Z 22011G19KT 25SM FEW055 BKN130 BKN180 M12/M17 A3015 RMK SC2AC3AC2 SLP228",2025-12-02 05:28:59.215557,2025-12-02 00:28:59.215557
"CYHZ",2025-12-02 05:00:00,2025-12-02,"VFR",-4,-7,80,360,7,24100,30.23,NA,"FEW  ft; SCT  ft","METAR CYHZ 020500Z 36007KT 15SM FEW028 SCT230 M04/M07 A3023 RMK SC1CI3 SLP245",2025-12-02 05:28:59.303055,2025-12-02 00:28:59.303055
"CYYG",2025-12-02 05:00:00,2025-12-02,"MVFR",-5,-9,74,260,6,24100,30.22,NA,"BKN  ft","METAR CYYG 020500Z 26006KT 15SM BKN025 M05/M09 A3022 RMK SC5 SLP239",2025-12-02 05:28:59.396681,2025-12-02 00:28:59.396681
"CYQM",2025-12-02 05:00:00,2025-12-02,"VFR",-8,-11,79,250,5,24100,30.26,NA,"SKC  ft","METAR CYQM 020500Z 25005KT 15SM SKC M08/M11 A3026 RMK PRESRR SLP253",2025-12-02 05:28:59.525173,2025-12-02 00:28:59.525173
"CYFC",2025-12-02 05:00:00,2025-12-02,"VFR",-9,-11,86,0,0,14500,30.31,NA,"CLR  ft","METAR CYFC 020500Z AUTO 00000KT 9SM CLR M09/M11 A3031 RMK SLP267",2025-12-02 05:28:59.615094,2025-12-02 00:28:59.615094
"CYYT",2025-12-02 05:00:00,2025-12-02,"MVFR",2,0,87,300,18,24100,29.75,NA,"BKN  ft; BKN  ft","METAR CYYT 020500Z 30018G28KT 15SM BKN017 BKN025 02/M00 A2975 RMK SC5SC2 SLP083",2025-12-02 05:28:59.743532,2025-12-02 00:28:59.743532
"CYQY",2025-12-02 05:00:00,2025-12-02,"VFR",-1,-7,64,310,18,24100,30.13,NA,"BKN  ft","METAR CYQY 020500Z CCA 31018G23KT 15SM -SN BKN032 M01/M07 A3013 RMK SC7 PRESRR SLP207",2025-12-02 05:28:59.834799,2025-12-02 00:28:59.834799
"CYXY",2025-12-02 05:08:00,2025-12-02 00:08:00,"LIFR",-3,-3,100,320,4,24100,29.81,NA,"BKN  ft; OVC  ft","SPECI CYXY 020508Z 32004KT 15SM BKN004 OVC096 M03/M03 A2981 RMK ST7AC1 SLP136",2025-12-02 05:28:59.922323,2025-12-02 00:28:59.922323
"CYZF",2025-12-02 05:00:00,2025-12-02,"MVFR",-16,-18,85,30,11,24100,29.97,NA,"OVC  ft","METAR CYZF 020500Z 03011KT 15SM -SN OVC015 M16/M18 A2997 RMK SC8 SLP175",2025-12-02 05:29:00.012723,2025-12-02 00:29:00.012723
"CYFB",2025-12-02 05:00:00,2025-12-02,"VFR",-9,-16,57,180,5,24100,29.38,NA,"BKN  ft","METAR CYFB 020500Z 18005KT 15SM BKN049 M09/M16 A2938 RMK SC6 SLP956",2025-12-02 05:29:00.103073,2025-12-02 00:29:00.103073
"CYRT",2025-12-02 05:00:00,2025-12-02,"VFR",-30,-33,75,310,12,24100,29.63,NA,"FEW  ft; SCT  ft","METAR CYRT 020500Z 31012KT 15SM IC FEW026 SCT090 M30/M33 A2963 RMK SC1AC3 SLP042",2025-12-02 05:29:00.191142,2025-12-02 00:29:00.191142
"CYBK",2025-12-02 05:00:00,2025-12-02,"VFR",-31,-34,75,310,19,24100,29.71,NA,"SCT  ft","METAR CYBK 020500Z 31019KT 15SM IC DRSN SCT056 M31/M34 A2971 RMK SC3 SLP065",2025-12-02 05:29:00.281787,2025-12-02 00:29:00.281787
"CYRB",2025-12-02 05:00:00,2025-12-02,"VFR",-21,-25,70,110,5,40200,29.89,NA,"FEW  ft","METAR CYRB 020500Z 11005KT 25SM FEW090 M21/M25 A2989 RMK AC1 AC TR SLP133",2025-12-02 05:29:00.421626,2025-12-02 00:29:00.421626
"CYCO",2025-12-02 05:00:00,2025-12-02,"VFR",-26,-28,83,270,12,19300,30.18,NA,"SCT  ft","METAR CYCO 020500Z 27012KT 12SM IC SCT018 M26/M28 A3018 RMK SC3 SLP226",2025-12-02 05:29:00.51025,2025-12-02 00:29:00.51025
"CYER",2025-12-02 06:00:00,2025-12-02 01:00:00,"VFR",-23,-25,84,240,7,14500,29.73,NA,"BKN  ft; BKN  ft","METAR CYER 020600Z AUTO 24007KT 9SM BKN110 BKN250 M23/M25 A2973 RMK SLP072",2025-12-02 06:43:17.676025,2025-12-02 01:43:17.676025
"CYAT",2025-12-02 06:00:00,2025-12-02 01:00:00,"VFR",-11,-13,85,220,3,14500,29.86,NA,"OVC  ft","METAR CYAT 020600Z AUTO 22003KT 9SM OVC040 M11/M13 A2986 RMK SLP116",2025-12-02 06:43:17.732016,2025-12-02 01:43:17.732016
"CYMO",2025-12-02 06:34:00,2025-12-02 01:34:00,"VFR",-13,-14,92,240,6,14500,29.93,NA,"CLR  ft","SPECI CYMO 020634Z AUTO 24006KT 9SM -SN CLR M13/M14 A2993 RMK SLP137",2025-12-02 06:43:17.78018,2025-12-02 01:43:17.78018
"CYPL",2025-12-02 06:00:00,2025-12-02 01:00:00,"MVFR",-12,-15,79,230,7,14500,29.75,NA,"OVC  ft","METAR CYPL 020600Z AUTO 23007KT 9SM -SN OVC020 M12/M15 A2975 RMK SLP108",2025-12-02 06:43:17.828271,2025-12-02 01:43:17.828271
"CYQT",2025-12-02 06:00:00,2025-12-02 01:00:00,"MVFR",-12,-15,79,280,2,24100,29.91,NA,"BKN  ft","METAR CYQT 020600Z 28002KT 15SM BKN027 M12/M15 A2991 RMK SC7 SLP146",2025-12-02 06:43:17.885253,2025-12-02 01:43:17.885253
"CYAM",2025-12-02 06:00:00,2025-12-02 01:00:00,"VFR",-6,-8,86,190,5,19300,29.96,NA,"BKN  ft; OVC  ft","METAR CYAM 020600Z 19005KT 170V230 12SM -SN BKN032 OVC078 M06/M08 A2996 RMK SC5AC3 SLP161",2025-12-02 06:43:17.933242,2025-12-02 01:43:17.933242
"CYTS",2025-12-02 06:00:00,2025-12-02 01:00:00,"MVFR",-7,-9,86,220,3,9700,29.9,NA,"OVC  ft","METAR CYTS 020600Z 22003KT 190V260 6SM -SN OVC025 M07/M09 A2990 RMK SC8 SLP151",2025-12-02 06:43:17.983429,2025-12-02 01:43:17.983429
"CYSB",2025-12-02 06:00:00,2025-12-02 01:00:00,"IFR",-7,-8,93,170,5,3200,29.95,NA,"BKN  ft; OVC  ft","METAR CYSB 020600Z 17005KT 2SM -SN BKN014 OVC030 M07/M08 A2995 RMK SC6SC2 SLP168",2025-12-02 06:43:18.037194,2025-12-02 01:43:18.037194
"CYYB",2025-12-02 06:36:00,2025-12-02 01:36:00,"IFR",-7,-8,93,170,9,2800,29.97,NA,"OVC  ft","SPECI CYYB 020636Z AUTO 17009KT 1 3/4SM -SN OVC011 M07/M08 A2997 RMK PCPN 0.5MM PAST HR RVR MISG SLP174",2025-12-02 06:43:18.085942,2025-12-02 01:43:18.085942
"CYOW",2025-12-02 06:00:00,2025-12-02 01:00:00,"VFR",-10,-13,79,100,6,24100,30.19,NA,"BKN  ft; OVC  ft","METAR CYOW 020600Z 10006KT 15SM BKN090 OVC100 M10/M13 A3019 RMK AS5AS3 SLP234",2025-12-02 06:43:18.175483,2025-12-02 01:43:18.175483
"CYGK",2025-12-02 04:00:00,2025-12-01 23:00:00,"VFR",-6,-11,68,50,5,24100,30.24,NA,"BKN  ft","METAR CYGK 020400Z 05005KT 15SM BKN140 M06/M11 A3024 RMK AC7 LAST STFD OBS/ NXT 021100Z SLP248",2025-12-02 06:43:18.229307,2025-12-02 01:43:18.229307
"CYQG",2025-12-02 06:29:00,2025-12-02 01:29:00,"MVFR",-3,-4,93,40,4,8000,30,NA,"FEW  ft; BKN  ft; BKN  ft; OVC  ft","SPECI CYQG 020629Z AUTO 04004KT 5SM -SN FEW041 BKN050 BKN071 OVC083 M03/M04 A3000 RMK SLP170",2025-12-02 06:43:18.278406,2025-12-02 01:43:18.278406
"CYVV",2025-12-02 06:00:00,2025-12-02 01:00:00,"VFR",-5,-6,93,180,12,12900,30.03,NA,"OVC  ft","METAR CYVV 020600Z 18012KT 8SM -SN DRSN OVC038 M05/M06 A3003 RMK SC8 SLP185",2025-12-02 06:43:18.325821,2025-12-02 01:43:18.325821
"CYYZ",2025-12-02 06:35:00,2025-12-02 01:35:00,"MVFR",-3,-4,93,120,6,6400,30.05,NA,"SCT  ft; OVC  ft","SPECI CYYZ 020635Z 12006KT 4SM -SN SCT007 OVC017 M03/M04 A3005 RMK SF3SC5 SLP187",2025-12-02 06:43:18.374294,2025-12-02 01:43:18.374294
"CYQA",2025-12-02 06:38:00,2025-12-02 01:38:00,"IFR",-7,-8,93,140,7,4000,30.04,NA,"FEW  ft; OVC  ft","SPECI CYQA 020638Z AUTO 14007KT 2 1/2SM -SN FEW020 OVC024 M07/M08 A3004 RMK SLP192",2025-12-02 06:43:18.421504,2025-12-02 01:43:18.421504
"CYVR",2025-12-02 06:00:00,2025-12-02 01:00:00,"MVFR",4,4,100,80,6,9999,30.17,NA,"BKN  ft; OVC  ft","METAR CYVR 020600Z 08006KT 10SM -RA BKN025 OVC049 04/04 A3017 RMK SC5NS3 SLP219",2025-12-02 06:43:18.468832,2025-12-02 01:43:18.468832
"CYYJ",2025-12-02 06:00:00,2025-12-02 01:00:00,"MVFR",5,5,100,210,4,24100,30.15,NA,"FEW  ft; BKN  ft; BKN  ft; OVC  ft","METAR CYYJ 020600Z 21004KT 15SM -RA FEW009 BKN015 BKN030 OVC056 05/05 A3015 RMK SF1SC4SC2SC1 SLP211",2025-12-02 06:43:18.518075,2025-12-02 01:43:18.518075
"CYLW",2025-12-02 06:34:00,2025-12-02 01:34:00,"MVFR",1,-1,87,170,3,14500,30.05,NA,"FEW  ft; OVC  ft","SPECI CYLW 020634Z AUTO 17003KT 120V190 9SM -SN -UP FEW013 OVC022 01/M01 A3005 RMK SLP198",2025-12-02 06:43:18.569468,2025-12-02 01:43:18.569468
"CYXS",2025-12-02 06:00:00,2025-12-02 01:00:00,"MVFR",-1,-1,100,170,11,14500,29.87,NA,"OVC  ft","METAR CYXS 020600Z AUTO 17011KT 9SM OVC023 M01/M01 A2987 RMK SLP152",2025-12-02 06:43:18.619053,2025-12-02 01:43:18.619053
"CYXT",2025-12-02 06:18:00,2025-12-02 01:18:00,"LIFR",1,1,100,0,0,1200,30.09,NA,"OVC  ft","SPECI CYXT 020618Z 00000KT 3/4SM -DZ BR OVC003 01/01 A3009 RMK FG5SF3 SLP201",2025-12-02 06:43:18.668413,2025-12-02 01:43:18.668413
"CYQQ",2025-12-02 06:21:00,2025-12-02 01:21:00,"MVFR",6,4,87,130,5,11300,30.18,NA,"FEW  ft; OVC  ft","SPECI CYQQ 020621Z 13005KT 7SM -DZ FEW008 OVC012 06/04 A3018 RMK SF1ST7 DENSITY ALT -1214FT SLP221",2025-12-02 06:43:18.717809,2025-12-02 01:43:18.717809
"CYYC",2025-12-02 06:00:00,2025-12-02 01:00:00,"VFR",4,-5,52,320,8,24100,29.62,NA,"BKN  ft","METAR CYYC 020600Z 32008G15KT 15SM BKN092 04/M05 A2962 RMK AC6 SLP071",2025-12-02 06:43:18.769191,2025-12-02 01:43:18.769191
"CYEG",2025-12-02 06:00:00,2025-12-02 01:00:00,"VFR",3,-1,75,290,10,32200,29.59,NA,"FEW  ft; FEW  ft; BKN  ft","METAR CYEG 020600Z 29010KT 20SM FEW035 FEW061 BKN083 03/M01 A2959 RMK SC1SC2AC5 SC TR SLP049",2025-12-02 06:43:18.816767,2025-12-02 01:43:18.816767
"CYMM",2025-12-02 06:26:00,2025-12-02 01:26:00,"MVFR",-9,-11,86,310,7,14500,29.69,NA,"BKN  ft; BKN  ft; OVC  ft","SPECI CYMM 020626Z AUTO 31007KT 9SM BKN014 BKN081 OVC140 M09/M11 A2969 RMK PRESRR SLP085",2025-12-02 06:43:18.907555,2025-12-02 01:43:18.907555
"CYQF",2025-12-02 06:00:00,2025-12-02 01:00:00,"VFR",1,-2,81,280,4,14500,29.62,NA,"OVC  ft","METAR CYQF 020600Z AUTO 28004KT 9SM OVC076 01/M02 A2962 RMK SLP074",2025-12-02 06:43:18.958103,2025-12-02 01:43:18.958103
"CYXE",2025-12-02 06:00:00,2025-12-02 01:00:00,"MVFR",-6,-7,93,200,5,4800,29.5,NA,"FEW  ft; OVC  ft","METAR CYXE 020600Z 20005KT 3SM -SN FEW006 OVC030 M06/M07 A2950 RMK SC2SC6 SLP030",2025-12-02 06:43:19.006422,2025-12-02 01:43:19.006422
"CYQR",2025-12-02 06:35:00,2025-12-02 01:35:00,"VFR",-8,-10,86,130,8,24100,29.53,NA,"SCT  ft; BKN  ft; OVC  ft","SPECI CYQR 020635Z 13008KT 15SM SCT030 BKN045 OVC070 M08/M10 A2953 WS RWY13 RMK SC3SC3AC2 SLP045",2025-12-02 06:43:19.054989,2025-12-02 01:43:19.054989
"CYWG",2025-12-02 06:00:00,2025-12-02 01:00:00,"VFR",-14,-16,85,190,7,24100,29.8,NA,"SCT  ft","METAR CYWG 020600Z 19007KT 15SM SCT120 M14/M16 A2980 RMK AC3 SLP114",2025-12-02 06:43:19.102174,2025-12-02 01:43:19.102174
"CYBR",2025-12-02 06:00:00,2025-12-02 01:00:00,"VFR",-13,-15,85,200,6,14500,29.7,NA,"BKN  ft; BKN  ft; BKN  ft; OVC  ft","METAR CYBR 020600Z AUTO 20006KT 9SM BKN091 BKN110 BKN130 OVC170 M13/M15 A2970 RMK SLP097",2025-12-02 06:43:19.151302,2025-12-02 01:43:19.151302
"CYUL",2025-12-02 06:00:00,2025-12-02 01:00:00,"VFR",-8,-12,73,130,6,24100,30.24,NA,"FEW  ft; BKN  ft","METAR CYUL 020600Z 13006KT 15SM FEW030 BKN130 M08/M12 A3024 RMK SC1AC6 SC TR SLP246",2025-12-02 06:43:19.202168,2025-12-02 01:43:19.202168
"CYHU",2025-12-02 06:00:00,2025-12-02 01:00:00,"VFR",-8,-12,73,130,4,14500,30.26,NA,"FEW  ft; OVC  ft","METAR CYHU 020600Z AUTO 13004KT 9SM FEW030 OVC150 M08/M12 A3026 RMK SLP251",2025-12-02 06:43:19.251004,2025-12-02 01:43:19.251004
"CYQB",2025-12-02 06:00:00,2025-12-02 01:00:00,"VFR",-12,-15,79,0,0,24100,30.26,NA,"BKN  ft; BKN  ft","METAR CYQB 020600Z 00000KT 15SM BKN031 BKN160 M12/M15 A3026 RMK SC6AC1 AC TR SLP254",2025-12-02 06:43:19.297652,2025-12-02 01:43:19.297652
"CYVO",2025-12-02 06:30:00,2025-12-02 01:30:00,"MVFR",-9,-11,86,170,10,4800,29.95,NA,"OVC  ft","SPECI CYVO 020630Z AUTO 17010G15KT 3SM -SN OVC040 M09/M11 A2995 RMK SLP172",2025-12-02 06:43:19.344383,2025-12-02 01:43:19.344383
"CYUY",2025-12-02 06:00:00,2025-12-02 01:00:00,"MVFR",-7,-9,86,210,5,4800,29.94,NA,"BKN  ft","METAR CYUY 020600Z 21005KT 3SM -SHSN BKN014 M07/M09 A2994 RMK SN3SC4 CVCTV CLD EMBD SLP163",2025-12-02 06:43:19.393287,2025-12-02 01:43:19.393287
"CYZV",2025-12-02 06:00:00,2025-12-02 01:00:00,"VFR",-19,-22,77,340,4,24100,30.15,NA,"SCT  ft; BKN  ft","METAR CYZV 020600Z 34004KT 330V040 15SM SCT032 BKN160 M19/M22 A3015 RMK SC4AC3 SLP216",2025-12-02 06:43:19.441169,2025-12-02 01:43:19.441169
"CYBC",2025-12-02 06:00:00,2025-12-02 01:00:00,"VFR",-14,-18,72,260,9,14500,30.23,NA,"SCT  ft","METAR CYBC 020600Z AUTO 26009KT 9SM SCT190 M14/M18 A3023 RMK SLP242",2025-12-02 06:43:19.491069,2025-12-02 01:43:19.491069
"CYRJ",2025-12-02 06:00:00,2025-12-02 01:00:00,"VFR",-12,-16,72,0,0,40200,30.12,NA,"SCT  ft; BKN  ft","METAR CYRJ 020600Z 00000KT 25SM SCT140 BKN160 M12/M16 A3012 RMK AC4AC3 SLP217",2025-12-02 06:43:19.539286,2025-12-02 01:43:19.539286
"CYHZ",2025-12-02 06:00:00,2025-12-02 01:00:00,"VFR",-5,-7,86,360,7,24100,30.22,NA,"FEW  ft","METAR CYHZ 020600Z 36007KT 15SM FEW210 M05/M07 A3022 RMK CI1 CI TR SLP242",2025-12-02 06:43:19.587828,2025-12-02 01:43:19.587828
"CYYG",2025-12-02 06:00:00,2025-12-02 01:00:00,"MVFR",-6,-9,80,260,7,24100,30.24,NA,"BKN  ft","METAR CYYG 020600Z 26007KT 15SM BKN024 M06/M09 A3024 RMK SC6 SLP245",2025-12-02 06:43:19.635193,2025-12-02 01:43:19.635193
"CYQM",2025-12-02 06:00:00,2025-12-02 01:00:00,"VFR",-9,-12,79,250,5,24100,30.28,NA,"SKC  ft","METAR CYQM 020600Z 25005KT 15SM SKC M09/M12 A3028 RMK SLP261",2025-12-02 06:43:19.683299,2025-12-02 01:43:19.683299
"CYFC",2025-12-02 06:00:00,2025-12-02 01:00:00,"VFR",-10,-12,85,0,0,14500,30.31,NA,"CLR  ft","METAR CYFC 020600Z AUTO 00000KT 9SM CLR M10/M12 A3031 RMK SLP266",2025-12-02 06:43:19.731462,2025-12-02 01:43:19.731462
"CYYT",2025-12-02 06:00:00,2025-12-02 01:00:00,"VFR",1,-2,81,290,20,24100,29.8,NA,"SCT  ft","METAR CYYT 020600Z 29020G28KT 15SM SCT023 01/M02 A2980 RMK SC3 SLP098",2025-12-02 06:43:19.818714,2025-12-02 01:43:19.818714
"CYQY",2025-12-02 06:00:00,2025-12-02 01:00:00,"VFR",-2,-7,69,280,7,24100,30.18,NA,"BKN  ft","METAR CYQY 020600Z 28007KT 240V300 15SM BKN034 M02/M07 A3018 RMK SC6 SLP224",2025-12-02 06:43:19.870435,2025-12-02 01:43:19.870435
"CYXY",2025-12-02 06:07:00,2025-12-02 01:07:00,"LIFR",-2,-3,93,10,2,24100,29.83,NA,"BKN  ft; OVC  ft","SPECI CYXY 020607Z 01002KT 15SM BKN002 OVC100 M02/M03 A2983 RMK ST6AC2 SLP142",2025-12-02 06:43:19.958051,2025-12-02 01:43:19.958051
"CYZF",2025-12-02 06:00:00,2025-12-02 01:00:00,"MVFR",-17,-19,85,30,9,24100,30,NA,"OVC  ft","METAR CYZF 020600Z 03009KT 15SM -SN OVC013 M17/M19 A3000 RMK SC8 SLP183",2025-12-02 06:43:20.010504,2025-12-02 01:43:20.010504
"CYFB",2025-12-02 06:00:00,2025-12-02 01:00:00,"VFR",-12,-16,72,0,0,24100,29.38,NA,"BKN  ft","METAR CYFB 020600Z 00000KT 15SM -SN BKN035 M12/M16 A2938 RMK SC7 SLP955",2025-12-02 06:43:20.101584,2025-12-02 01:43:20.101584
"CYRT",2025-12-02 06:00:00,2025-12-02 01:00:00,"VFR",-30,-33,75,320,10,24100,29.63,NA,"FEW  ft; SCT  ft","METAR CYRT 020600Z 32010KT 15SM IC FEW025 SCT084 M30/M33 A2963 RMK SC1AC3 SLP041",2025-12-02 06:43:20.148547,2025-12-02 01:43:20.148547
"CYBK",2025-12-02 06:00:00,2025-12-02 01:00:00,"VFR",-30,-33,75,320,20,24100,29.7,NA,"SCT  ft","METAR CYBK 020600Z 32020KT 15SM IC DRSN SCT047 M30/M33 A2970 RMK SC3 SLP063",2025-12-02 06:43:20.195731,2025-12-02 01:43:20.195731
"CYRB",2025-12-02 06:00:00,2025-12-02 01:00:00,"VFR",-22,-26,70,260,3,40200,29.9,NA,"SKC  ft","METAR CYRB 020600Z 26003KT 25SM IC SKC M22/M26 A2990 RMK SLP136",2025-12-02 06:43:20.25475,2025-12-02 01:43:20.25475
"CYCO",2025-12-02 06:00:00,2025-12-02 01:00:00,"VFR",-27,-30,76,270,11,24100,30.2,NA,"FEW  ft","METAR CYCO 020600Z 27011KT 15SM FEW020 M27/M30 A3020 RMK SC1 SC TR SLP234",2025-12-02 06:43:20.300111,2025-12-02 01:43:20.300111
"CYER",2025-12-02 07:00:00,2025-12-02 02:00:00,"VFR",-23,-26,77,240,9,14500,29.73,NA,"FEW  ft; SCT  ft","METAR CYER 020700Z AUTO 24009KT 9SM FEW120 SCT240 M23/M26 A2973 RMK SLP072",2025-12-02 07:29:47.513066,2025-12-02 02:29:47.513066
"CYAT",2025-12-02 07:00:00,2025-12-02 02:00:00,"VFR",-11,-13,85,220,3,14500,29.86,NA,"OVC  ft","METAR CYAT 020700Z AUTO 22003KT 9SM OVC038 M11/M13 A2986 RMK SLP115",2025-12-02 07:29:47.59542,2025-12-02 02:29:47.59542
"CYMO",2025-12-02 07:00:00,2025-12-02 02:00:00,"VFR",-15,-16,92,240,5,14500,29.92,NA,"CLR  ft","METAR CYMO 020700Z AUTO 24005KT 9SM CLR M15/M16 A2992 RMK SLP136",2025-12-02 07:29:47.669412,2025-12-02 02:29:47.669412
"CYPL",2025-12-02 07:00:00,2025-12-02 02:00:00,"MVFR",-12,-15,79,220,6,14500,29.73,NA,"OVC  ft","METAR CYPL 020700Z AUTO 22006KT 9SM -SN OVC018 M12/M15 A2973 RMK SLP101",2025-12-02 07:29:47.752023,2025-12-02 02:29:47.752023
"CYQT",2025-12-02 07:00:00,2025-12-02 02:00:00,"MVFR",-12,-14,85,230,2,24100,29.9,NA,"OVC  ft","METAR CYQT 020700Z 23002KT 15SM -SN OVC025 M12/M14 A2990 RMK SC8 SLP143",2025-12-02 07:29:47.836328,2025-12-02 02:29:47.836328
"CYAM",2025-12-02 07:00:00,2025-12-02 02:00:00,"MVFR",-6,-8,86,200,3,9999,29.95,NA,"FEW  ft; BKN  ft; OVC  ft","METAR CYAM 020700Z 20003KT 10SM -SN FEW010 BKN030 OVC054 M06/M08 A2995 RMK CF1SC6SC2 CF TR SLP155",2025-12-02 07:29:47.908528,2025-12-02 02:29:47.908528
"CYTS",2025-12-02 07:00:00,2025-12-02 02:00:00,"VFR",-8,-9,93,0,2,9700,29.89,NA,"OVC  ft","METAR CYTS 020700Z VRB02KT 6SM -SN OVC032 M08/M09 A2989 RMK SC8 SLP148",2025-12-02 07:29:47.980085,2025-12-02 02:29:47.980085
"CYSB",2025-12-02 07:00:00,2025-12-02 02:00:00,"IFR",-8,-9,93,130,4,11300,29.93,NA,"BKN  ft; BKN  ft","METAR CYSB 020700Z 13004KT 7SM -SN BKN006 BKN015 M08/M09 A2993 RMK SC5SC2 SLP162",2025-12-02 07:29:48.056447,2025-12-02 02:29:48.056447
"CYYB",2025-12-02 07:15:00,2025-12-02 02:15:00,"IFR",-7,-8,93,160,7,NA,29.96,NA,"OVX  ft","SPECI CYYB 020715Z AUTO 16007KT 1SM -SN VV005 M07/M08 A2996 RMK PCPN 0.5MM PAST HR RVR MISG SLP170",2025-12-02 07:29:48.130185,2025-12-02 02:29:48.130185
"CYOW",2025-12-02 07:00:00,2025-12-02 02:00:00,"VFR",-9,-13,73,110,4,24100,30.18,NA,"OVC  ft","METAR CYOW 020700Z 11004KT 15SM OVC080 M09/M13 A3018 RMK AS8 SLP232",2025-12-02 07:29:48.199219,2025-12-02 02:29:48.199219
"CYGK",2025-12-02 04:00:00,2025-12-01 23:00:00,"VFR",-6,-11,68,50,5,24100,30.24,NA,"BKN  ft","METAR CYGK 020400Z 05005KT 15SM BKN140 M06/M11 A3024 RMK AC7 LAST STFD OBS/ NXT 021100Z SLP248",2025-12-02 07:29:48.277377,2025-12-02 02:29:48.277377
"CYQG",2025-12-02 07:26:00,2025-12-02 02:26:00,"IFR",-3,-3,100,0,2,4000,29.98,NA,"FEW  ft; OVC  ft","SPECI CYQG 020726Z AUTO VRB02KT 2 1/2SM -SN FEW015 OVC042 M03/M03 A2998 RMK VIS VRB 2-3 SLP162",2025-12-02 07:29:48.349226,2025-12-02 02:29:48.349226
"CYVV",2025-12-02 07:00:00,2025-12-02 02:00:00,"MVFR",-5,-6,93,170,10,6400,30,NA,"OVC  ft","METAR CYVV 020700Z 17010KT 4SM -SN DRSN OVC024 M05/M06 A3000 RMK SC8 PRESFR SLP174",2025-12-02 07:29:48.427338,2025-12-02 02:29:48.427338
"CYYZ",2025-12-02 07:00:00,2025-12-02 02:00:00,"MVFR",-3,-4,93,120,6,6400,30.04,NA,"FEW  ft; BKN  ft; OVC  ft","METAR CYYZ 020700Z 12006KT 4SM -SN FEW007 BKN019 OVC040 M03/M04 A3004 RMK SF2SC3SC3 SLP183",2025-12-02 07:29:48.458367,2025-12-02 02:29:48.458367
"CYQA",2025-12-02 07:00:00,2025-12-02 02:00:00,"MVFR",-7,-8,93,140,6,4800,30.03,NA,"OVC  ft","METAR CYQA 020700Z AUTO 14006KT 3SM -SN OVC026 M07/M08 A3003 RMK SLP189",2025-12-02 07:29:48.529069,2025-12-02 02:29:48.529069
"CYVR",2025-12-02 07:14:00,2025-12-02 02:14:00,"MVFR",5,4,93,70,5,24100,30.15,NA,"SCT  ft; OVC  ft","SPECI CYVR 020714Z 07005KT 15SM SCT009 OVC014 05/04 A3015 RMK ST3SC5 SLP213",2025-12-02 07:29:48.598571,2025-12-02 02:29:48.598571
"CYYJ",2025-12-02 07:00:00,2025-12-02 02:00:00,"IFR",6,6,100,0,2,24100,30.15,NA,"BKN  ft; OVC  ft","METAR CYYJ 020700Z VRB02KT 15SM -RA BKN009 OVC025 06/06 A3015 RMK SF6SC2 SLP212",2025-12-02 07:29:48.669728,2025-12-02 02:29:48.669728
"CYLW",2025-12-02 07:22:00,2025-12-02 02:22:00,"MVFR",1,0,93,160,5,14500,30.05,NA,"SCT  ft; OVC  ft","SPECI CYLW 020722Z AUTO 16005KT 140V210 9SM -RA SCT013 OVC020 01/M00 A3005 RMK SLP196",2025-12-02 07:29:48.747076,2025-12-02 02:29:48.747076
"CYXS",2025-12-02 07:00:00,2025-12-02 02:00:00,"VFR",0,-1,93,180,13,14500,29.87,NA,"FEW  ft; SCT  ft; OVC  ft","METAR CYXS 020700Z AUTO 18013KT 9SM FEW021 SCT044 OVC120 M00/M01 A2987 RMK SLP152",2025-12-02 07:29:48.77626,2025-12-02 02:29:48.77626
"CYXT",2025-12-02 07:00:00,2025-12-02 02:00:00,"LIFR",1,1,100,0,0,1200,30.1,NA,"OVC  ft","METAR CYXT 020700Z 00000KT 3/4SM -DZ BR OVC003 01/01 A3010 RMK SF8 SLP206",2025-12-02 07:29:48.845464,2025-12-02 02:29:48.845464
"CYQQ",2025-12-02 07:00:00,2025-12-02 02:00:00,"IFR",6,5,93,220,2,12900,30.19,NA,"BKN  ft; OVC  ft","METAR CYQQ 020700Z 22002KT 8SM -RA BKN005 OVC010 06/05 A3019 RMK ST7ST1 DENSITY ALT -1250FT CIG VRB 3-7 SLP223",2025-12-02 07:29:48.916268,2025-12-02 02:29:48.916268
"CYYC",2025-12-02 07:00:00,2025-12-02 02:00:00,"VFR",5,-6,45,280,17,24100,29.63,NA,"BKN  ft","METAR CYYC 020700Z 28017G24KT 15SM BKN091 05/M06 A2963 RMK AC6 SLP073",2025-12-02 07:29:48.987041,2025-12-02 02:29:48.987041
"CYEG",2025-12-02 07:00:00,2025-12-02 02:00:00,"VFR",2,-1,81,290,9,32200,29.59,NA,"SCT  ft; BKN  ft; BKN  ft","METAR CYEG 020700Z 29009KT 20SM SCT034 BKN072 BKN180 02/M01 A2959 RMK SC3AC2AS2 SLP051",2025-12-02 07:29:49.05602,2025-12-02 02:29:49.05602
"CYMM",2025-12-02 07:00:00,2025-12-02 02:00:00,"MVFR",-9,-11,86,320,6,14500,29.7,NA,"OVC  ft","METAR CYMM 020700Z AUTO 32006KT 9SM OVC014 M09/M11 A2970 RMK SLP087",2025-12-02 07:29:49.12825,2025-12-02 02:29:49.12825
"CYQF",2025-12-02 07:00:00,2025-12-02 02:00:00,"VFR",2,-2,75,280,7,14500,29.63,NA,"OVC  ft","METAR CYQF 020700Z AUTO 28007KT 9SM OVC071 02/M02 A2963 RMK SLP073",2025-12-02 07:29:49.199467,2025-12-02 02:29:49.199467
"CYXE",2025-12-02 07:00:00,2025-12-02 02:00:00,"MVFR",-5,-6,93,210,5,4800,29.48,NA,"SCT  ft; OVC  ft","METAR CYXE 020700Z 21005KT 3SM -SN SCT008 OVC034 M05/M06 A2948 RMK SC3SC5 -SN INTMT SLP024",2025-12-02 07:29:49.271245,2025-12-02 02:29:49.271245
"CYQR",2025-12-02 07:25:00,2025-12-02 02:25:00,"IFR",-6,-7,93,160,6,3200,29.51,NA,"BKN  ft; OVC  ft","SPECI CYQR 020725Z 16006KT 2SM -SHSN BKN014 OVC025 M06/M07 A2951 RMK SC6SC2 CVCTV CLD EMBD SLP035",2025-12-02 07:29:49.341131,2025-12-02 02:29:49.341131
"CYWG",2025-12-02 07:00:00,2025-12-02 02:00:00,"VFR",-14,-17,78,220,7,24100,29.77,NA,"BKN  ft","METAR CYWG 020700Z 22007KT 15SM BKN130 M14/M17 A2977 RMK AC6 SLP104",2025-12-02 07:29:49.373037,2025-12-02 02:29:49.373037
"CYBR",2025-12-02 07:00:00,2025-12-02 02:00:00,"VFR",-13,-15,85,220,10,14500,29.67,NA,"OVC  ft","METAR CYBR 020700Z AUTO 22010KT 9SM OVC100 M13/M15 A2967 RMK SLP087",2025-12-02 07:29:49.440303,2025-12-02 02:29:49.440303
"CYUL",2025-12-02 07:00:00,2025-12-02 02:00:00,"VFR",-8,-12,73,130,7,24100,30.23,NA,"FEW  ft; BKN  ft","METAR CYUL 020700Z 13007KT 15SM FEW030 BKN130 M08/M12 A3023 RMK SC1AC6 SC TR SLP242",2025-12-02 07:29:49.513312,2025-12-02 02:29:49.513312
"CYHU",2025-12-02 07:00:00,2025-12-02 02:00:00,"VFR",-8,-11,79,120,6,14500,30.23,NA,"FEW  ft; OVC  ft","METAR CYHU 020700Z AUTO 12006KT 9SM FEW100 OVC130 M08/M11 A3023 RMK SLP241",2025-12-02 07:29:49.588144,2025-12-02 02:29:49.588144
"CYQB",2025-12-02 07:00:00,2025-12-02 02:00:00,"MVFR",-12,-15,79,310,3,24100,30.24,NA,"OVC  ft","METAR CYQB 020700Z 31003KT 270V070 15SM OVC029 M12/M15 A3024 RMK SC8 SLP249",2025-12-02 07:29:49.661302,2025-12-02 02:29:49.661302
"CYVO",2025-12-02 07:00:00,2025-12-02 02:00:00,"MVFR",-9,-11,86,180,10,4800,29.95,NA,"BKN  ft; OVC  ft","METAR CYVO 020700Z AUTO 18010G17KT 3SM -SN BKN060 OVC073 M09/M11 A2995 RMK SLP171",2025-12-02 07:29:49.729935,2025-12-02 02:29:49.729935
"CYUY",2025-12-02 07:00:00,2025-12-02 02:00:00,"MVFR",-7,-9,86,200,6,4800,29.92,NA,"SCT  ft","METAR CYUY 020700Z 20006KT 3SM -SHSN SCT024 M07/M09 A2992 RMK SN3SC4 /S01/ CVCTV CLD EMBD SLP158",2025-12-02 07:29:49.800206,2025-12-02 02:29:49.800206
"CYZV",2025-12-02 07:00:00,2025-12-02 02:00:00,"VFR",-17,-19,85,0,2,24100,30.16,NA,"BKN  ft; OVC  ft","METAR CYZV 020700Z VRB02KT 15SM BKN034 OVC080 M17/M19 A3016 RMK SC7AC1 SLP221",2025-12-02 07:29:49.87251,2025-12-02 02:29:49.87251
"CYBC",2025-12-02 07:00:00,2025-12-02 02:00:00,"VFR",-13,-17,72,300,4,14500,30.24,NA,"CLR  ft","METAR CYBC 020700Z AUTO 30004KT 9SM CLR M13/M17 A3024 RMK SLP243",2025-12-02 07:29:49.943584,2025-12-02 02:29:49.943584
"CYRJ",2025-12-02 07:00:00,2025-12-02 02:00:00,"VFR",-11,-16,67,0,2,40200,30.1,NA,"SCT  ft; OVC  ft","METAR CYRJ 020700Z VRB02KT 25SM SCT060 OVC150 M11/M16 A3010 RMK SC3AC5 SLP211",2025-12-02 07:29:50.013791,2025-12-02 02:29:50.013791
"CYHZ",2025-12-02 07:00:00,2025-12-02 02:00:00,"VFR",-6,-8,86,360,5,24100,30.25,NA,"FEW  ft","METAR CYHZ 020700Z 36005KT 15SM FEW210 M06/M08 A3025 RMK CI1 SLP252",2025-12-02 07:29:50.083499,2025-12-02 02:29:50.083499
"CYYG",2025-12-02 07:00:00,2025-12-02 02:00:00,"MVFR",-6,-9,80,260,8,24100,30.27,NA,"BKN  ft","METAR CYYG 020700Z 26008KT 15SM BKN023 M06/M09 A3027 RMK SC6 SLP254",2025-12-02 07:29:50.153243,2025-12-02 02:29:50.153243
"CYQM",2025-12-02 07:00:00,2025-12-02 02:00:00,"VFR",-9,-13,73,260,8,24100,30.27,NA,"SKC  ft","METAR CYQM 020700Z 26008KT 15SM SKC M09/M13 A3027 RMK SLP257",2025-12-02 07:29:50.222088,2025-12-02 02:29:50.222088
"CYFC",2025-12-02 07:00:00,2025-12-02 02:00:00,"VFR",-11,-12,92,200,3,14500,30.31,NA,"CLR  ft","METAR CYFC 020700Z AUTO 20003KT 9SM CLR M11/M12 A3031 RMK SLP267",2025-12-02 07:29:50.294301,2025-12-02 02:29:50.294301
"CYYT",2025-12-02 07:00:00,2025-12-02 02:00:00,"MVFR",1,-3,75,300,23,24100,29.84,NA,"BKN  ft","METAR CYYT 020700Z 30023G30KT 15SM BKN026 01/M03 A2984 RMK SC6 SLP113",2025-12-02 07:29:50.321398,2025-12-02 02:29:50.321398
"CYQY",2025-12-02 07:00:00,2025-12-02 02:00:00,"VFR",-2,-8,64,330,12,24100,30.19,NA,"BKN  ft","METAR CYQY 020700Z 33012KT 15SM BKN031 M02/M08 A3019 RMK SC6 SLP228",2025-12-02 07:29:50.394049,2025-12-02 02:29:50.394049
"CYXY",2025-12-02 07:21:00,2025-12-02 02:21:00,"LIFR",-4,-4,100,0,0,600,29.86,NA,"BKN  ft","SPECI CYXY 020721Z 00000KT 3/8SM R32L/3500V5000FT/N FZFG BKN020 M04/M04 A2986 RMK FG2ST6 SLP155",2025-12-02 07:29:50.46314,2025-12-02 02:29:50.46314
"CYZF",2025-12-02 07:00:00,2025-12-02 02:00:00,"MVFR",-18,-20,84,30,9,24100,30.02,NA,"OVC  ft","METAR CYZF 020700Z 03009KT 15SM OVC012 M18/M20 A3002 RMK SC8 SLP193",2025-12-02 07:29:50.531408,2025-12-02 02:29:50.531408
"CYFB",2025-12-02 07:00:00,2025-12-02 02:00:00,"VFR",-11,-15,73,120,3,24100,29.38,NA,"BKN  ft","METAR CYFB 020700Z 12003KT 340V140 15SM -SN BKN060 M11/M15 A2938 RMK SC6 SLP956",2025-12-02 07:29:50.601467,2025-12-02 02:29:50.601467
"CYRT",2025-12-02 07:00:00,2025-12-02 02:00:00,"VFR",-29,-32,75,330,9,9999,29.62,NA,"SCT  ft","METAR CYRT 020700Z 33009KT 10SM IC SCT082 M29/M32 A2962 RMK AC3 SLP039",2025-12-02 07:29:50.670255,2025-12-02 02:29:50.670255
"CYBK",2025-12-02 07:00:00,2025-12-02 02:00:00,"VFR",-30,-34,68,310,18,24100,29.71,NA,"FEW  ft","METAR CYBK 020700Z 31018KT 15SM IC DRSN FEW056 M30/M34 A2971 RMK SC2 SLP065",2025-12-02 07:29:50.738799,2025-12-02 02:29:50.738799
"CYRB",2025-12-02 07:00:00,2025-12-02 02:00:00,"VFR",-21,-25,70,0,0,40200,29.91,NA,"SKC  ft","METAR CYRB 020700Z 00000KT 25SM IC SKC M21/M25 A2991 RMK SLP140",2025-12-02 07:29:50.82387,2025-12-02 02:29:50.82387
"CYCO",2025-12-02 07:00:00,2025-12-02 02:00:00,"VFR",-27,-30,76,270,12,24100,30.23,NA,"SKC  ft","METAR CYCO 020700Z 27012KT 15SM SKC M27/M30 A3023 RMK FROIN AURBO SLP242",2025-12-02 07:29:50.898635,2025-12-02 02:29:50.898635
"CYER",2025-12-02 08:00:00,2025-12-02 03:00:00,"VFR",-23,-25,84,250,8,14500,29.73,NA,"FEW  ft; BKN  ft","METAR CYER 020800Z AUTO 25008KT 9SM FEW140 BKN240 M23/M25 A2973 RMK SLP070",2025-12-02 08:40:12.018832,2025-12-02 03:40:12.018832
"CYAT",2025-12-02 08:00:00,2025-12-02 03:00:00,"VFR",-11,-13,85,200,4,14500,29.86,NA,"OVC  ft","METAR CYAT 020800Z AUTO 20004KT 9SM OVC036 M11/M13 A2986 RMK SLP114",2025-12-02 08:40:12.12798,2025-12-02 03:40:12.12798
"CYMO",2025-12-02 08:00:00,2025-12-02 03:00:00,"VFR",-16,-17,92,220,4,14500,29.92,NA,"CLR  ft","METAR CYMO 020800Z AUTO 22004KT 9SM CLR M16/M17 A2992 RMK SLP135",2025-12-02 08:40:12.264931,2025-12-02 03:40:12.264931
"CYPL",2025-12-02 08:00:00,2025-12-02 03:00:00,"MVFR",-12,-14,85,250,6,14500,29.71,NA,"OVC  ft","METAR CYPL 020800Z AUTO 25006KT 9SM -SN OVC016 M12/M14 A2971 RMK SLP095",2025-12-02 08:40:12.366076,2025-12-02 03:40:12.366076
"CYQT",2025-12-02 08:00:00,2025-12-02 03:00:00,"MVFR",-11,-14,79,270,3,24100,29.88,NA,"OVC  ft","METAR CYQT 020800Z 27003KT 250V320 15SM -SN OVC025 M11/M14 A2988 RMK SC8 SLP137",2025-12-02 08:40:12.47596,2025-12-02 03:40:12.47596
"CYAM",2025-12-02 08:00:00,2025-12-02 03:00:00,"MVFR",-6,-8,86,220,6,4800,29.93,NA,"FEW  ft; SCT  ft; BKN  ft","METAR CYAM 020800Z 22006KT 3SM -SN FEW010 SCT032 BKN047 M06/M08 A2993 RMK CF1SC4SC3 CF TR VIS VRB 2-4 SLP149",2025-12-02 08:40:12.625853,2025-12-02 03:40:12.625853
"CYTS",2025-12-02 08:00:00,2025-12-02 03:00:00,"VFR",-8,-10,86,220,3,9700,29.89,NA,"OVC  ft","METAR CYTS 020800Z 22003KT 190V250 6SM -SN OVC050 M08/M10 A2989 RMK SC8 SLP145",2025-12-02 08:40:12.728409,2025-12-02 03:40:12.728409
"CYSB",2025-12-02 08:00:00,2025-12-02 03:00:00,"IFR",-7,-8,93,140,4,11300,29.91,NA,"BKN  ft; OVC  ft","METAR CYSB 020800Z 14004KT 7SM -SN BKN006 OVC013 M07/M08 A2991 RMK SF7SC1 SLP155",2025-12-02 08:40:12.828115,2025-12-02 03:40:12.828115
"CYYB",2025-12-02 08:30:00,2025-12-02 03:30:00,"IFR",-6,-7,93,170,8,3200,29.93,NA,"OVC  ft","SPECI CYYB 020830Z AUTO 17008KT 2SM -SN OVC010 M06/M07 A2993 RMK RVR MISG SLP161",2025-12-02 08:40:12.923054,2025-12-02 03:40:12.923054
"CYOW",2025-12-02 08:00:00,2025-12-02 03:00:00,"VFR",-9,-13,73,100,7,24100,30.13,NA,"OVC  ft","METAR CYOW 020800Z 10007KT 15SM OVC084 M09/M13 A3013 RMK AS8 SLP213",2025-12-02 08:40:13.059466,2025-12-02 03:40:13.059466
"CYGK",2025-12-02 04:00:00,2025-12-01 23:00:00,"VFR",-6,-11,68,50,5,24100,30.24,NA,"BKN  ft","METAR CYGK 020400Z 05005KT 15SM BKN140 M06/M11 A3024 RMK AC7 LAST STFD OBS/ NXT 021100Z SLP248",2025-12-02 08:40:13.158489,2025-12-02 03:40:13.158489
"CYQG",2025-12-02 08:12:00,2025-12-02 03:12:00,"MVFR",-2,-3,93,60,3,4800,29.97,NA,"FEW  ft; OVC  ft","SPECI CYQG 020812Z AUTO 06003KT 3SM -SN FEW006 OVC036 M02/M03 A2997 RMK SLP161",2025-12-02 08:40:13.254654,2025-12-02 03:40:13.254654
"CYVV",2025-12-02 08:00:00,2025-12-02 03:00:00,"MVFR",-5,-6,93,170,10,4800,29.98,NA,"BKN  ft","METAR CYVV 020800Z 17010KT 3SM -SN DRSN BKN036 M05/M06 A2998 RMK SC6 SLP167",2025-12-02 08:40:13.393465,2025-12-02 03:40:13.393465
"CYYZ",2025-12-02 08:00:00,2025-12-02 03:00:00,"MVFR",-2,-5,80,130,8,6400,30.01,NA,"SCT  ft; OVC  ft","METAR CYYZ 020800Z 13008KT 4SM -SN SCT014 OVC026 M02/M05 A3001 RMK SC3SC5 SLP172",2025-12-02 08:40:13.500234,2025-12-02 03:40:13.500234
"CYQA",2025-12-02 08:36:00,2025-12-02 03:36:00,"IFR",-7,-8,93,140,6,4000,29.99,NA,"OVC  ft","SPECI CYQA 020836Z AUTO 14006KT 2 1/2SM -SN -UP OVC028 M07/M08 A2999 RMK SLP175",2025-12-02 08:40:13.59669,2025-12-02 03:40:13.59669
"CYVR",2025-12-02 08:00:00,2025-12-02 03:00:00,"IFR",5,4,93,60,6,12900,30.16,NA,"OVC  ft","METAR CYVR 020800Z 06006KT 8SM -DZ OVC008 05/04 A3016 RMK ST8 SLP215",2025-12-02 08:40:13.737921,2025-12-02 03:40:13.737921
"CYYJ",2025-12-02 08:00:00,2025-12-02 03:00:00,"MVFR",6,6,100,160,8,24100,30.15,NA,"FEW  ft; BKN  ft; OVC  ft","METAR CYYJ 020800Z 16008KT 15SM FEW007 BKN010 OVC025 06/06 A3015 RMK SF1SC5SC2 SLP211",2025-12-02 08:40:13.831634,2025-12-02 03:40:13.831634
"CYLW",2025-12-02 08:33:00,2025-12-02 03:33:00,"MVFR",1,0,93,170,4,14500,30.04,NA,"OVC  ft","SPECI CYLW 020833Z AUTO 17004KT 9SM -RA OVC018 01/M00 A3004 RMK SLP193",2025-12-02 08:40:13.96593,2025-12-02 03:40:13.96593
"CYXS",2025-12-02 08:00:00,2025-12-02 03:00:00,"VFR",-2,-2,100,140,7,14500,29.9,NA,"SCT  ft; SCT  ft; SCT  ft; BKN  ft","METAR CYXS 020800Z AUTO 14007KT 9SM SCT050 SCT120 SCT190 BKN250 M02/M02 A2990 RMK SLP160",2025-12-02 08:40:14.065461,2025-12-02 03:40:14.065461
"CYXT",2025-12-02 08:00:00,2025-12-02 03:00:00,"LIFR",1,1,100,0,2,1200,30.13,NA,"OVC  ft","METAR CYXT 020800Z VRB02KT 3/4SM -DZ BR OVC003 01/01 A3013 RMK ST8 SLP214",2025-12-02 08:40:14.203076,2025-12-02 03:40:14.203076
"CYQQ",2025-12-02 08:00:00,2025-12-02 03:00:00,"IFR",5,5,100,330,4,9700,30.18,NA,"OVC  ft","METAR CYQQ 020800Z 33004KT 6SM -DZ BR OVC005 05/05 A3018 RMK ST8 DENSITY ALT -1263FT CIG VRB 3-7 SLP222",2025-12-02 08:40:14.298246,2025-12-02 03:40:14.298246
"CYYC",2025-12-02 08:00:00,2025-12-02 03:00:00,"VFR",5,-6,45,290,16,24100,29.64,NA,"BKN  ft","METAR CYYC 020800Z 29016G22KT 15SM BKN087 05/M06 A2964 RMK AC6 SLP072",2025-12-02 08:40:14.431861,2025-12-02 03:40:14.431861
"CYEG",2025-12-02 08:26:00,2025-12-02 03:26:00,"VFR",2,-1,81,280,10,32200,29.6,NA,"BKN  ft; BKN  ft; OVC  ft","SPECI CYEG 020826Z 28010KT 20SM -SHRA BKN047 BKN069 OVC120 02/M01 A2960 RMK SC6AC1AC1 CVCTV CLD EMBD SLP054",2025-12-02 08:40:14.56583,2025-12-02 03:40:14.56583
"CYMM",2025-12-02 08:00:00,2025-12-02 03:00:00,"MVFR",-10,-11,92,330,7,14500,29.72,NA,"OVC  ft","METAR CYMM 020800Z AUTO 33007KT 9SM -SN OVC012 M10/M11 A2972 RMK SLP094",2025-12-02 08:40:14.702435,2025-12-02 03:40:14.702435
"CYQF",2025-12-02 08:00:00,2025-12-02 03:00:00,"VFR",2,-3,70,270,7,14500,29.63,NA,"OVC  ft","METAR CYQF 020800Z AUTO 27007KT 9SM OVC071 02/M03 A2963 RMK SLP072",2025-12-02 08:40:14.836038,2025-12-02 03:40:14.836038
"CYXE",2025-12-02 08:00:00,2025-12-02 03:00:00,"IFR",-5,-6,93,300,3,4800,29.49,NA,"BKN  ft; OVC  ft","METAR CYXE 020800Z 30003KT 3SM -SN BKN008 OVC030 M05/M06 A2949 RMK SC6SC2 SLP025",2025-12-02 08:40:14.972022,2025-12-02 03:40:14.972022
"CYQR",2025-12-02 08:12:00,2025-12-02 03:12:00,"MVFR",-5,-6,93,170,5,12900,29.49,NA,"OVC  ft","SPECI CYQR 020812Z 17005KT 8SM -SHSN OVC013 M05/M06 A2949 RMK SC8 CVCTV CLD EMBD SLP026",2025-12-02 08:40:15.06712,2025-12-02 03:40:15.06712
"CYWG",2025-12-02 08:00:00,2025-12-02 03:00:00,"VFR",-14,-16,85,180,7,24100,29.73,NA,"OVC  ft","METAR CYWG 020800Z 18007KT 15SM OVC110 M14/M16 A2973 RMK AC8 SLP090",2025-12-02 08:40:15.159902,2025-12-02 03:40:15.159902
"CYBR",2025-12-02 08:04:00,2025-12-02 03:04:00,"VFR",-13,-15,85,230,8,14500,29.64,NA,"BKN  ft; OVC  ft","SPECI CYBR 020804Z AUTO 23008KT 9SM -SN BKN055 OVC068 M13/M15 A2964 RMK SLP074",2025-12-02 08:40:15.296174,2025-12-02 03:40:15.296174
"CYUL",2025-12-02 08:00:00,2025-12-02 03:00:00,"VFR",-8,-12,73,130,5,24100,30.21,NA,"FEW  ft; BKN  ft","METAR CYUL 020800Z 13005KT 15SM FEW030 BKN100 M08/M12 A3021 RMK SC1AC7 SC TR SLP234",2025-12-02 08:40:15.402302,2025-12-02 03:40:15.402302
"CYHU",2025-12-02 08:00:00,2025-12-02 03:00:00,"VFR",-8,-11,79,150,5,14500,30.22,NA,"BKN  ft; OVC  ft","METAR CYHU 020800Z AUTO 15005KT 9SM BKN120 OVC140 M08/M11 A3022 RMK SLP236",2025-12-02 08:40:15.496117,2025-12-02 03:40:15.496117
"CYQB",2025-12-02 08:00:00,2025-12-02 03:00:00,"MVFR",-12,-14,85,30,2,24100,30.23,NA,"OVC  ft","METAR CYQB 020800Z 03002KT 15SM OVC028 M12/M14 A3023 RMK SC8 SLP243",2025-12-02 08:40:15.588975,2025-12-02 03:40:15.588975
"CYVO",2025-12-02 08:00:00,2025-12-02 03:00:00,"MVFR",-9,-11,86,180,10,6400,29.93,NA,"SCT  ft; BKN  ft; BKN  ft; OVC  ft","METAR CYVO 020800Z AUTO 18010G15KT 4SM -SN SCT032 BKN048 BKN071 OVC094 M09/M11 A2993 RMK SLP166",2025-12-02 08:40:15.736402,2025-12-02 03:40:15.736402
"CYUY",2025-12-02 08:00:00,2025-12-02 03:00:00,"MVFR",-7,-8,93,200,7,NA,29.91,NA,"OVX  ft","METAR CYUY 020800Z 20007KT 3SM -SN VV030 M07/M08 A2991 RMK SN8 /S03/ SLP152",2025-12-02 08:40:15.836315,2025-12-02 03:40:15.836315
"CYZV",2025-12-02 08:00:00,2025-12-02 03:00:00,"MVFR",-13,-17,72,310,5,24100,30.15,NA,"FEW  ft; OVC  ft","METAR CYZV 020800Z 31005KT 15SM FEW015 OVC030 M13/M17 A3015 RMK SC1SC8 SC TR SLP217",2025-12-02 08:40:15.972228,2025-12-02 03:40:15.972228
"CYBC",2025-12-02 08:00:00,2025-12-02 03:00:00,"VFR",-14,-17,78,330,4,14500,30.21,NA,"SCT  ft; BKN  ft; OVC  ft","METAR CYBC 020800Z AUTO 33004KT 9SM SCT130 BKN150 OVC180 M14/M17 A3021 RMK SLP234",2025-12-02 08:40:16.069282,2025-12-02 03:40:16.069282
"CYRJ",2025-12-02 08:00:00,2025-12-02 03:00:00,"VFR",-11,-16,67,0,2,32200,30.09,NA,"OVC  ft","METAR CYRJ 020800Z VRB02KT 20SM OVC060 M11/M16 A3009 RMK SC8 SLP206",2025-12-02 08:40:16.16778,2025-12-02 03:40:16.16778
"CYHZ",2025-12-02 08:00:00,2025-12-02 03:00:00,"VFR",-7,-9,86,350,6,24100,30.24,NA,"FEW  ft","METAR CYHZ 020800Z 35006KT 15SM FEW240 M07/M09 A3024 RMK CI1 CI TR SLP249",2025-12-02 08:40:16.979201,2025-12-02 03:40:16.979201
"CYYG",2025-12-02 08:00:00,2025-12-02 03:00:00,"MVFR",-7,-10,79,250,5,24100,30.25,NA,"BKN  ft","METAR CYYG 020800Z 25005KT 15SM BKN024 M07/M10 A3025 RMK SC5 SLP248",2025-12-02 08:40:17.081088,2025-12-02 03:40:17.081088
"CYQM",2025-12-02 08:00:00,2025-12-02 03:00:00,"VFR",-9,-13,73,270,7,24100,30.26,NA,"FEW  ft","METAR CYQM 020800Z 27007KT 15SM FEW260 M09/M13 A3026 RMK CI2 SLP255",2025-12-02 08:40:17.178131,2025-12-02 03:40:17.178131
"CYFC",2025-12-02 08:00:00,2025-12-02 03:00:00,"VFR",-11,-12,92,260,2,14500,30.29,NA,"SCT  ft; BKN  ft; BKN  ft","METAR CYFC 020800Z AUTO 26002KT 9SM SCT210 BKN230 BKN250 M11/M12 A3029 RMK SLP261",2025-12-02 08:40:17.278276,2025-12-02 03:40:17.278276
"CYYT",2025-12-02 08:00:00,2025-12-02 03:00:00,"VFR",0,-4,75,300,21,24100,29.87,NA,"SCT  ft","METAR CYYT 020800Z 30021G36KT 15SM SCT031 00/M04 A2987 RMK SC3 SLP123",2025-12-02 08:40:17.416488,2025-12-02 03:40:17.416488
"CYQY",2025-12-02 08:00:00,2025-12-02 03:00:00,"VFR",-3,-8,69,300,6,24100,30.21,NA,"SCT  ft","METAR CYQY 020800Z 30006KT 15SM SCT029 M03/M08 A3021 RMK SC3 SLP235",2025-12-02 08:40:17.55863,2025-12-02 03:40:17.55863
"CYXY",2025-12-02 08:00:00,2025-12-02 03:00:00,"LIFR",-3,-3,100,290,2,400,29.88,NA,"OVC  ft","METAR CYXY 020800Z 29002KT 1/4SM R32L/3500FT/N FZFG OVC020 M03/M03 A2988 RMK FG2ST6 FROIN SLP161",2025-12-02 08:40:17.656144,2025-12-02 03:40:17.656144
"CYZF",2025-12-02 08:00:00,2025-12-02 03:00:00,"MVFR",-19,-20,92,20,7,24100,30.05,NA,"OVC  ft","METAR CYZF 020800Z 02007KT 15SM -SN OVC012 M19/M20 A3005 RMK SC8 SLP202",2025-12-02 08:40:17.754391,2025-12-02 03:40:17.754391
"CYFB",2025-12-02 08:00:00,2025-12-02 03:00:00,"VFR",-10,-15,67,80,4,24100,29.39,NA,"BKN  ft","METAR CYFB 020800Z 08004KT 15SM -SN BKN055 M10/M15 A2939 RMK SC6 SLP957",2025-12-02 08:40:17.851772,2025-12-02 03:40:17.851772
"CYRT",2025-12-02 08:00:00,2025-12-02 03:00:00,"VFR",-30,-33,75,330,12,9999,29.62,NA,"SCT  ft; SCT  ft","METAR CYRT 020800Z 33012KT 10SM IC SCT084 SCT140 M30/M33 A2962 RMK AC3AC1 SLP038",2025-12-02 08:40:17.94944,2025-12-02 03:40:17.94944
"CYBK",2025-12-02 08:00:00,2025-12-02 03:00:00,"VFR",-31,-34,75,300,21,24100,29.71,NA,"SCT  ft","METAR CYBK 020800Z 30021KT 15SM IC DRSN SCT056 M31/M34 A2971 RMK SC3 SLP066",2025-12-02 08:40:18.048469,2025-12-02 03:40:18.048469
"CYRB",2025-12-02 08:00:00,2025-12-02 03:00:00,"VFR",-23,-26,77,360,3,40200,29.91,NA,"SKC  ft","METAR CYRB 020800Z 36003KT 25SM IC SKC M23/M26 A2991 RMK SLP143",2025-12-02 08:40:18.154743,2025-12-02 03:40:18.154743
"CYCO",2025-12-02 08:00:00,2025-12-02 03:00:00,"VFR",-30,-33,75,220,10,24100,30.25,NA,"SKC  ft","METAR CYCO 020800Z 22010KT 15SM SKC M30/M33 A3025 RMK AURBO SLP249",2025-12-02 08:40:18.250003,2025-12-02 03:40:18.250003
"CYER",2025-12-02 09:00:00,2025-12-02 04:00:00,"VFR",-23,-25,84,240,9,14500,29.71,NA,"BKN  ft; BKN  ft","METAR CYER 020900Z AUTO 24009KT 9SM BKN100 BKN240 M23/M25 A2971 RMK SLP064",2025-12-02 09:35:02.857929,2025-12-02 04:35:02.857929
"CYAT",2025-12-02 09:00:00,2025-12-02 04:00:00,"VFR",-11,-13,85,210,4,14500,29.84,NA,"OVC  ft","METAR CYAT 020900Z AUTO 21004KT 9SM OVC038 M11/M13 A2984 RMK SLP109",2025-12-02 09:35:03.384862,2025-12-02 04:35:03.384862
"CYMO",2025-12-02 09:00:00,2025-12-02 04:00:00,"VFR",-14,-16,85,220,5,14500,29.91,NA,"CLR  ft","METAR CYMO 020900Z AUTO 22005KT 9SM CLR M14/M16 A2991 RMK SLP131",2025-12-02 09:35:03.602191,2025-12-02 04:35:03.602191
"CYPL",2025-12-02 09:00:00,2025-12-02 04:00:00,"MVFR",-12,-14,85,260,6,14500,29.69,NA,"OVC  ft","METAR CYPL 020900Z AUTO 26006KT 9SM -SN OVC016 M12/M14 A2969 RMK SLP088",2025-12-02 09:35:03.748817,2025-12-02 04:35:03.748817
"CYQT",2025-12-02 09:00:00,2025-12-02 04:00:00,"MVFR",-11,-14,79,310,4,24100,29.86,NA,"BKN  ft","METAR CYQT 020900Z 31004KT 15SM -SN BKN029 M11/M14 A2986 RMK SC7 -SN INTMT SLP130",2025-12-02 09:35:03.848648,2025-12-02 04:35:03.848648
"CYAM",2025-12-02 09:00:00,2025-12-02 04:00:00,"VFR",-6,-8,86,220,4,9999,29.91,NA,"FEW  ft; FEW  ft; BKN  ft; OVC  ft","METAR CYAM 020900Z 22004KT 10SM -SN FEW010 FEW042 BKN065 OVC074 M06/M08 A2991 RMK CF1SC2SC3AC3 CF TR SLP142",2025-12-02 09:35:03.98607,2025-12-02 04:35:03.98607
"CYTS",2025-12-02 09:00:00,2025-12-02 04:00:00,"VFR",-8,-10,86,200,3,14500,29.86,NA,"OVC  ft","METAR CYTS 020900Z 20003KT 9SM -SN OVC050 M08/M10 A2986 RMK SC8 SLP136",2025-12-02 09:35:04.081937,2025-12-02 04:35:04.081937
"CYSB",2025-12-02 09:27:00,2025-12-02 04:27:00,"LIFR",-7,-8,93,140,3,9999,29.89,NA,"BKN  ft; OVC  ft","SPECI CYSB 020927Z 14003KT 10SM -SN BKN004 OVC010 M07/M08 A2989 RMK SF7SC1 SLP148",2025-12-02 09:35:04.218022,2025-12-02 04:35:04.218022
"CYYB",2025-12-02 09:20:00,2025-12-02 04:20:00,"IFR",-6,-7,93,160,7,2800,29.92,NA,"OVC  ft","SPECI CYYB 020920Z AUTO 16007KT 1 3/4SM -SN OVC010 M06/M07 A2992 RMK RVR MISG SLP156",2025-12-02 09:35:04.353858,2025-12-02 04:35:04.353858
"CYOW",2025-12-02 09:00:00,2025-12-02 04:00:00,"VFR",-9,-12,79,80,4,24100,30.1,NA,"SCT  ft; BKN  ft","METAR CYOW 020900Z 08004KT 15SM SCT022 BKN070 M09/M12 A3010 RMK SC4AS3 SLP205",2025-12-02 09:35:04.492002,2025-12-02 04:35:04.492002
"CYGK",2025-12-02 04:00:00,2025-12-01 23:00:00,"VFR",-6,-11,68,50,5,24100,30.24,NA,"BKN  ft","METAR CYGK 020400Z 05005KT 15SM BKN140 M06/M11 A3024 RMK AC7 LAST STFD OBS/ NXT 021100Z SLP248",2025-12-02 09:35:04.593414,2025-12-02 04:35:04.593414
"CYQG",2025-12-02 09:26:00,2025-12-02 04:26:00,"IFR",-2,-3,93,350,6,4000,29.94,NA,"BKN  ft; BKN  ft; OVC  ft","SPECI CYQG 020926Z AUTO 35006KT 2 1/2SM -SN BKN006 BKN011 OVC021 M02/M03 A2994 RMK SLP149",2025-12-02 09:35:04.689082,2025-12-02 04:35:04.689082
"CYVV",2025-12-02 09:00:00,2025-12-02 04:00:00,"MVFR",-5,-6,93,170,10,6400,29.96,NA,"BKN  ft; OVC  ft","METAR CYVV 020900Z 17010KT 4SM -SN DRSN BKN031 OVC100 M05/M06 A2996 RMK SC5AS3 SLP159",2025-12-02 09:35:04.825062,2025-12-02 04:35:04.825062
"CYYZ",2025-12-02 09:29:00,2025-12-02 04:29:00,"IFR",-2,-4,86,120,3,4000,29.99,NA,"SCT  ft; OVC  ft","SPECI CYYZ 020929Z 12003KT 2 1/2SM -SN SCT009 OVC018 M02/M04 A2999 RMK SC3SC5 SLP165",2025-12-02 09:35:04.919821,2025-12-02 04:35:04.919821
"CYQA",2025-12-02 09:13:00,2025-12-02 04:13:00,"MVFR",-7,-8,93,130,5,4800,29.97,NA,"OVC  ft","SPECI CYQA 020913Z AUTO 13005KT 3SM -SN OVC032 M07/M08 A2997 RMK SLP170",2025-12-02 09:35:05.01484,2025-12-02 04:35:05.01484
"CYVR",2025-12-02 09:00:00,2025-12-02 04:00:00,"MVFR",5,5,100,40,4,6400,30.16,NA,"SCT  ft; OVC  ft","METAR CYVR 020900Z 04004KT 4SM -RADZ BR SCT008 OVC011 05/05 A3016 RMK ST3SC5 SLP216",2025-12-02 09:35:05.150743,2025-12-02 04:35:05.150743
"CYYJ",2025-12-02 09:00:00,2025-12-02 04:00:00,"MVFR",6,6,100,160,3,24100,30.15,NA,"SCT  ft; BKN  ft; OVC  ft","METAR CYYJ 020900Z 16003KT 15SM SCT006 BKN011 OVC025 06/06 A3015 RMK SF3SC4SC1 SLP211",2025-12-02 09:35:05.289037,2025-12-02 04:35:05.289037
"CYLW",2025-12-02 09:11:00,2025-12-02 04:11:00,"IFR",1,0,93,150,5,2800,30.05,NA,"OVC  ft","SPECI CYLW 020911Z AUTO 15005KT 1 3/4SM -SN OVC016 01/M00 A3005 RMK VIS VRB 1-3 SLP196",2025-12-02 09:35:05.431222,2025-12-02 04:35:05.431222
"CYXS",2025-12-02 09:00:00,2025-12-02 04:00:00,"VFR",-3,-3,100,160,9,14500,29.91,NA,"FEW  ft; SCT  ft","METAR CYXS 020900Z AUTO 16009KT 9SM FEW066 SCT230 M03/M03 A2991 RMK SLP166",2025-12-02 09:35:05.533859,2025-12-02 04:35:05.533859
"CYXT",2025-12-02 09:00:00,2025-12-02 04:00:00,"LIFR",1,1,100,320,2,1200,30.15,NA,"OVC  ft","METAR CYXT 020900Z 32002KT 3/4SM -DZ BR OVC003 01/01 A3015 RMK ST8 SLP221",2025-12-02 09:35:05.640406,2025-12-02 04:35:05.640406
"CYQQ",2025-12-02 09:00:00,2025-12-02 04:00:00,"IFR",5,5,100,300,3,6400,30.18,NA,"BKN  ft; OVC  ft","METAR CYQQ 020900Z 30003KT 4SM -DZ BR BKN005 OVC008 05/05 A3018 RMK ST7ST1 DENSITY ALT -1262FT CIG VRB 3-7 SLP222",2025-12-02 09:35:05.787957,2025-12-02 04:35:05.787957
"CYYC",2025-12-02 09:00:00,2025-12-02 04:00:00,"VFR",4,-6,48,280,16,24100,29.65,NA,"BKN  ft","METAR CYYC 020900Z 28016G22KT 15SM BKN088 04/M06 A2965 RMK AC7 VIRGA N SLP075",2025-12-02 09:35:05.88732,2025-12-02 04:35:05.88732
"CYEG",2025-12-02 09:19:00,2025-12-02 04:19:00,"VFR",2,-1,81,290,7,32200,29.62,NA,"FEW  ft; OVC  ft","SPECI CYEG 020919Z 29007KT 20SM -SHRA FEW052 OVC068 02/M01 A2962 RMK SC1AC7 CVCTV CLD EMBD SLP058",2025-12-02 09:35:05.991882,2025-12-02 04:35:05.991882
"CYMM",2025-12-02 09:00:00,2025-12-02 04:00:00,"MVFR",-10,-12,85,330,7,14500,29.75,NA,"OVC  ft","METAR CYMM 020900Z AUTO 33007KT 9SM -SN OVC012 M10/M12 A2975 RMK SLP107",2025-12-02 09:35:06.09919,2025-12-02 04:35:06.09919
"CYQF",2025-12-02 09:00:00,2025-12-02 04:00:00,"VFR",0,-3,80,270,7,14500,29.65,NA,"SCT  ft; BKN  ft; BKN  ft","METAR CYQF 020900Z AUTO 27007KT 9SM SCT050 BKN076 BKN220 00/M03 A2965 RMK SLP081",2025-12-02 09:35:06.236354,2025-12-02 04:35:06.236354
"CYXE",2025-12-02 09:01:00,2025-12-02 04:01:00,"IFR",-5,-5,100,340,8,4800,29.5,NA,"BKN  ft; OVC  ft","SPECI CYXE 020901Z 34008KT 3SM -SN BKN008 OVC017 M05/M05 A2950 RMK SC6SC2 SLP028",2025-12-02 09:35:06.377224,2025-12-02 04:35:06.377224
"CYQR",2025-12-02 09:00:00,2025-12-02 04:00:00,"MVFR",-4,-5,93,220,4,24100,29.47,NA,"OVC  ft","METAR CYQR 020900Z 22004KT 15SM OVC013 M04/M05 A2947 RMK SC8 SLP021",2025-12-02 09:35:06.478139,2025-12-02 04:35:06.478139
"CYWG",2025-12-02 09:00:00,2025-12-02 04:00:00,"VFR",-13,-15,85,180,8,24100,29.7,NA,"OVC  ft","METAR CYWG 020900Z 18008KT 15SM OVC110 M13/M15 A2970 RMK AC8 SLP079",2025-12-02 09:35:06.61757,2025-12-02 04:35:06.61757
"CYBR",2025-12-02 09:24:00,2025-12-02 04:24:00,"MVFR",-12,-14,85,240,7,8000,29.59,NA,"BKN  ft; BKN  ft; OVC  ft","SPECI CYBR 020924Z AUTO 24007KT 5SM -SN BKN045 BKN071 OVC094 M12/M14 A2959 RMK SLP058",2025-12-02 09:35:06.716651,2025-12-02 04:35:06.716651
"CYUL",2025-12-02 09:00:00,2025-12-02 04:00:00,"VFR",-8,-12,73,130,5,24100,30.17,NA,"BKN  ft","METAR CYUL 020900Z 13005KT 15SM BKN110 M08/M12 A3017 RMK AC7 SLP221",2025-12-02 09:35:06.856458,2025-12-02 04:35:06.856458
"CYHU",2025-12-02 09:00:00,2025-12-02 04:00:00,"VFR",-8,-11,79,110,4,14500,30.17,NA,"SCT  ft; BKN  ft; OVC  ft","METAR CYHU 020900Z AUTO 11004KT 9SM SCT091 BKN110 OVC130 M08/M11 A3017 RMK SLP221",2025-12-02 09:35:06.992929,2025-12-02 04:35:06.992929
"CYQB",2025-12-02 09:00:00,2025-12-02 04:00:00,"MVFR",-11,-14,79,10,4,24100,30.21,NA,"FEW  ft; BKN  ft; OVC  ft","METAR CYQB 020900Z 01004KT 15SM FEW010 BKN026 OVC110 M11/M14 A3021 RMK SF1SC7AC1 SF TR SLP238",2025-12-02 09:35:07.132583,2025-12-02 04:35:07.132583
"CYVO",2025-12-02 09:31:00,2025-12-02 04:31:00,"MVFR",-9,-11,86,180,9,9700,29.9,NA,"BKN  ft; OVC  ft","SPECI CYVO 020931Z AUTO 18009KT 6SM -SN BKN024 OVC081 M09/M11 A2990 RMK SLP156",2025-12-02 09:35:07.237912,2025-12-02 04:35:07.237912
"CYUY",2025-12-02 09:00:00,2025-12-02 04:00:00,"IFR",-7,-8,93,200,4,NA,29.89,NA,"OVX  ft","METAR CYUY 020900Z 20004KT 2 1/2SM -SHSN VV027 M07/M08 A2989 RMK SN8 CVCTV CLD EMBD SLP147",2025-12-02 09:35:07.336193,2025-12-02 04:35:07.336193
"CYZV",2025-12-02 09:00:00,2025-12-02 04:00:00,"VFR",-13,-18,66,290,7,24100,30.15,NA,"FEW  ft; BKN  ft; OVC  ft","METAR CYZV 020900Z 29007KT 15SM FEW013 BKN032 OVC150 M13/M18 A3015 RMK CU1SC6AC2 CU TR SLP217",2025-12-02 09:35:07.437233,2025-12-02 04:35:07.437233
"CYBC",2025-12-02 09:00:00,2025-12-02 04:00:00,"VFR",-13,-17,72,320,3,14500,30.21,NA,"BKN  ft; BKN  ft","METAR CYBC 020900Z AUTO 32003KT 290V360 9SM BKN120 BKN140 M13/M17 A3021 RMK SLP235",2025-12-02 09:35:07.58532,2025-12-02 04:35:07.58532
"CYRJ",2025-12-02 09:00:00,2025-12-02 04:00:00,"VFR",-11,-16,67,200,5,40200,30.07,NA,"OVC  ft","METAR CYRJ 020900Z 20005KT 25SM OVC054 M11/M16 A3007 RMK SC8 SLP200",2025-12-02 09:35:07.68742,2025-12-02 04:35:07.68742
"CYHZ",2025-12-02 09:00:00,2025-12-02 04:00:00,"VFR",-7,-9,86,50,3,24100,30.25,NA,"SKC  ft","METAR CYHZ 020900Z 05003KT 15SM SKC M07/M09 A3025 RMK SLP255",2025-12-02 09:35:07.785794,2025-12-02 04:35:07.785794
"CYYG",2025-12-02 09:00:00,2025-12-02 04:00:00,"VFR",-7,-10,79,270,6,24100,30.25,NA,"SCT  ft","METAR CYYG 020900Z 27006KT 15SM SCT024 M07/M10 A3025 RMK SC3 SLP248",2025-12-02 09:35:07.923141,2025-12-02 04:35:07.923141
"CYQM",2025-12-02 09:00:00,2025-12-02 04:00:00,"VFR",-10,-13,79,270,4,24100,30.24,NA,"SCT  ft","METAR CYQM 020900Z 27004KT 15SM SCT210 M10/M13 A3024 RMK CI3 SLP248",2025-12-02 09:35:08.022947,2025-12-02 04:35:08.022947
"CYFC",2025-12-02 09:00:00,2025-12-02 04:00:00,"VFR",-9,-11,86,280,3,14500,30.28,NA,"BKN  ft; BKN  ft","METAR CYFC 020900Z AUTO 28003KT 9SM BKN170 BKN190 M09/M11 A3028 RMK SLP259",2025-12-02 09:35:08.161135,2025-12-02 04:35:08.161135
"CYYT",2025-12-02 09:00:00,2025-12-02 04:00:00,"VFR",-1,-5,75,300,22,24100,29.93,NA,"SCT  ft","METAR CYYT 020900Z 30022G32KT 15SM SCT029 M01/M05 A2993 RMK SC3 SLP142",2025-12-02 09:35:08.299849,2025-12-02 04:35:08.299849
"CYQY",2025-12-02 09:00:00,2025-12-02 04:00:00,"VFR",-3,-8,69,290,7,24100,30.21,NA,"FEW  ft; SCT  ft","METAR CYQY 020900Z 29007KT 15SM FEW039 SCT240 M03/M08 A3021 RMK SC2CI1 SLP235",2025-12-02 09:35:08.399322,2025-12-02 04:35:08.399322
"CYXY",2025-12-02 09:00:00,2025-12-02 04:00:00,"LIFR",-3,-3,100,0,2,400,29.9,NA,"BKN  ft; OVC  ft","METAR CYXY 020900Z VRB02KT 1/4SM R32L/2800V3500FT/U FZFG BKN010 OVC048 M03/M03 A2990 RMK FG3ST3SC2 SLP167",2025-12-02 09:35:08.497348,2025-12-02 04:35:08.497348
"CYZF",2025-12-02 09:00:00,2025-12-02 04:00:00,"MVFR",-20,-22,84,40,6,24100,30.08,NA,"OVC  ft","METAR CYZF 020900Z 04006KT 15SM -SN OVC011 M20/M22 A3008 RMK ST8 SLP214",2025-12-02 09:35:08.59968,2025-12-02 04:35:08.59968
"CYFB",2025-12-02 09:00:00,2025-12-02 04:00:00,"LIFR",-11,-15,73,0,2,24100,29.38,NA,"BKN  ft","METAR CYFB 020900Z VRB02KT 15SM BKN003 M11/M15 A2938 RMK SC6 SLP955",2025-12-02 09:35:08.698355,2025-12-02 04:35:08.698355
"CYRT",2025-12-02 09:00:00,2025-12-02 04:00:00,"VFR",-30,-33,75,330,15,9999,29.62,NA,"FEW  ft; SCT  ft","METAR CYRT 020900Z 33015KT 10SM IC FEW085 SCT150 M30/M33 A2962 RMK AC1AC3 SLP037",2025-12-02 09:35:08.835915,2025-12-02 04:35:08.835915
"CYBK",2025-12-02 09:00:00,2025-12-02 04:00:00,"VFR",-31,-35,68,300,20,24100,29.72,NA,"SCT  ft","METAR CYBK 020900Z 30020KT 15SM SCT056 M31/M35 A2972 RMK SC3 SLP068",2025-12-02 09:35:08.978684,2025-12-02 04:35:08.978684
"CYRB",2025-12-02 09:00:00,2025-12-02 04:00:00,"VFR",-23,-26,77,140,5,40200,29.93,NA,"SKC  ft","METAR CYRB 020900Z 14005KT 25SM SKC M23/M26 A2993 RMK SLP150",2025-12-02 09:35:09.0961,2025-12-02 04:35:09.0961
"CYCO",2025-12-02 09:00:00,2025-12-02 04:00:00,"VFR",-30,-33,75,230,14,24100,30.26,NA,"SKC  ft","METAR CYCO 020900Z 23014KT 15SM SKC M30/M33 A3026 RMK FROIN AURBO SLP253",2025-12-02 09:35:09.198684,2025-12-02 04:35:09.198684
"CYER",2025-12-02 10:00:00,2025-12-02 05:00:00,"VFR",-22,-24,84,250,9,14500,29.68,NA,"OVC  ft","METAR CYER 021000Z AUTO 25009G15KT 9SM OVC038 M22/M24 A2968 RMK SLP056",2025-12-02 10:32:53.061702,2025-12-02 05:32:53.061702
"CYAT",2025-12-02 10:00:00,2025-12-02 05:00:00,"VFR",-12,-14,85,230,4,14500,29.83,NA,"OVC  ft","METAR CYAT 021000Z AUTO 23004KT 9SM OVC038 M12/M14 A2983 RMK SLP105",2025-12-02 10:32:53.1112,2025-12-02 05:32:53.1112
"CYMO",2025-12-02 10:00:00,2025-12-02 05:00:00,"VFR",-15,-17,85,0,2,14500,29.9,NA,"CLR  ft","METAR CYMO 021000Z AUTO VRB02KT 9SM CLR M15/M17 A2990 RMK SLP128",2025-12-02 10:32:53.192195,2025-12-02 05:32:53.192195
"CYPL",2025-12-02 10:00:00,2025-12-02 05:00:00,"MVFR",-12,-14,85,250,5,14500,29.66,NA,"OVC  ft","METAR CYPL 021000Z AUTO 25005KT 9SM -SN OVC018 M12/M14 A2966 RMK SLP079",2025-12-02 10:32:53.275378,2025-12-02 05:32:53.275378
"CYQT",2025-12-02 10:00:00,2025-12-02 05:00:00,"VFR",-11,-14,79,190,3,24100,29.84,NA,"OVC  ft","METAR CYQT 021000Z 19003KT 15SM OVC033 M11/M14 A2984 RMK SC8 INTMT -SN SLP122",2025-12-02 10:32:53.36175,2025-12-02 05:32:53.36175
"CYAM",2025-12-02 10:00:00,2025-12-02 05:00:00,"VFR",-6,-8,86,240,4,19300,29.9,NA,"FEW  ft; FEW  ft; BKN  ft; BKN  ft","METAR CYAM 021000Z 24004KT 12SM -SN FEW007 FEW025 BKN078 BKN091 M06/M08 A2990 RMK CF1CU1AC4AC2 CF TR CU TR SLP139",2025-12-02 10:32:54.186628,2025-12-02 05:32:54.186628
"CYTS",2025-12-02 10:00:00,2025-12-02 05:00:00,"VFR",-9,-10,93,0,0,14500,29.85,NA,"OVC  ft","METAR CYTS 021000Z 00000KT 9SM -SN OVC052 M09/M10 A2985 RMK SC8 SLP134",2025-12-02 10:32:54.269369,2025-12-02 05:32:54.269369
"CYSB",2025-12-02 10:00:00,2025-12-02 05:00:00,"LIFR",-7,-7,100,160,3,9999,29.88,NA,"BKN  ft; OVC  ft","METAR CYSB 021000Z 16003KT 10SM -SN BKN003 OVC012 M07/M07 A2988 RMK SF6SC2 SLP146",2025-12-02 10:32:54.353419,2025-12-02 05:32:54.353419
"CYYB",2025-12-02 10:26:00,2025-12-02 05:26:00,"IFR",-6,-7,93,170,9,4000,29.9,NA,"FEW  ft; OVC  ft","SPECI CYYB 021026Z AUTO 17009KT 2 1/2SM -SN FEW009 OVC012 M06/M07 A2990 RMK RVR MISG SLP151",2025-12-02 10:32:54.437346,2025-12-02 05:32:54.437346
"CYOW",2025-12-02 10:00:00,2025-12-02 05:00:00,"MVFR",-10,-12,85,30,6,9999,30.09,NA,"BKN  ft","METAR CYOW 021000Z 03006KT 10SM -SN BKN022 M10/M12 A3009 RMK SC7 SLP199",2025-12-02 10:32:54.520202,2025-12-02 05:32:54.520202
"CYGK",2025-12-02 04:00:00,2025-12-01 23:00:00,"VFR",-6,-11,68,50,5,24100,30.24,NA,"BKN  ft","METAR CYGK 020400Z 05005KT 15SM BKN140 M06/M11 A3024 RMK AC7 LAST STFD OBS/ NXT 021100Z SLP248",2025-12-02 10:32:54.603771,2025-12-02 05:32:54.603771
"CYQG",2025-12-02 10:25:00,2025-12-02 05:25:00,"MVFR",-3,-4,93,350,6,4800,29.94,NA,"SCT  ft; BKN  ft; OVC  ft","SPECI CYQG 021025Z AUTO 35006KT 3SM -SN SCT012 BKN024 OVC029 M03/M04 A2994 RMK SLP150",2025-12-02 10:32:54.687644,2025-12-02 05:32:54.687644
"CYVV",2025-12-02 10:00:00,2025-12-02 05:00:00,"VFR",-5,-6,93,170,9,9999,29.95,NA,"FEW  ft; BKN  ft","METAR CYVV 021000Z 17009KT 10SM -SN FEW020 BKN150 M05/M06 A2995 RMK SC2AS4 SLP155",2025-12-02 10:32:54.773236,2025-12-02 05:32:54.773236
"CYYZ",2025-12-02 10:00:00,2025-12-02 05:00:00,"IFR",-2,-3,93,100,2,2400,29.97,NA,"SCT  ft; OVC  ft","METAR CYYZ 021000Z 10002KT 1 1/2SM -SN SCT007 OVC017 M02/M03 A2997 RMK SN2SF2SC4 /S01/ SLP158",2025-12-02 10:32:54.854411,2025-12-02 05:32:54.854411
"CYQA",2025-12-02 10:24:00,2025-12-02 05:24:00,"VFR",-7,-8,93,140,6,14500,29.96,NA,"FEW  ft; BKN  ft","SPECI CYQA 021024Z AUTO 14006KT 9SM -SN FEW016 BKN091 M07/M08 A2996 RMK SLP166",2025-12-02 10:32:54.937129,2025-12-02 05:32:54.937129
"CYVR",2025-12-02 10:00:00,2025-12-02 05:00:00,"MVFR",5,5,100,10,4,6400,30.17,NA,"FEW  ft; OVC  ft","METAR CYVR 021000Z 01004KT 4SM -RA BR FEW007 OVC010 05/05 A3017 RMK ST2SC6 SLP218",2025-12-02 10:32:55.019427,2025-12-02 05:32:55.019427
"CYYJ",2025-12-02 10:00:00,2025-12-02 05:00:00,"MVFR",6,6,100,310,5,24100,30.15,NA,"FEW  ft; BKN  ft; OVC  ft","METAR CYYJ 021000Z 31005KT 15SM FEW008 BKN012 OVC025 06/06 A3015 RMK SF2SC5SC1 SLP213",2025-12-02 10:32:55.101016,2025-12-02 05:32:55.101016
"CYLW",2025-12-02 10:20:00,2025-12-02 05:20:00,"MVFR",1,0,93,140,6,14500,30.06,NA,"SCT  ft; OVC  ft","SPECI CYLW 021020Z AUTO 14006KT 9SM -RA SCT010 OVC017 01/00 A3006 RMK SLP199",2025-12-02 10:32:55.183419,2025-12-02 05:32:55.183419
"CYXS",2025-12-02 10:00:00,2025-12-02 05:00:00,"VFR",-1,-1,100,160,7,14500,29.94,NA,"FEW  ft; OVC  ft","METAR CYXS 021000Z AUTO 16007KT 9SM FEW019 OVC060 M01/M01 A2994 RMK SLP174",2025-12-02 10:32:55.265561,2025-12-02 05:32:55.265561
"CYXT",2025-12-02 10:00:00,2025-12-02 05:00:00,"LIFR",1,1,100,0,0,1200,30.16,NA,"OVC  ft","METAR CYXT 021000Z 00000KT 3/4SM -DZ BR OVC003 01/01 A3016 RMK ST8 SLP227",2025-12-02 10:32:55.350713,2025-12-02 05:32:55.350713
"CYQQ",2025-12-02 10:00:00,2025-12-02 05:00:00,"LIFR",6,5,93,20,4,3200,30.19,NA,"OVC  ft","METAR CYQQ 021000Z 02004KT 2SM -DZ BR OVC003 06/05 A3019 RMK ST8 DENSITY ALT -1234FT CIG VRB 2-4 SLP226",2025-12-02 10:32:55.434553,2025-12-02 05:32:55.434553
"CYYC",2025-12-02 10:00:00,2025-12-02 05:00:00,"VFR",2,-5,60,360,9,24100,29.68,NA,"BKN  ft; BKN  ft","METAR CYYC 021000Z 36009KT 15SM BKN082 BKN170 02/M05 A2968 RMK AC5AC1 SLP087",2025-12-02 10:32:55.518305,2025-12-02 05:32:55.518305
"CYEG",2025-12-02 10:00:00,2025-12-02 05:00:00,"VFR",2,-1,81,290,7,32200,29.62,NA,"FEW  ft; BKN  ft; OVC  ft","METAR CYEG 021000Z 29007KT 20SM FEW036 BKN062 OVC074 02/M01 A2962 RMK SC1SC6AC1 SLP060",2025-12-02 10:32:55.601521,2025-12-02 05:32:55.601521
"CYMM",2025-12-02 10:00:00,2025-12-02 05:00:00,"MVFR",-10,-13,79,50,7,14500,29.8,NA,"OVC  ft","METAR CYMM 021000Z AUTO 05007KT 9SM -SN OVC014 M10/M13 A2980 RMK PRESRR SLP124",2025-12-02 10:32:55.687557,2025-12-02 05:32:55.687557
"CYQF",2025-12-02 10:00:00,2025-12-02 05:00:00,"VFR",3,-2,70,290,8,14500,29.67,NA,"SCT  ft; OVC  ft","METAR CYQF 021000Z AUTO 29008KT 9SM SCT055 OVC072 03/M02 A2967 RMK SLP082",2025-12-02 10:32:55.771905,2025-12-02 05:32:55.771905
"CYXE",2025-12-02 10:00:00,2025-12-02 05:00:00,"MVFR",-5,-7,86,360,12,4800,29.52,NA,"SCT  ft; BKN  ft; OVC  ft","METAR CYXE 021000Z 36012KT 3SM -SN SCT008 BKN017 OVC035 M05/M07 A2952 RMK SC3SC4SC1 -SN INTMT SLP035",2025-12-02 10:32:55.854486,2025-12-02 05:32:55.854486
"CYQR",2025-12-02 10:00:00,2025-12-02 05:00:00,"MVFR",-1,-2,93,290,10,24100,29.47,NA,"OVC  ft","METAR CYQR 021000Z 29010KT 15SM OVC011 M01/M02 A2947 RMK SC8 SLP017",2025-12-02 10:32:55.938416,2025-12-02 05:32:55.938416
"CYWG",2025-12-02 10:00:00,2025-12-02 05:00:00,"VFR",-13,-15,85,170,10,24100,29.67,NA,"OVC  ft","METAR CYWG 021000Z 17010KT 15SM OVC100 M13/M15 A2967 RMK AC8 SLP069",2025-12-02 10:32:56.021571,2025-12-02 05:32:56.021571
"CYBR",2025-12-02 10:06:00,2025-12-02 05:06:00,"MVFR",-12,-14,85,230,5,8000,29.57,NA,"OVC  ft","SPECI CYBR 021006Z AUTO 23005KT 5SM -SN OVC045 M12/M14 A2957 RMK SLP048",2025-12-02 10:32:56.103796,2025-12-02 05:32:56.103796
"CYUL",2025-12-02 10:00:00,2025-12-02 05:00:00,"VFR",-7,-12,68,120,7,24100,30.13,NA,"OVC  ft","METAR CYUL 021000Z 12007KT 15SM OVC085 M07/M12 A3013 RMK AC8 SLP207",2025-12-02 10:32:56.188171,2025-12-02 05:32:56.188171
"CYHU",2025-12-02 10:00:00,2025-12-02 05:00:00,"VFR",-8,-10,86,110,4,14500,30.14,NA,"OVC  ft","METAR CYHU 021000Z AUTO 11004KT 9SM OVC096 M08/M10 A3014 RMK SLP210",2025-12-02 10:32:56.270821,2025-12-02 05:32:56.270821
"CYQB",2025-12-02 10:00:00,2025-12-02 05:00:00,"MVFR",-11,-14,79,20,3,24100,30.18,NA,"FEW  ft; BKN  ft; OVC  ft","METAR CYQB 021000Z 02003KT 350V050 15SM FEW008 BKN023 OVC110 M11/M14 A3018 RMK SF1SC7AC1 SF TR SLP229",2025-12-02 10:32:56.354403,2025-12-02 05:32:56.354403
"CYVO",2025-12-02 10:08:00,2025-12-02 05:08:00,"VFR",-9,-11,86,180,10,11300,29.89,NA,"FEW  ft; SCT  ft; BKN  ft; OVC  ft","SPECI CYVO 021008Z AUTO 18010KT 7SM -SN FEW025 SCT030 BKN041 OVC100 M09/M11 A2989 RMK SLP152",2025-12-02 10:32:56.438583,2025-12-02 05:32:56.438583
"CYUY",2025-12-02 10:00:00,2025-12-02 05:00:00,"MVFR",-7,-8,93,210,5,NA,29.88,NA,"OVX  ft","METAR CYUY 021000Z 21005KT 3SM -SN VV027 M07/M08 A2988 RMK SN8 SLP144",2025-12-02 10:32:56.524397,2025-12-02 05:32:56.524397
"CYZV",2025-12-02 10:00:00,2025-12-02 05:00:00,"VFR",-13,-19,61,290,7,24100,30.16,NA,"SCT  ft; OVC  ft","METAR CYZV 021000Z 29007KT 15SM SCT032 OVC120 M13/M19 A3016 RMK SC3AC5 SLP221",2025-12-02 10:32:56.607476,2025-12-02 05:32:56.607476
"CYBC",2025-12-02 10:00:00,2025-12-02 05:00:00,"VFR",-12,-17,67,350,4,14500,30.2,NA,"SCT  ft","METAR CYBC 021000Z AUTO 35004KT 9SM SCT140 M12/M17 A3020 RMK SLP229",2025-12-02 10:32:56.696309,2025-12-02 05:32:56.696309
"CYRJ",2025-12-02 10:00:00,2025-12-02 05:00:00,"VFR",-11,-16,67,170,4,40200,30.05,NA,"OVC  ft","METAR CYRJ 021000Z 17004KT 110V190 25SM OVC058 M11/M16 A3005 RMK SC8 SLP192",2025-12-02 10:32:56.778641,2025-12-02 05:32:56.778641
"CYHZ",2025-12-02 10:00:00,2025-12-02 05:00:00,"VFR",-7,-9,86,70,4,24100,30.26,NA,"SKC  ft","METAR CYHZ 021000Z 07004KT 15SM SKC M07/M09 A3026 RMK FROIN SLP256",2025-12-02 10:32:56.859181,2025-12-02 05:32:56.859181
"CYYG",2025-12-02 10:00:00,2025-12-02 05:00:00,"VFR",-7,-10,79,270,5,24100,30.25,NA,"FEW  ft; BKN  ft","METAR CYYG 021000Z 27005KT 15SM FEW024 BKN190 M07/M10 A3025 RMK SC2CI3 SLP249",2025-12-02 10:32:56.942262,2025-12-02 05:32:56.942262
"CYQM",2025-12-02 10:00:00,2025-12-02 05:00:00,"VFR",-9,-12,79,260,4,24100,30.25,NA,"FEW  ft","METAR CYQM 021000Z 26004KT 15SM FEW170 M09/M12 A3025 RMK AC2 SLP250",2025-12-02 10:32:57.028631,2025-12-02 05:32:57.028631
"CYFC",2025-12-02 10:00:00,2025-12-02 05:00:00,"VFR",-9,-11,86,300,3,14500,30.28,NA,"OVC  ft","METAR CYFC 021000Z AUTO 30003KT 260V320 9SM OVC170 M09/M11 A3028 RMK SLP256",2025-12-02 10:32:57.108975,2025-12-02 05:32:57.108975
"CYYT",2025-12-02 10:00:00,2025-12-02 05:00:00,"VFR",-2,-6,74,300,21,24100,29.99,NA,"FEW  ft","METAR CYYT 021000Z 30021G32KT 15SM FEW027 M02/M06 A2999 RMK SC1 SLP164",2025-12-02 10:32:57.190372,2025-12-02 05:32:57.190372
"CYQY",2025-12-02 10:00:00,2025-12-02 05:00:00,"MVFR",-4,-8,74,270,6,22500,30.22,NA,"BKN  ft","METAR CYQY 021000Z 27006KT 14SM BKN027 M04/M08 A3022 RMK SC5 SLP237",2025-12-02 10:32:57.274184,2025-12-02 05:32:57.274184
"CYXY",2025-12-02 10:00:00,2025-12-02 05:00:00,"LIFR",-3,-3,100,330,2,2000,29.92,NA,"BKN  ft; OVC  ft","METAR CYXY 021000Z 33002KT 1 1/4SM R32L/2600V5500FT/N BR BKN002 OVC050 M03/M03 A2992 RMK FG3ST3SC2 SLP174",2025-12-02 10:32:57.356248,2025-12-02 05:32:57.356248
"CYZF",2025-12-02 10:00:00,2025-12-02 05:00:00,"MVFR",-22,-24,84,40,7,24100,30.11,NA,"OVC  ft","METAR CYZF 021000Z 04007KT 15SM OVC010 M22/M24 A3011 RMK ST8 CIG RAG SLP223",2025-12-02 10:32:57.397011,2025-12-02 05:32:57.397011
"CYFB",2025-12-02 10:00:00,2025-12-02 05:00:00,"VFR",-11,-15,73,0,2,24100,29.38,NA,"BKN  ft","METAR CYFB 021000Z VRB02KT 15SM BKN032 M11/M15 A2938 RMK SC5 SLP953",2025-12-02 10:32:57.477449,2025-12-02 05:32:57.477449
"CYRT",2025-12-02 10:00:00,2025-12-02 05:00:00,"VFR",-30,-33,75,330,13,24100,29.62,NA,"SCT  ft","METAR CYRT 021000Z 33013KT 15SM IC SCT100 M30/M33 A2962 RMK AC3 SLP037",2025-12-02 10:32:57.518271,2025-12-02 05:32:57.518271
"CYBK",2025-12-02 10:02:00,2025-12-02 05:02:00,"VFR",-31,-34,75,310,22,24100,29.71,NA,"SCT  ft","SPECI CYBK 021002Z 31022KT 15SM -SN DRSN SCT045 M31/M34 A2971 RMK SC3 SLP065",2025-12-02 10:32:57.601396,2025-12-02 05:32:57.601396
"CYRB",2025-12-02 10:00:00,2025-12-02 05:00:00,"VFR",-25,-28,76,0,0,40200,29.95,NA,"SKC  ft","METAR CYRB 021000Z 00000KT 25SM IC SKC M25/M28 A2995 RMK SLP154",2025-12-02 10:32:57.656349,2025-12-02 05:32:57.656349
"CYCO",2025-12-02 10:00:00,2025-12-02 05:00:00,"VFR",-31,-34,75,220,12,24100,30.27,NA,"SKC  ft","METAR CYCO 021000Z 22012KT 15SM SKC M31/M34 A3027 RMK SLP256",2025-12-02 10:32:57.736232,2025-12-02 05:32:57.736232
"CYER",2025-12-02 11:00:00,2025-12-02 06:00:00,"VFR",-21,-24,77,240,8,14500,29.66,NA,"OVC  ft","METAR CYER 021100Z AUTO 24008KT 9SM OVC038 M21/M24 A2966 RMK SLP049",2025-12-02 11:27:13.231097,2025-12-02 06:27:13.231097
"CYAT",2025-12-02 11:00:00,2025-12-02 06:00:00,"VFR",-14,-16,85,190,5,14500,29.82,NA,"FEW  ft","METAR CYAT 021100Z AUTO 19005KT 160V230 9SM FEW038 M14/M16 A2982 RMK SLP101",2025-12-02 11:27:13.308871,2025-12-02 06:27:13.308871
"CYMO",2025-12-02 11:00:00,2025-12-02 06:00:00,"VFR",-15,-16,92,200,6,14500,29.89,NA,"CLR  ft","METAR CYMO 021100Z AUTO 20006KT 9SM -SN CLR M15/M16 A2989 RMK SLP126",2025-12-02 11:27:13.377006,2025-12-02 06:27:13.377006
"CYPL",2025-12-02 11:00:00,2025-12-02 06:00:00,"MVFR",-12,-14,85,240,6,14500,29.65,NA,"OVC  ft","METAR CYPL 021100Z AUTO 24006KT 9SM -SN OVC020 M12/M14 A2965 RMK SLP074",2025-12-02 11:27:13.444629,2025-12-02 06:27:13.444629
"CYQT",2025-12-02 11:00:00,2025-12-02 06:00:00,"VFR",-10,-14,73,230,3,24100,29.82,NA,"OVC  ft","METAR CYQT 021100Z 23003KT 15SM -SN OVC031 M10/M14 A2982 RMK SC8 -SN INTMT SLP116",2025-12-02 11:27:13.516012,2025-12-02 06:27:13.516012
"CYAM",2025-12-02 11:00:00,2025-12-02 06:00:00,"MVFR",-6,-8,86,210,3,24100,29.89,NA,"FEW  ft; FEW  ft; BKN  ft; BKN  ft","METAR CYAM 021100Z 21003KT 15SM -SN FEW007 FEW012 BKN027 BKN088 M06/M08 A2989 RMK CU1CU1SC5AC2 CU TR CU TR SLP136",2025-12-02 11:27:13.58451,2025-12-02 06:27:13.58451
"CYTS",2025-12-02 11:00:00,2025-12-02 06:00:00,"VFR",-9,-10,93,150,3,24100,29.85,NA,"OVC  ft","METAR CYTS 021100Z 15003KT 15SM -SN OVC048 M09/M10 A2985 RMK SC8 SLP131",2025-12-02 11:27:13.651896,2025-12-02 06:27:13.651896
"CYSB",2025-12-02 11:00:00,2025-12-02 06:00:00,"LIFR",-7,-8,93,150,4,12900,29.87,NA,"BKN  ft; OVC  ft","METAR CYSB 021100Z 15004KT 8SM -SN BKN003 OVC011 M07/M08 A2987 RMK ST6SC2 SLP142",2025-12-02 11:27:13.717851,2025-12-02 06:27:13.717851
"CYYB",2025-12-02 11:22:00,2025-12-02 06:22:00,"IFR",-6,-7,93,170,6,8000,29.9,NA,"BKN  ft; BKN  ft; OVC  ft","SPECI CYYB 021122Z AUTO 17006KT 5SM -SN BKN009 BKN023 OVC032 M06/M07 A2990 RMK RVR MISG SLP149",2025-12-02 11:27:13.786354,2025-12-02 06:27:13.786354
"CYOW",2025-12-02 11:00:00,2025-12-02 06:00:00,"VFR",-10,-13,79,40,6,24100,30.08,NA,"FEW  ft; SCT  ft; BKN  ft","METAR CYOW 021100Z 04006KT 15SM FEW022 SCT085 BKN200 M10/M13 A3008 RMK SC2AC1CI4 INTMT -SN SLP198",2025-12-02 11:27:13.852913,2025-12-02 06:27:13.852913
"CYGK",2025-12-02 11:00:00,2025-12-02 06:00:00,"IFR",-3,-4,93,100,9,3200,30.03,NA,"FEW  ft; OVC  ft","METAR CYGK 021100Z 10009KT 2SM -SN FEW008 OVC015 M03/M04 A3003 RMK SF2SC6 /S03 AFT 04Z/ SLP176",2025-12-02 11:27:13.924691,2025-12-02 06:27:13.924691
"CYQG",2025-12-02 11:00:00,2025-12-02 06:00:00,"IFR",-3,-4,93,360,6,4800,29.94,NA,"OVC  ft","METAR CYQG 021100Z AUTO 36006KT 3SM -SN OVC009 M03/M04 A2994 RMK SLP151",2025-12-02 11:27:13.992878,2025-12-02 06:27:13.992878
"CYVV",2025-12-02 11:00:00,2025-12-02 06:00:00,"VFR",-5,-6,93,170,9,9999,29.93,NA,"FEW  ft; BKN  ft","METAR CYVV 021100Z 17009KT 10SM -SN FEW020 BKN140 M05/M06 A2993 RMK SC2AS4 SLP150",2025-12-02 11:27:14.065431,2025-12-02 06:27:14.065431
"CYYZ",2025-12-02 11:21:00,2025-12-02 06:21:00,"IFR",-2,-3,93,30,4,4000,29.95,NA,"BKN  ft; OVC  ft","SPECI CYYZ 021121Z 03004KT 2 1/2SM -SN BKN007 OVC015 M02/M03 A2995 RMK SN2SF4SC2 SLP152",2025-12-02 11:27:14.13453,2025-12-02 06:27:14.13453
"CYQA",2025-12-02 11:00:00,2025-12-02 06:00:00,"VFR",-7,-8,93,130,4,14500,29.93,NA,"BKN  ft; BKN  ft","METAR CYQA 021100Z AUTO 13004KT 100V160 9SM BKN091 BKN110 M07/M08 A2993 RMK PRESFR SLP156",2025-12-02 11:27:14.204895,2025-12-02 06:27:14.204895
"CYVR",2025-12-02 11:12:00,2025-12-02 06:12:00,"IFR",5,5,100,80,2,4000,30.17,NA,"SCT  ft; OVC  ft","SPECI CYVR 021112Z 08002KT 2 1/2SM -DZ BR SCT003 OVC011 05/05 A3017 RMK ST3SC5 SLP219",2025-12-02 11:27:14.229846,2025-12-02 06:27:14.229846
"CYYJ",2025-12-02 11:00:00,2025-12-02 06:00:00,"MVFR",6,6,100,300,2,24100,30.17,NA,"FEW  ft; BKN  ft; OVC  ft","METAR CYYJ 021100Z 30002KT 15SM FEW007 BKN010 OVC025 06/06 A3017 RMK SF1SC6SC1 SLP218",2025-12-02 11:27:14.29454,2025-12-02 06:27:14.29454
"CYLW",2025-12-02 11:18:00,2025-12-02 06:18:00,"MVFR",1,0,93,140,4,14500,30.07,NA,"OVC  ft","SPECI CYLW 021118Z AUTO 14004KT 9SM -RA OVC017 01/M00 A3007 RMK SLP202",2025-12-02 11:27:14.363397,2025-12-02 06:27:14.363397
"CYXS",2025-12-02 11:00:00,2025-12-02 06:00:00,"VFR",-1,-1,100,170,8,14500,29.95,NA,"FEW  ft; OVC  ft","METAR CYXS 021100Z AUTO 17008KT 9SM FEW017 OVC046 M01/M01 A2995 RMK SLP179",2025-12-02 11:27:14.429558,2025-12-02 06:27:14.429558
"CYXT",2025-12-02 11:00:00,2025-12-02 06:00:00,"LIFR",1,1,100,0,0,1200,30.18,NA,"OVC  ft","METAR CYXT 021100Z 00000KT 3/4SM -DZ BR OVC003 01/01 A3018 RMK ST8 SLP233",2025-12-02 11:27:14.493623,2025-12-02 06:27:14.493623
"CYQQ",2025-12-02 11:00:00,2025-12-02 06:00:00,"LIFR",5,5,100,290,3,4800,30.19,NA,"OVC  ft","METAR CYQQ 021100Z 29003KT 3SM -DZ BR OVC004 05/05 A3019 RMK ST8 DENSITY ALT -1273FT CIG VRB 3-5 SLP226",2025-12-02 11:27:14.558908,2025-12-02 06:27:14.558908
"CYYC",2025-12-02 11:00:00,2025-12-02 06:00:00,"VFR",2,-6,56,320,12,24100,29.69,NA,"SCT  ft; BKN  ft","METAR CYYC 021100Z 32012G17KT 15SM SCT084 BKN170 02/M06 A2969 RMK AC3AC4 SLP093",2025-12-02 11:27:14.62672,2025-12-02 06:27:14.62672
"CYEG",2025-12-02 11:00:00,2025-12-02 06:00:00,"VFR",3,0,81,310,14,24100,29.64,NA,"FEW  ft; OVC  ft","METAR CYEG 021100Z 31014KT 15SM -RA FEW023 OVC043 03/M00 A2964 RMK SC2SC6 SLP068",2025-12-02 11:27:14.693859,2025-12-02 06:27:14.693859
"CYMM",2025-12-02 11:00:00,2025-12-02 06:00:00,"MVFR",-10,-13,79,340,3,14500,29.84,NA,"OVC  ft","METAR CYMM 021100Z AUTO 34003KT 9SM -SN OVC017 M10/M13 A2984 RMK SLP138",2025-12-02 11:27:14.761739,2025-12-02 06:27:14.761739
"CYQF",2025-12-02 11:00:00,2025-12-02 06:00:00,"VFR",2,-3,70,270,8,14500,29.67,NA,"SCT  ft; BKN  ft; BKN  ft","METAR CYQF 021100Z AUTO 27008KT 9SM SCT100 BKN120 BKN140 02/M03 A2967 RMK SLP085",2025-12-02 11:27:14.828476,2025-12-02 06:27:14.828476
"CYXE",2025-12-02 11:00:00,2025-12-02 06:00:00,"MVFR",-7,-9,86,360,13,4800,29.56,NA,"FEW  ft; OVC  ft","METAR CYXE 021100Z 36013KT 3SM -SN FEW008 OVC024 M07/M09 A2956 RMK SC2SC6 SLP049",2025-12-02 11:27:14.894568,2025-12-02 06:27:14.894568
"CYQR",2025-12-02 11:09:00,2025-12-02 06:09:00,"IFR",0,-2,87,310,14,24100,29.49,NA,"OVC  ft","SPECI CYQR 021109Z 31014G20KT 15SM -SHSN OVC009 M00/M02 A2949 RMK SC8 CVCTV CLD EMBD SLP022",2025-12-02 11:27:14.919971,2025-12-02 06:27:14.919971
"CYWG",2025-12-02 11:00:00,2025-12-02 06:00:00,"VFR",-13,-15,85,170,11,24100,29.65,NA,"OVC  ft","METAR CYWG 021100Z 17011KT 15SM OVC074 M13/M15 A2965 RMK AC8 SLP063",2025-12-02 11:27:14.984464,2025-12-02 06:27:14.984464
"CYBR",2025-12-02 11:23:00,2025-12-02 06:23:00,"VFR",-11,-13,85,250,6,9700,29.54,NA,"FEW  ft; OVC  ft","SPECI CYBR 021123Z AUTO 25006KT 6SM -SN FEW035 OVC041 M11/M13 A2954 RMK SLP038",2025-12-02 11:27:15.056077,2025-12-02 06:27:15.056077
"CYUL",2025-12-02 11:00:00,2025-12-02 06:00:00,"VFR",-7,-11,73,130,4,24100,30.13,NA,"FEW  ft; OVC  ft","METAR CYUL 021100Z 13004KT 080V190 15SM -SHSN FEW017 OVC032 M07/M11 A3013 RMK SC1SC7 CVCTV CLD EMBD SLP207",2025-12-02 11:27:15.127586,2025-12-02 06:27:15.127586
"CYHU",2025-12-02 11:21:00,2025-12-02 06:21:00,"IFR",-7,-10,79,140,4,4000,30.13,NA,"OVC  ft","SPECI CYHU 021121Z AUTO 14004KT 2 1/2SM -SN OVC032 M07/M10 A3013 RMK SLP208",2025-12-02 11:27:15.197725,2025-12-02 06:27:15.197725
"CYQB",2025-12-02 11:00:00,2025-12-02 06:00:00,"MVFR",-11,-14,79,360,2,24100,30.16,NA,"FEW  ft; BKN  ft; BKN  ft; OVC  ft","METAR CYQB 021100Z 36002KT 15SM FEW008 BKN024 BKN094 OVC110 M11/M14 A3016 RMK SF1SC6AC1AC1 SF TR SLP222",2025-12-02 11:27:15.266523,2025-12-02 06:27:15.266523
"CYVO",2025-12-02 11:00:00,2025-12-02 06:00:00,"VFR",-9,-11,86,180,8,12900,29.89,NA,"BKN  ft; OVC  ft","METAR CYVO 021100Z 18008KT 8SM -SN BKN039 OVC070 M09/M11 A2989 RMK SC5AC3 /S02 AFT 03Z/ SLP151",2025-12-02 11:27:15.333029,2025-12-02 06:27:15.333029
"CYUY",2025-12-02 11:00:00,2025-12-02 06:00:00,"VFR",-7,-8,93,190,4,9700,29.88,NA,"OVC  ft","METAR CYUY 021100Z 19004KT 6SM -SN OVC070 M07/M08 A2988 RMK SN3AC5 SLP143",2025-12-02 11:27:15.398629,2025-12-02 06:27:15.398629
"CYZV",2025-12-02 11:00:00,2025-12-02 06:00:00,"VFR",-15,-18,78,290,5,48300,30.16,NA,"SCT  ft; BKN  ft","METAR CYZV 021100Z 29005KT 30SM SCT030 BKN150 M15/M18 A3016 RMK SC3AC3 SLP222",2025-12-02 11:27:15.464736,2025-12-02 06:27:15.464736
"CYBC",2025-12-02 11:00:00,2025-12-02 06:00:00,"VFR",-13,-16,78,360,3,14500,30.19,NA,"BKN  ft; BKN  ft","METAR CYBC 021100Z AUTO 36003KT 9SM BKN100 BKN120 M13/M16 A3019 RMK SLP226",2025-12-02 11:27:15.533573,2025-12-02 06:27:15.533573
"CYRJ",2025-12-02 11:00:00,2025-12-02 06:00:00,"VFR",-11,-16,67,0,2,40200,30.05,NA,"OVC  ft","METAR CYRJ 021100Z VRB02KT 25SM -SN OVC050 M11/M16 A3005 RMK SC8 SLP195",2025-12-02 11:27:15.603348,2025-12-02 06:27:15.603348
"CYHZ",2025-12-02 11:00:00,2025-12-02 06:00:00,"VFR",-8,-9,93,130,5,24100,30.25,NA,"BKN  ft; BKN  ft","METAR CYHZ 021100Z 13005KT 15SM BKN170 BKN210 M08/M09 A3025 RMK AC5CI2 SLP254",2025-12-02 11:27:15.673384,2025-12-02 06:27:15.673384
"CYYG",2025-12-02 11:00:00,2025-12-02 06:00:00,"VFR",-7,-10,79,0,0,24100,30.25,NA,"FEW  ft; BKN  ft","METAR CYYG 021100Z 00000KT 15SM FEW024 BKN180 M07/M10 A3025 RMK SC1CI7 SC TR SLP249",2025-12-02 11:27:15.740818,2025-12-02 06:27:15.740818
"CYQM",2025-12-02 11:00:00,2025-12-02 06:00:00,"VFR",-9,-12,79,240,6,24100,30.26,NA,"BKN  ft","METAR CYQM 021100Z 24006KT 15SM BKN150 M09/M12 A3026 RMK AC7 SLP253",2025-12-02 11:27:15.808711,2025-12-02 06:27:15.808711
"CYFC",2025-12-02 11:00:00,2025-12-02 06:00:00,"VFR",-9,-11,86,210,3,14500,30.27,NA,"SCT  ft","METAR CYFC 021100Z AUTO 21003KT 9SM SCT150 M09/M11 A3027 RMK SLP253",2025-12-02 11:27:15.877367,2025-12-02 06:27:15.877367
"CYYT",2025-12-02 11:00:00,2025-12-02 06:00:00,"VFR",-2,-7,69,310,15,24100,30.03,NA,"FEW  ft; FEW  ft","METAR CYYT 021100Z 31015KT 15SM FEW025 FEW080 M02/M07 A3003 RMK SC2AC1 AC TR SLP179",2025-12-02 11:27:15.943959,2025-12-02 06:27:15.943959
"CYQY",2025-12-02 11:00:00,2025-12-02 06:00:00,"VFR",-5,-7,86,250,5,24100,30.25,NA,"SCT  ft; BKN  ft","METAR CYQY 021100Z 25005KT 15SM SCT026 BKN240 M05/M07 A3025 RMK SC3CS3 SLP250",2025-12-02 11:27:16.015071,2025-12-02 06:27:16.015071
"CYXY",2025-12-02 11:00:00,2025-12-02 06:00:00,"MVFR",-2,-3,93,140,4,4800,29.92,NA,"FEW  ft; BKN  ft; OVC  ft","METAR CYXY 021100Z 14004KT 130V200 3SM BR FEW002 BKN050 OVC090 M02/M03 A2992 RMK SF1SC6AC1 SLP176",2025-12-02 11:27:16.084282,2025-12-02 06:27:16.084282
"CYZF",2025-12-02 11:08:00,2025-12-02 06:08:00,"IFR",-24,-26,84,30,6,24100,30.14,NA,"BKN  ft","SPECI CYZF 021108Z 03006KT 15SM BKN009 M24/M26 A3014 RMK ST6 SLP236",2025-12-02 11:27:16.151923,2025-12-02 06:27:16.151923
"CYFB",2025-12-02 11:00:00,2025-12-02 06:00:00,"VFR",-12,-15,79,280,4,24100,29.38,NA,"SCT  ft; BKN  ft","METAR CYFB 021100Z 28004KT 15SM SCT032 BKN085 M12/M15 A2938 RMK SC3AC2 SLP953",2025-12-02 11:27:16.220122,2025-12-02 06:27:16.220122
"CYRT",2025-12-02 11:00:00,2025-12-02 06:00:00,"VFR",-31,-34,75,330,11,24100,29.62,NA,"FEW  ft","METAR CYRT 021100Z 33011KT 15SM IC FEW100 M31/M34 A2962 RMK AC2 SLP037",2025-12-02 11:27:16.290907,2025-12-02 06:27:16.290907
"CYBK",2025-12-02 11:00:00,2025-12-02 06:00:00,"VFR",-31,-34,75,310,21,24100,29.71,NA,"SCT  ft","METAR CYBK 021100Z 31021KT 15SM -SN DRSN SCT045 M31/M34 A2971 RMK SC3 SLP067",2025-12-02 11:27:16.362887,2025-12-02 06:27:16.362887
"CYRB",2025-12-02 11:00:00,2025-12-02 06:00:00,"VFR",-23,-25,84,360,3,40200,29.95,NA,"SKC  ft","METAR CYRB 021100Z 36003KT 25SM IC SKC M23/M25 A2995 RMK SLP156",2025-12-02 11:27:16.442881,2025-12-02 06:27:16.442881
"CYCO",2025-12-02 11:00:00,2025-12-02 06:00:00,"VFR",-30,-33,75,230,14,24100,30.27,NA,"SKC  ft","METAR CYCO 021100Z 23014KT 15SM SKC M30/M33 A3027 RMK SLP256",2025-12-02 11:27:16.51192,2025-12-02 06:27:16.51192
