"icao","observed_utc","observed_local","flight_category","temp_c","dewpoint_c","rh_percent","wind_dir_deg","wind_kts","vis_m","altimeter_hg","conditions","clouds","raw_text","fetched_at_utc","fetched_at_local"
"CYER",2025-11-01 04:11:00,2025-11-01 00:11:00,"LIFR",0,NA,NA,290,6,14500,30.02,NA,"BKN  ft; BKN  ft; BKN  ft","SPECI CYER 010411Z AUTO 29006KT 9SM BKN003 BKN018 BKN028 M00/ A3002 RMK DP MISG SLP168",2025-11-01 04:28:32.2424,2025-11-01 00:28:32.2424
"CYAT",2025-11-01 04:00:00,2025-11-01,"VFR",2,1,93,310,7,14500,29.85,NA,"OVC  ft","METAR CYAT 010400Z AUTO 31007KT 9SM OVC037 02/01 A2985 RMK SLP112",2025-11-01 04:28:32.291145,2025-11-01 00:28:32.291145
"CYMO",2025-11-01 04:26:00,2025-11-01 00:26:00,"VFR",2,2,100,330,7,14500,29.77,NA,"FEW  ft; BKN  ft; OVC  ft","SPECI CYMO 010426Z AUTO 33007KT 9SM -RA FEW015 BKN035 OVC046 02/02 A2977 RMK SLP085",2025-11-01 04:28:32.372886,2025-11-01 00:28:32.372886
"CYPL",2025-11-01 04:00:00,2025-11-01,"MVFR",0,-1,93,10,4,14500,30.04,NA,"OVC  ft","METAR CYPL 010400Z AUTO 01004KT 320V070 9SM OVC027 00/M01 A3004 RMK SLP194",2025-11-01 04:28:32.455068,2025-11-01 00:28:32.455068
"CYQT",2025-11-01 04:00:00,2025-11-01,"VFR",3,-2,70,30,6,24100,30,NA,"OVC  ft","METAR CYQT 010400Z 03006KT 15SM OVC039 03/M02 A3000 RMK SC8 SLP170",2025-11-01 04:28:32.549738,2025-11-01 00:28:32.549738
"CYAM",2025-11-01 04:00:00,2025-11-01,"VFR",3,-1,75,0,2,24100,29.86,NA,"OVC  ft","METAR CYAM 010400Z VRB02KT 15SM OVC058 03/M01 A2986 RMK SC8 SLP121",2025-11-01 04:28:32.59375,2025-11-01 00:28:32.59375
"CYTS",2025-11-01 04:24:00,2025-11-01 00:24:00,"IFR",0,0,100,320,8,4000,29.78,NA,"BKN  ft; OVC  ft","SPECI CYTS 010424Z 32008KT 2 1/2SM -SN BKN006 OVC015 00/00 A2978 RMK SC7SC1 SLP101",2025-11-01 04:28:32.676246,2025-11-01 00:28:32.676246
"CYSB",2025-11-01 04:00:00,2025-11-01,"VFR",2,-2,75,320,11,24100,29.73,NA,"OVC  ft","METAR CYSB 010400Z 32011G18KT 15SM OVC037 02/M02 A2973 RMK SC8 SLP083",2025-11-01 04:28:32.759052,2025-11-01 00:28:32.759052
"CYYB",2025-11-01 04:00:00,2025-11-01,"VFR",2,-2,75,320,12,14500,29.66,NA,"BKN  ft","METAR CYYB 010400Z AUTO 32012G19KT 9SM BKN043 02/M02 A2966 RMK SLP059",2025-11-01 04:28:32.840147,2025-11-01 00:28:32.840147
"CYOW",2025-11-01 04:00:00,2025-11-01,"MVFR",5,3,87,280,19,9999,29.44,NA,"BKN  ft; OVC  ft","METAR CYOW 010400Z 28019G27KT 10SM BKN010 OVC017 05/03 A2944 RMK SC7SC1 SLP976",2025-11-01 04:28:32.920974,2025-11-01 00:28:32.920974
"CYGK",2025-11-01 03:00:00,2025-10-31 23:00:00,"MVFR",4,3,93,280,12,8000,29.58,NA,"OVC  ft","METAR CYGK 010300Z 28012G23KT 5SM -RA BR OVC014 04/03 A2958 RMK SC8 LAST STFD OBS/NXT 011000Z SLP022",2025-11-01 04:28:33.00464,2025-11-01 00:28:33.00464
"CYQG",2025-11-01 04:00:00,2025-11-01,"VFR",7,0,61,270,7,14500,29.89,NA,"OVC  ft","METAR CYQG 010400Z AUTO 27007KT 9SM OVC071 07/00 A2989 RMK SLP126",2025-11-01 04:28:33.084016,2025-11-01 00:28:33.084016
"CYVV",2025-11-01 04:00:00,2025-11-01,"VFR",6,1,71,330,7,24100,29.77,NA,"BKN  ft","METAR CYVV 010400Z 33007KT 300V360 15SM BKN050 06/01 A2977 RMK SC7 SLP090",2025-11-01 04:28:33.165791,2025-11-01 00:28:33.165791
"CYYZ",2025-11-01 04:00:00,2025-11-01,"VFR",5,1,76,260,12,24100,29.75,NA,"FEW  ft","METAR CYYZ 010400Z 26012KT 15SM FEW030 05/01 A2975 RMK SC1 SLP081",2025-11-01 04:28:33.216107,2025-11-01 00:28:33.216107
"CYQA",2025-11-01 04:14:00,2025-11-01 00:14:00,"VFR",4,1,81,320,10,14500,29.69,NA,"SCT  ft; SCT  ft; BKN  ft","SPECI CYQA 010414Z AUTO 32010G21KT 9SM SCT023 SCT029 BKN041 04/01 A2969 RMK SLP066",2025-11-01 04:28:33.298043,2025-11-01 00:28:33.298043
"CYVR",2025-11-01 04:00:00,2025-11-01,"VFR",11,10,94,80,7,20900,29.88,NA,"SCT  ft; SCT  ft; BKN  ft; BKN  ft","METAR CYVR 010400Z 08007KT 060V130 13SM SCT011 SCT056 BKN110 BKN210 11/10 A2988 RMK SF3SC1AC1CI2 SLP122",2025-11-01 04:28:33.379069,2025-11-01 00:28:33.379069
"CYYJ",2025-11-01 04:00:00,2025-11-01,"VFR",11,11,100,150,9,32200,29.89,NA,"FEW  ft; BKN  ft; OVC  ft","METAR CYYJ 010400Z 15009KT 20SM FEW012 BKN034 OVC180 11/11 A2989 RMK SC1SC5AC3 SC TR SLP122",2025-11-01 04:28:33.460249,2025-11-01 00:28:33.460249
"CYLW",2025-11-01 04:00:00,2025-11-01,"VFR",7,3,76,180,4,14500,29.92,NA,"OVC  ft","METAR CYLW 010400Z AUTO 18004KT 150V240 9SM OVC071 07/03 A2992 RMK SLP147",2025-11-01 04:28:33.542949,2025-11-01 00:28:33.542949
"CYXS",2025-11-01 04:00:00,2025-11-01,"VFR",7,2,71,200,8,14500,29.54,NA,"FEW  ft; BKN  ft; OVC  ft","METAR CYXS 010400Z AUTO 20008KT 9SM FEW091 BKN120 OVC140 07/02 A2954 RMK SLP021",2025-11-01 04:28:33.583668,2025-11-01 00:28:33.583668
"CYXT",2025-11-01 04:00:00,2025-11-01,"MVFR",6,6,100,160,13,6400,29.45,NA,"FEW  ft; FEW  ft; OVC  ft","METAR CYXT 010400Z 16013G20KT 4SM -RA BR FEW006 FEW025 OVC050 06/06 A2945 RMK SF1CU1SC6 SLP981",2025-11-01 04:28:33.66527,2025-11-01 00:28:33.66527
"CYQQ",2025-11-01 04:00:00,2025-11-01,"VFR",10,9,94,150,15,32200,29.83,NA,"SCT  ft; BKN  ft","METAR CYQQ 010400Z 15015G21KT 20SM SCT006 BKN170 10/09 A2983 RMK SC3AC4 DENSITY ALT -193FT SLP101",2025-11-01 04:28:33.746126,2025-11-01 00:28:33.746126
"CYYC",2025-11-01 04:00:00,2025-11-01,"VFR",9,-6,34,210,7,24100,29.64,NA,"FEW  ft; BKN  ft","METAR CYYC 010400Z 21007KT 15SM FEW090 BKN240 09/M06 A2964 RMK AC1CI6 AC TR SLP071 DENSITY ALT 4200FT",2025-11-01 04:28:33.827668,2025-11-01 00:28:33.827668
"CYEG",2025-11-01 04:00:00,2025-11-01,"VFR",7,-2,53,150,12,32200,29.51,NA,"BKN  ft; BKN  ft","METAR CYEG 010400Z 15012G17KT 20SM BKN170 BKN230 07/M02 A2951 RMK AC5CI2 SLP020",2025-11-01 04:28:33.908839,2025-11-01 00:28:33.908839
"CYMM",2025-11-01 04:00:00,2025-11-01,"VFR",2,-1,81,130,15,14500,29.59,NA,"OVC  ft","METAR CYMM 010400Z AUTO 13015G21KT 9SM OVC180 02/M01 A2959 RMK PRESFR SLP042",2025-11-01 04:28:33.992503,2025-11-01 00:28:33.992503
"CYQF",2025-11-01 04:00:00,2025-11-01,"VFR",6,-4,49,130,9,14500,29.55,NA,"BKN  ft; OVC  ft","METAR CYQF 010400Z AUTO 13009KT 9SM BKN180 OVC200 06/M04 A2955 RMK SLP040",2025-11-01 04:28:34.077094,2025-11-01 00:28:34.077094
"CYXE",2025-11-01 04:00:00,2025-11-01,"VFR",-1,-4,80,140,13,24100,29.99,NA,"BKN  ft","METAR CYXE 010400Z 14013G18KT 15SM BKN280 M01/M04 A2999 RMK CI5 SLP184",2025-11-01 04:28:34.157899,2025-11-01 00:28:34.157899
"CYQR",2025-11-01 04:00:00,2025-11-01,"VFR",-1,-4,80,150,9,24100,30.11,NA,"FEW  ft; FEW  ft","METAR CYQR 010400Z 15009KT 15SM FEW024 FEW270 M01/M04 A3011 RMK SC1CI1 SLP227",2025-11-01 04:28:34.242359,2025-11-01 00:28:34.242359
"CYWG",2025-11-01 04:23:00,2025-11-01 00:23:00,"MVFR",2,0,87,340,6,22500,30.15,NA,"BKN  ft","SPECI CYWG 010423Z 34006KT 14SM -RA BKN027 02/00 A3015 RMK SC7 SLP224",2025-11-01 04:28:34.325115,2025-11-01 00:28:34.325115
"CYBR",2025-11-01 04:00:00,2025-11-01,"MVFR",1,-2,81,90,8,14500,30.17,NA,"OVC  ft","METAR CYBR 010400Z AUTO 09008KT 9SM OVC025 01/M02 A3017 RMK SLP239",2025-11-01 04:28:34.408839,2025-11-01 00:28:34.408839
"CYUL",2025-11-01 04:00:00,2025-11-01,"VFR",7,5,87,280,17,19300,29.27,NA,"FEW  ft; OVC  ft","METAR CYUL 010400Z 28017G26KT 12SM -RA FEW015 OVC048 07/05 A2927 RMK SF1NS8 SF TR SLP915",2025-11-01 04:28:34.496188,2025-11-01 00:28:34.496188
"CYHU",2025-10-31 18:00:00,2025-10-31 14:00:00,"IFR",9,9,100,240,18,4800,28.96,NA,"BKN  ft; OVC  ft","METAR CYHU 311800Z AUTO 24018G24KT 3SM RA BR BKN009 OVC013 09/09 A2896 RMK PCPN 3.2MM PAST HR SLP809 DENSITY ALT 600FT",2025-11-01 04:28:34.583402,2025-11-01 00:28:34.583402
"CYQB",2025-11-01 04:00:00,2025-11-01,"VFR",8,5,82,310,8,24100,28.98,NA,"FEW  ft; OVC  ft","METAR CYQB 010400Z 31008G17KT 260V360 15SM FEW025 OVC051 08/05 A2898 RMK SC1SC8 SC TR PRESRR SLP818 DENSITY ALT 600FT",2025-11-01 04:28:34.666349,2025-11-01 00:28:34.666349
"CYVO",2025-11-01 04:00:00,2025-11-01,"VFR",3,-2,70,320,14,14500,29.54,NA,"OVC  ft","METAR CYVO 010400Z AUTO 32014G25KT 9SM OVC042 03/M02 A2954 RMK SLP020",2025-11-01 04:28:34.750106,2025-11-01 00:28:34.750106
"CYUY",2025-11-01 04:00:00,2025-11-01,"VFR",2,-2,75,330,10,24100,29.62,NA,"SCT  ft; OVC  ft","METAR CYUY 010400Z 33010G17KT 15SM SCT020 OVC038 02/M02 A2962 RMK SC3SC5 SLP046",2025-11-01 04:28:34.833935,2025-11-01 00:28:34.833935
"CYZV",2025-11-01 04:00:00,2025-11-01,"MVFR",6,4,87,30,14,8000,28.87,NA,"OVC  ft","METAR CYZV 010400Z 03014G20KT 5SM -RA BR OVC025 06/04 A2887 RMK SF8 SLP780",2025-11-01 04:28:34.874448,2025-11-01 00:28:34.874448
"CYBC",2025-11-01 04:00:00,2025-11-01,"MVFR",8,5,82,30,13,14500,28.85,NA,"OVC  ft","METAR CYBC 010400Z AUTO 03013G19KT 9SM OVC022 08/05 A2885 RMK SLP771 DENSITY ALT 500FT",2025-11-01 04:28:34.955872,2025-11-01 00:28:34.955872
"CYRJ",2025-11-01 04:00:00,2025-11-01,"MVFR",4,4,100,320,14,19300,29.1,NA,"OVC  ft","METAR CYRJ 010400Z 32014G21KT 12SM -RA OVC011 04/04 A2910 RMK SF8 SLP861",2025-11-01 04:28:35.039216,2025-11-01 00:28:35.039216
"CYHZ",2025-11-01 04:00:00,2025-11-01,"MVFR",11,8,82,230,21,24100,29.04,NA,"BKN  ft; OVC  ft","METAR CYHZ 010400Z 23021G28KT 15SM BKN021 OVC085 11/08 A2904 RMK SC7AC1 SLP836 DENSITY ALT 1100FT",2025-11-01 04:28:35.122234,2025-11-01 00:28:35.122234
"CYYG",2025-11-01 04:00:00,2025-11-01,"MVFR",12,9,82,190,16,24100,28.94,NA,"OVC  ft","METAR CYYG 010400Z 19016G23KT 15SM OVC022 12/09 A2894 RMK SC8 SLP801 DENSITY ALT 1000FT",2025-11-01 04:28:35.204264,2025-11-01 00:28:35.204264
"CYQM",2025-11-01 04:00:00,2025-11-01,"VFR",11,9,88,220,18,19300,28.89,NA,"SCT  ft; SCT  ft; BKN  ft; BKN  ft","METAR CYQM 010400Z 22018G25KT 12SM SCT018 SCT025 BKN042 BKN260 11/09 A2889 RMK SC4SC1SC3CI1 SC TR CI TR OCNL -SHRA CVCTV CLD EMBD SLP787 DENSITY ALT 1100FT",2025-11-01 04:28:35.2885,2025-11-01 00:28:35.2885
"CYFC",2025-11-01 04:00:00,2025-11-01,"VFR",10,5,71,240,15,14500,28.91,NA,"BKN  ft; BKN  ft; BKN  ft; OVC  ft","METAR CYFC 010400Z AUTO 24015G30KT 210V270 9SM BKN060 BKN071 BKN097 OVC130 10/05 A2891 RMK SLP793 DENSITY ALT 700FT",2025-11-01 04:28:35.370962,2025-11-01 00:28:35.370962
"CYYT",2025-11-01 04:08:00,2025-11-01 00:08:00,"LIFR",10,10,100,110,21,1200,29.07,NA,"OVC  ft","SPECI CYYT 010408Z 11021G30KT 3/4SM R10/P6000FT/D R16/P6000FT/N RA BR OVC002 10/10 A2907 RMK ST8 PRESFR SLP847 DENSITY ALT 1000FT",2025-11-01 04:28:35.456112,2025-11-01 00:28:35.456112
"CYQY",2025-11-01 04:00:00,2025-11-01,"VFR",11,10,94,220,13,24100,29.03,NA,"FEW  ft; BKN  ft","METAR CYQY 010400Z 22013G19KT 15SM FEW026 BKN058 11/10 A2903 RMK SC2SC5 SLP834 DENSITY ALT 800FT",2025-11-01 04:28:35.5431,2025-11-01 00:28:35.5431
"CYXY",2025-11-01 04:00:00,2025-11-01,"VFR",4,1,81,150,13,24100,28.83,NA,"FEW  ft; SCT  ft; BKN  ft","METAR CYXY 010400Z 15013KT 15SM FEW023 SCT065 BKN170 04/01 A2883 RMK SC2SC2AS3 SLP791 DENSITY ALT 2800FT",2025-11-01 04:28:35.626133,2025-11-01 00:28:35.626133
"CYZF",2025-11-01 04:13:00,2025-11-01 00:13:00,"MVFR",4,2,87,150,21,24100,29.23,NA,"BKN  ft; OVC  ft","SPECI CYZF 010413Z 15021G27KT 15SM -RA BKN013 OVC032 04/02 A2923 RMK SC7SC1 SLP911",2025-11-01 04:28:35.717222,2025-11-01 00:28:35.717222
"CYFB",2025-11-01 04:00:00,2025-11-01,"VFR",-10,-13,79,360,4,24100,29.98,NA,"SKC  ft","METAR CYFB 010400Z 36004KT 270V020 15SM SKC M10/M13 A2998 RMK SLP158",2025-11-01 04:28:35.803018,2025-11-01 00:28:35.803018
"CYRT",2025-11-01 04:20:00,2025-11-01 00:20:00,"VFR",-3,-4,93,250,5,24100,29.96,NA,"SCT  ft; BKN  ft","SPECI CYRT 010420Z 25005KT 15SM -SN SCT008 BKN074 M03/M04 A2996 RMK SC4AC3 SLP152",2025-11-01 04:28:35.843558,2025-11-01 00:28:35.843558
"CYBK",2025-11-01 04:18:00,2025-11-01 00:18:00,"IFR",-3,-4,93,150,11,4800,29.85,NA,"OVC  ft","SPECI CYBK 010418Z 15011KT 3SM -SN OVC009 M03/M04 A2985 RMK SC8 SLP111",2025-11-01 04:28:35.928849,2025-11-01 00:28:35.928849
"CYRB",2025-11-01 04:00:00,2025-11-01,"MVFR",-8,-9,93,360,11,24100,29.89,NA,"OVC  ft","METAR CYRB 010400Z 36011KT 15SM -SN OVC015 M08/M09 A2989 RMK ST8 SLP131",2025-11-01 04:28:36.023319,2025-11-01 00:28:36.023319
"CYCO",2025-11-01 04:00:00,2025-11-01,"MVFR",-1,-3,86,80,18,24100,29.34,NA,"OVC  ft","METAR CYCO 010400Z 08018G24KT 15SM DRSN OVC017 M01/M03 A2934 RMK SC8 SLP940",2025-11-01 04:28:36.067221,2025-11-01 00:28:36.067221
"CYER",2025-11-01 05:20:00,2025-11-01 01:20:00,"LIFR",0,NA,NA,300,8,8000,30.02,NA,"BKN  ft; BKN  ft; OVC  ft","SPECI CYER 010520Z AUTO 30008KT 5SM -SN BKN003 BKN016 OVC021 00/ A3002 RMK DP MISG SLP167",2025-11-01 05:25:05.342636,2025-11-01 01:25:05.342636
"CYAT",2025-11-01 05:00:00,2025-11-01 01:00:00,"VFR",2,1,93,320,8,14500,29.85,NA,"OVC  ft","METAR CYAT 010500Z AUTO 32008KT 9SM OVC039 02/01 A2985 RMK SLP111",2025-11-01 05:25:05.418327,2025-11-01 01:25:05.418327
"CYMO",2025-11-01 05:00:00,2025-11-01 01:00:00,"VFR",2,1,93,310,7,14500,29.78,NA,"SCT  ft; SCT  ft; BKN  ft; BKN  ft","METAR CYMO 010500Z AUTO 31007KT 9SM SCT014 SCT028 BKN033 BKN050 02/01 A2978 RMK SLP086",2025-11-01 05:25:05.487388,2025-11-01 01:25:05.487388
"CYPL",2025-11-01 05:00:00,2025-11-01 01:00:00,"MVFR",0,-1,93,360,6,14500,30.03,NA,"OVC  ft","METAR CYPL 010500Z AUTO 36006KT 310V040 9SM OVC027 00/M01 A3003 RMK SLP193",2025-11-01 05:25:05.559425,2025-11-01 01:25:05.559425
"CYQT",2025-11-01 05:00:00,2025-11-01 01:00:00,"VFR",3,-1,75,10,6,24100,30.02,NA,"BKN  ft","METAR CYQT 010500Z 01006KT 340V050 15SM BKN039 03/M01 A3002 RMK SC7 SLP176",2025-11-01 05:25:05.59209,2025-11-01 01:25:05.59209
"CYAM",2025-11-01 05:00:00,2025-11-01 01:00:00,"VFR",3,-1,75,0,2,24100,29.87,NA,"OVC  ft","METAR CYAM 010500Z VRB02KT 15SM OVC059 03/M01 A2987 RMK SC8 SLP124",2025-11-01 05:25:05.627474,2025-11-01 01:25:05.627474
"CYTS",2025-11-01 05:00:00,2025-11-01 01:00:00,"VFR",0,0,100,300,8,11300,29.78,NA,"SCT  ft; OVC  ft","METAR CYTS 010500Z 30008G15KT 7SM -SN SCT006 OVC037 00/00 A2978 RMK SC4SC4 SLP101",2025-11-01 05:25:05.69549,2025-11-01 01:25:05.69549
"CYSB",2025-11-01 05:00:00,2025-11-01 01:00:00,"VFR",1,-1,87,300,10,24100,29.76,NA,"OVC  ft","METAR CYSB 010500Z 30010KT 15SM OVC034 01/M01 A2976 RMK SC8 SLP092",2025-11-01 05:25:05.771127,2025-11-01 01:25:05.771127
"CYYB",2025-11-01 05:08:00,2025-11-01 01:08:00,"MVFR",2,0,87,310,7,14500,29.69,NA,"FEW  ft; BKN  ft; BKN  ft; OVC  ft","SPECI CYYB 010508Z AUTO 31007KT 9SM FEW016 BKN023 BKN027 OVC036 02/M00 A2969 RMK SLP070",2025-11-01 05:25:05.844065,2025-11-01 01:25:05.844065
"CYOW",2025-11-01 05:00:00,2025-11-01 01:00:00,"MVFR",5,2,81,290,20,9999,29.49,NA,"BKN  ft; OVC  ft","METAR CYOW 010500Z 29020G28KT 10SM BKN015 OVC025 05/02 A2949 RMK SC5SC3 SLP991",2025-11-01 05:25:05.912977,2025-11-01 01:25:05.912977
"CYGK",2025-11-01 03:00:00,2025-10-31 23:00:00,"MVFR",4,3,93,280,12,8000,29.58,NA,"OVC  ft","METAR CYGK 010300Z 28012G23KT 5SM -RA BR OVC014 04/03 A2958 RMK SC8 LAST STFD OBS/NXT 011000Z SLP022",2025-11-01 05:25:05.98659,2025-11-01 01:25:05.98659
"CYQG",2025-11-01 05:00:00,2025-11-01 01:00:00,"VFR",6,0,66,270,7,14500,29.9,NA,"SCT  ft","METAR CYQG 010500Z AUTO 27007KT 9SM SCT071 06/00 A2990 RMK SLP128",2025-11-01 05:25:06.063833,2025-11-01 01:25:06.063833
"CYVV",2025-11-01 05:00:00,2025-11-01 01:00:00,"VFR",6,0,66,330,6,24100,29.79,NA,"OVC  ft","METAR CYVV 010500Z 33006KT 290V010 15SM OVC055 06/00 A2979 RMK SC8 SLP094",2025-11-01 05:25:06.132824,2025-11-01 01:25:06.132824
"CYYZ",2025-11-01 05:00:00,2025-11-01 01:00:00,"VFR",5,1,76,280,11,24100,29.77,NA,"FEW  ft","METAR CYYZ 010500Z 28011KT 15SM FEW030 05/01 A2977 RMK SC2 SLP086",2025-11-01 05:25:06.207673,2025-11-01 01:25:06.207673
"CYQA",2025-11-01 05:00:00,2025-11-01 01:00:00,"VFR",4,1,81,320,11,14500,29.71,NA,"FEW  ft; OVC  ft","METAR CYQA 010500Z AUTO 32011G20KT 9SM FEW019 OVC041 04/01 A2971 RMK SLP071",2025-11-01 05:25:06.278407,2025-11-01 01:25:06.278407
"CYVR",2025-11-01 05:00:00,2025-11-01 01:00:00,"MVFR",11,11,100,70,6,12900,29.9,NA,"BKN  ft; BKN  ft; OVC  ft","METAR CYVR 010500Z 07006KT 8SM BKN013 BKN150 OVC210 11/11 A2990 RMK SF5AC2CI1 SLP129",2025-11-01 05:25:06.3487,2025-11-01 01:25:06.3487
"CYYJ",2025-11-01 05:00:00,2025-11-01 01:00:00,"VFR",10,10,100,130,10,32200,29.9,NA,"FEW  ft; SCT  ft; BKN  ft; BKN  ft","METAR CYYJ 010500Z 13010KT 20SM -RA FEW003 SCT032 BKN094 BKN250 10/10 A2990 RMK SC1SC3AC3CI1 CI TR SLP128",2025-11-01 05:25:06.418107,2025-11-01 01:25:06.418107
"CYLW",2025-11-01 05:00:00,2025-11-01 01:00:00,"VFR",9,3,66,230,6,14500,29.91,NA,"OVC  ft","METAR CYLW 010500Z AUTO 23006KT 150V260 9SM OVC066 09/03 A2991 RMK SLP144",2025-11-01 05:25:06.491978,2025-11-01 01:25:06.491978
"CYXS",2025-11-01 05:00:00,2025-11-01 01:00:00,"VFR",7,2,71,200,8,14500,29.54,NA,"SCT  ft; BKN  ft; OVC  ft","METAR CYXS 010500Z AUTO 20008KT 9SM SCT100 BKN120 OVC140 07/02 A2954 RMK SLP023",2025-11-01 05:25:06.560835,2025-11-01 01:25:06.560835
"CYXT",2025-11-01 05:17:00,2025-11-01 01:17:00,"MVFR",6,6,100,170,24,4800,29.48,NA,"FEW  ft; OVC  ft","SPECI CYXT 010517Z 17024G32KT 3SM RA BR FEW007 OVC030 06/06 A2948 RMK SF1SC7 SLP990",2025-11-01 05:25:06.635792,2025-11-01 01:25:06.635792
"CYQQ",2025-11-01 05:00:00,2025-11-01 01:00:00,"VFR",11,9,88,150,10,32200,29.84,NA,"FEW  ft; BKN  ft","METAR CYQQ 010500Z 15010G18KT 20SM FEW055 BKN160 11/09 A2984 RMK SC1AC6 DENSITY ALT -133FT SLP106",2025-11-01 05:25:06.706828,2025-11-01 01:25:06.706828
"CYYC",2025-11-01 05:00:00,2025-11-01 01:00:00,"VFR",9,-5,37,190,5,24100,29.62,NA,"BKN  ft","METAR CYYC 010500Z 19005KT 15SM BKN250 09/M05 A2962 RMK CI6 SLP062 DENSITY ALT 4200FT",2025-11-01 05:25:06.778079,2025-11-01 01:25:06.778079
"CYEG",2025-11-01 05:00:00,2025-11-01 01:00:00,"VFR",7,-2,53,150,7,32200,29.51,NA,"FEW  ft; BKN  ft; BKN  ft","METAR CYEG 010500Z 15007KT 20SM FEW150 BKN190 BKN230 07/M02 A2951 RMK AC2AC4CI1 SLP018",2025-11-01 05:25:06.808251,2025-11-01 01:25:06.808251
"CYMM",2025-11-01 05:00:00,2025-11-01 01:00:00,"VFR",1,-1,87,120,11,14500,29.58,NA,"OVC  ft","METAR CYMM 010500Z AUTO 12011KT 9SM OVC160 01/M01 A2958 RMK SLP039",2025-11-01 05:25:06.877788,2025-11-01 01:25:06.877788
"CYQF",2025-11-01 05:00:00,2025-11-01 01:00:00,"VFR",6,-4,49,120,6,14500,29.54,NA,"FEW  ft","METAR CYQF 010500Z AUTO 12006KT 9SM FEW230 06/M04 A2954 RMK SLP034",2025-11-01 05:25:06.94667,2025-11-01 01:25:06.94667
"CYXE",2025-11-01 05:00:00,2025-11-01 01:00:00,"VFR",-1,-4,80,140,11,24100,29.96,NA,"BKN  ft","METAR CYXE 010500Z 14011KT 15SM BKN280 M01/M04 A2996 RMK CI6 SLP173",2025-11-01 05:25:06.979601,2025-11-01 01:25:06.979601
"CYQR",2025-11-01 05:00:00,2025-11-01 01:00:00,"VFR",-2,-4,86,150,11,24100,30.09,NA,"FEW  ft","METAR CYQR 010500Z 15011KT 15SM FEW270 M02/M04 A3009 RMK CI2 SLP223",2025-11-01 05:25:07.010775,2025-11-01 01:25:07.010775
"CYWG",2025-11-01 05:16:00,2025-11-01 01:16:00,"MVFR",2,1,93,330,7,24100,30.15,NA,"FEW  ft; BKN  ft","SPECI CYWG 010516Z 33007KT 15SM FEW015 BKN029 02/01 A3015 RMK SF1SC7 SF TR SLP224",2025-11-01 05:25:07.094841,2025-11-01 01:25:07.094841
"CYBR",2025-11-01 05:00:00,2025-11-01 01:00:00,"MVFR",1,-2,81,70,6,14500,30.18,NA,"OVC  ft","METAR CYBR 010500Z AUTO 07006KT 9SM OVC023 01/M02 A3018 RMK SLP242",2025-11-01 05:25:07.164594,2025-11-01 01:25:07.164594
"CYUL",2025-11-01 05:00:00,2025-11-01 01:00:00,"MVFR",7,5,87,280,16,24100,29.32,NA,"OVC  ft","METAR CYUL 010500Z 28016G23KT 15SM OVC030 07/05 A2932 RMK SC8 PRESRR SLP932",2025-11-01 05:25:07.235967,2025-11-01 01:25:07.235967
"CYHU",2025-10-31 18:00:00,2025-10-31 14:00:00,"IFR",9,9,100,240,18,4800,28.96,NA,"BKN  ft; OVC  ft","METAR CYHU 311800Z AUTO 24018G24KT 3SM RA BR BKN009 OVC013 09/09 A2896 RMK PCPN 3.2MM PAST HR SLP809 DENSITY ALT 600FT",2025-11-01 05:25:07.312043,2025-11-01 01:25:07.312043
"CYQB",2025-11-01 05:00:00,2025-11-01 01:00:00,"VFR",8,4,76,290,6,24100,29.04,NA,"FEW  ft; SCT  ft; OVC  ft","METAR CYQB 010500Z 29006KT 260V050 15SM FEW029 SCT067 OVC093 08/04 A2904 RMK SC1AC2AC5 SLP838 DENSITY ALT 500FT",2025-11-01 05:25:07.381093,2025-11-01 01:25:07.381093
"CYVO",2025-11-01 05:00:00,2025-11-01 01:00:00,"VFR",3,-2,70,320,14,14500,29.56,NA,"FEW  ft; OVC  ft","METAR CYVO 010500Z AUTO 32014G22KT 290V360 9SM FEW030 OVC042 03/M02 A2956 RMK SLP026",2025-11-01 05:25:07.45531,2025-11-01 01:25:07.45531
"CYUY",2025-11-01 05:00:00,2025-11-01 01:00:00,"MVFR",2,-1,81,330,10,24100,29.64,NA,"BKN  ft; OVC  ft","METAR CYUY 010500Z 33010G17KT 15SM BKN018 OVC035 02/M01 A2964 RMK SC6SC2 SLP052",2025-11-01 05:25:07.525896,2025-11-01 01:25:07.525896
"CYZV",2025-11-01 05:00:00,2025-11-01 01:00:00,"MVFR",6,5,93,30,13,8000,28.84,NA,"OVC  ft","METAR CYZV 010500Z 03013KT 5SM -RA BR OVC029 06/05 A2884 RMK SF8 SLP770 DENSITY ALT 400FT",2025-11-01 05:25:07.595673,2025-11-01 01:25:07.595673
"CYBC",2025-11-01 05:00:00,2025-11-01 01:00:00,"MVFR",7,5,87,360,9,14500,28.85,NA,"OVC  ft","METAR CYBC 010500Z AUTO 36009KT 9SM OVC020 07/05 A2885 RMK SLP773 DENSITY ALT 400FT",2025-11-01 05:25:07.665337,2025-11-01 01:25:07.665337
"CYRJ",2025-11-01 05:00:00,2025-11-01 01:00:00,"MVFR",4,4,100,310,14,19300,29.13,NA,"OVC  ft","METAR CYRJ 010500Z 31014G22KT 12SM -RA OVC010 04/04 A2913 RMK SF8 SLP871",2025-11-01 05:25:07.738184,2025-11-01 01:25:07.738184
"CYHZ",2025-11-01 05:00:00,2025-11-01 01:00:00,"VFR",10,7,82,240,27,24100,29.05,NA,"OVC  ft","METAR CYHZ 010500Z 24027G38KT 15SM OVC041 10/07 A2905 RMK SC8 SLP839 DENSITY ALT 1100FT",2025-11-01 05:25:07.807394,2025-11-01 01:25:07.807394
"CYYG",2025-11-01 05:00:00,2025-11-01 01:00:00,"MVFR",11,9,88,200,15,24100,28.92,NA,"OVC  ft","METAR CYYG 010500Z 20015G23KT 15SM -SHRA OVC023 11/09 A2892 RMK SC8 CVCTV CLD EMBD SLP794 DENSITY ALT 1000FT",2025-11-01 05:25:07.87734,2025-11-01 01:25:07.87734
"CYQM",2025-11-01 05:00:00,2025-11-01 01:00:00,"VFR",10,8,88,220,13,19300,28.9,NA,"FEW  ft; BKN  ft; BKN  ft; BKN  ft","METAR CYQM 010500Z 22013G19KT 12SM FEW023 BKN041 BKN067 BKN260 10/08 A2890 RMK SC2SC5AC1CI1 AC TR CI TR OCNL -SHRA CVCTV CLD EMBD SLP789 DENSITY ALT 900FT",2025-11-01 05:25:07.905222,2025-11-01 01:25:07.905222
"CYFC",2025-11-01 05:05:00,2025-11-01 01:05:00,"VFR",9,5,76,230,15,14500,28.92,NA,"FEW  ft; BKN  ft; OVC  ft","SPECI CYFC 010505Z AUTO 23015G24KT 9SM FEW044 BKN066 OVC082 09/05 A2892 RMK SLP796 DENSITY ALT 600FT",2025-11-01 05:25:07.973789,2025-11-01 01:25:07.973789
"CYYT",2025-11-01 05:00:00,2025-11-01 01:00:00,"LIFR",10,10,100,90,21,1200,28.93,NA,"OVC  ft","METAR CYYT 010500Z 09021G34KT 3/4SM R10/5000VP6000FT/U R16/6000FT/U +RA BR OVC002 10/10 A2893 RMK ST8 PRESFR SLP802 DENSITY ALT 1100FT",2025-11-01 05:25:08.041739,2025-11-01 01:25:08.041739
"CYQY",2025-11-01 05:00:00,2025-11-01 01:00:00,"VFR",11,10,94,210,13,24100,29,NA,"SCT  ft","METAR CYQY 010500Z 21013G20KT 15SM SCT054 11/10 A2900 RMK SC3 PRESFR SLP825 DENSITY ALT 800FT",2025-11-01 05:25:08.112675,2025-11-01 01:25:08.112675
"CYXY",2025-11-01 05:00:00,2025-11-01 01:00:00,"VFR",4,0,75,150,16,24100,28.86,NA,"FEW  ft; SCT  ft; OVC  ft","METAR CYXY 010500Z 15016KT 15SM FEW023 SCT060 OVC170 04/00 A2886 RMK SC1SC2AS5 SLP802 DENSITY ALT 2800FT",2025-11-01 05:25:08.182435,2025-11-01 01:25:08.182435
"CYZF",2025-11-01 05:00:00,2025-11-01 01:00:00,"IFR",3,3,100,150,19,9700,29.2,NA,"OVC  ft","METAR CYZF 010500Z 15019G28KT 6SM -RA OVC007 03/03 A2920 RMK SC8 SLP903",2025-11-01 05:25:08.254109,2025-11-01 01:25:08.254109
"CYFB",2025-11-01 05:00:00,2025-11-01 01:00:00,"VFR",-13,-16,78,350,5,24100,29.98,NA,"FEW  ft","METAR CYFB 010500Z 35005KT 15SM FEW030 M13/M16 A2998 RMK SC1 SC TR SLP157",2025-11-01 05:25:08.328768,2025-11-01 01:25:08.328768
"CYRT",2025-11-01 05:21:00,2025-11-01 01:21:00,"MVFR",-3,-5,86,220,6,4800,29.94,NA,"FEW  ft; BKN  ft","SPECI CYRT 010521Z 22006KT 3SM -SN FEW008 BKN025 M03/M05 A2994 RMK SC1SC6 SLP145",2025-11-01 05:25:08.358799,2025-11-01 01:25:08.358799
"CYBK",2025-11-01 05:00:00,2025-11-01 01:00:00,"IFR",-3,-4,93,160,8,24100,29.84,NA,"OVC  ft","METAR CYBK 010500Z 16008KT 15SM -SN OVC008 M03/M04 A2984 RMK SC8 SLP108",2025-11-01 05:25:08.433167,2025-11-01 01:25:08.433167
"CYRB",2025-11-01 05:00:00,2025-11-01 01:00:00,"MVFR",-8,-10,86,10,7,24100,29.89,NA,"OVC  ft","METAR CYRB 010500Z 01007KT 15SM -SN OVC015 M08/M10 A2989 RMK SC8 SLP131",2025-11-01 05:25:08.517568,2025-11-01 01:25:08.517568
"CYCO",2025-11-01 05:00:00,2025-11-01 01:00:00,"MVFR",-1,-3,86,90,22,24100,29.31,NA,"OVC  ft","METAR CYCO 010500Z 09022KT 15SM DRSN OVC016 M01/M03 A2931 RMK SC8 SLP930",2025-11-01 05:25:08.588492,2025-11-01 01:25:08.588492
"CYER",2025-11-01 06:14:00,2025-11-01 02:14:00,"IFR",0,NA,NA,300,7,14500,30.01,NA,"BKN  ft; BKN  ft; BKN  ft; OVC  ft","SPECI CYER 010614Z AUTO 30007KT 9SM BKN005 BKN008 BKN026 OVC042 M00/ A3001 RMK DP MISG SLP166",2025-11-01 06:35:11.577263,2025-11-01 02:35:11.577263
"CYAT",2025-11-01 06:27:00,2025-11-01 02:27:00,"MVFR",2,1,93,320,7,14500,29.86,NA,"BKN  ft; OVC  ft","SPECI CYAT 010627Z AUTO 32007KT 9SM BKN014 OVC043 02/01 A2986 RMK SLP115",2025-11-01 06:35:11.621773,2025-11-01 02:35:11.621773
"CYMO",2025-11-01 06:00:00,2025-11-01 02:00:00,"VFR",1,1,100,320,10,14500,29.79,NA,"BKN  ft","METAR CYMO 010600Z AUTO 32010KT 9SM BKN036 01/01 A2979 RMK SLP090",2025-11-01 06:35:11.693901,2025-11-01 02:35:11.693901
"CYPL",2025-11-01 06:07:00,2025-11-01 02:07:00,"MVFR",0,-2,87,10,5,14500,30.03,NA,"OVC  ft","SPECI CYPL 010607Z AUTO 01005KT 300V050 9SM OVC023 00/M02 A3003 RMK SLP193",2025-11-01 06:35:11.769307,2025-11-01 02:35:11.769307
"CYQT",2025-11-01 06:00:00,2025-11-01 02:00:00,"VFR",2,-2,75,350,7,24100,30.02,NA,"OVC  ft","METAR CYQT 010600Z 35007KT 15SM OVC041 02/M02 A3002 RMK SC8 SLP177",2025-11-01 06:35:11.844083,2025-11-01 02:35:11.844083
"CYAM",2025-11-01 06:00:00,2025-11-01 02:00:00,"VFR",2,-1,81,0,0,24100,29.89,NA,"OVC  ft","METAR CYAM 010600Z 00000KT 15SM OVC057 02/M01 A2989 RMK SC8 SLP130",2025-11-01 06:35:11.917289,2025-11-01 02:35:11.917289
"CYTS",2025-11-01 06:00:00,2025-11-01 02:00:00,"IFR",0,0,100,310,10,9999,29.8,NA,"BKN  ft; OVC  ft","METAR CYTS 010600Z 31010KT 10SM -SN BKN009 OVC036 00/M00 A2980 RMK SC6SC2 SLP108",2025-11-01 06:35:11.990923,2025-11-01 02:35:11.990923
"CYSB",2025-11-01 06:24:00,2025-11-01 02:24:00,"MVFR",1,-2,81,330,14,9999,29.77,NA,"OVC  ft","SPECI CYSB 010624Z 33014G21KT 10SM -SN OVC021 01/M02 A2977 RMK SC8 SLP096",2025-11-01 06:35:12.070304,2025-11-01 02:35:12.070304
"CYYB",2025-11-01 06:22:00,2025-11-01 02:22:00,"MVFR",2,-1,81,310,8,14500,29.71,NA,"FEW  ft; OVC  ft","SPECI CYYB 010622Z AUTO 31008KT 9SM FEW023 OVC028 02/M01 A2971 RMK SLP076",2025-11-01 06:35:12.143382,2025-11-01 02:35:12.143382
"CYOW",2025-11-01 06:00:00,2025-11-01 02:00:00,"MVFR",5,2,81,290,18,24100,29.53,NA,"BKN  ft","METAR CYOW 010600Z 29018G26KT 15SM BKN025 05/02 A2953 RMK SC7 PRESRR SLP005",2025-11-01 06:35:12.222772,2025-11-01 02:35:12.222772
"CYGK",2025-11-01 03:00:00,2025-10-31 23:00:00,"MVFR",4,3,93,280,12,8000,29.58,NA,"OVC  ft","METAR CYGK 010300Z 28012G23KT 5SM -RA BR OVC014 04/03 A2958 RMK SC8 LAST STFD OBS/NXT 011000Z SLP022",2025-11-01 06:35:12.30322,2025-11-01 02:35:12.30322
"CYQG",2025-11-01 06:00:00,2025-11-01 02:00:00,"VFR",5,0,70,260,6,14500,29.91,NA,"CLR  ft","METAR CYQG 010600Z AUTO 26006KT 9SM CLR 05/00 A2991 RMK SLP134",2025-11-01 06:35:12.377298,2025-11-01 02:35:12.377298
"CYVV",2025-11-01 06:00:00,2025-11-01 02:00:00,"VFR",6,0,66,330,6,24100,29.8,NA,"SCT  ft","METAR CYVV 010600Z 33006G19KT 270V030 15SM SCT058 06/M00 A2980 RMK SC4 SLP099",2025-11-01 06:35:12.451026,2025-11-01 02:35:12.451026
"CYYZ",2025-11-01 06:00:00,2025-11-01 02:00:00,"VFR",3,1,87,260,6,24100,29.78,NA,"FEW  ft; BKN  ft","METAR CYYZ 010600Z 26006KT 15SM FEW030 BKN058 03/01 A2978 RMK SC1SC6 SC TR SLP091",2025-11-01 06:35:12.526168,2025-11-01 02:35:12.526168
"CYQA",2025-11-01 06:00:00,2025-11-01 02:00:00,"VFR",3,1,87,330,13,14500,29.72,NA,"SCT  ft; BKN  ft","METAR CYQA 010600Z AUTO 33013G19KT 9SM SCT020 BKN043 03/01 A2972 RMK SLP078",2025-11-01 06:35:12.602287,2025-11-01 02:35:12.602287
"CYVR",2025-11-01 06:00:00,2025-11-01 02:00:00,"IFR",11,11,100,70,7,8000,29.91,NA,"BKN  ft; OVC  ft","METAR CYVR 010600Z 07007KT 5SM BR BKN009 OVC062 11/11 A2991 RMK SF7SC1 SLP132",2025-11-01 06:35:12.676162,2025-11-01 02:35:12.676162
"CYYJ",2025-11-01 06:00:00,2025-11-01 02:00:00,"VFR",11,11,100,130,4,48300,29.91,NA,"FEW  ft; SCT  ft; BKN  ft","METAR CYYJ 010600Z 13004KT 100V170 30SM FEW004 SCT042 BKN140 11/11 A2991 RMK SF1SC3AC3 SLP130",2025-11-01 06:35:12.749938,2025-11-01 02:35:12.749938
"CYLW",2025-11-01 06:26:00,2025-11-01 02:26:00,"VFR",8,3,71,150,5,14500,29.92,NA,"OVC  ft","SPECI CYLW 010626Z AUTO 15005KT 110V190 9SM OVC060 08/03 A2992 RMK SLP144",2025-11-01 06:35:12.825998,2025-11-01 02:35:12.825998
"CYXS",2025-11-01 06:00:00,2025-11-01 02:00:00,"VFR",7,2,71,180,11,14500,29.54,NA,"OVC  ft","METAR CYXS 010600Z AUTO 18011G16KT 9SM OVC110 07/02 A2954 RMK SLP022",2025-11-01 06:35:12.899187,2025-11-01 02:35:12.899187
"CYXT",2025-11-01 06:00:00,2025-11-01 02:00:00,"MVFR",6,6,100,180,18,6400,29.5,NA,"FEW  ft; SCT  ft; OVC  ft","METAR CYXT 010600Z 18018G23KT 4SM -RA BR FEW005 SCT012 OVC035 06/06 A2950 RMK SF1SC2SC5 SLP997",2025-11-01 06:35:12.971169,2025-11-01 02:35:12.971169
"CYQQ",2025-11-01 06:00:00,2025-11-01 02:00:00,"VFR",11,9,88,160,16,32200,29.86,NA,"SCT  ft; OVC  ft","METAR CYQQ 010600Z 16016KT 20SM SCT055 OVC160 11/09 A2986 RMK SC3AC5 DENSITY ALT -133FT SLP111",2025-11-01 06:35:13.045043,2025-11-01 02:35:13.045043
"CYYC",2025-11-01 06:00:00,2025-11-01 02:00:00,"VFR",9,-4,40,260,3,24100,29.62,NA,"BKN  ft","METAR CYYC 010600Z 26003KT 230V300 15SM BKN250 09/M04 A2962 RMK CI6 PRESRR SLP062 DENSITY ALT 4200FT",2025-11-01 06:35:13.117172,2025-11-01 02:35:13.117172
"CYEG",2025-11-01 06:00:00,2025-11-01 02:00:00,"VFR",5,-3,57,160,5,32200,29.51,NA,"BKN  ft; BKN  ft","METAR CYEG 010600Z 16005KT 20SM BKN140 BKN230 05/M03 A2951 RMK AC5CI1 SLP016",2025-11-01 06:35:13.190315,2025-11-01 02:35:13.190315
"CYMM",2025-11-01 06:00:00,2025-11-01 02:00:00,"VFR",1,-1,87,120,9,14500,29.56,NA,"BKN  ft; OVC  ft","METAR CYMM 010600Z AUTO 12009KT 9SM BKN120 OVC140 01/M01 A2956 RMK SLP031",2025-11-01 06:35:13.272924,2025-11-01 02:35:13.272924
"CYQF",2025-11-01 06:00:00,2025-11-01 02:00:00,"VFR",5,-4,53,190,5,14500,29.55,NA,"BKN  ft","METAR CYQF 010600Z AUTO 19005KT 9SM BKN240 05/M04 A2955 RMK SLP036",2025-11-01 06:35:13.347376,2025-11-01 02:35:13.347376
"CYXE",2025-11-01 06:00:00,2025-11-01 02:00:00,"VFR",0,-4,75,140,13,24100,29.92,NA,"BKN  ft","METAR CYXE 010600Z 14013G19KT 15SM BKN300 00/M04 A2992 RMK CI5 SLP158",2025-11-01 06:35:13.419296,2025-11-01 02:35:13.419296
"CYQR",2025-11-01 06:00:00,2025-11-01 02:00:00,"VFR",-3,-4,93,150,11,24100,30.07,NA,"SCT  ft","METAR CYQR 010600Z 15011KT 15SM SCT270 M03/M04 A3007 RMK CI4 SLP217",2025-11-01 06:35:13.493136,2025-11-01 02:35:13.493136
"CYWG",2025-11-01 06:15:00,2025-11-01 02:15:00,"VFR",1,0,93,320,7,24100,30.15,NA,"BKN  ft","SPECI CYWG 010615Z 32007KT 15SM BKN035 01/00 A3015 RMK SC7 SLP225",2025-11-01 06:35:13.566236,2025-11-01 02:35:13.566236
"CYBR",2025-11-01 06:00:00,2025-11-01 02:00:00,"MVFR",1,-2,81,100,3,14500,30.17,NA,"OVC  ft","METAR CYBR 010600Z AUTO 10003KT 9SM OVC021 01/M02 A3017 RMK SLP239",2025-11-01 06:35:13.638324,2025-11-01 02:35:13.638324
"CYUL",2025-11-01 06:22:00,2025-11-01 02:22:00,"MVFR",7,4,81,280,14,24100,29.39,NA,"BKN  ft; OVC  ft","SPECI CYUL 010622Z 28014KT 15SM BKN028 OVC090 07/04 A2939 RMK SC6AS2 SLP954",2025-11-01 06:35:13.712173,2025-11-01 02:35:13.712173
"CYHU",2025-10-31 18:00:00,2025-10-31 14:00:00,"IFR",9,9,100,240,18,4800,28.96,NA,"BKN  ft; OVC  ft","METAR CYHU 311800Z AUTO 24018G24KT 3SM RA BR BKN009 OVC013 09/09 A2896 RMK PCPN 3.2MM PAST HR SLP809 DENSITY ALT 600FT",2025-11-01 06:35:13.78928,2025-11-01 02:35:13.78928
"CYQB",2025-11-01 06:00:00,2025-11-01 02:00:00,"VFR",7,4,81,280,8,24100,29.09,NA,"FEW  ft; BKN  ft; OVC  ft","METAR CYQB 010600Z 28008KT 15SM FEW034 BKN096 OVC130 07/04 A2909 RMK SC2AC5AC1 PRESRR SLP854",2025-11-01 06:35:13.862056,2025-11-01 02:35:13.862056
"CYVO",2025-11-01 06:00:00,2025-11-01 02:00:00,"VFR",2,-2,75,320,12,14500,29.58,NA,"OVC  ft","METAR CYVO 010600Z AUTO 32012G23KT 290V350 9SM OVC042 02/M02 A2958 RMK SLP034",2025-11-01 06:35:13.933321,2025-11-01 02:35:13.933321
"CYUY",2025-11-01 06:00:00,2025-11-01 02:00:00,"VFR",2,-1,81,320,12,24100,29.66,NA,"SCT  ft; OVC  ft","METAR CYUY 010600Z 32012G21KT 15SM SCT017 OVC034 02/M01 A2966 RMK SC4SC4 SLP057",2025-11-01 06:35:14.00545,2025-11-01 02:35:14.00545
"CYZV",2025-11-01 06:10:00,2025-11-01 02:10:00,"VFR",6,5,93,10,7,9999,28.83,NA,"OVC  ft","SPECI CYZV 010610Z 01007G15KT 10SM OVC036 06/05 A2883 RMK SF8 SLP766 DENSITY ALT 400FT",2025-11-01 06:35:14.080544,2025-11-01 02:35:14.080544
"CYBC",2025-11-01 06:27:00,2025-11-01 02:27:00,"MVFR",7,5,87,340,7,14500,28.88,NA,"OVC  ft","SPECI CYBC 010627Z AUTO 34007G15KT 300V020 9SM OVC028 07/05 A2888 RMK SLP781 DENSITY ALT 300FT",2025-11-01 06:35:14.155218,2025-11-01 02:35:14.155218
"CYRJ",2025-11-01 06:00:00,2025-11-01 02:00:00,"MVFR",4,4,100,310,15,19300,29.16,NA,"OVC  ft","METAR CYRJ 010600Z 31015G24KT 12SM -RA OVC014 04/04 A2916 RMK SC8 SLP881",2025-11-01 06:35:14.22804,2025-11-01 02:35:14.22804
"CYHZ",2025-11-01 06:00:00,2025-11-01 02:00:00,"MVFR",10,6,76,240,27,24100,29.05,NA,"BKN  ft; OVC  ft","METAR CYHZ 010600Z 24027G36KT 15SM BKN021 OVC037 10/06 A2905 RMK SC6SC2 SLP842 DENSITY ALT 1000FT",2025-11-01 06:35:14.306067,2025-11-01 02:35:14.306067
"CYYG",2025-11-01 06:00:00,2025-11-01 02:00:00,"MVFR",11,8,82,210,16,24100,28.91,NA,"OVC  ft","METAR CYYG 010600Z 21016G28KT 15SM -SHRA OVC017 11/08 A2891 RMK SC8 CVCTV CLD EMBD SLP793 DENSITY ALT 900FT",2025-11-01 06:35:14.380165,2025-11-01 02:35:14.380165
"CYQM",2025-11-01 06:00:00,2025-11-01 02:00:00,"MVFR",10,8,88,210,17,19300,28.9,NA,"BKN  ft; BKN  ft; OVC  ft","METAR CYQM 010600Z CCA 21017G24KT 12SM BKN018 BKN025 OVC038 10/08 A2890 RMK SC7SC1SC1 SC TR SLP789 DENSITY ALT 900FT",2025-11-01 06:35:14.457255,2025-11-01 02:35:14.457255
"CYFC",2025-11-01 06:22:00,2025-11-01 02:22:00,"MVFR",8,7,93,220,10,9700,28.93,NA,"FEW  ft; BKN  ft; BKN  ft; OVC  ft","SPECI CYFC 010622Z AUTO 22010G18KT 6SM -RA BR FEW018 BKN022 BKN029 OVC039 08/07 A2893 RMK SLP800 DENSITY ALT 400FT",2025-11-01 06:35:14.533395,2025-11-01 02:35:14.533395
"CYYT",2025-11-01 06:00:00,2025-11-01 02:00:00,"LIFR",9,9,100,90,17,NA,28.8,NA,"OVX  ft","METAR CYYT 010600Z 09017G27KT 1/2SM R10/P6000FT/U R16/5000VP6000FT/U RA FG VV002 09/09 A2880 RMK FG8 /R37/ PRESFR SLP756 DENSITY ALT 1200FT",2025-11-01 06:35:14.612031,2025-11-01 02:35:14.612031
"CYQY",2025-11-01 06:00:00,2025-11-01 02:00:00,"VFR",11,10,94,220,12,24100,28.98,NA,"BKN  ft","METAR CYQY 010600Z 22012G21KT 15SM BKN059 11/10 A2898 RMK SC5 SLP818 DENSITY ALT 900FT",2025-11-01 06:35:14.687198,2025-11-01 02:35:14.687198
"CYXY",2025-11-01 06:00:00,2025-11-01 02:00:00,"VFR",4,-1,70,160,16,24100,28.9,NA,"FEW  ft; OVC  ft","METAR CYXY 010600Z 16016G24KT 15SM FEW023 OVC170 04/M01 A2890 RMK SC1AS7 SLP815 DENSITY ALT 2800FT",2025-11-01 06:35:14.762326,2025-11-01 02:35:14.762326
"CYZF",2025-11-01 06:00:00,2025-11-01 02:00:00,"IFR",3,3,100,150,15,9700,29.17,NA,"OVC  ft","METAR CYZF 010600Z 15015G22KT 6SM -RA OVC005 03/03 A2917 RMK SC8 SLP892",2025-11-01 06:35:14.836945,2025-11-01 02:35:14.836945
"CYFB",2025-11-01 06:00:00,2025-11-01 02:00:00,"VFR",-12,-14,85,360,4,24100,29.97,NA,"FEW  ft","METAR CYFB 010600Z 36004KT 15SM FEW030 M12/M14 A2997 RMK SC1 SC TR SLP156",2025-11-01 06:35:14.883872,2025-11-01 02:35:14.883872
"CYRT",2025-11-01 06:00:00,2025-11-01 02:00:00,"MVFR",-3,-4,93,190,6,4800,29.93,NA,"FEW  ft; OVC  ft","METAR CYRT 010600Z 19006KT 3SM -SN FEW005 OVC018 M03/M04 A2993 RMK SC1SC8 SC TR SLP141",2025-11-01 06:35:14.964315,2025-11-01 02:35:14.964315
"CYBK",2025-11-01 06:00:00,2025-11-01 02:00:00,"IFR",-3,-4,93,170,6,24100,29.81,NA,"OVC  ft","METAR CYBK 010600Z 17006KT 15SM -SN OVC008 M03/M04 A2981 RMK SC8 SLP099",2025-11-01 06:35:15.036121,2025-11-01 02:35:15.036121
"CYRB",2025-11-01 06:00:00,2025-11-01 02:00:00,"MVFR",-9,-10,93,0,0,12900,29.88,NA,"OVC  ft","METAR CYRB 010600Z 00000KT 8SM -SN OVC015 M09/M10 A2988 RMK ST8 SLP129",2025-11-01 06:35:15.123458,2025-11-01 02:35:15.123458
"CYCO",2025-11-01 06:00:00,2025-11-01 02:00:00,"MVFR",0,-2,87,90,23,24100,29.27,NA,"OVC  ft","METAR CYCO 010600Z 09023G28KT 15SM DRSN OVC018 M00/M02 A2927 RMK SC8 SLP915",2025-11-01 06:35:15.198462,2025-11-01 02:35:15.198462
"CYER",2025-11-01 07:16:00,2025-11-01 03:16:00,"MVFR",0,NA,NA,300,7,6400,30.02,NA,"SCT  ft; BKN  ft; OVC  ft","SPECI CYER 010716Z AUTO 30007KT 4SM -SN SCT005 BKN013 OVC018 M00/ A3002 RMK DP MISG SLP167",2025-11-01 07:22:57.867059,2025-11-01 03:22:57.867059
"CYAT",2025-11-01 07:00:00,2025-11-01 03:00:00,"VFR",2,1,93,310,8,14500,29.86,NA,"FEW  ft; OVC  ft","METAR CYAT 010700Z AUTO 31008KT 9SM FEW014 OVC041 02/01 A2986 RMK SLP115",2025-11-01 07:22:57.968732,2025-11-01 03:22:57.968732
"CYMO",2025-11-01 07:00:00,2025-11-01 03:00:00,"VFR",1,0,93,300,7,14500,29.8,NA,"FEW  ft","METAR CYMO 010700Z AUTO 30007KT 9SM FEW017 01/00 A2980 RMK SLP093",2025-11-01 07:22:58.057796,2025-11-01 03:22:58.057796
"CYPL",2025-11-01 07:00:00,2025-11-01 03:00:00,"MVFR",0,-3,80,10,4,14500,30.03,NA,"OVC  ft","METAR CYPL 010700Z AUTO 01004KT 310V060 9SM OVC021 00/M03 A3003 RMK SLP191",2025-11-01 07:22:58.188103,2025-11-01 03:22:58.188103
"CYQT",2025-11-01 07:00:00,2025-11-01 03:00:00,"VFR",2,-3,70,10,4,24100,30.02,NA,"FEW  ft; OVC  ft","METAR CYQT 010700Z 01004KT 320V040 15SM FEW016 OVC037 02/M03 A3002 RMK CF1SC8 CF TR SLP177",2025-11-01 07:22:58.972321,2025-11-01 03:22:58.972321
"CYAM",2025-11-01 07:00:00,2025-11-01 03:00:00,"VFR",3,-1,75,60,3,24100,29.9,NA,"OVC  ft","METAR CYAM 010700Z 06003KT 15SM OVC049 03/M01 A2990 RMK SC8 SLP134",2025-11-01 07:22:59.062195,2025-11-01 03:22:59.062195
"CYTS",2025-11-01 07:00:00,2025-11-01 03:00:00,"MVFR",1,-1,87,310,11,24100,29.82,NA,"BKN  ft; OVC  ft","METAR CYTS 010700Z 31011KT 15SM -SN BKN010 OVC036 01/M01 A2982 RMK SC6SC2 SLP113",2025-11-01 07:22:59.152853,2025-11-01 03:22:59.152853
"CYSB",2025-11-01 07:00:00,2025-11-01 03:00:00,"MVFR",0,-1,93,310,6,24100,29.79,NA,"OVC  ft","METAR CYSB 010700Z 31006KT 15SM -SN OVC030 00/M01 A2979 RMK SC8 SLP102",2025-11-01 07:22:59.244288,2025-11-01 03:22:59.244288
"CYYB",2025-11-01 07:00:00,2025-11-01 03:00:00,"VFR",2,-2,75,310,10,14500,29.72,NA,"OVC  ft","METAR CYYB 010700Z AUTO 31010G15KT 9SM OVC033 02/M02 A2972 RMK SLP081",2025-11-01 07:23:00.057366,2025-11-01 03:23:00.057366
"CYOW",2025-11-01 07:00:00,2025-11-01 03:00:00,"MVFR",5,1,76,290,15,24100,29.57,NA,"BKN  ft","METAR CYOW 010700Z 29015G21KT 15SM BKN025 05/01 A2957 RMK SC7 SLP018",2025-11-01 07:23:00.149075,2025-11-01 03:23:00.149075
"CYGK",2025-11-01 03:00:00,2025-10-31 23:00:00,"MVFR",4,3,93,280,12,8000,29.58,NA,"OVC  ft","METAR CYGK 010300Z 28012G23KT 5SM -RA BR OVC014 04/03 A2958 RMK SC8 LAST STFD OBS/NXT 011000Z SLP022",2025-11-01 07:23:00.245901,2025-11-01 03:23:00.245901
"CYQG",2025-11-01 07:00:00,2025-11-01 03:00:00,"VFR",5,1,76,260,4,14500,29.91,NA,"CLR  ft","METAR CYQG 010700Z AUTO 26004KT 9SM CLR 05/01 A2991 RMK SLP134",2025-11-01 07:23:00.34032,2025-11-01 03:23:00.34032
"CYVV",2025-11-01 07:00:00,2025-11-01 03:00:00,"VFR",5,2,81,330,3,24100,29.82,NA,"SCT  ft","METAR CYVV 010700Z 33003KT 290V040 15SM SCT056 05/02 A2982 RMK SC3 SLP105",2025-11-01 07:23:00.44259,2025-11-01 03:23:00.44259
"CYYZ",2025-11-01 07:00:00,2025-11-01 03:00:00,"VFR",5,1,76,270,10,24100,29.8,NA,"SCT  ft","METAR CYYZ 010700Z 27010KT 15SM SCT058 05/01 A2980 RMK SC3 SLP097",2025-11-01 07:23:00.535598,2025-11-01 03:23:00.535598
"CYQA",2025-11-01 07:00:00,2025-11-01 03:00:00,"VFR",3,0,81,330,10,14500,29.75,NA,"SCT  ft","METAR CYQA 010700Z AUTO 33010G20KT 9SM SCT045 03/00 A2975 RMK SLP086",2025-11-01 07:23:00.62981,2025-11-01 03:23:00.62981
"CYVR",2025-11-01 07:00:00,2025-11-01 03:00:00,"IFR",11,11,100,100,9,12900,29.91,NA,"BKN  ft; OVC  ft","METAR CYVR 010700Z 10009KT 8SM BKN009 OVC150 11/11 A2991 RMK SF6AC2 SLP131",2025-11-01 07:23:00.718436,2025-11-01 03:23:00.718436
"CYYJ",2025-11-01 07:00:00,2025-11-01 03:00:00,"VFR",11,11,100,160,9,48300,29.91,NA,"FEW  ft; BKN  ft; OVC  ft","METAR CYYJ 010700Z 16009KT 30SM FEW050 BKN083 OVC130 11/11 A2991 RMK SC1AC5AC3 SC TR SLP129",2025-11-01 07:23:00.809364,2025-11-01 03:23:00.809364
"CYLW",2025-11-01 07:00:00,2025-11-01 03:00:00,"VFR",9,3,66,180,3,14500,29.92,NA,"OVC  ft","METAR CYLW 010700Z AUTO 18003KT 140V240 9SM OVC055 09/03 A2992 RMK SLP145",2025-11-01 07:23:00.901708,2025-11-01 03:23:00.901708
"CYXS",2025-11-01 07:00:00,2025-11-01 03:00:00,"VFR",7,2,71,220,8,14500,29.58,NA,"OVC  ft","METAR CYXS 010700Z AUTO 22008KT 9SM OVC130 07/02 A2958 RMK SLP035",2025-11-01 07:23:00.991864,2025-11-01 03:23:00.991864
"CYXT",2025-11-01 07:00:00,2025-11-01 03:00:00,"MVFR",5,4,93,160,23,6400,29.51,NA,"FEW  ft; SCT  ft; BKN  ft; OVC  ft","METAR CYXT 010700Z 16023G30KT 4SM -RA BR FEW007 SCT020 BKN050 OVC100 05/04 A2951 RMK SF1SC2SC4AC1 SLP000",2025-11-01 07:23:01.084347,2025-11-01 03:23:01.084347
"CYQQ",2025-11-01 07:00:00,2025-11-01 03:00:00,"VFR",11,9,88,160,12,32200,29.85,NA,"BKN  ft; OVC  ft","METAR CYQQ 010700Z 16012KT 20SM BKN050 OVC095 11/09 A2985 RMK SC6AC2 DENSITY ALT -155FT SLP109",2025-11-01 07:23:01.176599,2025-11-01 03:23:01.176599
"CYYC",2025-11-01 07:00:00,2025-11-01 03:00:00,"VFR",6,-4,49,0,2,24100,29.62,NA,"BKN  ft","METAR CYYC 010700Z VRB02KT 15SM BKN250 06/M04 A2962 RMK CI6 SLP063",2025-11-01 07:23:01.275878,2025-11-01 03:23:01.275878
"CYEG",2025-11-01 07:08:00,2025-11-01 03:08:00,"VFR",2,-4,65,180,3,32200,29.51,NA,"SCT  ft; BKN  ft","SPECI CYEG 010708Z 18003KT 20SM SCT110 BKN150 02/M04 A2951 RMK AC4AC1 SLP015",2025-11-01 07:23:01.365812,2025-11-01 03:23:01.365812
"CYMM",2025-11-01 07:13:00,2025-11-01 03:13:00,"MVFR",1,-1,87,120,7,8000,29.53,NA,"SCT  ft; BKN  ft; OVC  ft","SPECI CYMM 010713Z AUTO 12007KT 5SM RA BR SCT034 BKN060 OVC110 01/M01 A2953 RMK SLP022",2025-11-01 07:23:01.459693,2025-11-01 03:23:01.459693
"CYQF",2025-11-01 07:00:00,2025-11-01 03:00:00,"VFR",10,-1,47,250,7,14500,29.55,NA,"CLR  ft","METAR CYQF 010700Z AUTO 25007KT 9SM CLR 10/M01 A2955 RMK SLP030 DENSITY ALT 3600FT",2025-11-01 07:23:01.554256,2025-11-01 03:23:01.554256
"CYXE",2025-11-01 07:00:00,2025-11-01 03:00:00,"VFR",0,-4,75,130,14,24100,29.85,NA,"BKN  ft","METAR CYXE 010700Z 13014KT 15SM BKN230 00/M04 A2985 RMK CI6 SLP136",2025-11-01 07:23:01.645583,2025-11-01 03:23:01.645583
"CYQR",2025-11-01 07:00:00,2025-11-01 03:00:00,"VFR",-3,-4,93,150,13,24100,30.05,NA,"BKN  ft","METAR CYQR 010700Z 15013KT 15SM BKN270 M03/M04 A3005 RMK CI7 SLP209",2025-11-01 07:23:02.445961,2025-11-01 03:23:02.445961
"CYWG",2025-11-01 07:00:00,2025-11-01 03:00:00,"VFR",1,0,93,330,5,24100,30.15,NA,"BKN  ft","METAR CYWG 010700Z 33005KT 15SM BKN031 01/00 A3015 RMK SC7 SLP224",2025-11-01 07:23:02.544725,2025-11-01 03:23:02.544725
"CYBR",2025-11-01 07:00:00,2025-11-01 03:00:00,"MVFR",1,-2,81,110,2,14500,30.16,NA,"OVC  ft","METAR CYBR 010700Z AUTO 11002KT 9SM OVC021 01/M02 A3016 RMK SLP238",2025-11-01 07:23:02.692919,2025-11-01 03:23:02.692919
"CYUL",2025-11-01 07:00:00,2025-11-01 03:00:00,"MVFR",7,4,81,280,18,24100,29.42,NA,"BKN  ft; OVC  ft","METAR CYUL 010700Z 28018G24KT 15SM BKN028 OVC100 07/04 A2942 RMK SC7AS1 SLP964",2025-11-01 07:23:02.785718,2025-11-01 03:23:02.785718
"CYHU",2025-10-31 18:00:00,2025-10-31 14:00:00,"IFR",9,9,100,240,18,4800,28.96,NA,"BKN  ft; OVC  ft","METAR CYHU 311800Z AUTO 24018G24KT 3SM RA BR BKN009 OVC013 09/09 A2896 RMK PCPN 3.2MM PAST HR SLP809 DENSITY ALT 600FT",2025-11-01 07:23:02.881319,2025-11-01 03:23:02.881319
"CYQB",2025-11-01 07:00:00,2025-11-01 03:00:00,"VFR",7,3,76,270,13,24100,29.14,NA,"FEW  ft; BKN  ft; OVC  ft","METAR CYQB 010700Z 27013G21KT 15SM FEW025 BKN031 OVC100 07/03 A2914 RMK SC1SC5AC3 SC TR SLP870",2025-11-01 07:23:02.977934,2025-11-01 03:23:02.977934
"CYVO",2025-11-01 07:06:00,2025-11-01 03:06:00,"VFR",2,-2,75,320,14,14500,29.61,NA,"SCT  ft; OVC  ft","SPECI CYVO 010706Z AUTO 32014G22KT 9SM SCT022 OVC040 02/M02 A2961 RMK SLP045",2025-11-01 07:23:03.880652,2025-11-01 03:23:03.880652
"CYUY",2025-11-01 07:00:00,2025-11-01 03:00:00,"MVFR",1,-1,87,320,10,24100,29.68,NA,"OVC  ft","METAR CYUY 010700Z 32010G18KT 15SM -SN OVC014 01/M01 A2968 RMK SC8 SLP065",2025-11-01 07:23:03.970787,2025-11-01 03:23:03.970787
"CYZV",2025-11-01 07:00:00,2025-11-01 03:00:00,"MVFR",6,4,87,360,9,24100,28.82,NA,"OVC  ft","METAR CYZV 010700Z 36009KT 15SM OVC026 06/04 A2882 RMK ST8 SLP764 DENSITY ALT 400FT",2025-11-01 07:23:04.068516,2025-11-01 03:23:04.068516
"CYBC",2025-11-01 07:00:00,2025-11-01 03:00:00,"VFR",7,5,87,340,6,14500,28.89,NA,"OVC  ft","METAR CYBC 010700Z AUTO 34006KT 300V030 9SM -RA OVC032 07/05 A2889 RMK SLP786 DENSITY ALT 300FT",2025-11-01 07:23:04.206258,2025-11-01 03:23:04.206258
"CYRJ",2025-11-01 07:00:00,2025-11-01 03:00:00,"MVFR",4,4,100,310,12,19300,29.19,NA,"OVC  ft","METAR CYRJ 010700Z 31012G20KT 12SM -RA OVC016 04/04 A2919 RMK SC8 SLP891",2025-11-01 07:23:04.300967,2025-11-01 03:23:04.300967
"CYHZ",2025-11-01 07:00:00,2025-11-01 03:00:00,"VFR",9,6,82,240,23,24100,29.06,NA,"FEW  ft; OVC  ft","METAR CYHZ 010700Z 24023G37KT 15SM FEW022 OVC039 09/06 A2906 RMK CU2SC6 SLP844 DENSITY ALT 1000FT",2025-11-01 07:23:04.393107,2025-11-01 03:23:04.393107
"CYYG",2025-11-01 07:00:00,2025-11-01 03:00:00,"MVFR",10,7,82,220,20,24100,28.92,NA,"OVC  ft","METAR CYYG 010700Z 22020G32KT 15SM OVC018 10/07 A2892 RMK SC8 CVCTV CLD EMBD SLP795 DENSITY ALT 900FT",2025-11-01 07:23:04.484109,2025-11-01 03:23:04.484109
"CYQM",2025-11-01 07:00:00,2025-11-01 03:00:00,"MVFR",8,6,87,240,20,9999,28.91,NA,"BKN  ft; BKN  ft; BKN  ft; BKN  ft","METAR CYQM 010700Z 24020G26KT 10SM -SHRA BKN023 BKN035 BKN082 BKN260 08/06 A2891 RMK SC6SC1AC1CI1 AC TR CI TR CVCTV CLD EMBD SLP793 DENSITY ALT 700FT",2025-11-01 07:23:04.576982,2025-11-01 03:23:04.576982
"CYFC",2025-11-01 07:18:00,2025-11-01 03:18:00,"MVFR",8,6,87,230,14,14500,28.94,NA,"FEW  ft; BKN  ft; BKN  ft; OVC  ft","SPECI CYFC 010718Z AUTO 23014G25KT 9SM -RA FEW021 BKN026 BKN039 OVC060 08/06 A2894 RMK SLP803 DENSITY ALT 400FT",2025-11-01 07:23:04.668433,2025-11-01 03:23:04.668433
"CYYT",2025-11-01 07:16:00,2025-11-01 03:16:00,"LIFR",10,10,100,10,7,3200,28.78,NA,"OVC  ft","SPECI CYYT 010716Z 01007KT 2SM -RA BR OVC003 10/10 A2878 RMK ST8 SLP751 DENSITY ALT 1300FT",2025-11-01 07:23:04.763097,2025-11-01 03:23:04.763097
"CYQY",2025-11-01 07:00:00,2025-11-01 03:00:00,"VFR",11,10,94,220,16,24100,28.97,NA,"SCT  ft","METAR CYQY 010700Z 22016G25KT 15SM SCT036 11/10 A2897 RMK SC4 SLP814 DENSITY ALT 900FT",2025-11-01 07:23:04.861242,2025-11-01 03:23:04.861242
"CYXY",2025-11-01 07:00:00,2025-11-01 03:00:00,"VFR",4,-2,65,150,16,24100,28.93,NA,"FEW  ft; BKN  ft","METAR CYXY 010700Z 15016KT 15SM FEW065 BKN210 04/M02 A2893 RMK SC2CS6 SLP826 DENSITY ALT 2700FT",2025-11-01 07:23:04.992538,2025-11-01 03:23:04.992538
"CYZF",2025-11-01 07:00:00,2025-11-01 03:00:00,"LIFR",3,3,100,150,16,9700,29.14,NA,"OVC  ft","METAR CYZF 010700Z 15016G27KT 6SM -RA OVC004 03/03 A2914 RMK SC8 SLP880",2025-11-01 07:23:05.085839,2025-11-01 03:23:05.085839
"CYFB",2025-11-01 07:00:00,2025-11-01 03:00:00,"VFR",-13,-15,85,340,6,24100,29.97,NA,"FEW  ft","METAR CYFB 010700Z 34006KT 15SM FEW030 M13/M15 A2997 RMK SC1 SC TR SLP154",2025-11-01 07:23:05.1754,2025-11-01 03:23:05.1754
"CYRT",2025-11-01 07:00:00,2025-11-01 03:00:00,"MVFR",-3,-4,93,180,9,4800,29.91,NA,"FEW  ft; BKN  ft","METAR CYRT 010700Z 18009KT 3SM -SN FEW008 BKN040 M03/M04 A2991 RMK SC1SC6 SLP133",2025-11-01 07:23:05.278496,2025-11-01 03:23:05.278496
"CYBK",2025-11-01 07:00:00,2025-11-01 03:00:00,"IFR",-3,-4,93,150,8,24100,29.8,NA,"OVC  ft","METAR CYBK 010700Z 15008KT 15SM -SN OVC007 M03/M04 A2980 RMK SC8 SLP096",2025-11-01 07:23:05.373917,2025-11-01 03:23:05.373917
"CYRB",2025-11-01 07:00:00,2025-11-01 03:00:00,"MVFR",-10,-11,92,40,10,24100,29.87,NA,"BKN  ft; OVC  ft","METAR CYRB 010700Z 04010KT 15SM -SN BKN016 OVC100 M10/M11 A2987 RMK SC5AC3 SLP127",2025-11-01 07:23:05.475455,2025-11-01 03:23:05.475455
"CYCO",2025-11-01 07:00:00,2025-11-01 03:00:00,"VFR",0,-2,87,90,23,24100,29.22,NA,"SCT  ft; OVC  ft","METAR CYCO 010700Z 09023G28KT 15SM DRSN SCT016 OVC120 M00/M02 A2922 RMK SC3AC5 PRESFR SLP900",2025-11-01 07:23:05.609792,2025-11-01 03:23:05.609792
"CYER",2025-11-01 08:00:00,2025-11-01 04:00:00,"IFR",-1,NA,NA,290,5,14500,30.01,NA,"BKN  ft; OVC  ft","METAR CYER 010800Z AUTO 29005KT 9SM BKN005 OVC039 M01/ A3001 RMK DP MISG SLP164",2025-11-01 08:30:51.560855,2025-11-01 04:30:51.560855
"CYAT",2025-11-01 08:28:00,2025-11-01 04:28:00,"MVFR",2,1,93,330,8,14500,29.88,NA,"BKN  ft; OVC  ft","SPECI CYAT 010828Z AUTO 33008G15KT 9SM BKN013 OVC037 02/01 A2988 RMK SLP120",2025-11-01 08:30:51.635957,2025-11-01 04:30:51.635957
"CYMO",2025-11-01 08:28:00,2025-11-01 04:28:00,"IFR",1,1,100,310,7,14500,29.81,NA,"BKN  ft; BKN  ft; OVC  ft","SPECI CYMO 010828Z AUTO 31007KT 9SM BKN008 BKN019 OVC023 01/01 A2981 RMK SLP097",2025-11-01 08:30:51.706658,2025-11-01 04:30:51.706658
"CYPL",2025-11-01 08:00:00,2025-11-01 04:00:00,"MVFR",0,-4,75,330,4,14500,30.03,NA,"OVC  ft","METAR CYPL 010800Z AUTO 33004KT 300V010 9SM OVC023 00/M04 A3003 RMK SLP193",2025-11-01 08:30:51.777751,2025-11-01 04:30:51.777751
"CYQT",2025-11-01 08:00:00,2025-11-01 04:00:00,"VFR",2,-3,70,0,2,24100,30.03,NA,"OVC  ft","METAR CYQT 010800Z VRB02KT 15SM OVC035 02/M03 A3003 RMK SC8 SLP179",2025-11-01 08:30:51.851393,2025-11-01 04:30:51.851393
"CYAM",2025-11-01 08:00:00,2025-11-01 04:00:00,"VFR",3,-1,75,20,7,24100,29.91,NA,"FEW  ft; BKN  ft; BKN  ft","METAR CYAM 010800Z 02007KT 15SM FEW025 BKN052 BKN220 03/M01 A2991 RMK SC1SC6CI1 SC TR SLP138",2025-11-01 08:30:51.922747,2025-11-01 04:30:51.922747
"CYTS",2025-11-01 08:00:00,2025-11-01 04:00:00,"IFR",0,0,100,310,11,9999,29.83,NA,"OVC  ft","METAR CYTS 010800Z 31011KT 10SM -SN OVC009 00/M00 A2983 RMK SC8 SLP116",2025-11-01 08:30:51.995214,2025-11-01 04:30:51.995214
"CYSB",2025-11-01 08:00:00,2025-11-01 04:00:00,"VFR",1,-2,81,310,8,24100,29.79,NA,"OVC  ft","METAR CYSB 010800Z 31008KT 15SM OVC035 01/M02 A2979 RMK SC8 SLP105",2025-11-01 08:30:52.07235,2025-11-01 04:30:52.07235
"CYYB",2025-11-01 08:04:00,2025-11-01 04:04:00,"MVFR",2,-3,70,330,13,12900,29.74,NA,"OVC  ft","SPECI CYYB 010804Z AUTO 33013KT 8SM -RA OVC029 02/M03 A2974 RMK SLP089",2025-11-01 08:30:52.144406,2025-11-01 04:30:52.144406
"CYOW",2025-11-01 08:00:00,2025-11-01 04:00:00,"MVFR",4,1,81,300,16,24100,29.59,NA,"BKN  ft","METAR CYOW 010800Z 30016KT 15SM BKN028 04/01 A2959 RMK SC5 SLP025",2025-11-01 08:30:52.216656,2025-11-01 04:30:52.216656
"CYGK",2025-11-01 03:00:00,2025-10-31 23:00:00,"MVFR",4,3,93,280,12,8000,29.58,NA,"OVC  ft","METAR CYGK 010300Z 28012G23KT 5SM -RA BR OVC014 04/03 A2958 RMK SC8 LAST STFD OBS/NXT 011000Z SLP022",2025-11-01 08:30:52.2894,2025-11-01 04:30:52.2894
"CYQG",2025-11-01 08:00:00,2025-11-01 04:00:00,"VFR",2,0,87,250,6,14500,29.92,NA,"CLR  ft","METAR CYQG 010800Z AUTO 25006KT 9SM CLR 02/00 A2992 RMK SLP138",2025-11-01 08:30:52.360426,2025-11-01 04:30:52.360426
"CYVV",2025-11-01 08:00:00,2025-11-01 04:00:00,"VFR",5,1,76,310,4,24100,29.83,NA,"BKN  ft","METAR CYVV 010800Z 31004KT 270V350 15SM BKN052 05/01 A2983 RMK SC7 SLP109",2025-11-01 08:30:52.431123,2025-11-01 04:30:52.431123
"CYYZ",2025-11-01 08:00:00,2025-11-01 04:00:00,"VFR",5,2,81,250,10,24100,29.81,NA,"BKN  ft","METAR CYYZ 010800Z 25010KT 15SM BKN055 05/02 A2981 RMK SC7 SLP100",2025-11-01 08:30:52.506193,2025-11-01 04:30:52.506193
"CYQA",2025-11-01 08:00:00,2025-11-01 04:00:00,"VFR",2,0,87,350,11,14500,29.76,NA,"BKN  ft","METAR CYQA 010800Z AUTO 35011G21KT 9SM BKN045 02/M00 A2976 RMK SLP091",2025-11-01 08:30:52.591876,2025-11-01 04:30:52.591876
"CYVR",2025-11-01 08:24:00,2025-11-01 04:24:00,"IFR",11,11,100,90,8,12900,29.89,NA,"FEW  ft; BKN  ft; OVC  ft","SPECI CYVR 010824Z 09008KT 8SM -RA FEW005 BKN009 OVC098 11/11 A2989 RMK SF2SC5AC1 SLP124",2025-11-01 08:30:52.66976,2025-11-01 04:30:52.66976
"CYYJ",2025-11-01 08:00:00,2025-11-01 04:00:00,"VFR",10,10,100,130,9,48300,29.88,NA,"BKN  ft","METAR CYYJ 010800Z 13009KT 30SM BKN082 10/10 A2988 RMK AC7 SLP120",2025-11-01 08:30:52.704467,2025-11-01 04:30:52.704467
"CYLW",2025-11-01 08:00:00,2025-11-01 04:00:00,"VFR",8,3,71,0,0,14500,29.92,NA,"OVC  ft","METAR CYLW 010800Z AUTO 00000KT 9SM OVC066 08/03 A2992 RMK SLP146",2025-11-01 08:30:52.777676,2025-11-01 04:30:52.777676
"CYXS",2025-11-01 08:00:00,2025-11-01 04:00:00,"VFR",6,2,76,190,7,14500,29.59,NA,"OVC  ft","METAR CYXS 010800Z AUTO 19007KT 9SM OVC150 06/02 A2959 RMK SLP039",2025-11-01 08:30:52.851574,2025-11-01 04:30:52.851574
"CYXT",2025-11-01 08:00:00,2025-11-01 04:00:00,"MVFR",5,4,93,160,19,6400,29.54,NA,"FEW  ft; SCT  ft; OVC  ft","METAR CYXT 010800Z 16019G28KT 4SM -RA BR FEW006 SCT015 OVC040 05/04 A2954 RMK SF1SC2SC5 SLP011",2025-11-01 08:30:52.925197,2025-11-01 04:30:52.925197
"CYQQ",2025-11-01 08:08:00,2025-11-01 04:08:00,"VFR",11,10,94,190,11,32200,29.85,NA,"FEW  ft; OVC  ft","SPECI CYQQ 010808Z 19011KT 20SM -SHRA FEW007 OVC045 11/10 A2985 RMK SF1SC7 DENSITY ALT -154FT SLP110",2025-11-01 08:30:52.996121,2025-11-01 04:30:52.996121
"CYYC",2025-11-01 08:00:00,2025-11-01 04:00:00,"VFR",6,-4,49,0,0,24100,29.63,NA,"FEW  ft; BKN  ft","METAR CYYC 010800Z 00000KT 15SM FEW210 BKN250 06/M04 A2963 RMK CI2CI4 SLP065",2025-11-01 08:30:53.07124,2025-11-01 04:30:53.07124
"CYEG",2025-11-01 08:00:00,2025-11-01 04:00:00,"VFR",0,-4,75,190,8,32200,29.51,NA,"FEW  ft","METAR CYEG 010800Z 19008KT 20SM FEW150 00/M04 A2951 RMK AC1 SLP019",2025-11-01 08:30:53.143248,2025-11-01 04:30:53.143248
"CYMM",2025-11-01 08:25:00,2025-11-01 04:25:00,"VFR",1,0,93,100,7,14500,29.5,NA,"OVC  ft","SPECI CYMM 010825Z AUTO 10007KT 9SM -RA OVC071 01/M00 A2950 RMK SLP010",2025-11-01 08:30:53.220386,2025-11-01 04:30:53.220386
"CYQF",2025-11-01 08:00:00,2025-11-01 04:00:00,"VFR",8,-1,53,220,7,14500,29.57,NA,"FEW  ft","METAR CYQF 010800Z AUTO 22007KT 9SM FEW250 08/M01 A2957 RMK SLP039 DENSITY ALT 3300FT",2025-11-01 08:30:53.295142,2025-11-01 04:30:53.295142
"CYXE",2025-11-01 08:00:00,2025-11-01 04:00:00,"VFR",1,-4,70,140,13,24100,29.82,NA,"BKN  ft","METAR CYXE 010800Z 14013KT 15SM BKN230 01/M04 A2982 RMK CI6 PRESFR SLP124",2025-11-01 08:30:53.366987,2025-11-01 04:30:53.366987
"CYQR",2025-11-01 08:00:00,2025-11-01 04:00:00,"VFR",-3,-4,93,150,12,24100,30.02,NA,"OVC  ft","METAR CYQR 010800Z 15012G20KT 15SM OVC270 M03/M04 A3002 RMK CI8 SLP197",2025-11-01 08:30:53.439028,2025-11-01 04:30:53.439028
"CYWG",2025-11-01 08:00:00,2025-11-01 04:00:00,"VFR",1,0,93,340,6,24100,30.16,NA,"FEW  ft; BKN  ft","METAR CYWG 010800Z 34006KT 15SM FEW015 BKN033 01/00 A3016 RMK SF1SC6 SLP226",2025-11-01 08:30:53.509768,2025-11-01 04:30:53.509768
"CYBR",2025-11-01 08:00:00,2025-11-01 04:00:00,"MVFR",1,-2,81,150,3,14500,30.16,NA,"OVC  ft","METAR CYBR 010800Z AUTO 15003KT 9SM OVC021 01/M02 A3016 RMK SLP236",2025-11-01 08:30:53.592156,2025-11-01 04:30:53.592156
"CYUL",2025-11-01 08:00:00,2025-11-01 04:00:00,"VFR",7,3,76,280,18,24100,29.45,NA,"FEW  ft; OVC  ft","METAR CYUL 010800Z 28018G24KT 15SM FEW025 OVC033 07/03 A2945 RMK SC1SC7 SLP977",2025-11-01 08:30:53.665134,2025-11-01 04:30:53.665134
"CYHU",2025-10-31 18:00:00,2025-10-31 14:00:00,"IFR",9,9,100,240,18,4800,28.96,NA,"BKN  ft; OVC  ft","METAR CYHU 311800Z AUTO 24018G24KT 3SM RA BR BKN009 OVC013 09/09 A2896 RMK PCPN 3.2MM PAST HR SLP809 DENSITY ALT 600FT",2025-11-01 08:30:53.734962,2025-11-01 04:30:53.734962
"CYQB",2025-11-01 08:00:00,2025-11-01 04:00:00,"MVFR",6,4,87,260,15,24100,29.18,NA,"FEW  ft; BKN  ft; OVC  ft","METAR CYQB 010800Z 26015KT 15SM FEW015 BKN027 OVC100 06/04 A2918 RMK SC1SC6AC2 SC TR SLP884",2025-11-01 08:30:53.804649,2025-11-01 04:30:53.804649
"CYVO",2025-11-01 08:00:00,2025-11-01 04:00:00,"VFR",2,-2,75,310,10,14500,29.63,NA,"SCT  ft; SCT  ft; OVC  ft","METAR CYVO 010800Z AUTO 31010G17KT 9SM SCT022 SCT027 OVC037 02/M02 A2963 RMK SLP050",2025-11-01 08:30:53.874216,2025-11-01 04:30:53.874216
"CYUY",2025-11-01 08:00:00,2025-11-01 04:00:00,"MVFR",2,-1,81,330,10,9999,29.69,NA,"OVC  ft","METAR CYUY 010800Z 33010G16KT 300V360 10SM -SN OVC014 02/M01 A2969 RMK SC8 SLP069",2025-11-01 08:30:53.946027,2025-11-01 04:30:53.946027
"CYZV",2025-11-01 08:00:00,2025-11-01 04:00:00,"MVFR",6,4,87,10,9,24100,28.82,NA,"OVC  ft","METAR CYZV 010800Z 01009G18KT 15SM OVC030 06/04 A2882 RMK ST8 SLP764 DENSITY ALT 400FT",2025-11-01 08:30:54.017061,2025-11-01 04:30:54.017061
"CYBC",2025-11-01 08:00:00,2025-11-01 04:00:00,"VFR",6,5,93,330,7,14500,28.91,NA,"OVC  ft","METAR CYBC 010800Z AUTO 33007KT 300V360 9SM -RA OVC036 06/05 A2891 RMK SLP793",2025-11-01 08:30:54.08678,2025-11-01 04:30:54.08678
"CYRJ",2025-11-01 08:00:00,2025-11-01 04:00:00,"MVFR",5,4,93,300,18,32200,29.21,NA,"SCT  ft; OVC  ft","METAR CYRJ 010800Z 30018G24KT 20SM -RA SCT016 OVC024 05/04 A2921 RMK SC4SC4 SLP900",2025-11-01 08:30:54.15923,2025-11-01 04:30:54.15923
"CYHZ",2025-11-01 08:00:00,2025-11-01 04:00:00,"VFR",9,6,82,230,24,24100,29.05,NA,"FEW  ft; OVC  ft","METAR CYHZ 010800Z 23024G34KT 15SM FEW020 OVC040 09/06 A2905 RMK SC2SC6 SLP841 DENSITY ALT 900FT",2025-11-01 08:30:54.251533,2025-11-01 04:30:54.251533
"CYYG",2025-11-01 08:00:00,2025-11-01 04:00:00,"MVFR",10,7,82,220,18,24100,28.91,NA,"OVC  ft","METAR CYYG 010800Z 22018G27KT 15SM OVC018 10/07 A2891 RMK SC8 CVCTV CLD EMBD SLP792 DENSITY ALT 900FT",2025-11-01 08:30:54.290948,2025-11-01 04:30:54.290948
"CYQM",2025-11-01 08:00:00,2025-11-01 04:00:00,"MVFR",9,6,82,220,14,19300,28.91,NA,"BKN  ft; BKN  ft; BKN  ft; BKN  ft","METAR CYQM 010800Z 22014G21KT 12SM BKN025 BKN055 BKN082 BKN260 09/06 A2891 RMK SC7SC1AC1CI1 SC TR AC TR CI TR OCNL -SHRA CVCTV CLD EMBD SLP791 DENSITY ALT 800FT",2025-11-01 08:30:54.361202,2025-11-01 04:30:54.361202
"CYFC",2025-11-01 08:17:00,2025-11-01 04:17:00,"MVFR",7,6,93,230,14,14500,28.96,NA,"FEW  ft; BKN  ft; OVC  ft","SPECI CYFC 010817Z AUTO 23014G22KT 9SM FEW022 BKN030 OVC045 07/06 A2896 RMK SLP810 DENSITY ALT 300FT",2025-11-01 08:30:54.432568,2025-11-01 04:30:54.432568
"CYYT",2025-11-01 08:12:00,2025-11-01 04:12:00,"LIFR",10,10,100,300,15,2400,28.83,NA,"OVC  ft","SPECI CYYT 010812Z 30015KT 1 1/2SM -DZ BR OVC003 10/10 A2883 RMK ST8 SLP767 DENSITY ALT 1300FT",2025-11-01 08:30:54.507094,2025-11-01 04:30:54.507094
"CYQY",2025-11-01 08:00:00,2025-11-01 04:00:00,"VFR",11,9,88,240,19,24100,28.99,NA,"BKN  ft","METAR CYQY 010800Z 24019G27KT 15SM BKN033 11/09 A2899 RMK SC7 PRESRR SLP820 DENSITY ALT 900FT",2025-11-01 08:30:54.581912,2025-11-01 04:30:54.581912
"CYXY",2025-11-01 08:00:00,2025-11-01 04:00:00,"VFR",3,-2,70,140,10,24100,28.97,NA,"FEW  ft; SCT  ft; OVC  ft","METAR CYXY 010800Z 14010KT 15SM FEW055 SCT170 OVC210 03/M02 A2897 RMK SC2AS1CS5 SLP838 DENSITY ALT 2600FT",2025-11-01 08:30:54.651886,2025-11-01 04:30:54.651886
"CYZF",2025-11-01 08:00:00,2025-11-01 04:00:00,"IFR",3,3,100,160,17,19300,29.11,NA,"OVC  ft","METAR CYZF 010800Z 16017G25KT 12SM -RA OVC005 03/03 A2911 RMK SC8 SLP870",2025-11-01 08:30:54.728514,2025-11-01 04:30:54.728514
"CYFB",2025-11-01 08:00:00,2025-11-01 04:00:00,"VFR",-12,-14,85,320,6,24100,29.96,NA,"FEW  ft","METAR CYFB 010800Z 32006KT 15SM FEW030 M12/M14 A2996 RMK SC1 SC TR SLP150",2025-11-01 08:30:54.800124,2025-11-01 04:30:54.800124
"CYRT",2025-11-01 08:00:00,2025-11-01 04:00:00,"MVFR",-2,-4,86,190,10,4800,29.89,NA,"BKN  ft; OVC  ft","METAR CYRT 010800Z 19010KT 3SM -SN BKN010 OVC047 M02/M04 A2989 RMK SC7SC1 SLP127",2025-11-01 08:30:54.873739,2025-11-01 04:30:54.873739
"CYBK",2025-11-01 08:00:00,2025-11-01 04:00:00,"IFR",-2,-3,93,150,9,24100,29.78,NA,"OVC  ft","METAR CYBK 010800Z 15009KT 15SM -SN OVC009 M02/M03 A2978 RMK SC8 SLP090",2025-11-01 08:30:54.945348,2025-11-01 04:30:54.945348
"CYRB",2025-11-01 07:00:00,2025-11-01 03:00:00,"MVFR",-10,-11,92,40,10,24100,29.87,NA,"BKN  ft; OVC  ft","METAR CYRB 010700Z 04010KT 15SM -SN BKN016 OVC100 M10/M11 A2987 RMK SC5AC3 SLP127",2025-11-01 08:30:55.029997,2025-11-01 04:30:55.029997
"CYCO",2025-11-01 08:00:00,2025-11-01 04:00:00,"VFR",0,-2,87,100,20,24100,29.19,NA,"OVC  ft","METAR CYCO 010800Z 10020G32KT 15SM OVC110 00/M02 A2919 RMK AS8 SLP888",2025-11-01 08:30:55.102495,2025-11-01 04:30:55.102495
"CYER",2025-11-01 09:15:00,2025-11-01 05:15:00,"VFR",-2,NA,NA,290,7,14500,30.01,NA,"FEW  ft; SCT  ft","SPECI CYER 010915Z AUTO 29007KT 9SM FEW009 SCT240 M02/ A3001 RMK DP MISG SLP165",2025-11-01 09:24:37.027185,2025-11-01 05:24:37.027185
"CYAT",2025-11-01 09:00:00,2025-11-01 05:00:00,"MVFR",2,0,87,330,8,14500,29.88,NA,"FEW  ft; BKN  ft; OVC  ft","METAR CYAT 010900Z AUTO 33008G15KT 9SM FEW011 BKN014 OVC039 02/00 A2988 RMK SLP122",2025-11-01 09:24:37.10994,2025-11-01 05:24:37.10994
"CYMO",2025-11-01 09:16:00,2025-11-01 05:16:00,"IFR",1,1,100,290,7,14500,29.83,NA,"OVC  ft","SPECI CYMO 010916Z AUTO 29007KT 9SM -RA OVC006 01/01 A2983 RMK SLP102",2025-11-01 09:24:37.179892,2025-11-01 05:24:37.179892
"CYPL",2025-11-01 09:22:00,2025-11-01 05:22:00,"MVFR",0,-2,87,320,6,11300,30.05,NA,"SCT  ft; BKN  ft; OVC  ft","SPECI CYPL 010922Z AUTO 32006KT 230V020 7SM SCT023 BKN029 OVC033 M00/M02 A3005 RMK SLP198",2025-11-01 09:24:37.248235,2025-11-01 05:24:37.248235
"CYQT",2025-11-01 09:00:00,2025-11-01 05:00:00,"VFR",2,-3,70,360,2,24100,30.04,NA,"OVC  ft","METAR CYQT 010900Z 36002KT 15SM OVC035 02/M03 A3004 RMK SC8 SLP184",2025-11-01 09:24:37.319975,2025-11-01 05:24:37.319975
"CYAM",2025-11-01 09:00:00,2025-11-01 05:00:00,"VFR",1,-2,81,70,5,24100,29.93,NA,"BKN  ft; BKN  ft","METAR CYAM 010900Z 07005KT 15SM BKN044 BKN220 01/M02 A2993 RMK SC6CI1 SLP144",2025-11-01 09:24:37.387654,2025-11-01 05:24:37.387654
"CYTS",2025-11-01 09:00:00,2025-11-01 05:00:00,"IFR",0,-1,93,310,9,24100,29.84,NA,"BKN  ft; OVC  ft","METAR CYTS 010900Z 31009G16KT 15SM -SN BKN009 OVC034 00/M01 A2984 RMK SC6SC2 SLP121",2025-11-01 09:24:37.455706,2025-11-01 05:24:37.455706
"CYSB",2025-11-01 09:00:00,2025-11-01 05:00:00,"VFR",1,-3,75,320,9,24100,29.81,NA,"OVC  ft","METAR CYSB 010900Z 32009KT 15SM OVC032 01/M03 A2981 RMK SC8 SLP110",2025-11-01 09:24:37.524595,2025-11-01 05:24:37.524595
"CYYB",2025-11-01 09:16:00,2025-11-01 05:16:00,"VFR",1,-1,87,320,7,14500,29.77,NA,"FEW  ft; OVC  ft","SPECI CYYB 010916Z AUTO 32007KT 9SM FEW027 OVC034 01/M01 A2977 RMK SLP098",2025-11-01 09:24:37.563727,2025-11-01 05:24:37.563727
"CYOW",2025-11-01 09:00:00,2025-11-01 05:00:00,"VFR",3,0,81,270,13,24100,29.63,NA,"FEW  ft; FEW  ft","METAR CYOW 010900Z 27013G20KT 15SM FEW031 FEW070 03/M00 A2963 RMK SC1AC2 SC TR SLP038",2025-11-01 09:24:37.632331,2025-11-01 05:24:37.632331
"CYGK",2025-11-01 03:00:00,2025-10-31 23:00:00,"MVFR",4,3,93,280,12,8000,29.58,NA,"OVC  ft","METAR CYGK 010300Z 28012G23KT 5SM -RA BR OVC014 04/03 A2958 RMK SC8 LAST STFD OBS/NXT 011000Z SLP022",2025-11-01 09:24:37.705042,2025-11-01 05:24:37.705042
"CYQG",2025-11-01 09:00:00,2025-11-01 05:00:00,"VFR",2,0,87,280,3,14500,29.93,NA,"FEW  ft","METAR CYQG 010900Z AUTO 28003KT 9SM FEW100 02/00 A2993 RMK SLP140",2025-11-01 09:24:37.732559,2025-11-01 05:24:37.732559
"CYVV",2025-11-01 09:00:00,2025-11-01 05:00:00,"VFR",5,2,81,10,3,24100,29.85,NA,"OVC  ft","METAR CYVV 010900Z 01003KT 280V060 15SM OVC054 05/02 A2985 RMK SC8 SLP115",2025-11-01 09:24:37.800574,2025-11-01 05:24:37.800574
"CYYZ",2025-11-01 09:00:00,2025-11-01 05:00:00,"VFR",5,2,81,270,8,24100,29.83,NA,"BKN  ft","METAR CYYZ 010900Z 27008KT 15SM BKN055 05/02 A2983 RMK SC7 SLP107",2025-11-01 09:24:37.869839,2025-11-01 05:24:37.869839
"CYQA",2025-11-01 09:21:00,2025-11-01 05:21:00,"VFR",3,-2,70,330,10,14500,29.79,NA,"FEW  ft; SCT  ft; OVC  ft","SPECI CYQA 010921Z AUTO 33010G15KT 9SM FEW021 SCT035 OVC043 03/M02 A2979 RMK SLP101",2025-11-01 09:24:37.902473,2025-11-01 05:24:37.902473
"CYVR",2025-11-01 09:00:00,2025-11-01 05:00:00,"MVFR",11,11,100,110,8,8000,29.87,NA,"FEW  ft; OVC  ft","METAR CYVR 010900Z 11008KT 5SM -RA FEW005 OVC011 11/11 A2987 RMK SF1SC7 SLP119",2025-11-01 09:24:37.971608,2025-11-01 05:24:37.971608
"CYYJ",2025-11-01 09:00:00,2025-11-01 05:00:00,"VFR",10,10,100,130,6,9700,29.86,NA,"FEW  ft; OVC  ft","METAR CYYJ 010900Z 13006KT 6SM -RA BR FEW008 OVC054 10/10 A2986 RMK SF2SC6 SLP114",2025-11-01 09:24:38.041898,2025-11-01 05:24:38.041898
"CYLW",2025-11-01 09:00:00,2025-11-01 05:00:00,"VFR",8,4,76,210,3,14500,29.91,NA,"FEW  ft; SCT  ft; OVC  ft","METAR CYLW 010900Z AUTO 21003KT 090V230 9SM FEW055 SCT077 OVC094 08/04 A2991 RMK SLP141",2025-11-01 09:24:38.115077,2025-11-01 05:24:38.115077
"CYXS",2025-11-01 09:00:00,2025-11-01 05:00:00,"VFR",6,1,71,190,7,14500,29.6,NA,"FEW  ft; SCT  ft","METAR CYXS 010900Z AUTO 19007KT 9SM FEW042 SCT160 06/01 A2960 RMK SLP044",2025-11-01 09:24:38.186464,2025-11-01 05:24:38.186464
"CYXT",2025-11-01 09:00:00,2025-11-01 05:00:00,"MVFR",5,5,100,160,17,6400,29.55,NA,"FEW  ft; SCT  ft; OVC  ft","METAR CYXT 010900Z 16017G25KT 4SM -RA BR FEW006 SCT015 OVC035 05/05 A2955 RMK SF1SC3SC4 SLP014",2025-11-01 09:24:38.25786,2025-11-01 05:24:38.25786
"CYQQ",2025-11-01 09:00:00,2025-11-01 05:00:00,"VFR",11,9,88,150,8,32200,29.83,NA,"FEW  ft; FEW  ft; OVC  ft","METAR CYQQ 010900Z 15008KT 20SM -SHRA FEW008 FEW024 OVC050 11/09 A2983 RMK SF1SC2SC6 DENSITY ALT -132FT SLP101",2025-11-01 09:24:38.327602,2025-11-01 05:24:38.327602
"CYYC",2025-11-01 09:00:00,2025-11-01 05:00:00,"VFR",7,-3,49,180,4,24100,29.65,NA,"OVC  ft","METAR CYYC 010900Z 18004KT 15SM OVC250 07/M03 A2965 RMK CI8 SLP068",2025-11-01 09:24:38.397318,2025-11-01 05:24:38.397318
"CYEG",2025-11-01 09:00:00,2025-11-01 05:00:00,"VFR",-1,-4,80,240,4,32200,29.54,NA,"FEW  ft","METAR CYEG 010900Z 24004KT 20SM FEW150 M01/M04 A2954 RMK AC1 AC TR SLP029",2025-11-01 09:24:38.46746,2025-11-01 05:24:38.46746
"CYMM",2025-11-01 09:00:00,2025-11-01 05:00:00,"VFR",1,0,93,110,6,14500,29.5,NA,"OVC  ft","METAR CYMM 010900Z AUTO 11006KT 9SM -RA OVC076 01/M00 A2950 RMK PCPN 0.5MM PAST HR SLP009",2025-11-01 09:24:38.53946,2025-11-01 05:24:38.53946
"CYQF",2025-11-01 09:00:00,2025-11-01 05:00:00,"VFR",7,-1,57,210,4,14500,29.59,NA,"CLR  ft","METAR CYQF 010900Z AUTO 21004KT 9SM CLR 07/M01 A2959 RMK SLP044",2025-11-01 09:24:38.609722,2025-11-01 05:24:38.609722
"CYXE",2025-11-01 09:00:00,2025-11-01 05:00:00,"VFR",1,-4,70,140,19,24100,29.76,NA,"BKN  ft","METAR CYXE 010900Z 14019G26KT 15SM BKN210 01/M04 A2976 RMK CI7 SLP102",2025-11-01 09:24:38.636937,2025-11-01 05:24:38.636937
"CYQR",2025-11-01 09:00:00,2025-11-01 05:00:00,"VFR",-3,-4,93,150,15,24100,29.98,NA,"BKN  ft","METAR CYQR 010900Z 15015G21KT 15SM BKN270 M03/M04 A2998 RMK CI6 SLP185",2025-11-01 09:24:38.713774,2025-11-01 05:24:38.713774
"CYWG",2025-11-01 09:00:00,2025-11-01 05:00:00,"VFR",0,0,100,330,3,24100,30.15,NA,"BKN  ft","METAR CYWG 010900Z 33003KT 15SM BKN032 00/M00 A3015 RMK SC5 SLP223",2025-11-01 09:24:38.784715,2025-11-01 05:24:38.784715
"CYBR",2025-11-01 09:00:00,2025-11-01 05:00:00,"MVFR",0,-1,93,140,4,14500,30.14,NA,"OVC  ft","METAR CYBR 010900Z AUTO 14004KT 9SM OVC021 00/M01 A3014 RMK SLP229",2025-11-01 09:24:38.855736,2025-11-01 05:24:38.855736
"CYUL",2025-11-01 09:00:00,2025-11-01 05:00:00,"MVFR",7,2,71,280,17,24100,29.5,NA,"OVC  ft","METAR CYUL 010900Z 28017G24KT 15SM OVC030 07/02 A2950 RMK SC8 SLP993",2025-11-01 09:24:38.932044,2025-11-01 05:24:38.932044
"CYHU",2025-10-31 18:00:00,2025-10-31 14:00:00,"IFR",9,9,100,240,18,4800,28.96,NA,"BKN  ft; OVC  ft","METAR CYHU 311800Z AUTO 24018G24KT 3SM RA BR BKN009 OVC013 09/09 A2896 RMK PCPN 3.2MM PAST HR SLP809 DENSITY ALT 600FT",2025-11-01 09:24:39.001093,2025-11-01 05:24:39.001093
"CYQB",2025-11-01 09:00:00,2025-11-01 05:00:00,"MVFR",7,3,76,260,11,24100,29.22,NA,"FEW  ft; BKN  ft; OVC  ft","METAR CYQB 010900Z 26011G16KT 240V300 15SM FEW015 BKN027 OVC110 07/03 A2922 RMK SC1SC6AC2 SC TR SLP899",2025-11-01 09:24:39.085084,2025-11-01 05:24:39.085084
"CYVO",2025-11-01 09:00:00,2025-11-01 05:00:00,"MVFR",2,-2,75,310,11,14500,29.65,NA,"FEW  ft; BKN  ft; OVC  ft","METAR CYVO 010900Z AUTO 31011G19KT 9SM FEW024 BKN030 OVC036 02/M02 A2965 RMK SLP058",2025-11-01 09:24:39.156098,2025-11-01 05:24:39.156098
"CYUY",2025-11-01 09:00:00,2025-11-01 05:00:00,"MVFR",1,-1,87,320,11,19300,29.72,NA,"OVC  ft","METAR CYUY 010900Z 32011G20KT 12SM -SN OVC014 01/M01 A2972 RMK SC8 SLP078",2025-11-01 09:24:39.227536,2025-11-01 05:24:39.227536
"CYZV",2025-11-01 09:00:00,2025-11-01 05:00:00,"VFR",5,4,93,360,11,24100,28.83,NA,"BKN  ft; OVC  ft","METAR CYZV 010900Z 36011G18KT 15SM -RA BKN064 OVC075 05/04 A2883 RMK SC7AC1 SLP765",2025-11-01 09:24:39.303118,2025-11-01 05:24:39.303118
"CYBC",2025-11-01 09:00:00,2025-11-01 05:00:00,"VFR",6,4,87,320,9,14500,28.94,NA,"FEW  ft; OVC  ft","METAR CYBC 010900Z AUTO 32009G16KT 9SM -RA FEW044 OVC055 06/04 A2894 RMK SLP803",2025-11-01 09:24:39.379754,2025-11-01 05:24:39.379754
"CYRJ",2025-11-01 09:00:00,2025-11-01 05:00:00,"MVFR",5,3,87,310,17,32200,29.25,NA,"OVC  ft","METAR CYRJ 010900Z 31017G25KT 20SM -RA OVC018 05/03 A2925 RMK SC8 SLP913",2025-11-01 09:24:39.450653,2025-11-01 05:24:39.450653
"CYHZ",2025-11-01 09:00:00,2025-11-01 05:00:00,"MVFR",9,6,82,230,20,24100,29.06,NA,"BKN  ft; OVC  ft","METAR CYHZ 010900Z 23020G27KT 15SM BKN023 OVC042 09/06 A2906 RMK SC6SC2 SLP845 DENSITY ALT 900FT",2025-11-01 09:24:39.522989,2025-11-01 05:24:39.522989
"CYYG",2025-11-01 09:00:00,2025-11-01 05:00:00,"MVFR",10,7,82,220,20,24100,28.91,NA,"OVC  ft","METAR CYYG 010900Z 22020G31KT 15SM -SHRA OVC018 10/07 A2891 RMK SC8 CVCTV CLD EMBD SLP792 DENSITY ALT 800FT",2025-11-01 09:24:39.599873,2025-11-01 05:24:39.599873
"CYQM",2025-11-01 09:00:00,2025-11-01 05:00:00,"MVFR",9,5,76,230,14,19300,28.91,NA,"OVC  ft","METAR CYQM 010900Z 23014G30KT 12SM OVC022 09/05 A2891 RMK SC8 OCNL -SHRA CVCTV CLD EMBD SLP794 DENSITY ALT 700FT",2025-11-01 09:24:39.675404,2025-11-01 05:24:39.675404
"CYFC",2025-11-01 09:13:00,2025-11-01 05:13:00,"VFR",7,5,87,230,15,14500,28.99,NA,"FEW  ft; SCT  ft; BKN  ft; OVC  ft","SPECI CYFC 010913Z AUTO 23015G25KT 9SM -RA FEW021 SCT027 BKN033 OVC048 07/05 A2899 RMK SLP820 DENSITY ALT 300FT",2025-11-01 09:24:39.723226,2025-11-01 05:24:39.723226
"CYYT",2025-11-01 09:10:00,2025-11-01 05:10:00,"LIFR",10,10,100,270,23,1000,28.88,NA,"BKN  ft; OVC  ft","SPECI CYYT 010910Z 27023G30KT 5/8SM R28/P6000FT/U R16/P6000FT/U -DZ BR BKN003 OVC160 10/10 A2888 RMK ST6AC2 SLP784 DENSITY ALT 1200FT",2025-11-01 09:24:39.794231,2025-11-01 05:24:39.794231
"CYQY",2025-11-01 09:00:00,2025-11-01 05:00:00,"VFR",10,8,88,240,24,24100,28.99,NA,"SCT  ft; BKN  ft","METAR CYQY 010900Z 24024G33KT 15SM SCT020 BKN036 10/08 A2899 RMK SC4SC3 SLP820 DENSITY ALT 800FT",2025-11-01 09:24:39.870985,2025-11-01 05:24:39.870985
"CYXY",2025-11-01 09:00:00,2025-11-01 05:00:00,"VFR",2,-2,75,160,11,24100,29,NA,"SCT  ft; OVC  ft","METAR CYXY 010900Z 16011KT 15SM SCT170 OVC210 02/M02 A2900 RMK AS4CI4 SLP847",2025-11-01 09:24:39.945991,2025-11-01 05:24:39.945991
"CYZF",2025-11-01 09:00:00,2025-11-01 05:00:00,"IFR",4,3,93,160,19,19300,29.09,NA,"OVC  ft","METAR CYZF 010900Z 16019G25KT 12SM -RA OVC007 04/03 A2909 RMK SC8 SLP865",2025-11-01 09:24:40.019612,2025-11-01 05:24:40.019612
"CYFB",2025-11-01 09:00:00,2025-11-01 05:00:00,"VFR",-13,-15,85,350,8,24100,29.94,NA,"FEW  ft","METAR CYFB 010900Z 35008KT 15SM FEW030 M13/M15 A2994 RMK SC1 SC TR SLP145",2025-11-01 09:24:40.093809,2025-11-01 05:24:40.093809
"CYRT",2025-11-01 09:00:00,2025-11-01 05:00:00,"MVFR",-2,-3,93,200,10,4800,29.87,NA,"BKN  ft; OVC  ft","METAR CYRT 010900Z 20010KT 3SM -SN BKN010 OVC027 M02/M03 A2987 RMK SC5SC3 SLP119",2025-11-01 09:24:40.126192,2025-11-01 05:24:40.126192
"CYBK",2025-11-01 09:21:00,2025-11-01 05:21:00,"MVFR",-2,-3,93,150,11,24100,29.75,NA,"OVC  ft","SPECI CYBK 010921Z 15011KT 15SM OVC013 M02/M03 A2975 RMK SC8 SLP080",2025-11-01 09:24:40.194481,2025-11-01 05:24:40.194481
"CYRB",2025-11-01 09:04:00,2025-11-01 05:04:00,"VFR",-11,-13,85,60,18,24100,29.86,NA,"SCT  ft","SPECI CYRB 010904Z 06018KT 15SM SCT020 M11/M13 A2986 RMK SC4 SLP123",2025-11-01 09:24:40.277813,2025-11-01 05:24:40.277813
"CYCO",2025-11-01 09:00:00,2025-11-01 05:00:00,"VFR",1,-1,87,90,21,24100,29.16,NA,"OVC  ft","METAR CYCO 010900Z 09021G26KT 15SM OVC096 01/M01 A2916 RMK AC8 SLP880",2025-11-01 09:24:40.347828,2025-11-01 05:24:40.347828
"CYER",2025-11-01 10:13:00,2025-11-01 06:13:00,"IFR",0,NA,NA,290,8,3600,30,NA,"SCT  ft; OVC  ft","SPECI CYER 011013Z AUTO 29008KT 2 1/4SM BR SCT004 OVC017 M00/ A3000 RMK DP MISG SLP163",2025-11-01 10:25:44.191583,2025-11-01 06:25:44.191583
"CYAT",2025-11-01 10:00:00,2025-11-01 06:00:00,"VFR",1,0,93,310,9,14500,29.9,NA,"OVC  ft","METAR CYAT 011000Z AUTO 31009KT 9SM OVC039 01/M00 A2990 RMK SLP127",2025-11-01 10:25:44.266899,2025-11-01 06:25:44.266899
"CYMO",2025-11-01 10:00:00,2025-11-01 06:00:00,"IFR",1,1,100,300,8,14500,29.84,NA,"OVC  ft","METAR CYMO 011000Z AUTO 30008KT 9SM -RA OVC006 01/01 A2984 RMK SLP107",2025-11-01 10:25:44.33494,2025-11-01 06:25:44.33494
"CYPL",2025-11-01 10:00:00,2025-11-01 06:00:00,"IFR",-1,-2,93,310,6,14500,30.05,NA,"BKN  ft; OVC  ft","METAR CYPL 011000Z AUTO 31006KT 280V030 9SM BKN008 OVC016 M01/M02 A3005 RMK SLP200",2025-11-01 10:25:44.429027,2025-11-01 06:25:44.429027
"CYQT",2025-11-01 10:00:00,2025-11-01 06:00:00,"VFR",2,-3,70,350,2,24100,30.05,NA,"OVC  ft","METAR CYQT 011000Z 35002KT 15SM OVC033 02/M03 A3005 RMK SC8 SLP188",2025-11-01 10:25:44.501866,2025-11-01 06:25:44.501866
"CYAM",2025-11-01 10:00:00,2025-11-01 06:00:00,"VFR",2,-2,75,30,5,24100,29.95,NA,"OVC  ft","METAR CYAM 011000Z 03005KT 340V090 15SM OVC035 02/M02 A2995 RMK SC8 SLP150",2025-11-01 10:25:44.570688,2025-11-01 06:25:44.570688
"CYTS",2025-11-01 10:00:00,2025-11-01 06:00:00,"MVFR",0,-1,93,300,10,24100,29.85,NA,"BKN  ft; OVC  ft","METAR CYTS 011000Z 30010KT 15SM -SN BKN011 OVC035 00/M01 A2985 RMK SC6SC2 SLP126",2025-11-01 10:25:44.64875,2025-11-01 06:25:44.64875
"CYSB",2025-11-01 10:00:00,2025-11-01 06:00:00,"MVFR",1,-3,75,320,7,24100,29.83,NA,"OVC  ft","METAR CYSB 011000Z 32007KT 15SM -SN OVC028 01/M03 A2983 RMK SC8 SLP119",2025-11-01 10:25:44.719651,2025-11-01 06:25:44.719651
"CYYB",2025-11-01 10:00:00,2025-11-01 06:00:00,"VFR",1,-1,87,310,7,14500,29.79,NA,"FEW  ft; OVC  ft","METAR CYYB 011000Z AUTO 31007KT 260V010 9SM FEW014 OVC032 01/M01 A2979 RMK SLP102",2025-11-01 10:25:44.789512,2025-11-01 06:25:44.789512
"CYOW",2025-11-01 10:00:00,2025-11-01 06:00:00,"VFR",3,-1,75,280,15,24100,29.66,NA,"FEW  ft","METAR CYOW 011000Z 28015G21KT 15SM FEW080 03/M01 A2966 RMK AC1 AC TR SLP050",2025-11-01 10:25:44.832938,2025-11-01 06:25:44.832938
"CYGK",2025-11-01 10:00:00,2025-11-01 06:00:00,"VFR",5,2,81,270,10,24100,29.78,NA,"OVC  ft","METAR CYGK 011000Z 27010KT 15SM OVC040 05/02 A2978 RMK SC8 SLP090",2025-11-01 10:25:44.904817,2025-11-01 06:25:44.904817
"CYQG",2025-11-01 10:00:00,2025-11-01 06:00:00,"VFR",3,2,93,210,6,14500,29.94,NA,"OVC  ft","METAR CYQG 011000Z AUTO 21006KT 9SM OVC100 03/02 A2994 RMK SLP144",2025-11-01 10:25:44.973626,2025-11-01 06:25:44.973626
"CYVV",2025-11-01 10:00:00,2025-11-01 06:00:00,"VFR",5,2,81,300,2,24100,29.87,NA,"OVC  ft","METAR CYVV 011000Z 30002KT 15SM OVC054 05/02 A2987 RMK SC8 SLP123",2025-11-01 10:25:45.049158,2025-11-01 06:25:45.049158
"CYYZ",2025-11-01 10:00:00,2025-11-01 06:00:00,"VFR",5,1,76,280,9,24100,29.85,NA,"BKN  ft","METAR CYYZ 011000Z 28009KT 15SM BKN055 05/01 A2985 RMK SC6 SLP115",2025-11-01 10:25:45.080619,2025-11-01 06:25:45.080619
"CYQA",2025-11-01 10:00:00,2025-11-01 06:00:00,"VFR",3,-1,75,320,7,14500,29.81,NA,"OVC  ft","METAR CYQA 011000Z AUTO 32007KT 9SM OVC039 03/M01 A2981 RMK SLP105",2025-11-01 10:25:45.148674,2025-11-01 06:25:45.148674
"CYVR",2025-11-01 10:00:00,2025-11-01 06:00:00,"IFR",11,11,100,60,4,4000,29.85,NA,"FEW  ft; BKN  ft; BKN  ft; OVC  ft","METAR CYVR 011000Z 06004KT 2 1/2SM -RA BR FEW005 BKN011 BKN019 OVC058 11/11 A2985 RMK SF1SC6SC1SC1 SF TR SLP111",2025-11-01 10:25:45.217617,2025-11-01 06:25:45.217617
"CYYJ",2025-11-01 10:00:00,2025-11-01 06:00:00,"LIFR",10,10,100,160,6,9700,29.83,NA,"BKN  ft; OVC  ft","METAR CYYJ 011000Z 16006KT 6SM -RA BR BKN004 OVC073 10/10 A2983 RMK SC5AC3 SLP104",2025-11-01 10:25:45.286677,2025-11-01 06:25:45.286677
"CYLW",2025-11-01 10:00:00,2025-11-01 06:00:00,"VFR",8,4,76,140,5,14500,29.91,NA,"SCT  ft; BKN  ft; OVC  ft","METAR CYLW 011000Z AUTO 14005KT 110V190 9SM SCT055 BKN081 OVC093 08/04 A2991 RMK SLP139",2025-11-01 10:25:45.357947,2025-11-01 06:25:45.357947
"CYXS",2025-11-01 10:00:00,2025-11-01 06:00:00,"VFR",4,1,81,180,6,14500,29.61,NA,"BKN  ft; BKN  ft; OVC  ft","METAR CYXS 011000Z AUTO 18006KT 9SM BKN130 BKN150 OVC170 04/01 A2961 RMK SLP047",2025-11-01 10:25:45.428194,2025-11-01 06:25:45.428194
"CYXT",2025-11-01 10:00:00,2025-11-01 06:00:00,"MVFR",5,5,100,180,15,6400,29.55,NA,"FEW  ft; SCT  ft; OVC  ft","METAR CYXT 011000Z 18015G21KT 4SM -RA BR FEW006 SCT015 OVC050 05/05 A2955 RMK SF1SC2SC5 SLP016",2025-11-01 10:25:45.500755,2025-11-01 06:25:45.500755
"CYQQ",2025-11-01 10:00:00,2025-11-01 06:00:00,"VFR",11,9,88,170,8,24100,29.8,NA,"SCT  ft; OVC  ft","METAR CYQQ 011000Z 17008KT 15SM -SHRA SCT008 OVC050 11/09 A2980 RMK SF4SC4 DENSITY ALT -121FT SLP092",2025-11-01 10:25:45.570364,2025-11-01 06:25:45.570364
"CYYC",2025-11-01 10:00:00,2025-11-01 06:00:00,"VFR",5,-3,57,170,5,24100,29.65,NA,"FEW  ft; OVC  ft","METAR CYYC 011000Z 17005KT 15SM FEW220 OVC250 05/M03 A2965 RMK CI2CI6 SLP072",2025-11-01 10:25:45.638415,2025-11-01 06:25:45.638415
"CYEG",2025-11-01 10:00:00,2025-11-01 06:00:00,"VFR",2,-4,65,280,5,32200,29.57,NA,"FEW  ft","METAR CYEG 011000Z 28005KT 20SM FEW150 02/M04 A2957 RMK AC1 AC TR SLP035",2025-11-01 10:25:45.710588,2025-11-01 06:25:45.710588
"CYMM",2025-11-01 10:00:00,2025-11-01 06:00:00,"VFR",1,0,93,120,5,14500,29.5,NA,"SCT  ft; OVC  ft","METAR CYMM 011000Z AUTO 12005KT 9SM -RA SCT038 OVC071 01/00 A2950 RMK PCPN 1.0MM PAST HR SLP009",2025-11-01 10:25:45.742347,2025-11-01 06:25:45.742347
"CYQF",2025-11-01 10:00:00,2025-11-01 06:00:00,"VFR",9,-1,50,270,3,14500,29.59,NA,"BKN  ft","METAR CYQF 011000Z AUTO 27003KT 9SM BKN250 09/M01 A2959 RMK SLP045 DENSITY ALT 3300FT",2025-11-01 10:25:45.810708,2025-11-01 06:25:45.810708
"CYXE",2025-11-01 10:00:00,2025-11-01 06:00:00,"VFR",2,-4,65,160,18,24100,29.73,NA,"SCT  ft; BKN  ft","METAR CYXE 011000Z 16018G25KT 15SM SCT150 BKN210 02/M04 A2973 RMK AC4CI3 SLP093",2025-11-01 10:25:45.877952,2025-11-01 06:25:45.877952
"CYQR",2025-11-01 10:00:00,2025-11-01 06:00:00,"VFR",-3,-4,93,150,16,24100,29.94,NA,"OVC  ft","METAR CYQR 011000Z 15016G21KT 15SM OVC240 M03/M04 A2994 RMK CI8 SLP171",2025-11-01 10:25:45.945883,2025-11-01 06:25:45.945883
"CYWG",2025-11-01 10:00:00,2025-11-01 06:00:00,"VFR",0,0,100,280,4,24100,30.15,NA,"BKN  ft","METAR CYWG 011000Z 28004KT 15SM BKN031 00/00 A3015 RMK SC6 SLP225",2025-11-01 10:25:46.013717,2025-11-01 06:25:46.013717
"CYBR",2025-11-01 10:00:00,2025-11-01 06:00:00,"MVFR",1,-2,81,170,5,14500,30.14,NA,"OVC  ft","METAR CYBR 011000Z AUTO 17005KT 9SM OVC021 01/M02 A3014 RMK SLP228",2025-11-01 10:25:46.082633,2025-11-01 06:25:46.082633
"CYUL",2025-11-01 10:00:00,2025-11-01 06:00:00,"VFR",6,2,76,280,14,24100,29.55,NA,"BKN  ft","METAR CYUL 011000Z 28014G21KT 15SM BKN032 06/02 A2955 RMK SC7 SLP010",2025-11-01 10:25:46.15999,2025-11-01 06:25:46.15999
"CYHU",2025-11-01 10:00:00,2025-11-01 06:00:00,"VFR",7,2,71,270,15,14500,29.52,NA,"OVC  ft","METAR CYHU 011000Z AUTO 27015G24KT 9SM OVC035 07/02 A2952 RMK TS/LTNG TEMPO UNAVBL SLP001",2025-11-01 10:25:46.227737,2025-11-01 06:25:46.227737
"CYQB",2025-11-01 10:00:00,2025-11-01 06:00:00,"MVFR",6,3,81,270,16,24100,29.26,NA,"BKN  ft; BKN  ft; OVC  ft","METAR CYQB 011000Z CCA 27016G21KT 15SM BKN028 BKN110 OVC150 06/03 A2926 RMK SC5AC2AC1 SLP913",2025-11-01 10:25:46.297788,2025-11-01 06:25:46.297788
"CYVO",2025-11-01 10:00:00,2025-11-01 06:00:00,"VFR",2,-2,75,320,9,24100,29.68,NA,"OVC  ft","METAR CYVO 011000Z 32009G18KT 15SM OVC031 02/M02 A2968 RMK SC8 SLP069",2025-11-01 10:25:46.36764,2025-11-01 06:25:46.36764
"CYUY",2025-11-01 10:00:00,2025-11-01 06:00:00,"VFR",1,-1,87,330,10,24100,29.74,NA,"OVC  ft","METAR CYUY 011000Z 33010KT 15SM -SN OVC038 01/M01 A2974 RMK SC8 SLP088",2025-11-01 10:25:46.437706,2025-11-01 06:25:46.437706
"CYZV",2025-11-01 10:00:00,2025-11-01 06:00:00,"VFR",5,3,87,340,9,24100,28.85,NA,"BKN  ft; BKN  ft; OVC  ft","METAR CYZV 011000Z 34009KT 15SM BKN032 BKN042 OVC094 05/03 A2885 RMK SC6SC1AC1 SLP772",2025-11-01 10:25:46.466166,2025-11-01 06:25:46.466166
"CYBC",2025-11-01 10:00:00,2025-11-01 06:00:00,"VFR",5,3,87,310,9,14500,28.97,NA,"BKN  ft; OVC  ft","METAR CYBC 011000Z AUTO 31009KT 9SM BKN060 OVC072 05/03 A2897 RMK SLP813",2025-11-01 10:25:46.536116,2025-11-01 06:25:46.536116
"CYRJ",2025-11-01 10:00:00,2025-11-01 06:00:00,"MVFR",4,2,87,310,17,32200,29.29,NA,"OVC  ft","METAR CYRJ 011000Z 31017G28KT 20SM -RA OVC020 04/02 A2929 RMK SC8 SLP927",2025-11-01 10:25:46.608746,2025-11-01 06:25:46.608746
"CYHZ",2025-11-01 10:05:00,2025-11-01 06:05:00,"MVFR",8,6,87,230,23,12900,29.06,NA,"BKN  ft; OVC  ft","SPECI CYHZ 011005Z 23023G31KT 8SM -RA BKN018 OVC030 08/06 A2906 RMK SC7SC1 SLP846 DENSITY ALT 800FT",2025-11-01 10:25:46.687767,2025-11-01 06:25:46.687767
"CYYG",2025-11-01 10:00:00,2025-11-01 06:00:00,"MVFR",9,6,82,210,17,24100,28.91,NA,"OVC  ft","METAR CYYG 011000Z 21017G28KT 15SM OVC020 09/06 A2891 RMK SC8 SLP791 DENSITY ALT 700FT",2025-11-01 10:25:46.764616,2025-11-01 06:25:46.764616
"CYQM",2025-11-01 10:00:00,2025-11-01 06:00:00,"MVFR",8,5,82,240,23,24100,28.93,NA,"BKN  ft","METAR CYQM 011000Z 24023G34KT 15SM -SHRA BKN015 08/05 A2893 RMK SC7 CVCTV CLD EMBD SLP798 DENSITY ALT 700FT",2025-11-01 10:25:46.834823,2025-11-01 06:25:46.834823
"CYFC",2025-11-01 10:17:00,2025-11-01 06:17:00,"MVFR",8,6,87,240,11,14500,29.04,NA,"FEW  ft; BKN  ft; OVC  ft","SPECI CYFC 011017Z AUTO 24011G20KT 210V280 9SM FEW021 BKN027 OVC032 08/06 A2904 RMK SLP835 DENSITY ALT 300FT",2025-11-01 10:25:46.860318,2025-11-01 06:25:46.860318
"CYYT",2025-11-01 10:00:00,2025-11-01 06:00:00,"MVFR",11,11,100,270,33,24100,28.91,NA,"SCT  ft; BKN  ft","METAR CYYT 011000Z 27033G40KT 15SM SCT009 BKN016 11/11 A2891 RMK SF4SC3 SLP793 DENSITY ALT 1300FT",2025-11-01 10:25:46.926706,2025-11-01 06:25:46.926706
"CYQY",2025-11-01 10:00:00,2025-11-01 06:00:00,"VFR",10,6,76,230,22,24100,28.99,NA,"BKN  ft","METAR CYQY 011000Z 23022G32KT 15SM BKN032 10/06 A2899 RMK SC6 SLP819 DENSITY ALT 800FT",2025-11-01 10:25:46.994703,2025-11-01 06:25:46.994703
"CYXY",2025-11-01 10:00:00,2025-11-01 06:00:00,"VFR",2,-3,70,150,8,24100,29.02,NA,"FEW  ft; OVC  ft","METAR CYXY 011000Z 15008KT 15SM FEW073 OVC190 02/M03 A2902 RMK AC2AS7 SLP855",2025-11-01 10:25:47.061907,2025-11-01 06:25:47.061907
"CYZF",2025-11-01 10:00:00,2025-11-01 06:00:00,"IFR",4,3,93,160,13,24100,29.07,NA,"BKN  ft; OVC  ft","METAR CYZF 011000Z 16013G19KT 15SM -RA BKN006 OVC015 04/03 A2907 RMK SC7SC1 SLP858",2025-11-01 10:25:47.128874,2025-11-01 06:25:47.128874
"CYFB",2025-11-01 10:00:00,2025-11-01 06:00:00,"VFR",-13,-16,78,330,8,24100,29.94,NA,"FEW  ft","METAR CYFB 011000Z 33008KT 15SM FEW030 M13/M16 A2994 RMK SC1 SC TR SLP145",2025-11-01 10:25:47.19604,2025-11-01 06:25:47.19604
"CYRT",2025-11-01 10:00:00,2025-11-01 06:00:00,"MVFR",-2,-2,100,190,9,4800,29.85,NA,"BKN  ft; OVC  ft","METAR CYRT 011000Z 19009KT 3SM -SN BKN010 OVC025 M02/M02 A2985 RMK SC6SC2 SLP113",2025-11-01 10:25:47.957842,2025-11-01 06:25:47.957842
"CYBK",2025-11-01 10:00:00,2025-11-01 06:00:00,"MVFR",-2,-3,93,150,12,40200,29.74,NA,"OVC  ft","METAR CYBK 011000Z 15012KT 25SM OVC012 M02/M03 A2974 RMK SC8 SLP075",2025-11-01 10:25:48.025777,2025-11-01 06:25:48.025777
"CYRB",2025-11-01 10:00:00,2025-11-01 06:00:00,"VFR",-11,-12,92,60,18,24100,29.86,NA,"FEW  ft","METAR CYRB 011000Z 06018G28KT 15SM DRSN FEW020 M11/M12 A2986 RMK SC2 SLP123",2025-11-01 10:25:48.10347,2025-11-01 06:25:48.10347
"CYCO",2025-11-01 10:00:00,2025-11-01 06:00:00,"MVFR",0,-2,87,90,24,24100,29.13,NA,"BKN  ft; OVC  ft","METAR CYCO 011000Z 09024G31KT 15SM BKN024 OVC100 00/M02 A2913 RMK SC6AC2 SLP868",2025-11-01 10:25:48.170979,2025-11-01 06:25:48.170979
"CYER",2025-11-01 11:00:00,2025-11-01 07:00:00,"IFR",0,NA,NA,290,9,2000,30.01,NA,"BKN  ft; OVC  ft","METAR CYER 011100Z AUTO 29009KT 1 1/4SM BR BKN006 OVC011 M00/ A3001 RMK ICE INTMT DP MISG SLP166",2025-11-01 11:19:33.03986,2025-11-01 07:19:33.03986
"CYAT",2025-11-01 11:11:00,2025-11-01 07:11:00,"MVFR",0,-1,93,300,8,14500,29.91,NA,"BKN  ft; BKN  ft","SPECI CYAT 011111Z AUTO 30008KT 9SM BKN012 BKN050 M00/M01 A2991 RMK SLP130",2025-11-01 11:19:33.126257,2025-11-01 07:19:33.126257
"CYMO",2025-11-01 11:00:00,2025-11-01 07:00:00,"IFR",1,1,100,310,8,14500,29.85,NA,"OVC  ft","METAR CYMO 011100Z AUTO 31008KT 9SM -RA OVC008 01/01 A2985 RMK SLP112",2025-11-01 11:19:33.22256,2025-11-01 07:19:33.22256
"CYPL",2025-11-01 11:07:00,2025-11-01 07:07:00,"IFR",-1,-2,93,290,5,14500,30.06,NA,"OVC  ft","SPECI CYPL 011107Z AUTO 29005KT 260V330 9SM OVC006 M01/M02 A3006 RMK SLP203",2025-11-01 11:19:33.322771,2025-11-01 07:19:33.322771
"CYQT",2025-11-01 11:00:00,2025-11-01 07:00:00,"VFR",2,-3,70,320,4,24100,30.08,NA,"OVC  ft","METAR CYQT 011100Z 32004KT 15SM OVC033 02/M03 A3008 RMK SC8 SLP197",2025-11-01 11:19:33.409886,2025-11-01 07:19:33.409886
"CYAM",2025-11-01 11:00:00,2025-11-01 07:00:00,"VFR",2,-3,70,360,6,24100,29.97,NA,"OVC  ft","METAR CYAM 011100Z 36006KT 15SM OVC032 02/M03 A2997 RMK SC8 SLP159",2025-11-01 11:19:33.485399,2025-11-01 07:19:33.485399
"CYTS",2025-11-01 11:00:00,2025-11-01 07:00:00,"IFR",0,-1,93,300,8,24100,29.88,NA,"BKN  ft; OVC  ft","METAR CYTS 011100Z 30008KT 15SM -SN BKN009 OVC035 M00/M01 A2988 RMK SC7SC1 SLP135",2025-11-01 11:19:33.560521,2025-11-01 07:19:33.560521
"CYSB",2025-11-01 11:00:00,2025-11-01 07:00:00,"VFR",1,-3,75,310,7,24100,29.85,NA,"FEW  ft; OVC  ft","METAR CYSB 011100Z 31007KT 15SM FEW013 OVC032 01/M03 A2985 RMK SF1SC7 INTMT -SN SLP125",2025-11-01 11:19:33.644679,2025-11-01 07:19:33.644679
"CYYB",2025-11-01 11:00:00,2025-11-01 07:00:00,"MVFR",1,-1,87,320,3,24100,29.81,NA,"BKN  ft; OVC  ft","METAR CYYB 011100Z 32003KT 15SM BKN018 OVC026 01/M01 A2981 RMK SC5SC3 SLP111",2025-11-01 11:19:33.729512,2025-11-01 07:19:33.729512
"CYOW",2025-11-01 11:00:00,2025-11-01 07:00:00,"VFR",3,-1,75,280,14,24100,29.7,NA,"BKN  ft","METAR CYOW 011100Z 28014KT 15SM BKN220 03/M01 A2970 RMK CI6 SLP063",2025-11-01 11:19:33.81046,2025-11-01 07:19:33.81046
"CYGK",2025-11-01 11:00:00,2025-11-01 07:00:00,"VFR",4,2,87,270,8,24100,29.81,NA,"OVC  ft","METAR CYGK 011100Z 27008KT 15SM OVC040 04/02 A2981 RMK SC8 SLP100",2025-11-01 11:19:33.890435,2025-11-01 07:19:33.890435
"CYQG",2025-11-01 11:00:00,2025-11-01 07:00:00,"VFR",4,2,87,230,4,14500,29.95,NA,"BKN  ft","METAR CYQG 011100Z AUTO 23004KT 9SM BKN091 04/02 A2995 RMK SLP149",2025-11-01 11:19:33.976188,2025-11-01 07:19:33.976188
"CYVV",2025-11-01 11:00:00,2025-11-01 07:00:00,"VFR",5,1,76,300,5,24100,29.89,NA,"OVC  ft","METAR CYVV 011100Z 30005KT 220V320 15SM OVC054 05/01 A2989 RMK SC8 SLP130",2025-11-01 11:19:34.029587,2025-11-01 07:19:34.029587
"CYYZ",2025-11-01 11:00:00,2025-11-01 07:00:00,"VFR",4,1,81,270,7,24100,29.89,NA,"SCT  ft","METAR CYYZ 011100Z 27007KT 15SM SCT056 04/01 A2989 RMK SC4 SLP127",2025-11-01 11:19:34.105128,2025-11-01 07:19:34.105128
"CYQA",2025-11-01 11:00:00,2025-11-01 07:00:00,"VFR",2,-2,75,340,10,14500,29.84,NA,"OVC  ft","METAR CYQA 011100Z AUTO 34010KT 9SM OVC041 02/M02 A2984 RMK SLP117",2025-11-01 11:19:34.179057,2025-11-01 07:19:34.179057
"CYVR",2025-11-01 11:00:00,2025-11-01 07:00:00,"MVFR",11,11,100,100,4,8000,29.78,NA,"SCT  ft; OVC  ft","METAR CYVR 011100Z 10004KT 5SM -RA BR SCT009 OVC074 11/11 A2978 RMK SC4AS4 PRESFR SLP088",2025-11-01 11:19:34.257325,2025-11-01 07:19:34.257325
"CYYJ",2025-11-01 11:00:00,2025-11-01 07:00:00,"LIFR",10,10,100,50,4,8000,29.77,NA,"OVC  ft","METAR CYYJ 011100Z 05004KT 040V140 5SM -RA BR OVC002 10/10 A2977 RMK SC8 PRESFR SLP082",2025-11-01 11:19:34.300772,2025-11-01 07:19:34.300772
"CYLW",2025-11-01 11:06:00,2025-11-01 07:06:00,"VFR",8,4,76,150,5,14500,29.89,NA,"BKN  ft; OVC  ft","SPECI CYLW 011106Z AUTO 15005KT 120V190 9SM -RA BKN060 OVC074 08/04 A2989 RMK SLP133",2025-11-01 11:19:34.339978,2025-11-01 07:19:34.339978
"CYXS",2025-11-01 11:00:00,2025-11-01 07:00:00,"VFR",4,0,75,190,5,14500,29.6,NA,"FEW  ft; SCT  ft; BKN  ft","METAR CYXS 011100Z AUTO 19005KT 9SM FEW130 SCT150 BKN240 04/00 A2960 RMK SLP044",2025-11-01 11:19:34.410127,2025-11-01 07:19:34.410127
"CYXT",2025-11-01 11:00:00,2025-11-01 07:00:00,"MVFR",5,5,100,170,15,6400,29.55,NA,"FEW  ft; SCT  ft; BKN  ft; OVC  ft","METAR CYXT 011100Z 17015G20KT 4SM -RA BR FEW006 SCT020 BKN060 OVC090 05/05 A2955 RMK SF1SC2SC4AC1 SLP016",2025-11-01 11:19:34.484534,2025-11-01 07:19:34.484534
"CYQQ",2025-11-01 11:00:00,2025-11-01 07:00:00,"IFR",11,9,88,170,9,9999,29.75,NA,"BKN  ft; OVC  ft","METAR CYQQ 011100Z 17009KT 130V190 10SM -RA BKN009 OVC040 11/09 A2975 RMK SF6SC2 DENSITY ALT -75FT CIG VRB 6-12 SLP075",2025-11-01 11:19:34.560626,2025-11-01 07:19:34.560626
"CYYC",2025-11-01 11:00:00,2025-11-01 07:00:00,"VFR",10,-2,43,230,7,24100,29.63,NA,"OVC  ft","METAR CYYC 011100Z 23007KT 200V280 15SM OVC240 10/M02 A2963 RMK CI8 SLP057 DENSITY ALT 4200FT",2025-11-01 11:19:34.640442,2025-11-01 07:19:34.640442
"CYEG",2025-11-01 11:00:00,2025-11-01 07:00:00,"VFR",0,-4,75,200,7,32200,29.57,NA,"SKC  ft","METAR CYEG 011100Z 20007KT 20SM SKC M00/M04 A2957 RMK SLP040",2025-11-01 11:19:34.717549,2025-11-01 07:19:34.717549
"CYMM",2025-11-01 11:06:00,2025-11-01 07:06:00,"VFR",1,1,100,0,0,14500,29.47,NA,"FEW  ft; SCT  ft; BKN  ft; OVC  ft","SPECI CYMM 011106Z AUTO 00000KT 9SM FEW050 SCT071 BKN092 OVC120 01/01 A2947 RMK SLP001",2025-11-01 11:19:34.798783,2025-11-01 07:19:34.798783
"CYQF",2025-11-01 11:00:00,2025-11-01 07:00:00,"VFR",7,-1,57,170,3,14500,29.6,NA,"BKN  ft","METAR CYQF 011100Z AUTO 17003KT 9SM BKN240 07/M01 A2960 RMK SLP047",2025-11-01 11:19:34.872744,2025-11-01 07:19:34.872744
"CYXE",2025-11-01 11:00:00,2025-11-01 07:00:00,"VFR",2,-4,65,150,21,24100,29.67,NA,"BKN  ft","METAR CYXE 011100Z 15021KT 15SM BKN120 02/M04 A2967 RMK AC7 PRESFR SLP072",2025-11-01 11:19:34.948757,2025-11-01 07:19:34.948757
"CYQR",2025-11-01 11:00:00,2025-11-01 07:00:00,"VFR",-3,-4,93,150,19,24100,29.91,NA,"OVC  ft","METAR CYQR 011100Z 15019KT 15SM OVC230 M03/M04 A2991 RMK CI8 SLP160",2025-11-01 11:19:35.023144,2025-11-01 07:19:35.023144
"CYWG",2025-11-01 11:00:00,2025-11-01 07:00:00,"LIFR",0,0,100,280,6,24100,30.15,NA,"BKN  ft; BKN  ft","METAR CYWG 011100Z 28006KT 15SM BKN004 BKN031 00/00 A3015 RMK SF6SC1 SLP225",2025-11-01 11:19:35.096315,2025-11-01 07:19:35.096315
"CYBR",2025-11-01 11:00:00,2025-11-01 07:00:00,"MVFR",0,-1,93,180,4,14500,30.12,NA,"OVC  ft","METAR CYBR 011100Z AUTO 18004KT 140V200 9SM OVC019 00/M01 A3012 RMK SLP223",2025-11-01 11:19:35.170442,2025-11-01 07:19:35.170442
"CYUL",2025-11-01 11:00:00,2025-11-01 07:00:00,"VFR",6,2,76,290,16,24100,29.58,NA,"BKN  ft","METAR CYUL 011100Z 29016G23KT 15SM BKN032 06/02 A2958 RMK SC7 SLP021",2025-11-01 11:19:35.206366,2025-11-01 07:19:35.206366
"CYHU",2025-11-01 11:00:00,2025-11-01 07:00:00,"VFR",6,2,76,260,14,14500,29.56,NA,"FEW  ft","METAR CYHU 011100Z AUTO 26014G23KT 9SM FEW033 06/02 A2956 RMK SLP014",2025-11-01 11:19:35.281282,2025-11-01 07:19:35.281282
"CYQB",2025-11-01 11:00:00,2025-11-01 07:00:00,"VFR",7,3,76,260,15,48300,29.32,NA,"BKN  ft; BKN  ft; BKN  ft","METAR CYQB 011100Z 26015G22KT 30SM BKN038 BKN130 BKN200 07/03 A2932 RMK SC5AC1CI1 PRESRR SLP932",2025-11-01 11:19:35.359796,2025-11-01 07:19:35.359796
"CYVO",2025-11-01 11:10:00,2025-11-01 07:10:00,"MVFR",1,-2,81,320,13,24100,29.71,NA,"FEW  ft; BKN  ft","SPECI CYVO 011110Z 32013G22KT 15SM -SN FEW019 BKN030 01/M02 A2971 RMK SC2SC5 SLP079",2025-11-01 11:19:35.433753,2025-11-01 07:19:35.433753
"CYUY",2025-11-01 11:12:00,2025-11-01 07:12:00,"IFR",1,-1,87,330,8,4800,29.78,NA,"OVC  ft","SPECI CYUY 011112Z 33008G15KT 3SM -SN OVC008 01/M01 A2978 RMK SC8 SLP098",2025-11-01 11:19:35.50719,2025-11-01 07:19:35.50719
"CYZV",2025-11-01 11:00:00,2025-11-01 07:00:00,"VFR",5,3,87,330,6,48300,28.87,NA,"FEW  ft; BKN  ft","METAR CYZV 011100Z 33006KT 300V360 30SM FEW020 BKN037 05/03 A2887 RMK CU1SC6 SLP780",2025-11-01 11:19:35.58049,2025-11-01 07:19:35.58049
"CYBC",2025-11-01 11:00:00,2025-11-01 07:00:00,"VFR",6,4,87,310,8,14500,29.01,NA,"BKN  ft; OVC  ft","METAR CYBC 011100Z AUTO 31008KT 9SM -RA BKN060 OVC074 06/04 A2901 RMK SLP825",2025-11-01 11:19:35.656473,2025-11-01 07:19:35.656473
"CYRJ",2025-11-01 11:00:00,2025-11-01 07:00:00,"MVFR",3,1,87,300,18,32200,29.34,NA,"OVC  ft","METAR CYRJ 011100Z 30018G28KT 20SM -RA OVC016 03/01 A2934 RMK SC8 SLP944",2025-11-01 11:19:35.694269,2025-11-01 07:19:35.694269
"CYHZ",2025-11-01 11:00:00,2025-11-01 07:00:00,"MVFR",8,5,82,250,22,24100,29.08,NA,"BKN  ft; OVC  ft","METAR CYHZ 011100Z 25022G34KT 15SM BKN018 OVC032 08/05 A2908 RMK SC7SC1 SLP852 DENSITY ALT 800FT",2025-11-01 11:19:35.776296,2025-11-01 07:19:35.776296
"CYYG",2025-11-01 11:00:00,2025-11-01 07:00:00,"MVFR",9,6,82,230,18,24100,28.92,NA,"OVC  ft","METAR CYYG 011100Z 23018G28KT 15SM -SHRA OVC022 09/06 A2892 RMK SC8 CVCTV CLD EMBD SLP794 DENSITY ALT 700FT",2025-11-01 11:19:35.851774,2025-11-01 07:19:35.851774
"CYQM",2025-11-01 11:00:00,2025-11-01 07:00:00,"IFR",8,6,87,250,18,24100,28.96,NA,"BKN  ft; OVC  ft","METAR CYQM 011100Z 25018G31KT 15SM BKN008 OVC015 08/06 A2896 RMK SF7SC1 SLP808 DENSITY ALT 600FT",2025-11-01 11:19:35.924425,2025-11-01 07:19:35.924425
"CYFC",2025-11-01 11:00:00,2025-11-01 07:00:00,"MVFR",8,6,87,240,13,14500,29.07,NA,"SCT  ft; BKN  ft; OVC  ft","METAR CYFC 011100Z AUTO 24013G20KT 9SM SCT015 BKN022 OVC029 08/06 A2907 RMK SLP848",2025-11-01 11:19:35.998393,2025-11-01 07:19:35.998393
"CYYT",2025-11-01 11:00:00,2025-11-01 07:00:00,"MVFR",11,9,88,270,27,24100,28.97,NA,"SCT  ft; BKN  ft","METAR CYYT 011100Z 27027G37KT 15SM SCT013 BKN021 11/09 A2897 RMK SC4SC3 PRESRR SLP815 DENSITY ALT 1200FT",2025-11-01 11:19:36.081277,2025-11-01 07:19:36.081277
"CYQY",2025-11-01 11:00:00,2025-11-01 07:00:00,"VFR",10,5,71,240,20,24100,29,NA,"BKN  ft; BKN  ft","METAR CYQY 011100Z 24020G27KT 15SM BKN042 BKN140 10/05 A2900 RMK SC5AC1 SLP822 DENSITY ALT 800FT",2025-11-01 11:19:36.163486,2025-11-01 07:19:36.163486
"CYXY",2025-11-01 11:00:00,2025-11-01 07:00:00,"VFR",2,-3,70,160,12,24100,29.03,NA,"OVC  ft","METAR CYXY 011100Z 16012KT 15SM OVC180 02/M03 A2903 RMK AS8 SLP859",2025-11-01 11:19:36.240576,2025-11-01 07:19:36.240576
"CYZF",2025-11-01 11:00:00,2025-11-01 07:00:00,"IFR",4,4,100,170,12,24100,29.05,NA,"BKN  ft; OVC  ft","METAR CYZF 011100Z 17012KT 15SM -RA BKN008 OVC012 04/04 A2905 RMK SC7SC1 SLP850",2025-11-01 11:19:36.316446,2025-11-01 07:19:36.316446
"CYFB",2025-11-01 11:00:00,2025-11-01 07:00:00,"VFR",-14,-16,85,330,8,24100,29.94,NA,"SKC  ft","METAR CYFB 011100Z 33008KT 15SM SKC M14/M16 A2994 RMK SLP143",2025-11-01 11:19:36.389404,2025-11-01 07:19:36.389404
"CYRT",2025-11-01 11:00:00,2025-11-01 07:00:00,"MVFR",-1,-2,93,190,11,4800,29.84,NA,"BKN  ft; OVC  ft","METAR CYRT 011100Z 19011KT 3SM -SN BKN010 OVC021 M01/M02 A2984 RMK SC5SC3 SLP109",2025-11-01 11:19:36.461666,2025-11-01 07:19:36.461666
"CYBK",2025-11-01 11:00:00,2025-11-01 07:00:00,"MVFR",-2,-3,93,150,12,24100,29.72,NA,"FEW  ft; OVC  ft","METAR CYBK 011100Z 15012KT 15SM FEW010 OVC020 M02/M03 A2972 RMK SC1SC8 SLP067",2025-11-01 11:19:36.535128,2025-11-01 07:19:36.535128
"CYRB",2025-11-01 11:00:00,2025-11-01 07:00:00,"VFR",-11,-13,85,60,18,24100,29.86,NA,"SKC  ft","METAR CYRB 011100Z 06018KT 15SM DRSN SKC M11/M13 A2986 RMK SLP122",2025-11-01 11:19:36.62053,2025-11-01 07:19:36.62053
"CYCO",2025-11-01 11:00:00,2025-11-01 07:00:00,"MVFR",0,-1,93,90,22,9700,29.1,NA,"OVC  ft","METAR CYCO 011100Z 09022G27KT 6SM -RASN OVC022 00/M01 A2910 RMK SC8 SLP858",2025-11-01 11:19:36.694348,2025-11-01 07:19:36.694348
"CYER",2025-11-01 12:43:00,2025-11-01 08:43:00,"LIFR",-1,NA,NA,290,9,2800,30.02,NA,"BKN  ft; OVC  ft","SPECI CYER 011243Z AUTO 29009KT 1 3/4SM BR BKN004 OVC008 M01/ A3002 RMK VIS VRB 1-3 DP MISG SLP168",2025-11-01 12:49:05.261026,2025-11-01 08:49:05.261026
"CYAT",2025-11-01 12:00:00,2025-11-01 08:00:00,"MVFR",0,-1,93,320,10,14500,29.92,NA,"OVC  ft","METAR CYAT 011200Z AUTO 32010G15KT 9SM OVC010 00/M01 A2992 RMK SLP135",2025-11-01 12:49:05.343477,2025-11-01 08:49:05.343477
"CYMO",2025-11-01 12:43:00,2025-11-01 08:43:00,"IFR",2,1,93,300,9,14500,29.88,NA,"OVC  ft","SPECI CYMO 011243Z AUTO 30009KT 9SM -RA OVC008 02/01 A2988 RMK SLP122",2025-11-01 12:49:05.427651,2025-11-01 08:49:05.427651
"CYPL",2025-11-01 12:00:00,2025-11-01 08:00:00,"IFR",-1,-2,93,300,7,14500,30.07,NA,"OVC  ft","METAR CYPL 011200Z AUTO 30007KT 260V330 9SM OVC006 M01/M02 A3007 RMK SLP205",2025-11-01 12:49:05.501924,2025-11-01 08:49:05.501924
"CYQT",2025-11-01 12:00:00,2025-11-01 08:00:00,"VFR",2,-3,70,320,4,24100,30.1,NA,"OVC  ft","METAR CYQT 011200Z 32004KT 15SM OVC033 02/M03 A3010 RMK SC8 SLP203",2025-11-01 12:49:05.584417,2025-11-01 08:49:05.584417
"CYAM",2025-11-01 12:00:00,2025-11-01 08:00:00,"VFR",1,-3,75,30,6,32200,29.99,NA,"BKN  ft","METAR CYAM 011200Z 03006KT 20SM BKN035 01/M03 A2999 RMK CU7 SLP168",2025-11-01 12:49:05.657468,2025-11-01 08:49:05.657468
"CYTS",2025-11-01 12:45:00,2025-11-01 08:45:00,"IFR",0,-1,93,310,7,2400,29.93,NA,"OVC  ft","SPECI CYTS 011245Z 31007KT 1 1/2SM -SN OVC008 M00/M01 A2993 RMK SC8 SLP152",2025-11-01 12:49:05.732588,2025-11-01 08:49:05.732588
"CYSB",2025-11-01 12:00:00,2025-11-01 08:00:00,"VFR",1,-3,75,320,7,24100,29.88,NA,"OVC  ft","METAR CYSB 011200Z 32007KT 15SM -SHSN OVC033 01/M03 A2988 RMK SC8 CU EMBD SLP135",2025-11-01 12:49:05.850328,2025-11-01 08:49:05.850328
"CYYB",2025-11-01 12:00:00,2025-11-01 08:00:00,"VFR",0,-1,93,270,5,48300,29.83,NA,"SCT  ft; OVC  ft","METAR CYYB 011200Z 27005KT 30SM SCT018 OVC034 00/M01 A2983 RMK SC4SC4 SLP118",2025-11-01 12:49:05.933139,2025-11-01 08:49:05.933139
"CYOW",2025-11-01 12:00:00,2025-11-01 08:00:00,"VFR",3,-2,70,270,11,24100,29.74,NA,"FEW  ft; BKN  ft","METAR CYOW 011200Z 27011KT 15SM FEW010 BKN230 03/M02 A2974 RMK CF1CI5 CF TR SLP076",2025-11-01 12:49:06.010822,2025-11-01 08:49:06.010822
"CYGK",2025-11-01 12:00:00,2025-11-01 08:00:00,"VFR",4,1,81,270,9,24100,29.84,NA,"FEW  ft; BKN  ft","METAR CYGK 011200Z 27009G15KT 15SM FEW015 BKN040 04/01 A2984 RMK SC1SC6 SLP110",2025-11-01 12:49:06.091089,2025-11-01 08:49:06.091089
"CYQG",2025-11-01 12:00:00,2025-11-01 08:00:00,"VFR",3,2,93,250,4,14500,29.97,NA,"BKN  ft","METAR CYQG 011200Z AUTO 25004KT 9SM BKN081 03/02 A2997 RMK SLP154",2025-11-01 12:49:06.165912,2025-11-01 08:49:06.165912
"CYVV",2025-11-01 12:00:00,2025-11-01 08:00:00,"VFR",5,0,70,320,5,24100,29.91,NA,"OVC  ft","METAR CYVV 011200Z 32005KT 290V020 15SM OVC054 05/00 A2991 RMK SC8 SLP136",2025-11-01 12:49:06.242968,2025-11-01 08:49:06.242968
"CYYZ",2025-11-01 12:00:00,2025-11-01 08:00:00,"VFR",5,1,76,280,7,24100,29.91,NA,"FEW  ft; BKN  ft","METAR CYYZ 011200Z 28007KT 15SM FEW024 BKN054 05/01 A2991 RMK SC1SC6 SLP135",2025-11-01 12:49:06.360254,2025-11-01 08:49:06.360254
"CYQA",2025-11-01 12:00:00,2025-11-01 08:00:00,"VFR",2,-2,75,340,8,14500,29.86,NA,"BKN  ft","METAR CYQA 011200Z AUTO 34008KT 9SM BKN039 02/M02 A2986 RMK SLP124",2025-11-01 12:49:06.437753,2025-11-01 08:49:06.437753
"CYVR",2025-11-01 12:00:00,2025-11-01 08:00:00,"MVFR",11,11,100,70,5,8000,29.72,NA,"FEW  ft; SCT  ft; OVC  ft","METAR CYVR 011200Z 07005KT 5SM -RA BR FEW009 SCT062 OVC069 11/11 A2972 RMK SF2SC2AS4 PRESFR SLP068",2025-11-01 12:49:06.513219,2025-11-01 08:49:06.513219
"CYYJ",2025-11-01 12:00:00,2025-11-01 08:00:00,"LIFR",10,10,100,0,0,8000,29.71,NA,"OVC  ft","METAR CYYJ 011200Z 00000KT 5SM -RA BR OVC002 10/10 A2971 RMK SC8 SLP064",2025-11-01 12:49:06.591233,2025-11-01 08:49:06.591233
"CYLW",2025-11-01 12:00:00,2025-11-01 08:00:00,"VFR",7,4,81,200,3,14500,29.86,NA,"OVC  ft","METAR CYLW 011200Z AUTO 20003KT 110V220 9SM OVC042 07/04 A2986 RMK SLP123",2025-11-01 12:49:06.672414,2025-11-01 08:49:06.672414
"CYXS",2025-11-01 12:33:00,2025-11-01 08:33:00,"VFR",2,0,87,180,7,14500,29.59,NA,"BKN  ft; OVC  ft","SPECI CYXS 011233Z AUTO 18007KT 9SM BKN140 OVC160 02/00 A2959 RMK SLP042",2025-11-01 12:49:06.788103,2025-11-01 08:49:06.788103
"CYXT",2025-11-01 12:00:00,2025-11-01 08:00:00,"MVFR",5,4,93,180,16,6400,29.57,NA,"FEW  ft; SCT  ft; OVC  ft","METAR CYXT 011200Z 18016G23KT 4SM -RA BR FEW006 SCT020 OVC040 05/04 A2957 RMK SF1SC2SC5 SLP022",2025-11-01 12:49:06.865444,2025-11-01 08:49:06.865444
"CYQQ",2025-11-01 12:25:00,2025-11-01 08:25:00,"IFR",11,10,94,150,9,9999,29.7,NA,"BKN  ft; OVC  ft","SPECI CYQQ 011225Z 15009KT 130V190 10SM -RA BKN008 OVC012 11/10 A2970 RMK SF5SC3 DENSITY ALT -29FT CIG VRB 6-10 SLP059",2025-11-01 12:49:06.941244,2025-11-01 08:49:06.941244
"CYYC",2025-11-01 12:00:00,2025-11-01 08:00:00,"VFR",12,-1,41,230,8,24100,29.62,NA,"BKN  ft","METAR CYYC 011200Z 23008G18KT 210V270 15SM BKN240 12/M01 A2962 RMK CI5 SLP050 DENSITY ALT 4500FT",2025-11-01 12:49:07.020404,2025-11-01 08:49:07.020404
"CYEG",2025-11-01 12:00:00,2025-11-01 08:00:00,"VFR",0,-4,75,210,3,32200,29.6,NA,"SKC  ft","METAR CYEG 011200Z 21003KT 160V230 20SM SKC M00/M04 A2960 RMK SLP049",2025-11-01 12:49:07.098066,2025-11-01 08:49:07.098066
"CYMM",2025-11-01 12:00:00,2025-11-01 08:00:00,"VFR",1,0,93,110,5,14500,29.47,NA,"FEW  ft; SCT  ft; SCT  ft; BKN  ft","METAR CYMM 011200Z AUTO 11005KT 9SM FEW066 SCT085 SCT120 BKN180 01/00 A2947 RMK SLP999",2025-11-01 12:49:07.182854,2025-11-01 08:49:07.182854
"CYQF",2025-11-01 12:00:00,2025-11-01 08:00:00,"VFR",5,-2,61,0,0,14500,29.61,NA,"SCT  ft","METAR CYQF 011200Z AUTO 00000KT 9SM SCT220 05/M02 A2961 RMK SLP052",2025-11-01 12:49:07.257682,2025-11-01 08:49:07.257682
"CYXE",2025-11-01 12:00:00,2025-11-01 08:00:00,"VFR",2,-3,70,160,19,24100,29.66,NA,"BKN  ft; BKN  ft","METAR CYXE 011200Z 16019G26KT 15SM BKN120 BKN240 02/M03 A2966 RMK AC5CI2 SLP068",2025-11-01 12:49:07.338126,2025-11-01 08:49:07.338126
"CYQR",2025-11-01 12:00:00,2025-11-01 08:00:00,"VFR",-2,-4,86,150,17,24100,29.88,NA,"OVC  ft","METAR CYQR 011200Z 15017G22KT 15SM OVC200 M02/M04 A2988 RMK CI8 SLP150",2025-11-01 12:49:07.416149,2025-11-01 08:49:07.416149
"CYWG",2025-11-01 12:25:00,2025-11-01 08:25:00,"IFR",0,0,100,270,5,24100,30.13,NA,"BKN  ft; BKN  ft","SPECI CYWG 011225Z 27005KT 15SM BKN005 BKN028 M00/M00 A3013 RMK SF6SC1 SLP218",2025-11-01 12:49:07.493057,2025-11-01 08:49:07.493057
"CYBR",2025-11-01 12:00:00,2025-11-01 08:00:00,"MVFR",1,-1,87,210,7,24100,30.1,NA,"OVC  ft","METAR CYBR 011200Z 21007KT 15SM OVC019 01/M01 A3010 RMK SC8 SLP217",2025-11-01 12:49:07.569845,2025-11-01 08:49:07.569845
"CYUL",2025-11-01 12:00:00,2025-11-01 08:00:00,"MVFR",6,2,76,270,13,24100,29.63,NA,"BKN  ft","METAR CYUL 011200Z 27013G19KT 15SM BKN027 06/02 A2963 RMK SC7 SLP037",2025-11-01 12:49:07.686997,2025-11-01 08:49:07.686997
"CYHU",2025-11-01 12:00:00,2025-11-01 08:00:00,"VFR",6,2,76,260,14,14500,29.61,NA,"OVC  ft","METAR CYHU 011200Z AUTO 26014G24KT 9SM OVC033 06/02 A2961 RMK SLP030",2025-11-01 12:49:07.763579,2025-11-01 08:49:07.763579
"CYQB",2025-11-01 12:00:00,2025-11-01 08:00:00,"VFR",6,2,76,270,13,48300,29.37,NA,"SCT  ft; BKN  ft","METAR CYQB 011200Z CCA 27013G22KT 30SM SCT035 BKN110 06/02 A2937 RMK SC4AC1 PRESRR SLP950",2025-11-01 12:49:07.837486,2025-11-01 08:49:07.837486
"CYVO",2025-11-01 12:38:00,2025-11-01 08:38:00,"VFR",1,-2,81,330,11,12900,29.77,NA,"SCT  ft; BKN  ft","SPECI CYVO 011238Z 33011G21KT 270V350 8SM -SHRA SCT023 BKN031 01/M02 A2977 RMK SC3SC4 CVCTV CLD EMBD SLP099",2025-11-01 12:49:07.913327,2025-11-01 08:49:07.913327
"CYUY",2025-11-01 12:22:00,2025-11-01 08:22:00,"MVFR",1,-1,87,330,10,9999,29.81,NA,"BKN  ft; BKN  ft","SPECI CYUY 011222Z 33010G17KT 10SM -SN BKN018 BKN030 01/M01 A2981 RMK SC5SC1 SLP111",2025-11-01 12:49:07.989179,2025-11-01 08:49:07.989179
"CYZV",2025-11-01 12:00:00,2025-11-01 08:00:00,"VFR",5,2,81,350,8,48300,28.9,NA,"FEW  ft; SCT  ft; BKN  ft; BKN  ft","METAR CYZV 011200Z 35008KT 300V020 30SM FEW040 SCT058 BKN090 BKN130 05/02 A2890 RMK CU1SC4AC2AC1 CU TR SLP789",2025-11-01 12:49:08.105754,2025-11-01 08:49:08.105754
"CYBC",2025-11-01 12:00:00,2025-11-01 08:00:00,"VFR",6,3,81,310,10,14500,29.04,NA,"OVC  ft","METAR CYBC 011200Z AUTO 31010G16KT 9SM OVC086 06/03 A2904 RMK SLP837",2025-11-01 12:49:08.181215,2025-11-01 08:49:08.181215
"CYRJ",2025-11-01 12:00:00,2025-11-01 08:00:00,"MVFR",3,1,87,300,18,32200,29.39,NA,"OVC  ft","METAR CYRJ 011200Z 30018G29KT 20SM -RA OVC020 03/01 A2939 RMK SC8 SLP960",2025-11-01 12:49:08.256644,2025-11-01 08:49:08.256644
"CYHZ",2025-11-01 12:00:00,2025-11-01 08:00:00,"MVFR",8,6,87,260,20,24100,29.12,NA,"BKN  ft","METAR CYHZ 011200Z 26020G29KT 15SM BKN019 08/06 A2912 RMK SC7 SLP863 DENSITY ALT 800FT",2025-11-01 12:49:08.331024,2025-11-01 08:49:08.331024
"CYYG",2025-11-01 12:00:00,2025-11-01 08:00:00,"MVFR",9,6,82,240,18,24100,28.94,NA,"OVC  ft","METAR CYYG 011200Z 24018G27KT 15SM -SHRA OVC024 09/06 A2894 RMK SC8 CVCTV CLD EMBD SLP803 DENSITY ALT 700FT",2025-11-01 12:49:08.4469,2025-11-01 08:49:08.4469
"CYQM",2025-11-01 12:42:00,2025-11-01 08:42:00,"VFR",9,5,76,260,26,24100,29.05,NA,"SCT  ft; BKN  ft; BKN  ft; BKN  ft","SPECI CYQM 011242Z 26026G36KT 15SM SCT012 BKN045 BKN090 BKN200 09/05 A2905 RMK CF3SC2AC1CI1 CI TR PRESRR SLP841 DENSITY ALT 600FT",2025-11-01 12:49:08.522527,2025-11-01 08:49:08.522527
"CYFC",2025-11-01 12:00:00,2025-11-01 08:00:00,"VFR",8,4,76,270,12,14500,29.14,NA,"FEW  ft","METAR CYFC 011200Z AUTO 27012G26KT 9SM FEW025 08/04 A2914 RMK SLP869",2025-11-01 12:49:08.597163,2025-11-01 08:49:08.597163
"CYYT",2025-11-01 12:00:00,2025-11-01 08:00:00,"MVFR",11,9,88,260,28,24100,29,NA,"SCT  ft; BKN  ft","METAR CYYT 011200Z 26028G40KT 15SM VCSH SCT019 BKN027 11/09 A2900 RMK SC4SC3 SLP823 DENSITY ALT 1200FT",2025-11-01 12:49:08.676152,2025-11-01 08:49:08.676152
"CYQY",2025-11-01 12:00:00,2025-11-01 08:00:00,"VFR",11,5,67,230,19,24100,29,NA,"SCT  ft; BKN  ft","METAR CYQY 011200Z 23019G31KT 15SM SCT035 BKN130 11/05 A2900 RMK SC3AC3 SLP821 DENSITY ALT 900FT",2025-11-01 12:49:08.755515,2025-11-01 08:49:08.755515
"CYXY",2025-11-01 12:00:00,2025-11-01 08:00:00,"VFR",2,-3,70,150,11,24100,29.05,NA,"FEW  ft; OVC  ft","METAR CYXY 011200Z 15011KT 15SM FEW072 OVC200 02/M03 A2905 RMK AC2CS6 SLP866",2025-11-01 12:49:08.831468,2025-11-01 08:49:08.831468
"CYZF",2025-11-01 12:19:00,2025-11-01 08:19:00,"VFR",4,4,100,170,11,24100,29.04,NA,"SCT  ft; BKN  ft","SPECI CYZF 011219Z 17011KT 15SM SCT008 BKN048 04/04 A2904 RMK SC4SC3 SLP845",2025-11-01 12:49:08.907773,2025-11-01 08:49:08.907773
"CYFB",2025-11-01 12:00:00,2025-11-01 08:00:00,"VFR",-13,-15,85,320,11,48300,29.92,NA,"FEW  ft","METAR CYFB 011200Z 32011KT 30SM FEW030 M13/M15 A2992 RMK SC1 SC TR SLP138",2025-11-01 12:49:09.022372,2025-11-01 08:49:09.022372
"CYRT",2025-11-01 12:40:00,2025-11-01 08:40:00,"MVFR",0,-1,93,180,12,24100,29.8,NA,"BKN  ft; OVC  ft","SPECI CYRT 011240Z 18012KT 15SM BKN013 OVC023 M00/M01 A2980 RMK SC5SC3 SLP096",2025-11-01 12:49:09.096184,2025-11-01 08:49:09.096184
"CYBK",2025-11-01 12:00:00,2025-11-01 08:00:00,"MVFR",-2,-2,100,140,13,24100,29.69,NA,"FEW  ft; OVC  ft","METAR CYBK 011200Z 14013KT 15SM FEW001 OVC019 M02/M02 A2969 RMK SC1SC7 SLP059",2025-11-01 12:49:09.171779,2025-11-01 08:49:09.171779
"CYRB",2025-11-01 12:00:00,2025-11-01 08:00:00,"VFR",-11,-12,92,60,17,24100,29.86,NA,"SCT  ft","METAR CYRB 011200Z 06017KT 15SM DRSN SCT024 M11/M12 A2986 RMK SC3 SLP123",2025-11-01 12:49:09.255949,2025-11-01 08:49:09.255949
"CYCO",2025-11-01 12:28:00,2025-11-01 08:28:00,"MVFR",0,-1,93,90,20,9999,29.06,NA,"BKN  ft; OVC  ft","SPECI CYCO 011228Z 09020G29KT 10SM -SN BKN023 OVC053 00/M01 A2906 RMK SC7SC1 SLP844",2025-11-01 12:49:09.330709,2025-11-01 08:49:09.330709
"CYER",2025-11-01 13:24:00,2025-11-01 09:24:00,"LIFR",-2,NA,NA,290,8,11300,30.02,NA,"BKN  ft; OVC  ft","SPECI CYER 011324Z AUTO 29008G15KT 7SM BKN004 OVC010 M02/ A3002 RMK ICE INTMT DP MISG SLP170",2025-11-01 13:28:51.452856,2025-11-01 09:28:51.452856
"CYAT",2025-11-01 13:00:00,2025-11-01 09:00:00,"MVFR",1,0,93,310,10,14500,29.93,NA,"OVC  ft","METAR CYAT 011300Z AUTO 31010G16KT 9SM OVC010 01/M00 A2993 RMK SLP138",2025-11-01 13:28:51.49371,2025-11-01 09:28:51.49371
"CYMO",2025-11-01 13:00:00,2025-11-01 09:00:00,"IFR",2,1,93,310,9,14500,29.89,NA,"OVC  ft","METAR CYMO 011300Z AUTO 31009G15KT 9SM OVC008 02/01 A2989 RMK SLP124",2025-11-01 13:28:51.565857,2025-11-01 09:28:51.565857
"CYPL",2025-11-01 13:00:00,2025-11-01 09:00:00,"IFR",-1,-2,93,300,4,14500,30.07,NA,"BKN  ft; OVC  ft","METAR CYPL 011300Z AUTO 30004KT 260V340 9SM BKN006 OVC024 M01/M02 A3007 RMK SLP206",2025-11-01 13:28:51.641091,2025-11-01 09:28:51.641091
"CYQT",2025-11-01 13:00:00,2025-11-01 09:00:00,"VFR",2,-3,70,300,5,32200,30.11,NA,"OVC  ft","METAR CYQT 011300Z 30005KT 20SM OVC033 02/M03 A3011 RMK SC8 SLP210",2025-11-01 13:28:51.719076,2025-11-01 09:28:51.719076
"CYAM",2025-11-01 13:00:00,2025-11-01 09:00:00,"VFR",2,-3,70,30,7,32200,30.01,NA,"BKN  ft","METAR CYAM 011300Z 03007KT 20SM BKN032 02/M03 A3001 RMK CU7 SLP174",2025-11-01 13:28:51.80203,2025-11-01 09:28:51.80203
"CYTS",2025-11-01 13:00:00,2025-11-01 09:00:00,"IFR",0,-1,93,300,6,4800,29.93,NA,"OVC  ft","METAR CYTS 011300Z 30006KT 3SM -SN OVC009 M00/M01 A2993 RMK SC8 SLP154",2025-11-01 13:28:51.876873,2025-11-01 09:28:51.876873
"CYSB",2025-11-01 13:00:00,2025-11-01 09:00:00,"VFR",1,-3,75,310,7,32200,29.92,NA,"SCT  ft; OVC  ft","METAR CYSB 011300Z 31007G15KT 20SM -SHSN SCT020 OVC032 01/M03 A2992 RMK CU4SC4 SLP148",2025-11-01 13:28:51.950961,2025-11-01 09:28:51.950961
"CYYB",2025-11-01 13:00:00,2025-11-01 09:00:00,"VFR",1,-1,87,280,6,48300,29.87,NA,"OVC  ft","METAR CYYB 011300Z 28006KT 30SM OVC032 01/M01 A2987 RMK SC8 SLP131",2025-11-01 13:28:52.026753,2025-11-01 09:28:52.026753
"CYOW",2025-11-01 13:00:00,2025-11-01 09:00:00,"VFR",4,-1,70,260,12,24100,29.78,NA,"FEW  ft; BKN  ft; BKN  ft","METAR CYOW 011300Z 26012KT 15SM FEW020 BKN050 BKN230 04/M01 A2978 RMK SC2SC4CI1 SLP090",2025-11-01 13:28:52.100659,2025-11-01 09:28:52.100659
"CYGK",2025-11-01 13:00:00,2025-11-01 09:00:00,"VFR",4,1,81,270,9,24100,29.88,NA,"FEW  ft; BKN  ft","METAR CYGK 011300Z 27009KT 15SM FEW015 BKN045 04/01 A2988 RMK SC1SC6 SLP125",2025-11-01 13:28:52.180439,2025-11-01 09:28:52.180439
"CYQG",2025-11-01 13:00:00,2025-11-01 09:00:00,"VFR",3,2,93,200,2,14500,29.99,NA,"SCT  ft; BKN  ft","METAR CYQG 011300Z AUTO 20002KT 9SM SCT055 BKN071 03/02 A2999 RMK SLP163",2025-11-01 13:28:52.255189,2025-11-01 09:28:52.255189
"CYVV",2025-11-01 13:00:00,2025-11-01 09:00:00,"VFR",5,0,70,310,4,24100,29.94,NA,"FEW  ft; BKN  ft","METAR CYVV 011300Z 31004KT 290V010 15SM FEW020 BKN052 05/M00 A2994 RMK SC1SC7 SC TR SLP147",2025-11-01 13:28:52.329896,2025-11-01 09:28:52.329896
"CYYZ",2025-11-01 13:00:00,2025-11-01 09:00:00,"VFR",5,2,81,260,5,24100,29.94,NA,"FEW  ft; BKN  ft","METAR CYYZ 011300Z 26005KT 15SM FEW024 BKN050 05/02 A2994 RMK SC2SC5 SLP144",2025-11-01 13:28:52.403013,2025-11-01 09:28:52.403013
"CYQA",2025-11-01 13:00:00,2025-11-01 09:00:00,"VFR",3,-3,65,330,12,14500,29.9,NA,"OVC  ft","METAR CYQA 011300Z AUTO 33012KT 9SM OVC035 03/M03 A2990 RMK SLP136",2025-11-01 13:28:52.488911,2025-11-01 09:28:52.488911
"CYVR",2025-11-01 13:00:00,2025-11-01 09:00:00,"MVFR",10,10,100,30,5,6400,29.69,NA,"FEW  ft; SCT  ft; OVC  ft","METAR CYVR 011300Z 03005KT 4SM -RA BR FEW007 SCT022 OVC038 10/10 A2969 RMK SF2SC1SC5 PRESFR SLP058",2025-11-01 13:28:52.564835,2025-11-01 09:28:52.564835
"CYYJ",2025-11-01 13:13:00,2025-11-01 09:13:00,"LIFR",10,10,100,270,2,8000,29.66,NA,"BKN  ft; OVC  ft","SPECI CYYJ 011313Z 27002KT 5SM -RA BR BKN001 OVC012 10/10 A2966 RMK SC7SC1 PRESFR SLP046",2025-11-01 13:28:52.638151,2025-11-01 09:28:52.638151
"CYLW",2025-11-01 13:00:00,2025-11-01 09:00:00,"VFR",6,4,87,170,6,14500,29.82,NA,"BKN  ft","METAR CYLW 011300Z AUTO 17006KT 9SM BKN055 06/04 A2982 RMK SLP111",2025-11-01 13:28:52.677872,2025-11-01 09:28:52.677872
"CYXS",2025-11-01 13:00:00,2025-11-01 09:00:00,"VFR",2,1,93,170,9,14500,29.58,NA,"SCT  ft; OVC  ft","METAR CYXS 011300Z AUTO 17009KT 9SM SCT130 OVC220 02/01 A2958 RMK SLP038",2025-11-01 13:28:52.75509,2025-11-01 09:28:52.75509
"CYXT",2025-11-01 13:00:00,2025-11-01 09:00:00,"VFR",4,4,100,180,12,9700,29.57,NA,"FEW  ft; SCT  ft; SCT  ft","METAR CYXT 011300Z 18012G20KT 6SM -RA BR FEW009 SCT050 SCT080 04/04 A2957 RMK SF1SC3AC1 SF TR SLP023",2025-11-01 13:28:52.829095,2025-11-01 09:28:52.829095
"CYQQ",2025-11-01 13:23:00,2025-11-01 09:23:00,"VFR",10,9,94,210,5,9700,29.69,NA,"SCT  ft; OVC  ft","SPECI CYQQ 011323Z 21005KT 150V230 6SM -RA BR SCT007 OVC050 10/09 A2969 RMK SF4SC4 DENSITY ALT -96FT SLP056",2025-11-01 13:28:52.904086,2025-11-01 09:28:52.904086
"CYYC",2025-11-01 13:00:00,2025-11-01 09:00:00,"VFR",11,-1,44,230,12,24100,29.63,NA,"SCT  ft; BKN  ft","METAR CYYC 011300Z 23012G17KT 15SM SCT180 BKN230 11/M01 A2963 RMK AC3CI3 SLP054 DENSITY ALT 4400FT",2025-11-01 13:28:52.981073,2025-11-01 09:28:52.981073
"CYEG",2025-11-01 13:00:00,2025-11-01 09:00:00,"VFR",-2,-4,86,190,5,32200,29.62,NA,"SKC  ft","METAR CYEG 011300Z 19005KT 20SM SKC M02/M04 A2962 RMK FROIN SLP058",2025-11-01 13:28:53.058236,2025-11-01 09:28:53.058236
"CYMM",2025-11-01 13:00:00,2025-11-01 09:00:00,"VFR",0,0,100,120,7,14500,29.46,NA,"CLR  ft","METAR CYMM 011300Z AUTO 12007KT 9SM CLR 00/M00 A2946 RMK SLP996",2025-11-01 13:28:53.141134,2025-11-01 09:28:53.141134
"CYQF",2025-11-01 13:00:00,2025-11-01 09:00:00,"VFR",1,-3,75,0,4,14500,29.61,NA,"OVC  ft","METAR CYQF 011300Z AUTO VRB04KT 9SM OVC220 01/M03 A2961 RMK SLP057",2025-11-01 13:28:53.220968,2025-11-01 09:28:53.220968
"CYXE",2025-11-01 13:00:00,2025-11-01 09:00:00,"VFR",2,-3,70,160,15,24100,29.64,NA,"SCT  ft","METAR CYXE 011300Z 16015G20KT 15SM SCT210 02/M03 A2964 RMK CI4 SLP062",2025-11-01 13:28:53.298275,2025-11-01 09:28:53.298275
"CYQR",2025-11-01 13:00:00,2025-11-01 09:00:00,"VFR",-2,-4,86,140,17,24100,29.85,NA,"OVC  ft","METAR CYQR 011300Z 14017G24KT 15SM OVC200 M02/M04 A2985 RMK CI8 SLP138",2025-11-01 13:28:53.372187,2025-11-01 09:28:53.372187
"CYWG",2025-11-01 13:06:00,2025-11-01 09:06:00,"LIFR",0,0,100,260,6,NA,30.14,NA,"OVX  ft","SPECI CYWG 011306Z 26006KT 3/4SM R36/P6000FT/D R31/P6000FT/U BR VV002 M00/M00 A3014 RMK FG8 SLP220",2025-11-01 13:28:53.448015,2025-11-01 09:28:53.448015
"CYBR",2025-11-01 13:00:00,2025-11-01 09:00:00,"MVFR",1,-2,81,220,11,24100,30.07,NA,"OVC  ft","METAR CYBR 011300Z 22011KT 15SM OVC021 01/M02 A3007 RMK SC8 SLP206",2025-11-01 13:28:53.52215,2025-11-01 09:28:53.52215
"CYUL",2025-11-01 13:00:00,2025-11-01 09:00:00,"MVFR",6,1,71,280,15,24100,29.68,NA,"BKN  ft","METAR CYUL 011300Z 28015G24KT 15SM BKN030 06/01 A2968 RMK SC7 SLP053",2025-11-01 13:28:53.599637,2025-11-01 09:28:53.599637
"CYHU",2025-11-01 13:00:00,2025-11-01 09:00:00,"VFR",6,2,76,260,16,14500,29.65,NA,"OVC  ft","METAR CYHU 011300Z AUTO 26016G24KT 9SM OVC033 06/02 A2965 RMK SLP045",2025-11-01 13:28:53.676512,2025-11-01 09:28:53.676512
"CYQB",2025-11-01 13:00:00,2025-11-01 09:00:00,"VFR",6,2,76,270,13,48300,29.42,NA,"SCT  ft; SCT  ft","METAR CYQB 011300Z 27013G22KT 30SM SCT030 SCT110 06/02 A2942 RMK SC4AC1 AC TR SLP967",2025-11-01 13:28:53.754184,2025-11-01 09:28:53.754184
"CYVO",2025-11-01 13:00:00,2025-11-01 09:00:00,"MVFR",1,-2,81,330,7,24100,29.78,NA,"BKN  ft; BKN  ft","METAR CYVO 011300Z 33007G16KT 15SM BKN021 BKN032 01/M02 A2978 RMK SC5SC2 SLP102",2025-11-01 13:28:53.830106,2025-11-01 09:28:53.830106
"CYUY",2025-11-01 13:00:00,2025-11-01 09:00:00,"MVFR",1,-1,87,330,10,24100,29.83,NA,"BKN  ft; BKN  ft","METAR CYUY 011300Z 33010G15KT 15SM BKN013 BKN030 01/M01 A2983 RMK SC6SC1 SC TR CIG RAG SLP117",2025-11-01 13:28:53.901765,2025-11-01 09:28:53.901765
"CYZV",2025-11-01 13:00:00,2025-11-01 09:00:00,"VFR",6,2,76,360,11,48300,28.91,NA,"FEW  ft; BKN  ft; BKN  ft; BKN  ft","METAR CYZV 011300Z 36011G17KT 30SM FEW030 BKN066 BKN086 BKN130 06/02 A2891 RMK CU1AC5AC1AC1 CU TR AC TR SLP795 DENSITY ALT 400FT",2025-11-01 13:28:53.974995,2025-11-01 09:28:53.974995
"CYBC",2025-11-01 13:00:00,2025-11-01 09:00:00,"VFR",7,3,76,310,6,14500,29.09,NA,"FEW  ft; BKN  ft; OVC  ft","METAR CYBC 011300Z AUTO 31006G18KT 9SM FEW027 BKN086 OVC100 07/03 A2909 RMK SLP853",2025-11-01 13:28:54.049248,2025-11-01 09:28:54.049248
"CYRJ",2025-11-01 13:00:00,2025-11-01 09:00:00,"MVFR",3,1,87,300,17,40200,29.43,NA,"OVC  ft","METAR CYRJ 011300Z 30017G28KT 25SM -RA OVC020 03/01 A2943 RMK SC8 SLP975",2025-11-01 13:28:54.12164,2025-11-01 09:28:54.12164
"CYHZ",2025-11-01 13:00:00,2025-11-01 09:00:00,"MVFR",9,6,82,250,20,24100,29.16,NA,"OVC  ft","METAR CYHZ 011300Z 25020G33KT 15SM OVC022 09/06 A2916 RMK SC8 PRESRR SLP878 DENSITY ALT 800FT",2025-11-01 13:28:54.204047,2025-11-01 09:28:54.204047
"CYYG",2025-11-01 13:00:00,2025-11-01 09:00:00,"MVFR",8,6,87,250,20,6400,28.98,NA,"OVC  ft","METAR CYYG 011300Z 25020G30KT 4SM -SHRA BR OVC016 08/06 A2898 RMK SC8 CVCTV CLD EMBD SLP817 DENSITY ALT 500FT",2025-11-01 13:28:55.087368,2025-11-01 09:28:55.087368
"CYQM",2025-11-01 13:00:00,2025-11-01 09:00:00,"MVFR",9,5,76,260,25,24100,29.07,NA,"BKN  ft; BKN  ft","METAR CYQM 011300Z 26025G35KT 15SM BKN015 BKN200 09/05 A2907 RMK CF7CI1 CI TR PRESRR SLP846 DENSITY ALT 600FT",2025-11-01 13:28:55.167734,2025-11-01 09:28:55.167734
"CYFC",2025-11-01 13:00:00,2025-11-01 09:00:00,"VFR",8,5,82,260,10,14500,29.19,NA,"FEW  ft; SCT  ft; OVC  ft","METAR CYFC 011300Z AUTO 26010G24KT 230V290 9SM FEW024 SCT029 OVC035 08/05 A2919 RMK SLP889",2025-11-01 13:28:55.245436,2025-11-01 09:28:55.245436
"CYYT",2025-11-01 13:10:00,2025-11-01 09:10:00,"VFR",12,9,82,260,29,24100,29.01,NA,"SCT  ft; BKN  ft; BKN  ft","SPECI CYYT 011310Z 26029G39KT 15SM -SHRA SCT019 BKN038 BKN086 12/09 A2901 RMK SC4SC3AC1 AC TR CVCTV CLD EMBD SLP827 DENSITY ALT 1300FT",2025-11-01 13:28:55.327902,2025-11-01 09:28:55.327902
"CYQY",2025-11-01 13:00:00,2025-11-01 09:00:00,"VFR",11,5,67,240,25,24100,28.99,NA,"SCT  ft; BKN  ft; BKN  ft","METAR CYQY 011300Z 24025G35KT 15SM SCT034 BKN130 BKN230 11/05 A2899 RMK SC3AC2CS1 SLP819 DENSITY ALT 800FT",2025-11-01 13:28:55.410733,2025-11-01 09:28:55.410733
"CYXY",2025-11-01 13:00:00,2025-11-01 09:00:00,"VFR",2,-3,70,140,11,24100,29.06,NA,"FEW  ft; SCT  ft; BKN  ft","METAR CYXY 011300Z 14011G18KT 15SM FEW068 SCT180 BKN240 02/M03 A2906 RMK AC1AC2CI3 SLP869",2025-11-01 13:28:55.503994,2025-11-01 09:28:55.503994
"CYZF",2025-11-01 13:00:00,2025-11-01 09:00:00,"VFR",4,3,93,170,12,24100,29.02,NA,"SCT  ft; BKN  ft; BKN  ft","METAR CYZF 011300Z 17012G17KT 15SM SCT007 BKN071 BKN170 04/03 A2902 RMK SC4AC1AC1 VIRGA SLP841",2025-11-01 13:28:55.583293,2025-11-01 09:28:55.583293
"CYFB",2025-11-01 13:00:00,2025-11-01 09:00:00,"VFR",-14,-16,85,340,7,48300,29.92,NA,"FEW  ft","METAR CYFB 011300Z 34007KT 30SM FEW030 M14/M16 A2992 RMK SC1 SC TR SLP139",2025-11-01 13:28:55.657563,2025-11-01 09:28:55.657563
"CYRT",2025-11-01 13:14:00,2025-11-01 09:14:00,"MVFR",0,-1,93,170,11,9700,29.79,NA,"SCT  ft; OVC  ft","SPECI CYRT 011314Z 17011KT 6SM -SN SCT010 OVC022 00/M01 A2979 RMK SC4SC4 SLP092",2025-11-01 13:28:55.689578,2025-11-01 09:28:55.689578
"CYBK",2025-11-01 13:00:00,2025-11-01 09:00:00,"IFR",-1,-2,93,140,14,24100,29.67,NA,"BKN  ft; OVC  ft","METAR CYBK 011300Z 14014KT 15SM -SN BKN006 OVC016 M01/M02 A2967 RMK SC7SC1 SLP051",2025-11-01 13:28:55.760859,2025-11-01 09:28:55.760859
"CYRB",2025-11-01 13:00:00,2025-11-01 09:00:00,"VFR",-9,-11,86,60,15,24100,29.86,NA,"SCT  ft","METAR CYRB 011300Z 06015KT 15SM DRSN SCT034 M09/M11 A2986 RMK SC3 SLP122",2025-11-01 13:28:55.849207,2025-11-01 09:28:55.849207
"CYCO",2025-11-01 13:00:00,2025-11-01 09:00:00,"MVFR",0,-1,93,90,22,24100,29.05,NA,"BKN  ft; OVC  ft","METAR CYCO 011300Z 09022G28KT 15SM BKN022 OVC052 00/M01 A2905 RMK SC6SC2 SLP841",2025-11-01 13:28:55.922829,2025-11-01 09:28:55.922829
"CYER",2025-11-01 14:00:00,2025-11-01 10:00:00,"IFR",-2,NA,NA,290,10,14500,30.03,NA,"BKN  ft; OVC  ft","METAR CYER 011400Z AUTO 29010G15KT 9SM BKN006 OVC029 M02/ A3003 RMK ICE PAST HR DP MISG SLP172",2025-11-01 14:22:15.316226,2025-11-01 10:22:15.316226
"CYAT",2025-11-01 14:00:00,2025-11-01 10:00:00,"MVFR",1,0,93,300,10,14500,29.94,NA,"OVC  ft","METAR CYAT 011400Z AUTO 30010G15KT 9SM OVC010 01/00 A2994 RMK SLP141",2025-11-01 14:22:15.368579,2025-11-01 10:22:15.368579
"CYMO",2025-11-01 14:14:00,2025-11-01 10:14:00,"MVFR",2,1,93,300,11,14500,29.91,NA,"BKN  ft; BKN  ft; BKN  ft","SPECI CYMO 011414Z AUTO 30011G18KT 9SM -RA BKN010 BKN024 BKN045 02/01 A2991 RMK SLP131",2025-11-01 14:22:15.451801,2025-11-01 10:22:15.451801
"CYPL",2025-11-01 14:00:00,2025-11-01 10:00:00,"IFR",-1,-2,93,320,5,14500,30.07,NA,"BKN  ft; OVC  ft","METAR CYPL 011400Z AUTO 32005KT 9SM BKN006 OVC026 M01/M02 A3007 RMK SLP207",2025-11-01 14:22:15.537148,2025-11-01 10:22:15.537148
"CYQT",2025-11-01 14:00:00,2025-11-01 10:00:00,"VFR",2,-3,70,330,4,32200,30.12,NA,"BKN  ft","METAR CYQT 011400Z 33004KT 20SM BKN033 02/M03 A3012 RMK SC7 SLP212",2025-11-01 14:22:15.621586,2025-11-01 10:22:15.621586
"CYAM",2025-11-01 14:00:00,2025-11-01 10:00:00,"VFR",2,-3,70,30,6,32200,30.03,NA,"BKN  ft","METAR CYAM 011400Z 03006KT 20SM BKN031 02/M03 A3003 RMK CU7 SLP181",2025-11-01 14:22:15.707406,2025-11-01 10:22:15.707406
"CYTS",2025-11-01 14:00:00,2025-11-01 10:00:00,"IFR",0,-1,93,310,6,24100,29.95,NA,"BKN  ft; OVC  ft","METAR CYTS 011400Z 31006KT 15SM BKN009 OVC023 00/M01 A2995 RMK SC7SC1 SLP161",2025-11-01 14:22:15.796792,2025-11-01 10:22:15.796792
"CYSB",2025-11-01 14:00:00,2025-11-01 10:00:00,"VFR",1,-3,75,310,9,32200,29.94,NA,"FEW  ft; OVC  ft","METAR CYSB 011400Z 31009KT 20SM -SHSN FEW020 OVC032 01/M03 A2994 RMK CU3SC5 SLP156",2025-11-01 14:22:15.884907,2025-11-01 10:22:15.884907
"CYYB",2025-11-01 14:00:00,2025-11-01 10:00:00,"VFR",1,-1,87,280,8,48300,29.9,NA,"OVC  ft","METAR CYYB 011400Z 28008KT 30SM OVC032 01/M01 A2990 RMK SC8 SLP140",2025-11-01 14:22:15.933324,2025-11-01 10:22:15.933324
"CYOW",2025-11-01 14:00:00,2025-11-01 10:00:00,"VFR",5,0,70,280,14,24100,29.8,NA,"FEW  ft; BKN  ft","METAR CYOW 011400Z 28014G19KT 15SM FEW027 BKN048 05/M00 A2980 RMK SF2SC5 SLP099",2025-11-01 14:22:16.017706,2025-11-01 10:22:16.017706
"CYGK",2025-11-01 14:00:00,2025-11-01 10:00:00,"VFR",4,2,87,290,7,24100,29.91,NA,"FEW  ft; BKN  ft","METAR CYGK 011400Z 29007KT 15SM FEW015 BKN045 04/02 A2991 RMK CF1SC6 SLP132",2025-11-01 14:22:16.106342,2025-11-01 10:22:16.106342
"CYQG",2025-11-01 14:00:00,2025-11-01 10:00:00,"VFR",7,4,81,220,4,14500,30.01,NA,"FEW  ft; OVC  ft","METAR CYQG 011400Z AUTO 22004KT 9SM FEW041 OVC066 07/04 A3001 RMK SLP169",2025-11-01 14:22:16.197033,2025-11-01 10:22:16.197033
"CYVV",2025-11-01 14:00:00,2025-11-01 10:00:00,"VFR",5,-1,66,320,4,24100,29.97,NA,"FEW  ft; BKN  ft","METAR CYVV 011400Z 32004KT 290V360 15SM FEW020 BKN050 05/M01 A2997 RMK CU1SC7 CU TR SLP157",2025-11-01 14:22:16.288294,2025-11-01 10:22:16.288294
"CYYZ",2025-11-01 14:00:00,2025-11-01 10:00:00,"VFR",7,2,71,300,8,24100,29.96,NA,"BKN  ft; BKN  ft","METAR CYYZ 011400Z 30008KT 15SM BKN053 BKN260 07/02 A2996 RMK SC6CI1 CI TR SLP151",2025-11-01 14:22:16.375672,2025-11-01 10:22:16.375672
"CYQA",2025-11-01 14:00:00,2025-11-01 10:00:00,"VFR",3,-3,65,340,9,14500,29.92,NA,"OVC  ft","METAR CYQA 011400Z AUTO 34009KT 9SM OVC031 03/M03 A2992 RMK SLP144",2025-11-01 14:22:16.466747,2025-11-01 10:22:16.466747
"CYVR",2025-11-01 14:00:00,2025-11-01 10:00:00,"MVFR",10,10,100,30,9,6400,29.64,NA,"FEW  ft; BKN  ft; OVC  ft","METAR CYVR 011400Z 03009KT 4SM -RA BR FEW013 BKN020 OVC042 10/10 A2964 RMK SF2SC3SC3 PRESFR SLP038",2025-11-01 14:22:16.566404,2025-11-01 10:22:16.566404
"CYYJ",2025-11-01 14:00:00,2025-11-01 10:00:00,"IFR",10,10,100,300,5,9700,29.61,NA,"FEW  ft; OVC  ft","METAR CYYJ 011400Z 30005KT 6SM RA BR FEW003 OVC005 10/10 A2961 RMK SF1SC8 SF TR PRESFR SLP030",2025-11-01 14:22:16.629192,2025-11-01 10:22:16.629192
"CYLW",2025-11-01 14:00:00,2025-11-01 10:00:00,"VFR",7,4,81,0,2,14500,29.78,NA,"OVC  ft","METAR CYLW 011400Z AUTO VRB02KT 9SM -RA OVC032 07/04 A2978 RMK SLP094",2025-11-01 14:22:16.702383,2025-11-01 10:22:16.702383
"CYXS",2025-11-01 14:00:00,2025-11-01 10:00:00,"VFR",1,0,93,150,7,14500,29.57,NA,"FEW  ft; OVC  ft","METAR CYXS 011400Z AUTO 15007KT 9SM FEW160 OVC200 01/M00 A2957 RMK SLP038",2025-11-01 14:22:16.757055,2025-11-01 10:22:16.757055
"CYXT",2025-11-01 14:00:00,2025-11-01 10:00:00,"VFR",4,4,100,180,14,9999,29.57,NA,"FEW  ft; FEW  ft; FEW  ft; SCT  ft","METAR CYXT 011400Z 18014G20KT 10SM FEW002 FEW009 FEW075 SCT200 04/04 A2957 RMK SF1SF1AC2CI1 SF TR SF TR SLP024",2025-11-01 14:22:16.814246,2025-11-01 10:22:16.814246
"CYQQ",2025-11-01 14:00:00,2025-11-01 10:00:00,"VFR",10,9,94,200,2,9700,29.68,NA,"FEW  ft; OVC  ft","METAR CYQQ 011400Z 20002KT 6SM -RA BR FEW009 OVC045 10/09 A2968 RMK SF2SC6 DENSITY ALT -137FT SLP051",2025-11-01 14:22:16.860376,2025-11-01 10:22:16.860376
"CYYC",2025-11-01 14:00:00,2025-11-01 10:00:00,"VFR",11,0,47,230,8,24100,29.66,NA,"SCT  ft; BKN  ft","METAR CYYC 011400Z 23008KT 15SM SCT180 BKN220 11/00 A2966 RMK AC4CI3 SLP064 DENSITY ALT 4400FT",2025-11-01 14:22:16.945643,2025-11-01 10:22:16.945643
"CYEG",2025-11-01 14:00:00,2025-11-01 10:00:00,"VFR",-3,-5,86,190,7,32200,29.62,NA,"FEW  ft; SCT  ft","METAR CYEG 011400Z 19007KT 20SM FEW120 SCT230 M03/M05 A2962 RMK AC1CI4 AC TR SLP058",2025-11-01 14:22:17.031035,2025-11-01 10:22:17.031035
"CYMM",2025-11-01 14:00:00,2025-11-01 10:00:00,"VFR",0,-1,93,110,5,14500,29.45,NA,"CLR  ft","METAR CYMM 011400Z AUTO 11005KT 9SM CLR M00/M01 A2945 RMK SLP995",2025-11-01 14:22:17.117582,2025-11-01 10:22:17.117582
"CYQF",2025-11-01 14:00:00,2025-11-01 10:00:00,"VFR",4,-2,65,50,2,14500,29.62,NA,"SCT  ft; BKN  ft; BKN  ft","METAR CYQF 011400Z AUTO 05002KT 9SM SCT170 BKN190 BKN220 04/M02 A2962 RMK SLP058",2025-11-01 14:22:17.201563,2025-11-01 10:22:17.201563
"CYXE",2025-11-01 14:00:00,2025-11-01 10:00:00,"VFR",2,-3,70,150,9,24100,29.63,NA,"FEW  ft; BKN  ft","METAR CYXE 011400Z 15009KT 15SM FEW120 BKN220 02/M03 A2963 RMK AC1CI6 SLP061",2025-11-01 14:22:17.288457,2025-11-01 10:22:17.288457
"CYQR",2025-11-01 14:00:00,2025-11-01 10:00:00,"VFR",-2,-4,86,140,17,24100,29.82,NA,"FEW  ft; BKN  ft","METAR CYQR 011400Z 14017G27KT 15SM FEW170 BKN210 M02/M04 A2982 RMK AC2CI5 SLP128",2025-11-01 14:22:17.370514,2025-11-01 10:22:17.370514
"CYWG",2025-11-01 14:00:00,2025-11-01 10:00:00,"LIFR",0,0,100,190,5,NA,30.13,NA,"OVX  ft","METAR CYWG 011400Z 19005KT 3/4SM R36/P6000FT/D R31/P6000FT/D BR VV002 M00/M00 A3013 RMK FG8 SLP216",2025-11-01 14:22:17.456334,2025-11-01 10:22:17.456334
"CYBR",2025-11-01 14:00:00,2025-11-01 10:00:00,"MVFR",1,-2,81,220,15,24100,30.07,NA,"OVC  ft","METAR CYBR 011400Z 22015KT 15SM OVC019 01/M02 A3007 RMK SC8 SLP207",2025-11-01 14:22:17.541854,2025-11-01 10:22:17.541854
"CYUL",2025-11-01 14:00:00,2025-11-01 10:00:00,"MVFR",6,1,71,290,14,48300,29.71,NA,"BKN  ft; BKN  ft; BKN  ft","METAR CYUL 011400Z 29014G21KT 30SM BKN030 BKN070 BKN250 06/01 A2971 RMK SC5AC1CI1 CI TR SLP065",2025-11-01 14:22:17.632915,2025-11-01 10:22:17.632915
"CYHU",2025-11-01 14:00:00,2025-11-01 10:00:00,"VFR",6,1,71,270,11,14500,29.7,NA,"OVC  ft","METAR CYHU 011400Z AUTO 27011G21KT 9SM OVC033 06/01 A2970 RMK PRESRR SLP060",2025-11-01 14:22:17.723157,2025-11-01 10:22:17.723157
"CYQB",2025-11-01 14:00:00,2025-11-01 10:00:00,"VFR",7,1,66,280,17,48300,29.46,NA,"SCT  ft; SCT  ft","METAR CYQB 011400Z 28017G25KT 260V330 30SM SCT030 SCT110 07/01 A2946 RMK SC3AC1 AC TR SLP981",2025-11-01 14:22:17.810859,2025-11-01 10:22:17.810859
"CYVO",2025-11-01 14:00:00,2025-11-01 10:00:00,"MVFR",1,-1,87,320,10,4800,29.8,NA,"BKN  ft; BKN  ft","METAR CYVO 011400Z 32010G18KT 280V340 3SM -SHSN BKN013 BKN019 01/M01 A2980 RMK SC5SC2 CVCTV CLD EMBD SLP112",2025-11-01 14:22:17.898087,2025-11-01 10:22:17.898087
"CYUY",2025-11-01 14:00:00,2025-11-01 10:00:00,"MVFR",2,-1,81,330,11,24100,29.85,NA,"BKN  ft","METAR CYUY 011400Z 33011KT 15SM BKN019 02/M01 A2985 RMK SC7 SLP125",2025-11-01 14:22:17.981512,2025-11-01 10:22:17.981512
"CYZV",2025-11-01 14:00:00,2025-11-01 10:00:00,"VFR",7,3,76,360,11,48300,28.96,NA,"FEW  ft; BKN  ft; OVC  ft","METAR CYZV 011400Z 36011G17KT 30SM FEW040 BKN065 OVC100 07/03 A2896 RMK CU1SC6AS2 CU TR SLP811 DENSITY ALT 400FT",2025-11-01 14:22:18.071536,2025-11-01 10:22:18.071536
"CYBC",2025-11-01 14:00:00,2025-11-01 10:00:00,"MVFR",7,3,76,300,13,14500,29.11,NA,"BKN  ft; OVC  ft","METAR CYBC 011400Z AUTO 30013G19KT 280V350 9SM BKN028 OVC086 07/03 A2911 RMK SLP859",2025-11-01 14:22:18.161918,2025-11-01 10:22:18.161918
"CYRJ",2025-11-01 14:00:00,2025-11-01 10:00:00,"MVFR",3,1,87,300,19,19300,29.47,NA,"SCT  ft; OVC  ft","METAR CYRJ 011400Z 30019G29KT 12SM -RA SCT014 OVC019 03/01 A2947 RMK SC4SC4 SLP989",2025-11-01 14:22:18.25064,2025-11-01 10:22:18.25064
"CYHZ",2025-11-01 14:00:00,2025-11-01 10:00:00,"MVFR",9,5,76,260,21,24100,29.19,NA,"OVC  ft","METAR CYHZ 011400Z 26021G38KT 15SM OVC025 09/05 A2919 RMK SC8 SLP887 DENSITY ALT 800FT",2025-11-01 14:22:18.33959,2025-11-01 10:22:18.33959
"CYYG",2025-11-01 14:00:00,2025-11-01 10:00:00,"MVFR",9,6,82,270,22,24100,29.01,NA,"BKN  ft","METAR CYYG 011400Z 27022G35KT 15SM -SHRA BKN017 09/06 A2901 RMK SC7 CVCTV CLD EMBD SLP827 DENSITY ALT 600FT",2025-11-01 14:22:18.430652,2025-11-01 10:22:18.430652
"CYQM",2025-11-01 14:00:00,2025-11-01 10:00:00,"MVFR",9,5,76,260,22,24100,29.11,NA,"BKN  ft","METAR CYQM 011400Z 26022G36KT 15SM BKN015 09/05 A2911 RMK CF7 SLP861 DENSITY ALT 600FT",2025-11-01 14:22:18.48847,2025-11-01 10:22:18.48847
"CYFC",2025-11-01 14:00:00,2025-11-01 10:00:00,"VFR",9,3,66,260,15,14500,29.24,NA,"OVC  ft","METAR CYFC 011400Z AUTO 26015G28KT 230V300 9SM OVC032 09/03 A2924 RMK PRESRR SLP904",2025-11-01 14:22:18.576604,2025-11-01 10:22:18.576604
"CYYT",2025-11-01 14:12:00,2025-11-01 10:12:00,"VFR",12,9,82,260,29,24100,29.01,NA,"SCT  ft; BKN  ft; OVC  ft","SPECI CYYT 011412Z 26029G43KT 15SM -SHRA SCT024 BKN031 OVC040 12/09 A2901 RMK SC4SC3SC1 CVCTV CLD EMBD SLP829 DENSITY ALT 1300FT",2025-11-01 14:22:18.662984,2025-11-01 10:22:18.662984
"CYQY",2025-11-01 14:00:00,2025-11-01 10:00:00,"VFR",11,5,67,240,25,24100,28.99,NA,"BKN  ft","METAR CYQY 011400Z 24025G43KT 15SM BKN035 11/05 A2899 RMK SC7 SLP818 DENSITY ALT 900FT",2025-11-01 14:22:18.749316,2025-11-01 10:22:18.749316
"CYXY",2025-11-01 14:00:00,2025-11-01 10:00:00,"VFR",2,-4,65,150,14,24100,29.07,NA,"FEW  ft; BKN  ft","METAR CYXY 011400Z 15014G20KT 15SM FEW068 BKN230 02/M04 A2907 RMK AC1CI6 SLP873",2025-11-01 14:22:18.790623,2025-11-01 10:22:18.790623
"CYZF",2025-11-01 14:00:00,2025-11-01 10:00:00,"VFR",4,4,100,180,10,24100,29.01,NA,"FEW  ft; OVC  ft","METAR CYZF 011400Z 18010KT 15SM -RA FEW006 OVC056 04/04 A2901 RMK SC1SC7 SLP838",2025-11-01 14:22:18.877728,2025-11-01 10:22:18.877728
"CYFB",2025-11-01 14:00:00,2025-11-01 10:00:00,"VFR",-12,-15,79,310,10,48300,29.91,NA,"FEW  ft; FEW  ft","METAR CYFB 011400Z 31010KT 30SM FEW030 FEW250 M12/M15 A2991 RMK SC1CI1 SC TR CI TR SLP134",2025-11-01 14:22:18.964655,2025-11-01 10:22:18.964655
"CYRT",2025-11-01 14:00:00,2025-11-01 10:00:00,"IFR",0,0,100,170,16,3200,29.76,NA,"BKN  ft; OVC  ft","METAR CYRT 011400Z 17016KT 2SM -SN BR BKN010 OVC022 00/M00 A2976 RMK SC5SC3 SLP084",2025-11-01 14:22:19.050594,2025-11-01 10:22:19.050594
"CYBK",2025-11-01 14:00:00,2025-11-01 10:00:00,"LIFR",-2,-3,93,150,15,24100,29.65,NA,"BKN  ft; OVC  ft","METAR CYBK 011400Z 15015KT 15SM -SN BKN004 OVC012 M02/M03 A2965 RMK SC7SC1 SLP044",2025-11-01 14:22:19.134666,2025-11-01 10:22:19.134666
"CYRB",2025-11-01 14:00:00,2025-11-01 10:00:00,"VFR",-10,-11,92,50,17,32200,29.85,NA,"FEW  ft","METAR CYRB 011400Z 05017KT 20SM DRSN FEW034 M10/M11 A2985 RMK SC2 SLP119",2025-11-01 14:22:19.190319,2025-11-01 10:22:19.190319
"CYCO",2025-11-01 14:00:00,2025-11-01 10:00:00,"MVFR",0,-1,93,100,17,19300,29.02,NA,"BKN  ft; OVC  ft","METAR CYCO 011400Z 10017G27KT 12SM -SN DRSN BKN021 OVC033 00/M01 A2902 RMK SC6SC2 SLP832",2025-11-01 14:22:19.27362,2025-11-01 10:22:19.27362
"CYER",2025-11-01 15:00:00,2025-11-01 11:00:00,"IFR",-2,NA,NA,270,8,14500,30.02,NA,"OVC  ft","METAR CYER 011500Z AUTO 27008KT 9SM OVC006 M02/ A3002 RMK DP MISG SLP169",2025-11-01 15:22:36.275022,2025-11-01 11:22:36.275022
"CYAT",2025-11-01 15:00:00,2025-11-01 11:00:00,"MVFR",1,0,93,310,13,14500,29.95,NA,"OVC  ft","METAR CYAT 011500Z AUTO 31013G19KT 9SM OVC010 01/M00 A2995 RMK SLP146",2025-11-01 15:22:36.359357,2025-11-01 11:22:36.359357
"CYMO",2025-11-01 15:07:00,2025-11-01 11:07:00,"MVFR",3,1,87,300,9,14500,29.93,NA,"FEW  ft; BKN  ft; OVC  ft","SPECI CYMO 011507Z AUTO 30009KT 9SM FEW009 BKN014 OVC026 03/01 A2993 RMK SLP137",2025-11-01 15:22:36.435329,2025-11-01 11:22:36.435329
"CYPL",2025-11-01 15:18:00,2025-11-01 11:18:00,"VFR",0,-4,75,280,4,14500,30.08,NA,"SCT  ft","SPECI CYPL 011518Z AUTO 28004KT 260V320 9SM SCT016 M00/M04 A3008 RMK SLP209",2025-11-01 15:22:36.518347,2025-11-01 11:22:36.518347
"CYQT",2025-11-01 15:00:00,2025-11-01 11:00:00,"VFR",3,-3,65,310,5,32200,30.13,NA,"BKN  ft","METAR CYQT 011500Z 31005KT 20SM BKN033 03/M03 A3013 RMK SC7 SLP213",2025-11-01 15:22:36.597242,2025-11-01 11:22:36.597242
"CYAM",2025-11-01 15:00:00,2025-11-01 11:00:00,"VFR",3,-3,65,20,7,32200,30.05,NA,"FEW  ft; BKN  ft","METAR CYAM 011500Z 02007KT 20SM FEW010 BKN032 03/M03 A3005 RMK CF1CU7 CF TR SLP186",2025-11-01 15:22:36.686659,2025-11-01 11:22:36.686659
"CYTS",2025-11-01 15:00:00,2025-11-01 11:00:00,"MVFR",1,-2,81,310,7,24100,29.97,NA,"OVC  ft","METAR CYTS 011500Z 31007KT 15SM OVC026 01/M02 A2997 RMK SC8 SLP166",2025-11-01 15:22:36.771518,2025-11-01 11:22:36.771518
"CYSB",2025-11-01 15:00:00,2025-11-01 11:00:00,"LIFR",2,-4,65,320,9,32200,29.95,NA,"OVC  ft","METAR CYSB 011500Z 32009G15KT 20SM OVC002 02/M04 A2995 RMK SC8 CU ASOCTD SLP160",2025-11-01 15:22:36.86177,2025-11-01 11:22:36.86177
"CYYB",2025-11-01 15:00:00,2025-11-01 11:00:00,"VFR",3,-1,75,290,8,48300,29.91,NA,"OVC  ft","METAR CYYB 011500Z 29008KT 270V330 30SM OVC036 03/M01 A2991 RMK SC8 SLP145",2025-11-01 15:22:36.958748,2025-11-01 11:22:36.958748
"CYOW",2025-11-01 15:00:00,2025-11-01 11:00:00,"VFR",4,-1,70,290,14,24100,29.83,NA,"SCT  ft; OVC  ft","METAR CYOW 011500Z 29014G22KT 15SM SCT028 OVC036 04/M01 A2983 RMK CF3SC5 SLP108",2025-11-01 15:22:37.038702,2025-11-01 11:22:37.038702
"CYGK",2025-11-01 15:00:00,2025-11-01 11:00:00,"VFR",5,1,76,300,8,24100,29.93,NA,"SCT  ft; BKN  ft","METAR CYGK 011500Z 30008KT 15SM SCT022 BKN045 05/01 A2993 RMK CU3SC4 SLP139",2025-11-01 15:22:37.119278,2025-11-01 11:22:37.119278
"CYQG",2025-11-01 15:10:00,2025-11-01 11:10:00,"VFR",6,5,93,250,4,14500,30.03,NA,"OVC  ft","SPECI CYQG 011510Z AUTO 25004KT 9SM OVC035 06/05 A3003 RMK SLP176",2025-11-01 15:22:37.193469,2025-11-01 11:22:37.193469
"CYVV",2025-11-01 15:00:00,2025-11-01 11:00:00,"VFR",6,-2,57,320,8,24100,29.98,NA,"SCT  ft; SCT  ft","METAR CYVV 011500Z 32008KT 280V030 15SM SCT045 SCT250 06/M02 A2998 RMK SC4CI1 CI TR SLP162",2025-11-01 15:22:37.271086,2025-11-01 11:22:37.271086
"CYYZ",2025-11-01 15:00:00,2025-11-01 11:00:00,"VFR",7,1,66,310,6,24100,29.98,NA,"FEW  ft; BKN  ft","METAR CYYZ 011500Z 31006KT 15SM FEW020 BKN048 07/01 A2998 RMK CF1SC5 SLP158",2025-11-01 15:22:37.309181,2025-11-01 11:22:37.309181
"CYQA",2025-11-01 15:00:00,2025-11-01 11:00:00,"VFR",4,-3,61,340,11,14500,29.94,NA,"OVC  ft","METAR CYQA 011500Z AUTO 34011G17KT 9SM OVC040 04/M03 A2994 RMK SLP150",2025-11-01 15:22:37.39334,2025-11-01 11:22:37.39334
"CYVR",2025-11-01 15:00:00,2025-11-01 11:00:00,"MVFR",9,9,100,320,7,4800,29.63,NA,"FEW  ft; BKN  ft; OVC  ft","METAR CYVR 011500Z 32007KT 3SM RA BR FEW006 BKN023 OVC040 09/09 A2963 RMK ST2SC3NS3 SLP035",2025-11-01 15:22:37.46519,2025-11-01 11:22:37.46519
"CYYJ",2025-11-01 15:16:00,2025-11-01 11:16:00,"MVFR",10,10,100,300,9,4800,29.62,NA,"SCT  ft; BKN  ft; OVC  ft","SPECI CYYJ 011516Z 30009KT 3SM RA BR SCT006 BKN013 OVC019 10/10 A2962 RMK SF4SC2NS2 SLP031",2025-11-01 15:22:37.540954,2025-11-01 11:22:37.540954
"CYLW",2025-11-01 15:10:00,2025-11-01 11:10:00,"VFR",7,5,87,170,4,14500,29.71,NA,"SCT  ft; BKN  ft; OVC  ft","SPECI CYLW 011510Z AUTO 17004KT 120V190 9SM -RA SCT028 BKN033 OVC047 07/05 A2971 RMK SLP073",2025-11-01 15:22:37.612293,2025-11-01 11:22:37.612293
"CYXS",2025-11-01 15:00:00,2025-11-01 11:00:00,"VFR",2,1,93,160,6,14500,29.56,NA,"SCT  ft; BKN  ft; OVC  ft","METAR CYXS 011500Z AUTO 16006KT 9SM SCT130 BKN150 OVC170 02/01 A2956 RMK SLP034",2025-11-01 15:22:37.682456,2025-11-01 11:22:37.682456
"CYXT",2025-11-01 15:00:00,2025-11-01 11:00:00,"VFR",4,4,100,200,9,24100,29.59,NA,"FEW  ft; FEW  ft; BKN  ft; BKN  ft","METAR CYXT 011500Z 20009KT 15SM FEW001 FEW009 BKN040 BKN068 04/04 A2959 RMK SF1SC1SC5AC2 SF TR SC TR SLP030",2025-11-01 15:22:37.755226,2025-11-01 11:22:37.755226
"CYQQ",2025-11-01 15:00:00,2025-11-01 11:00:00,"MVFR",9,8,94,210,2,8000,29.66,NA,"SCT  ft; OVC  ft","METAR CYQQ 011500Z 21002KT 5SM -RA BR SCT009 OVC044 09/08 A2966 RMK SF3SC5 DENSITY ALT -192FT SLP044",2025-11-01 15:22:37.830117,2025-11-01 11:22:37.830117
"CYYC",2025-11-01 15:00:00,2025-11-01 11:00:00,"VFR",11,1,50,280,4,32200,29.67,NA,"FEW  ft; BKN  ft","METAR CYYC 011500Z 28004KT 220V290 20SM FEW170 BKN200 11/01 A2967 RMK AC2CC5 VIRGA SW-NW SLP063 DENSITY ALT 4300FT",2025-11-01 15:22:37.899049,2025-11-01 11:22:37.899049
"CYEG",2025-11-01 15:00:00,2025-11-01 11:00:00,"VFR",-2,-4,86,170,2,32200,29.6,NA,"FEW  ft; BKN  ft","METAR CYEG 011500Z 17002KT 20SM FEW100 BKN210 M02/M04 A2960 RMK AC1CI6 AC TR VIRGA SLP051",2025-11-01 15:22:37.969123,2025-11-01 11:22:37.969123
"CYMM",2025-11-01 15:00:00,2025-11-01 11:00:00,"VFR",2,0,87,220,6,14500,29.44,NA,"CLR  ft","METAR CYMM 011500Z AUTO 22006KT 9SM CLR 02/00 A2944 RMK SLP989",2025-11-01 15:22:38.04167,2025-11-01 11:22:38.04167
"CYQF",2025-11-01 15:00:00,2025-11-01 11:00:00,"VFR",4,-2,65,0,2,14500,29.62,NA,"BKN  ft; BKN  ft","METAR CYQF 011500Z AUTO VRB02KT 9SM BKN150 BKN190 04/M02 A2962 RMK SLP059",2025-11-01 15:22:38.111268,2025-11-01 11:22:38.111268
"CYXE",2025-11-01 15:00:00,2025-11-01 11:00:00,"VFR",2,-3,70,160,10,24100,29.63,NA,"FEW  ft; BKN  ft","METAR CYXE 011500Z 16010KT 15SM FEW120 BKN220 02/M03 A2963 RMK AC2CI3 SLP059",2025-11-01 15:22:38.182771,2025-11-01 11:22:38.182771
"CYQR",2025-11-01 15:00:00,2025-11-01 11:00:00,"VFR",-1,-3,86,150,16,24100,29.8,NA,"FEW  ft; SCT  ft; BKN  ft","METAR CYQR 011500Z 15016G24KT 15SM FEW170 SCT200 BKN240 M01/M03 A2980 RMK AC1CI2CI4 SLP123",2025-11-01 15:22:38.253574,2025-11-01 11:22:38.253574
"CYWG",2025-11-01 15:00:00,2025-11-01 11:00:00,"MVFR",1,1,100,220,6,4800,30.13,NA,"FEW  ft; BKN  ft","METAR CYWG 011500Z 22006KT 3SM BR FEW006 BKN025 01/01 A3013 RMK SF1SC6 SLP218",2025-11-01 15:22:38.327661,2025-11-01 11:22:38.327661
"CYBR",2025-11-01 15:00:00,2025-11-01 11:00:00,"MVFR",1,-3,75,220,14,24100,30.06,NA,"OVC  ft","METAR CYBR 011500Z 22014KT 15SM OVC019 01/M03 A3006 RMK SC8 SLP204",2025-11-01 15:22:38.40291,2025-11-01 11:22:38.40291
"CYUL",2025-11-01 15:00:00,2025-11-01 11:00:00,"MVFR",7,1,66,270,17,48300,29.74,NA,"BKN  ft; BKN  ft; BKN  ft","METAR CYUL 011500Z 27017KT 30SM BKN030 BKN070 BKN250 07/01 A2974 RMK SC6AC1CI1 AC TR CI TR SLP075",2025-11-01 15:22:38.475763,2025-11-01 11:22:38.475763
"CYHU",2025-11-01 15:00:00,2025-11-01 11:00:00,"VFR",7,1,66,280,14,14500,29.73,NA,"OVC  ft","METAR CYHU 011500Z AUTO 28014G22KT 9SM OVC032 07/01 A2973 RMK SLP069",2025-11-01 15:22:38.549718,2025-11-01 11:22:38.549718
"CYQB",2025-11-01 15:00:00,2025-11-01 11:00:00,"VFR",8,1,62,280,13,48300,29.51,NA,"SCT  ft; SCT  ft","METAR CYQB 011500Z 28013G23KT 250V320 30SM SCT030 SCT120 08/01 A2951 RMK SC3AC1 AC TR SLP997",2025-11-01 15:22:38.622565,2025-11-01 11:22:38.622565
"CYVO",2025-11-01 15:00:00,2025-11-01 11:00:00,"MVFR",1,-1,87,320,11,4800,29.82,NA,"OVC  ft","METAR CYVO 011500Z 32011G18KT 3SM -SHSN OVC014 01/M01 A2982 RMK SC8 VIS VRB 2-4 SLP118",2025-11-01 15:22:38.696003,2025-11-01 11:22:38.696003
"CYUY",2025-11-01 15:00:00,2025-11-01 11:00:00,"MVFR",2,-2,75,340,11,24100,29.88,NA,"BKN  ft","METAR CYUY 011500Z 34011G20KT 15SM -SHSN BKN018 02/M02 A2988 RMK CU7 VIS SE 5 SLP135",2025-11-01 15:22:38.765868,2025-11-01 11:22:38.765868
"CYZV",2025-11-01 15:00:00,2025-11-01 11:00:00,"VFR",7,3,76,350,10,48300,29.02,NA,"FEW  ft; BKN  ft; OVC  ft","METAR CYZV 011500Z 35010G16KT 30SM FEW040 BKN075 OVC090 07/03 A2902 RMK SC1AS7AC1 SC TR PRESRR SLP830 DENSITY ALT 400FT",2025-11-01 15:22:38.838795,2025-11-01 11:22:38.838795
"CYBC",2025-11-01 15:00:00,2025-11-01 11:00:00,"MVFR",8,4,76,300,8,14500,29.15,NA,"OVC  ft","METAR CYBC 011500Z AUTO 30008KT 280V360 9SM OVC030 08/04 A2915 RMK SLP874",2025-11-01 15:22:38.912265,2025-11-01 11:22:38.912265
"CYRJ",2025-11-01 15:00:00,2025-11-01 11:00:00,"VFR",3,1,87,300,18,12900,29.51,NA,"SCT  ft; OVC  ft","METAR CYRJ 011500Z 30018G26KT 8SM -PL SCT045 OVC051 03/01 A2951 RMK NS4NS4 SLP002",2025-11-01 15:22:38.982313,2025-11-01 11:22:38.982313
"CYHZ",2025-11-01 15:00:00,2025-11-01 11:00:00,"MVFR",9,6,82,260,20,24100,29.23,NA,"OVC  ft","METAR CYHZ 011500Z 26020G26KT 15SM OVC023 09/06 A2923 RMK SC8 SLP902 DENSITY ALT 700FT",2025-11-01 15:22:39.051789,2025-11-01 11:22:39.051789
"CYYG",2025-11-01 15:00:00,2025-11-01 11:00:00,"MVFR",10,5,71,260,19,24100,29.07,NA,"BKN  ft; BKN  ft","METAR CYYG 011500Z 26019G32KT 15SM BKN028 BKN100 10/05 A2907 RMK SC6AC1 SLP846 DENSITY ALT 700FT",2025-11-01 15:22:39.128137,2025-11-01 11:22:39.128137
"CYQM",2025-11-01 15:00:00,2025-11-01 11:00:00,"MVFR",9,4,71,260,20,24100,29.16,NA,"BKN  ft","METAR CYQM 011500Z 26020G30KT 15SM BKN020 09/04 A2916 RMK SC7 CU ASOCTD SLP877 DENSITY ALT 500FT",2025-11-01 15:22:39.195447,2025-11-01 11:22:39.195447
"CYFC",2025-11-01 15:00:00,2025-11-01 11:00:00,"VFR",10,3,62,260,13,14500,29.29,NA,"OVC  ft","METAR CYFC 011500Z AUTO 26013G24KT 230V300 9SM OVC034 10/03 A2929 RMK SLP920",2025-11-01 15:22:39.26543,2025-11-01 11:22:39.26543
"CYYT",2025-11-01 15:00:00,2025-11-01 11:00:00,"MVFR",12,9,82,250,31,24100,29.01,NA,"BKN  ft; BKN  ft; BKN  ft","METAR CYYT 011500Z 25031G41KT 15SM -SHRA BKN029 BKN045 BKN110 12/09 A2901 RMK SC5SC2AC1 AC TR CVCTV CLD EMBD SLP827 DENSITY ALT 1300FT",2025-11-01 15:22:39.334481,2025-11-01 11:22:39.334481
"CYQY",2025-11-01 15:00:00,2025-11-01 11:00:00,"MVFR",11,6,72,250,24,24100,29.01,NA,"OVC  ft","METAR CYQY 011500Z 25024G37KT 15SM OVC022 11/06 A2901 RMK SC8 PRESRR SLP827 DENSITY ALT 900FT",2025-11-01 15:22:39.405112,2025-11-01 11:22:39.405112
"CYXY",2025-11-01 15:00:00,2025-11-01 11:00:00,"VFR",1,-4,70,180,12,24100,29.07,NA,"FEW  ft; BKN  ft","METAR CYXY 011500Z 18012KT 15SM FEW065 BKN230 01/M04 A2907 RMK SC1CI5 SC TR SLP875",2025-11-01 15:22:39.474006,2025-11-01 11:22:39.474006
"CYZF",2025-11-01 15:00:00,2025-11-01 11:00:00,"VFR",4,4,100,170,9,24100,29,NA,"FEW  ft; FEW  ft; SCT  ft; BKN  ft","METAR CYZF 011500Z 17009KT 15SM FEW005 FEW044 SCT100 BKN140 04/04 A2900 RMK SF1SC2AC2AC2 SF TR SLP834",2025-11-01 15:22:39.544125,2025-11-01 11:22:39.544125
"CYFB",2025-11-01 15:00:00,2025-11-01 11:00:00,"VFR",-11,-14,79,310,11,48300,29.9,NA,"FEW  ft; FEW  ft","METAR CYFB 011500Z 31011KT 30SM FEW030 FEW250 M11/M14 A2990 RMK SC1CI1 SC TR CI TR SLP130",2025-11-01 15:22:39.614167,2025-11-01 11:22:39.614167
"CYRT",2025-11-01 15:00:00,2025-11-01 11:00:00,"MVFR",0,0,100,170,12,24100,29.75,NA,"SCT  ft; BKN  ft; BKN  ft","METAR CYRT 011500Z 17012KT 15SM SCT009 BKN025 BKN250 00/M00 A2975 RMK SC3SC2CI2 SH DIST NE AND W SLP078",2025-11-01 15:22:39.68114,2025-11-01 11:22:39.68114
"CYBK",2025-11-01 15:12:00,2025-11-01 11:12:00,"IFR",-1,-3,86,140,14,4800,29.61,NA,"OVC  ft","SPECI CYBK 011512Z 14014KT 3SM -SN DRSN OVC009 M01/M03 A2961 RMK SC8 SLP032",2025-11-01 15:22:39.751425,2025-11-01 11:22:39.751425
"CYRB",2025-11-01 15:17:00,2025-11-01 11:17:00,"VFR",-11,-13,85,40,21,40200,29.83,NA,"FEW  ft","SPECI CYRB 011517Z 04021KT 25SM FEW036 M11/M13 A2983 RMK SC2 PRESFR SLP113",2025-11-01 15:22:39.835346,2025-11-01 11:22:39.835346
"CYCO",2025-11-01 15:08:00,2025-11-01 11:08:00,"LIFR",0,-1,93,100,18,1600,29,NA,"BKN  ft; OVC  ft","SPECI CYCO 011508Z 10018G23KT 1SM -SN DRSN BKN004 OVC011 00/M01 A2900 RMK SN4ST2ST2 VIS VRB 3/4-11/4 SLP825",2025-11-01 15:22:39.90504,2025-11-01 11:22:39.90504
"CYER",2025-11-01 16:19:00,2025-11-01 12:19:00,"IFR",-1,-1,100,250,8,14500,30.01,NA,"BKN  ft","SPECI CYER 011619Z AUTO 25008KT 9SM BKN008 M01/M01 A3001 RMK SLP165",2025-11-01 16:28:36.013584,2025-11-01 12:28:36.013584
"CYAT",2025-11-01 16:00:00,2025-11-01 12:00:00,"MVFR",2,0,87,310,13,14500,29.96,NA,"OVC  ft","METAR CYAT 011600Z AUTO 31013G18KT 9SM OVC012 02/00 A2996 RMK SLP149",2025-11-01 16:28:36.106263,2025-11-01 12:28:36.106263
"CYMO",2025-11-01 16:00:00,2025-11-01 12:00:00,"MVFR",3,1,87,310,10,14500,29.94,NA,"BKN  ft; BKN  ft; OVC  ft","METAR CYMO 011600Z AUTO 31010G15KT 9SM BKN014 BKN021 OVC034 03/01 A2994 RMK SLP142",2025-11-01 16:28:36.186384,2025-11-01 12:28:36.186384
"CYPL",2025-11-01 16:10:00,2025-11-01 12:10:00,"MVFR",1,-2,81,280,5,14500,30.09,NA,"FEW  ft; BKN  ft; BKN  ft","SPECI CYPL 011610Z AUTO 28005KT 9SM FEW016 BKN025 BKN029 01/M02 A3009 RMK SLP211",2025-11-01 16:28:36.256709,2025-11-01 12:28:36.256709
"CYQT",2025-11-01 16:00:00,2025-11-01 12:00:00,"VFR",3,-3,65,320,6,32200,30.13,NA,"BKN  ft","METAR CYQT 011600Z 32006KT 260V050 20SM BKN031 03/M03 A3013 RMK SC7 SLP216",2025-11-01 16:28:36.342724,2025-11-01 12:28:36.342724
"CYAM",2025-11-01 16:00:00,2025-11-01 12:00:00,"VFR",3,-3,65,50,5,32200,30.06,NA,"OVC  ft","METAR CYAM 011600Z 05005KT 020V090 20SM OVC034 03/M03 A3006 RMK CU8 SH DIST W SLP189",2025-11-01 16:28:36.412866,2025-11-01 12:28:36.412866
"CYTS",2025-11-01 16:21:00,2025-11-01 12:21:00,"IFR",0,-1,93,310,7,4800,29.99,NA,"BKN  ft; OVC  ft","SPECI CYTS 011621Z 31007KT 270V350 3SM -SN BKN006 OVC018 00/M01 A2999 RMK SC6SC2 SLP173",2025-11-01 16:28:36.484963,2025-11-01 12:28:36.484963
"CYSB",2025-11-01 16:00:00,2025-11-01 12:00:00,"MVFR",2,-4,65,340,8,32200,29.97,NA,"OVC  ft","METAR CYSB 011600Z 34008KT 300V010 20SM OVC028 02/M04 A2997 RMK SC8 SLP166",2025-11-01 16:28:36.559896,2025-11-01 12:28:36.559896
"CYYB",2025-11-01 16:00:00,2025-11-01 12:00:00,"MVFR",3,-2,70,310,8,48300,29.93,NA,"OVC  ft","METAR CYYB 011600Z 31008KT 30SM OVC030 03/M02 A2993 RMK SC8 SLP153",2025-11-01 16:28:36.632664,2025-11-01 12:28:36.632664
"CYOW",2025-11-01 16:00:00,2025-11-01 12:00:00,"VFR",5,-1,66,290,11,24100,29.86,NA,"OVC  ft","METAR CYOW 011600Z 29011G18KT 15SM OVC033 05/M01 A2986 RMK SC8 SLP117",2025-11-01 16:28:36.664612,2025-11-01 12:28:36.664612
"CYGK",2025-11-01 16:00:00,2025-11-01 12:00:00,"VFR",6,-1,61,310,9,24100,29.94,NA,"FEW  ft; BKN  ft","METAR CYGK 011600Z CCA 31009G16KT 15SM VCSH FEW025 BKN039 06/M01 A2994 RMK SC1SC6 SLP145",2025-11-01 16:28:36.739531,2025-11-01 12:28:36.739531
"CYQG",2025-11-01 16:00:00,2025-11-01 12:00:00,"VFR",8,5,82,250,3,14500,30.04,NA,"FEW  ft; OVC  ft","METAR CYQG 011600Z AUTO 25003KT 9SM FEW047 OVC081 08/05 A3004 RMK SLP177",2025-11-01 16:28:36.812123,2025-11-01 12:28:36.812123
"CYVV",2025-11-01 16:00:00,2025-11-01 12:00:00,"VFR",7,-3,49,320,7,24100,30,NA,"SCT  ft; BKN  ft","METAR CYVV 011600Z 32007KT 290V020 15SM SCT045 BKN250 07/M03 A3000 RMK SC4CI1 SLP167",2025-11-01 16:28:36.88382,2025-11-01 12:28:36.88382
"CYYZ",2025-11-01 16:00:00,2025-11-01 12:00:00,"VFR",8,1,62,10,4,24100,29.99,NA,"BKN  ft; BKN  ft","METAR CYYZ 011600Z 01004KT 300V050 15SM BKN033 BKN045 08/01 A2999 RMK SC5SC2 SLP161",2025-11-01 16:28:36.957723,2025-11-01 12:28:36.957723
"CYQA",2025-11-01 16:00:00,2025-11-01 12:00:00,"VFR",4,-3,61,320,10,14500,29.96,NA,"OVC  ft","METAR CYQA 011600Z AUTO 32010G15KT 9SM OVC034 04/M03 A2996 RMK SLP158",2025-11-01 16:28:37.028869,2025-11-01 12:28:37.028869
"CYVR",2025-11-01 16:00:00,2025-11-01 12:00:00,"VFR",9,9,100,310,12,12900,29.62,NA,"OVC  ft","METAR CYVR 011600Z 31012KT 8SM -RA OVC045 09/09 A2962 RMK SC8 SLP031",2025-11-01 16:28:37.099824,2025-11-01 12:28:37.099824
"CYYJ",2025-11-01 16:15:00,2025-11-01 12:15:00,"MVFR",10,9,94,320,9,8000,29.6,NA,"SCT  ft; BKN  ft; OVC  ft","SPECI CYYJ 011615Z 32009KT 290V010 5SM RA BR SCT009 BKN016 OVC032 10/09 A2960 RMK SF3SC2NS3 SLP027",2025-11-01 16:28:37.172293,2025-11-01 12:28:37.172293
"CYLW",2025-11-01 16:22:00,2025-11-01 12:22:00,"MVFR",7,5,87,150,7,14500,29.67,NA,"FEW  ft; BKN  ft; OVC  ft","SPECI CYLW 011622Z AUTO 15007KT 9SM FEW017 BKN023 OVC029 07/05 A2967 RMK SLP056",2025-11-01 16:28:37.249818,2025-11-01 12:28:37.249818
"CYXS",2025-11-01 16:00:00,2025-11-01 12:00:00,"VFR",2,1,93,0,0,14500,29.55,NA,"BKN  ft; OVC  ft","METAR CYXS 011600Z AUTO 00000KT 9SM BKN110 OVC130 02/01 A2955 RMK SLP030",2025-11-01 16:28:37.320759,2025-11-01 12:28:37.320759
"CYXT",2025-11-01 16:00:00,2025-11-01 12:00:00,"VFR",4,4,100,180,11,9999,29.59,NA,"FEW  ft; FEW  ft; SCT  ft; BKN  ft","METAR CYXT 011600Z 18011G17KT 10SM FEW002 FEW008 SCT020 BKN035 BKN070 04/04 A2959 RMK SF1SF1SC2SC2AC2 SF TR VIS SW LWR SLP030",2025-11-01 16:28:37.393924,2025-11-01 12:28:37.393924
"CYQQ",2025-11-01 16:00:00,2025-11-01 12:00:00,"MVFR",9,8,94,340,7,11300,29.67,NA,"FEW  ft; BKN  ft; OVC  ft","METAR CYQQ 011600Z 34007KT 7SM -RA FEW009 BKN015 OVC036 09/08 A2967 RMK SF1SC5SC2 DENSITY ALT -216FT CIG VRB 11-19 SLP048",2025-11-01 16:28:37.467008,2025-11-01 12:28:37.467008
"CYYC",2025-11-01 16:00:00,2025-11-01 12:00:00,"VFR",10,1,54,140,3,32200,29.65,NA,"BKN  ft; BKN  ft","METAR CYYC 011600Z 14003KT 090V160 20SM BKN190 BKN220 10/01 A2965 RMK AC5CI1 VIRGA SW-W SLP059 DENSITY ALT 4200FT",2025-11-01 16:28:37.539143,2025-11-01 12:28:37.539143
"CYEG",2025-11-01 16:00:00,2025-11-01 12:00:00,"VFR",-1,-3,86,160,6,32200,29.59,NA,"FEW  ft; BKN  ft","METAR CYEG 011600Z 16006KT 20SM FEW100 BKN210 M01/M03 A2959 RMK AC1CI5 AC TR SLP046",2025-11-01 16:28:37.610003,2025-11-01 12:28:37.610003
"CYMM",2025-11-01 16:00:00,2025-11-01 12:00:00,"VFR",5,1,76,220,16,14500,29.42,NA,"SCT  ft","METAR CYMM 011600Z AUTO 22016KT 9SM SCT170 05/01 A2942 RMK SLP981",2025-11-01 16:28:37.683236,2025-11-01 12:28:37.683236
"CYQF",2025-11-01 16:00:00,2025-11-01 12:00:00,"VFR",5,-2,61,50,4,14500,29.6,NA,"SCT  ft","METAR CYQF 011600Z AUTO 05004KT 360V060 9SM SCT190 05/M02 A2960 RMK SLP052",2025-11-01 16:28:37.755662,2025-11-01 12:28:37.755662
"CYXE",2025-11-01 16:00:00,2025-11-01 12:00:00,"VFR",5,-2,61,180,7,24100,29.64,NA,"BKN  ft","METAR CYXE 011600Z 18007KT 15SM BKN220 05/M02 A2964 RMK CI5 SLP063",2025-11-01 16:28:37.828716,2025-11-01 12:28:37.828716
"CYQR",2025-11-01 16:00:00,2025-11-01 12:00:00,"VFR",0,-2,87,150,14,24100,29.79,NA,"FEW  ft; SCT  ft; BKN  ft","METAR CYQR 011600Z 15014G20KT 15SM FEW180 SCT230 BKN270 00/M02 A2979 RMK AC2CI2CI3 SLP119",2025-11-01 16:28:37.901109,2025-11-01 12:28:37.901109
"CYWG",2025-11-01 16:00:00,2025-11-01 12:00:00,"MVFR",2,-1,81,230,9,24100,30.14,NA,"OVC  ft","METAR CYWG 011600Z 23009G15KT 15SM OVC025 02/M01 A3014 RMK SC8 SLP219",2025-11-01 16:28:37.972958,2025-11-01 12:28:37.972958
"CYBR",2025-11-01 16:00:00,2025-11-01 12:00:00,"MVFR",1,-2,81,220,15,24100,30.05,NA,"OVC  ft","METAR CYBR 011600Z 22015KT 15SM OVC015 01/M02 A3005 RMK SC8 SLP199",2025-11-01 16:28:38.052493,2025-11-01 12:28:38.052493
"CYUL",2025-11-01 16:00:00,2025-11-01 12:00:00,"MVFR",6,1,71,290,12,24100,29.77,NA,"BKN  ft","METAR CYUL 011600Z 29012G21KT 15SM -SHRA BKN026 06/01 A2977 RMK SC8 CVCTV CLD EMBD SLP085",2025-11-01 16:28:38.128285,2025-11-01 12:28:38.128285
"CYHU",2025-11-01 16:00:00,2025-11-01 12:00:00,"VFR",6,0,66,290,16,14500,29.75,NA,"BKN  ft; BKN  ft","METAR CYHU 011600Z AUTO 29016G25KT 9SM BKN034 BKN041 06/00 A2975 RMK SLP078",2025-11-01 16:28:38.199199,2025-11-01 12:28:38.199199
"CYQB",2025-11-01 16:00:00,2025-11-01 12:00:00,"VFR",7,1,66,270,16,48300,29.56,NA,"BKN  ft; BKN  ft","METAR CYQB 011600Z 27016G25KT 250V320 30SM BKN032 BKN110 07/01 A2956 RMK SC5AC1 SLP014",2025-11-01 16:28:38.269952,2025-11-01 12:28:38.269952
"CYVO",2025-11-01 16:00:00,2025-11-01 12:00:00,"MVFR",2,0,87,320,10,4800,29.85,NA,"BKN  ft","METAR CYVO 011600Z 32010G19KT 3SM -SHSN BKN018 02/00 A2985 RMK SC6 VIS VRB 2-4 CVCTV CLD EMBD SLP126",2025-11-01 16:28:38.341951,2025-11-01 12:28:38.341951
"CYUY",2025-11-01 16:00:00,2025-11-01 12:00:00,"MVFR",3,-3,65,340,12,24100,29.9,NA,"BKN  ft","METAR CYUY 011600Z 34012G23KT 15SM VCSH BKN022 03/M03 A2990 RMK CU7 SLP142",2025-11-01 16:28:38.418898,2025-11-01 12:28:38.418898
"CYZV",2025-11-01 16:00:00,2025-11-01 12:00:00,"VFR",8,3,71,340,11,48300,29.04,NA,"FEW  ft; BKN  ft","METAR CYZV 011600Z 34011G18KT 30SM -SHRA FEW030 BKN072 08/03 A2904 RMK SC1AC7 SC TR CVCTV CLD EMBD SLP838 DENSITY ALT 400FT",2025-11-01 16:28:38.492287,2025-11-01 12:28:38.492287
"CYBC",2025-11-01 16:00:00,2025-11-01 12:00:00,"MVFR",8,3,71,320,9,14500,29.18,NA,"BKN  ft; OVC  ft","METAR CYBC 011600Z AUTO 32009G16KT 290V010 9SM BKN030 OVC076 08/03 A2918 RMK SLP885",2025-11-01 16:28:38.564057,2025-11-01 12:28:38.564057
"CYRJ",2025-11-01 16:00:00,2025-11-01 12:00:00,"VFR",4,1,81,300,17,19300,29.55,NA,"SCT  ft; OVC  ft","METAR CYRJ 011600Z 30017G27KT 12SM -RA SCT019 OVC039 04/01 A2955 RMK NS4NS4 SLP015",2025-11-01 16:28:38.643055,2025-11-01 12:28:38.643055
"CYHZ",2025-11-01 16:00:00,2025-11-01 12:00:00,"MVFR",9,5,76,280,20,24100,29.24,NA,"BKN  ft","METAR CYHZ 011600Z 28020G28KT 15SM BKN027 09/05 A2924 RMK SC7 SLP907 DENSITY ALT 700FT",2025-11-01 16:28:38.72225,2025-11-01 12:28:38.72225
"CYYG",2025-11-01 16:00:00,2025-11-01 12:00:00,"VFR",10,4,67,260,18,24100,29.11,NA,"BKN  ft","METAR CYYG 011600Z 26018G36KT 15SM BKN031 10/04 A2911 RMK SC7 SLP862 DENSITY ALT 600FT",2025-11-01 16:28:38.798758,2025-11-01 12:28:38.798758
"CYQM",2025-11-01 16:00:00,2025-11-01 12:00:00,"MVFR",10,4,67,260,23,24100,29.18,NA,"OVC  ft","METAR CYQM 011600Z 26023G32KT 15SM OVC025 10/04 A2918 RMK SC8 CU ASOCTD SLP886 DENSITY ALT 500FT",2025-11-01 16:28:38.870173,2025-11-01 12:28:38.870173
"CYFC",2025-11-01 16:00:00,2025-11-01 12:00:00,"VFR",10,3,62,260,14,14500,29.3,NA,"OVC  ft","METAR CYFC 011600Z AUTO 26014G25KT 230V310 9SM OVC038 10/03 A2930 RMK SLP924 DENSITY ALT 300FT",2025-11-01 16:28:38.94206,2025-11-01 12:28:38.94206
"CYYT",2025-11-01 16:18:00,2025-11-01 12:18:00,"VFR",11,9,88,250,23,24100,29.02,NA,"SCT  ft; BKN  ft","SPECI CYYT 011618Z 25023G32KT 15SM SCT024 BKN037 11/09 A2902 RMK SC3SC3 SLP832 DENSITY ALT 1200FT",2025-11-01 16:28:39.018051,2025-11-01 12:28:39.018051
"CYQY",2025-11-01 16:00:00,2025-11-01 12:00:00,"MVFR",12,6,67,250,24,24100,29.03,NA,"BKN  ft","METAR CYQY 011600Z 25024G34KT 15SM BKN027 12/06 A2903 RMK SC7 SLP832 DENSITY ALT 900FT",2025-11-01 16:28:39.092028,2025-11-01 12:28:39.092028
"CYXY",2025-11-01 16:00:00,2025-11-01 12:00:00,"VFR",1,-3,75,160,14,64400,29.07,NA,"FEW  ft; BKN  ft","METAR CYXY 011600Z 16014KT 40SM FEW035 BKN240 01/M03 A2907 RMK SC1CI6 SC TR SLP875",2025-11-01 16:28:39.166304,2025-11-01 12:28:39.166304
"CYZF",2025-11-01 16:00:00,2025-11-01 12:00:00,"VFR",4,4,100,180,6,24100,29,NA,"BKN  ft; BKN  ft","METAR CYZF 011600Z 18006KT 15SM BKN140 BKN190 04/04 A2900 RMK AC5CI1 SLP833",2025-11-01 16:28:39.242448,2025-11-01 12:28:39.242448
"CYFB",2025-11-01 16:00:00,2025-11-01 12:00:00,"VFR",-10,-13,79,320,9,48300,29.89,NA,"FEW  ft; FEW  ft","METAR CYFB 011600Z 32009KT 30SM FEW030 FEW250 M10/M13 A2989 RMK SC1CI1 SC TR CI TR SLP128",2025-11-01 16:28:39.321498,2025-11-01 12:28:39.321498
"CYRT",2025-11-01 16:00:00,2025-11-01 12:00:00,"MVFR",1,0,93,170,12,24100,29.72,NA,"SCT  ft; BKN  ft; BKN  ft","METAR CYRT 011600Z 17012G18KT 15SM SCT009 BKN022 BKN240 01/M00 A2972 RMK SC3SC3CI1 SH DST SE S AND W SLP071",2025-11-01 16:28:39.401724,2025-11-01 12:28:39.401724
"CYBK",2025-11-01 16:00:00,2025-11-01 12:00:00,"MVFR",-1,-2,93,130,15,24100,29.6,NA,"OVC  ft","METAR CYBK 011600Z 13015KT 15SM -SN DRSN OVC010 M01/M02 A2960 RMK SC8 RAG BASE SLP026",2025-11-01 16:28:39.47676,2025-11-01 12:28:39.47676
"CYRB",2025-11-01 16:00:00,2025-11-01 12:00:00,"VFR",-10,-13,79,50,23,48300,29.83,NA,"FEW  ft","METAR CYRB 011600Z 05023KT 30SM FEW036 M10/M13 A2983 RMK SC2 SLP111",2025-11-01 16:28:39.566194,2025-11-01 12:28:39.566194
"CYCO",2025-11-01 16:00:00,2025-11-01 12:00:00,"LIFR",0,0,100,100,16,1600,28.98,NA,"OVC  ft","METAR CYCO 011600Z 10016KT 1SM -SN DRSN OVC003 00/M00 A2898 RMK SN4ST4 /S01/ SLP818",2025-11-01 16:28:39.649143,2025-11-01 12:28:39.649143
"CYER",2025-11-01 17:08:00,2025-11-01 13:08:00,"MVFR",-1,-1,100,270,8,14500,30,NA,"BKN  ft; BKN  ft","SPECI CYER 011708Z AUTO 27008KT 9SM -SN BKN010 BKN250 M01/M01 A3000 RMK SLP163",2025-11-01 17:19:59.971556,2025-11-01 13:19:59.971556
"CYAT",2025-11-01 17:00:00,2025-11-01 13:00:00,"MVFR",3,1,87,300,11,14500,29.96,NA,"SCT  ft; OVC  ft","METAR CYAT 011700Z AUTO 30011KT 9SM SCT014 OVC019 03/01 A2996 RMK SLP150",2025-11-01 17:20:00.069649,2025-11-01 13:20:00.069649
"CYMO",2025-11-01 17:13:00,2025-11-01 13:13:00,"VFR",4,0,75,290,8,14500,29.95,NA,"SCT  ft; SCT  ft; BKN  ft; OVC  ft","SPECI CYMO 011713Z AUTO 29008G15KT 9SM SCT021 SCT027 BKN033 OVC043 04/00 A2995 RMK SLP145",2025-11-01 17:20:00.198725,2025-11-01 13:20:00.198725
"CYPL",2025-11-01 17:12:00,2025-11-01 13:12:00,"VFR",1,-3,75,280,3,14500,30.09,NA,"SCT  ft; SCT  ft","SPECI CYPL 011712Z AUTO 28003KT 240V300 9SM SCT018 SCT032 01/M03 A3009 RMK SLP211",2025-11-01 17:20:00.289036,2025-11-01 13:20:00.289036
"CYQT",2025-11-01 17:00:00,2025-11-01 13:00:00,"VFR",3,-4,60,240,4,32200,30.13,NA,"BKN  ft","METAR CYQT 011700Z 24004KT 220V310 20SM BKN031 03/M04 A3013 RMK SC7 SLP215",2025-11-01 17:20:00.446232,2025-11-01 13:20:00.446232
"CYAM",2025-11-01 17:00:00,2025-11-01 13:00:00,"VFR",4,-3,61,360,5,32200,30.06,NA,"OVC  ft","METAR CYAM 011700Z 36005KT 320V040 20SM OVC034 04/M03 A3006 RMK CU8 DIST SH SW SLP189",2025-11-01 17:20:00.577729,2025-11-01 13:20:00.577729
"CYTS",2025-11-01 17:00:00,2025-11-01 13:00:00,"MVFR",2,-3,70,300,8,9999,29.99,NA,"BKN  ft","METAR CYTS 011700Z 30008KT 270V340 10SM -SN BKN023 02/M03 A2999 RMK SC7 SLP171",2025-11-01 17:20:00.697891,2025-11-01 13:20:00.697891
"CYSB",2025-11-01 17:00:00,2025-11-01 13:00:00,"MVFR",2,-4,65,350,8,32200,29.98,NA,"OVC  ft","METAR CYSB 011700Z 35008KT 330V030 20SM OVC029 02/M04 A2998 RMK SC8 SLP169",2025-11-01 17:20:00.832455,2025-11-01 13:20:00.832455
"CYYB",2025-11-01 17:00:00,2025-11-01 13:00:00,"VFR",4,-4,56,340,10,48300,29.94,NA,"OVC  ft","METAR CYYB 011700Z 34010G15KT 300V020 30SM OVC032 04/M04 A2994 RMK SC8 SLP155",2025-11-01 17:20:00.966741,2025-11-01 13:20:00.966741
"CYOW",2025-11-01 17:00:00,2025-11-01 13:00:00,"VFR",5,-2,61,300,17,24100,29.86,NA,"OVC  ft","METAR CYOW 011700Z 30017KT 15SM OVC037 05/M02 A2986 RMK SC8 SLP119",2025-11-01 17:20:01.108786,2025-11-01 13:20:01.108786
"CYGK",2025-11-01 17:00:00,2025-11-01 13:00:00,"VFR",6,-1,61,330,13,24100,29.94,NA,"OVC  ft","METAR CYGK 011700Z CCA 33013KT 15SM VCSH OVC032 06/M01 A2994 RMK SC8 SLP145",2025-11-01 17:20:01.206911,2025-11-01 13:20:01.206911
"CYQG",2025-11-01 17:00:00,2025-11-01 13:00:00,"VFR",10,5,71,290,5,14500,30.04,NA,"BKN  ft","METAR CYQG 011700Z AUTO 29005KT 9SM BKN086 10/05 A3004 RMK SLP177",2025-11-01 17:20:01.348784,2025-11-01 13:20:01.348784
"CYVV",2025-11-01 17:00:00,2025-11-01 13:00:00,"VFR",7,-3,49,310,7,24100,30,NA,"BKN  ft","METAR CYVV 011700Z 31007KT 290V350 15SM BKN053 07/M03 A3000 RMK SC6 SLP168",2025-11-01 17:20:01.514501,2025-11-01 13:20:01.514501
"CYYZ",2025-11-01 17:00:00,2025-11-01 13:00:00,"VFR",9,0,54,300,8,24100,29.98,NA,"FEW  ft; BKN  ft","METAR CYYZ 011700Z 30008KT 290V350 15SM FEW030 BKN054 09/00 A2998 RMK CF2SC5 SLP160",2025-11-01 17:20:01.614856,2025-11-01 13:20:01.614856
"CYQA",2025-11-01 17:00:00,2025-11-01 13:00:00,"VFR",5,-2,61,350,14,14500,29.96,NA,"OVC  ft","METAR CYQA 011700Z AUTO 35014G19KT 9SM OVC032 05/M02 A2996 RMK SLP157",2025-11-01 17:20:01.715782,2025-11-01 13:20:01.715782
"CYVR",2025-11-01 17:00:00,2025-11-01 13:00:00,"VFR",9,9,100,320,17,12900,29.64,NA,"OVC  ft","METAR CYVR 011700Z 32017KT 8SM -RA OVC046 09/09 A2964 RMK SC8 PRESRR SLP038",2025-11-01 17:20:01.872003,2025-11-01 13:20:01.872003
"CYYJ",2025-11-01 17:00:00,2025-11-01 13:00:00,"VFR",10,10,100,300,12,24100,29.63,NA,"FEW  ft; FEW  ft; BKN  ft; OVC  ft","METAR CYYJ 011700Z 30012KT 15SM -RA FEW009 FEW018 BKN042 OVC058 10/10 A2963 RMK SF1SC1SC4SC3 SF TR SLP036",2025-11-01 17:20:02.059468,2025-11-01 13:20:02.059468
"CYLW",2025-11-01 17:00:00,2025-11-01 13:00:00,"MVFR",7,5,87,120,5,14500,29.64,NA,"OVC  ft","METAR CYLW 011700Z AUTO 12005KT 100V180 9SM -RA OVC025 07/05 A2964 RMK SLP047",2025-11-01 17:20:02.191687,2025-11-01 13:20:02.191687
"CYXS",2025-11-01 17:16:00,2025-11-01 13:16:00,"VFR",2,2,100,0,2,14500,29.55,NA,"OVC  ft","SPECI CYXS 011716Z AUTO VRB02KT 9SM OVC110 02/02 A2955 RMK SLP029",2025-11-01 17:20:02.293947,2025-11-01 13:20:02.293947
"CYXT",2025-11-01 17:00:00,2025-11-01 13:00:00,"VFR",4,3,93,170,14,24100,29.6,NA,"FEW  ft; FEW  ft; FEW  ft; SCT  ft","METAR CYXT 011700Z 17014KT 15SM FEW002 FEW007 FEW019 SCT045 BKN095 04/03 A2960 RMK SF1SF1SC1SC3AC3 SF TR SF TR SLP031",2025-11-01 17:20:02.479498,2025-11-01 13:20:02.479498
"CYQQ",2025-11-01 17:00:00,2025-11-01 13:00:00,"VFR",9,7,87,320,6,11300,29.7,NA,"FEW  ft; FEW  ft; OVC  ft","METAR CYQQ 011700Z 32006KT 7SM -RA FEW009 FEW015 OVC038 09/07 A2970 RMK SF1SC1SC7 DENSITY ALT -292FT SLP056",2025-11-01 17:20:02.618109,2025-11-01 13:20:02.618109
"CYYC",2025-11-01 17:00:00,2025-11-01 13:00:00,"VFR",11,1,50,190,9,24100,29.62,NA,"SCT  ft; BKN  ft","METAR CYYC 011700Z 19009KT 15SM SCT130 BKN170 11/01 A2962 RMK AC3AC4 VIRGA SW-W SLP047 DENSITY ALT 4400FT",2025-11-01 17:20:02.764622,2025-11-01 13:20:02.764622
"CYEG",2025-11-01 17:00:00,2025-11-01 13:00:00,"VFR",4,-1,70,200,8,32200,29.6,NA,"FEW  ft; BKN  ft","METAR CYEG 011700Z 20008KT 20SM FEW100 BKN220 04/M01 A2960 RMK AC1CI6 AC TR SLP047",2025-11-01 17:20:02.863602,2025-11-01 13:20:02.863602
"CYMM",2025-11-01 17:00:00,2025-11-01 13:00:00,"VFR",7,2,71,230,14,14500,29.42,NA,"CLR  ft","METAR CYMM 011700Z AUTO 23014G20KT 9SM CLR 07/02 A2942 RMK SLP979",2025-11-01 17:20:02.997941,2025-11-01 13:20:02.997941
"CYQF",2025-11-01 17:00:00,2025-11-01 13:00:00,"VFR",9,0,54,80,3,14500,29.61,NA,"FEW  ft; SCT  ft","METAR CYQF 011700Z AUTO 08003KT 360V090 9SM FEW170 SCT190 09/M00 A2961 RMK SLP052 DENSITY ALT 3300FT",2025-11-01 17:20:03.145711,2025-11-01 13:20:03.145711
"CYXE",2025-11-01 17:00:00,2025-11-01 13:00:00,"VFR",8,-1,53,220,9,24100,29.64,NA,"FEW  ft","METAR CYXE 011700Z 22009KT 15SM FEW230 08/M01 A2964 RMK CI2 SLP059",2025-11-01 17:20:03.281491,2025-11-01 13:20:03.281491
"CYQR",2025-11-01 17:00:00,2025-11-01 13:00:00,"VFR",2,-2,75,150,16,24100,29.78,NA,"FEW  ft; FEW  ft; BKN  ft","METAR CYQR 011700Z 15016KT 15SM FEW180 FEW230 BKN270 02/M02 A2978 RMK AC1CI1CI6 AC TR SLP115",2025-11-01 17:20:03.416287,2025-11-01 13:20:03.416287
"CYWG",2025-11-01 17:00:00,2025-11-01 13:00:00,"MVFR",2,-1,81,200,11,24100,30.11,NA,"OVC  ft","METAR CYWG 011700Z 20011KT 15SM OVC018 02/M01 A3011 RMK SC8 SLP212",2025-11-01 17:20:03.512053,2025-11-01 13:20:03.512053
"CYBR",2025-11-01 17:00:00,2025-11-01 13:00:00,"MVFR",1,-2,81,200,9,24100,30.02,NA,"BKN  ft; OVC  ft","METAR CYBR 011700Z 20009G17KT 15SM BKN015 OVC240 01/M02 A3002 RMK SC5CI3 SLP190",2025-11-01 17:20:03.659749,2025-11-01 13:20:03.659749
"CYUL",2025-11-01 17:00:00,2025-11-01 13:00:00,"VFR",7,-1,57,290,12,24100,29.79,NA,"OVC  ft","METAR CYUL 011700Z 29012G19KT 15SM OVC040 07/M01 A2979 RMK SC8 SLP090",2025-11-01 17:20:03.775175,2025-11-01 13:20:03.775175
"CYHU",2025-11-01 17:00:00,2025-11-01 13:00:00,"VFR",7,0,61,270,15,14500,29.77,NA,"FEW  ft; BKN  ft; OVC  ft","METAR CYHU 011700Z AUTO 27015G21KT 9SM FEW030 BKN038 OVC045 07/00 A2977 RMK SLP085",2025-11-01 17:20:03.885714,2025-11-01 13:20:03.885714
"CYQB",2025-11-01 17:00:00,2025-11-01 13:00:00,"VFR",7,0,61,270,14,48300,29.59,NA,"BKN  ft","METAR CYQB 011700Z 27014G22KT 250V320 30SM BKN035 07/00 A2959 RMK SC7 SLP025",2025-11-01 17:20:04.007988,2025-11-01 13:20:04.007988
"CYVO",2025-11-01 17:00:00,2025-11-01 13:00:00,"MVFR",2,0,87,310,13,12900,29.86,NA,"BKN  ft","METAR CYVO 011700Z 31013G20KT 8SM -SHSN BKN023 02/M00 A2986 RMK SC5 CVCTV CLD EMBD SLP130",2025-11-01 17:20:04.122103,2025-11-01 13:20:04.122103
"CYUY",2025-11-01 17:10:00,2025-11-01 13:10:00,"MVFR",3,-3,65,330,11,19300,29.92,NA,"BKN  ft","SPECI CYUY 011710Z 33011G21KT 12SM -SHSN BKN024 03/M03 A2992 RMK CU7 SLP146",2025-11-01 17:20:04.30108,2025-11-01 13:20:04.30108
"CYZV",2025-11-01 17:00:00,2025-11-01 13:00:00,"VFR",8,2,66,10,14,48300,29.08,NA,"FEW  ft; OVC  ft","METAR CYZV 011700Z 01014G23KT 30SM -SHRA FEW052 OVC067 08/02 A2908 RMK SC1AC8 SC TR CVCTV CLD EMBD SLP853 DENSITY ALT 400FT",2025-11-01 17:20:04.406816,2025-11-01 13:20:04.406816
"CYBC",2025-11-01 17:00:00,2025-11-01 13:00:00,"MVFR",7,3,76,310,7,14500,29.23,NA,"BKN  ft; OVC  ft","METAR CYBC 011700Z AUTO 31007G18KT 290V360 9SM -RA BKN030 OVC060 07/03 A2923 RMK SLP901",2025-11-01 17:20:04.552737,2025-11-01 13:20:04.552737
"CYRJ",2025-11-01 17:00:00,2025-11-01 13:00:00,"VFR",4,1,81,310,21,32200,29.58,NA,"FEW  ft; SCT  ft; OVC  ft","METAR CYRJ 011700Z 31021G27KT 20SM -RA FEW018 SCT027 OVC033 04/01 A2958 RMK SC2SC2SC4 SLP026",2025-11-01 17:20:04.670667,2025-11-01 13:20:04.670667
"CYHZ",2025-11-01 17:00:00,2025-11-01 13:00:00,"MVFR",10,4,67,260,19,24100,29.28,NA,"OVC  ft","METAR CYHZ 011700Z 26019G26KT 15SM OVC029 10/04 A2928 RMK SC8 SLP918 DENSITY ALT 700FT",2025-11-01 17:20:04.782327,2025-11-01 13:20:04.782327
"CYYG",2025-11-01 17:00:00,2025-11-01 13:00:00,"MVFR",10,4,67,260,17,24100,29.14,NA,"BKN  ft","METAR CYYG 011700Z 26017G31KT 15SM BKN028 10/04 A2914 RMK SC7 SLP872 DENSITY ALT 500FT",2025-11-01 17:20:04.895252,2025-11-01 13:20:04.895252
"CYQM",2025-11-01 17:00:00,2025-11-01 13:00:00,"MVFR",10,4,67,260,27,24100,29.2,NA,"BKN  ft; BKN  ft","METAR CYQM 011700Z 26027G37KT 15SM BKN025 BKN220 10/04 A2920 RMK SC7CI1 CI TR CU ASOCTD PRESRR SLP891 DENSITY ALT 500FT",2025-11-01 17:20:05.06622,2025-11-01 13:20:05.06622
"CYFC",2025-11-01 17:00:00,2025-11-01 13:00:00,"VFR",11,3,58,280,16,14500,29.32,NA,"BKN  ft; OVC  ft","METAR CYFC 011700Z AUTO 28016G31KT 9SM BKN040 OVC050 11/03 A2932 RMK SLP930 DENSITY ALT 300FT",2025-11-01 17:20:05.191472,2025-11-01 13:20:05.191472
"CYYT",2025-11-01 17:00:00,2025-11-01 13:00:00,"MVFR",12,8,77,260,23,24100,29.02,NA,"BKN  ft; BKN  ft","METAR CYYT 011700Z 26023G37KT 15SM BKN027 BKN043 12/08 A2902 RMK SC5SC2 SLP830 DENSITY ALT 1300FT",2025-11-01 17:20:05.3125,2025-11-01 13:20:05.3125
"CYQY",2025-11-01 17:13:00,2025-11-01 13:13:00,"MVFR",10,9,94,260,24,24100,29.06,NA,"BKN  ft","SPECI CYQY 011713Z 26024G34KT 15SM BKN019 10/09 A2906 RMK SC7 SLP844 DENSITY ALT 600FT",2025-11-01 17:20:05.480376,2025-11-01 13:20:05.480376
"CYXY",2025-11-01 17:00:00,2025-11-01 13:00:00,"VFR",0,-4,75,170,10,64400,29.09,NA,"FEW  ft; FEW  ft; BKN  ft","METAR CYXY 011700Z 17010KT 40SM FEW035 FEW190 BKN240 00/M04 A2909 RMK SC1AS2CI4 SC TR SLP882",2025-11-01 17:20:05.576932,2025-11-01 13:20:05.576932
"CYZF",2025-11-01 17:00:00,2025-11-01 13:00:00,"VFR",5,4,93,190,7,24100,28.99,NA,"FEW  ft; FEW  ft; SCT  ft","METAR CYZF 011700Z 19007KT 15SM FEW044 FEW140 SCT210 05/04 A2899 RMK SC1AC1CI1 SLP830",2025-11-01 17:20:05.68738,2025-11-01 13:20:05.68738
"CYFB",2025-11-01 17:00:00,2025-11-01 13:00:00,"VFR",-10,-13,79,320,10,48300,29.88,NA,"FEW  ft; FEW  ft","METAR CYFB 011700Z 32010KT 30SM FEW015 FEW250 M10/M13 A2988 RMK SC1CI1 SC TR CI TR SLP124",2025-11-01 17:20:05.794617,2025-11-01 13:20:05.794617
"CYRT",2025-11-01 17:00:00,2025-11-01 13:00:00,"MVFR",1,0,93,170,15,24100,29.7,NA,"SCT  ft; BKN  ft","METAR CYRT 011700Z 17015G21KT 15SM SCT010 BKN017 01/M00 A2970 RMK SC3SC4 SH DST SE-S SLP063",2025-11-01 17:20:05.894488,2025-11-01 13:20:05.894488
"CYBK",2025-11-01 17:00:00,2025-11-01 13:00:00,"IFR",-1,-2,93,130,17,9999,29.56,NA,"OVC  ft","METAR CYBK 011700Z 13017KT 10SM -SN DRSN OVC006 M01/M02 A2956 RMK SC8 RAG BASE SLP015",2025-11-01 17:20:05.991242,2025-11-01 13:20:05.991242
"CYRB",2025-11-01 17:00:00,2025-11-01 13:00:00,"VFR",-11,-13,85,40,21,48300,29.81,NA,"FEW  ft","METAR CYRB 011700Z 04021KT 30SM FEW036 M11/M13 A2981 RMK SC1 SLP107",2025-11-01 17:20:06.13758,2025-11-01 13:20:06.13758
"CYCO",2025-11-01 17:00:00,2025-11-01 13:00:00,"LIFR",0,0,100,100,16,3200,28.96,NA,"OVC  ft","METAR CYCO 011700Z 10016G24KT 2SM -SN DRSN OVC003 00/M00 A2896 RMK SN2ST6 SLP812",2025-11-01 17:20:06.2346,2025-11-01 13:20:06.2346
"CYER",2025-11-01 18:00:00,2025-11-01 14:00:00,"MVFR",0,-1,93,260,7,14500,29.99,NA,"OVC  ft","METAR CYER 011800Z AUTO 26007KT 9SM OVC010 M00/M01 A2999 RMK SLP158",2025-11-01 18:32:52.981465,2025-11-01 14:32:52.981465
"CYAT",2025-11-01 18:13:00,2025-11-01 14:13:00,"VFR",4,0,75,290,10,14500,29.96,NA,"FEW  ft; SCT  ft; OVC  ft","SPECI CYAT 011813Z AUTO 29010KT 9SM FEW023 SCT028 OVC049 04/M00 A2996 RMK SLP148",2025-11-01 18:32:53.063491,2025-11-01 14:32:53.063491
"CYMO",2025-11-01 18:00:00,2025-11-01 14:00:00,"MVFR",4,-2,65,300,10,14500,29.96,NA,"BKN  ft; OVC  ft","METAR CYMO 011800Z AUTO 30010G15KT 9SM BKN030 OVC041 04/M02 A2996 RMK SLP146",2025-11-01 18:32:53.13723,2025-11-01 14:32:53.13723
"CYPL",2025-11-01 18:08:00,2025-11-01 14:08:00,"MVFR",1,-3,75,290,4,14500,30.05,NA,"BKN  ft","SPECI CYPL 011808Z AUTO 29004KT 260V320 9SM BKN024 01/M03 A3005 RMK SLP199",2025-11-01 18:32:53.211263,2025-11-01 14:32:53.211263
"CYQT",2025-11-01 18:00:00,2025-11-01 14:00:00,"VFR",4,-4,56,300,5,32200,30.15,NA,"BKN  ft","METAR CYQT 011800Z 30005KT 250V320 20SM BKN031 04/M04 A3015 RMK SC7 SLP220",2025-11-01 18:32:53.287076,2025-11-01 14:32:53.287076
"CYAM",2025-11-01 18:00:00,2025-11-01 14:00:00,"VFR",4,-3,61,340,4,32200,30.06,NA,"OVC  ft","METAR CYAM 011800Z 34004KT 300V040 20SM OVC033 04/M03 A3006 RMK CU8 SLP188",2025-11-01 18:32:53.365455,2025-11-01 14:32:53.365455
"CYTS",2025-11-01 18:00:00,2025-11-01 14:00:00,"MVFR",3,-3,65,320,9,24100,29.99,NA,"BKN  ft","METAR CYTS 011800Z 32009KT 15SM -SN BKN026 03/M03 A2999 RMK SC7 SLP172",2025-11-01 18:32:53.440186,2025-11-01 14:32:53.440186
"CYSB",2025-11-01 18:00:00,2025-11-01 14:00:00,"VFR",3,-5,56,350,8,32200,29.98,NA,"OVC  ft","METAR CYSB 011800Z 35008KT 300V020 20SM OVC032 03/M05 A2998 RMK SC8 SLP170",2025-11-01 18:32:53.512296,2025-11-01 14:32:53.512296
"CYYB",2025-11-01 18:00:00,2025-11-01 14:00:00,"VFR",4,-4,56,340,9,48300,29.94,NA,"OVC  ft","METAR CYYB 011800Z 34009G16KT 320V020 30SM OVC032 04/M04 A2994 RMK SC8 SLP157",2025-11-01 18:32:53.588303,2025-11-01 14:32:53.588303
"CYOW",2025-11-01 18:00:00,2025-11-01 14:00:00,"VFR",5,-1,66,300,11,24100,29.89,NA,"BKN  ft","METAR CYOW 011800Z 30011G16KT 15SM BKN044 05/M01 A2989 RMK SC7 SLP126",2025-11-01 18:32:53.659813,2025-11-01 14:32:53.659813
"CYGK",2025-11-01 18:00:00,2025-11-01 14:00:00,"VFR",6,0,66,310,9,24100,29.97,NA,"FEW  ft; OVC  ft","METAR CYGK 011800Z 31009G16KT 15SM VCSH FEW020 OVC040 06/M00 A2997 RMK CU2SC6 SLP152",2025-11-01 18:32:53.735172,2025-11-01 14:32:53.735172
"CYQG",2025-11-01 18:00:00,2025-11-01 14:00:00,"VFR",12,4,58,300,9,14500,30.03,NA,"CLR  ft","METAR CYQG 011800Z AUTO 30009KT 260V330 9SM CLR 12/04 A3003 RMK SLP174",2025-11-01 18:32:53.811762,2025-11-01 14:32:53.811762
"CYVV",2025-11-01 18:00:00,2025-11-01 14:00:00,"VFR",7,-3,49,330,8,24100,30.01,NA,"FEW  ft; BKN  ft; BKN  ft","METAR CYVV 011800Z 33008KT 270V360 15SM FEW015 BKN045 BKN250 07/M03 A3001 RMK CU1SC4CI1 CI TR SLP169",2025-11-01 18:32:53.886244,2025-11-01 14:32:53.886244
"CYYZ",2025-11-01 18:00:00,2025-11-01 14:00:00,"VFR",9,1,58,300,7,24100,29.99,NA,"BKN  ft","METAR CYYZ 011800Z 30007KT 270V350 15SM BKN054 09/01 A2999 RMK SC7 SLP161",2025-11-01 18:32:53.959835,2025-11-01 14:32:53.959835
"CYQA",2025-11-01 18:00:00,2025-11-01 14:00:00,"VFR",4,-3,61,320,8,14500,29.97,NA,"OVC  ft","METAR CYQA 011800Z AUTO 32008G15KT 290V350 9SM OVC038 04/M03 A2997 RMK SLP161",2025-11-01 18:32:54.046946,2025-11-01 14:32:54.046946
"CYVR",2025-11-01 18:00:00,2025-11-01 14:00:00,"VFR",9,9,100,310,11,9700,29.67,NA,"FEW  ft; BKN  ft; OVC  ft","METAR CYVR 011800Z 31011KT 6SM -RA FEW008 BKN044 OVC064 09/09 A2967 RMK SF1SC5SC3 PRESRR SLP050",2025-11-01 18:32:54.127107,2025-11-01 14:32:54.127107
"CYYJ",2025-11-01 18:00:00,2025-11-01 14:00:00,"VFR",10,10,100,250,8,32200,29.69,NA,"FEW  ft; SCT  ft; OVC  ft","METAR CYYJ 011800Z 25008KT 20SM -RA FEW026 SCT044 OVC060 10/10 A2969 RMK SC1SC3SC4 SLP056",2025-11-01 18:32:54.204468,2025-11-01 14:32:54.204468
"CYLW",2025-11-01 18:12:00,2025-11-01 14:12:00,"MVFR",8,6,87,0,2,14500,29.59,NA,"BKN  ft; OVC  ft","SPECI CYLW 011812Z AUTO VRB02KT 9SM BKN027 OVC034 08/06 A2959 RMK PRESFR SLP028",2025-11-01 18:32:54.28087,2025-11-01 14:32:54.28087
"CYXS",2025-11-01 18:00:00,2025-11-01 14:00:00,"VFR",4,2,87,0,0,14500,29.54,NA,"OVC  ft","METAR CYXS 011800Z AUTO 00000KT 9SM OVC120 04/02 A2954 RMK SLP027",2025-11-01 18:32:54.31635,2025-11-01 14:32:54.31635
"CYXT",2025-11-01 18:18:00,2025-11-01 14:18:00,"VFR",5,4,93,170,15,9999,29.61,NA,"FEW  ft; FEW  ft; OVC  ft","SPECI CYXT 011818Z 17015KT 10SM -RA FEW002 FEW015 OVC050 05/04 A2961 RMK SF1SC2SC6 SF TR SLP034",2025-11-01 18:32:54.390856,2025-11-01 14:32:54.390856
"CYQQ",2025-11-01 18:19:00,2025-11-01 14:19:00,"VFR",9,8,94,340,5,24100,29.72,NA,"FEW  ft; SCT  ft; BKN  ft","SPECI CYQQ 011819Z 34005KT 15SM FEW015 SCT060 BKN110 09/08 A2972 RMK SC1SC3AC4 DENSITY ALT -215FT SLP066",2025-11-01 18:32:54.466357,2025-11-01 14:32:54.466357
"CYYC",2025-11-01 18:00:00,2025-11-01 14:00:00,"VFR",12,1,47,190,7,32200,29.57,NA,"FEW  ft; SCT  ft; BKN  ft","METAR CYYC 011800Z 19007KT 20SM FEW130 SCT170 BKN210 12/01 A2957 RMK AC1AC3CC2 PRESFR SLP027 DENSITY ALT 4600FT",2025-11-01 18:32:54.544088,2025-11-01 14:32:54.544088
"CYEG",2025-11-01 18:00:00,2025-11-01 14:00:00,"VFR",8,1,62,180,5,32200,29.57,NA,"BKN  ft; BKN  ft","METAR CYEG 011800Z 18005KT 20SM BKN130 BKN250 08/01 A2957 RMK AC5CI2 SLP035",2025-11-01 18:32:54.625101,2025-11-01 14:32:54.625101
"CYMM",2025-11-01 18:00:00,2025-11-01 14:00:00,"VFR",9,2,62,240,17,14500,29.39,NA,"CLR  ft","METAR CYMM 011800Z AUTO 24017G24KT 9SM CLR 09/02 A2939 RMK SLP970",2025-11-01 18:32:54.702509,2025-11-01 14:32:54.702509
"CYQF",2025-11-01 18:00:00,2025-11-01 14:00:00,"VFR",9,0,54,80,7,14500,29.57,NA,"SCT  ft; BKN  ft","METAR CYQF 011800Z AUTO 08007KT 9SM SCT096 BKN120 09/00 A2957 RMK SLP038 DENSITY ALT 3400FT",2025-11-01 18:32:54.775758,2025-11-01 14:32:54.775758
"CYXE",2025-11-01 18:00:00,2025-11-01 14:00:00,"VFR",11,-1,44,260,6,24100,29.63,NA,"SCT  ft","METAR CYXE 011800Z 26006KT 15SM SCT250 11/M01 A2963 RMK CI4 SLP055 DENSITY ALT 2000FT",2025-11-01 18:32:54.848136,2025-11-01 14:32:54.848136
"CYQR",2025-11-01 18:00:00,2025-11-01 14:00:00,"VFR",4,-1,70,150,12,24100,29.76,NA,"FEW  ft; FEW  ft; BKN  ft","METAR CYQR 011800Z 15012KT 15SM FEW120 FEW230 BKN270 04/M01 A2976 RMK AC1CI2CI5 AC TR SLP105",2025-11-01 18:32:54.921139,2025-11-01 14:32:54.921139
"CYWG",2025-11-01 18:00:00,2025-11-01 14:00:00,"MVFR",2,-1,81,210,11,24100,30.1,NA,"OVC  ft","METAR CYWG 011800Z 21011G17KT 15SM OVC022 02/M01 A3010 RMK SC8 SLP208",2025-11-01 18:32:54.993033,2025-11-01 14:32:54.993033
"CYBR",2025-11-01 18:00:00,2025-11-01 14:00:00,"MVFR",3,-1,75,180,14,24100,29.98,NA,"BKN  ft; OVC  ft","METAR CYBR 011800Z 18014G20KT 15SM BKN019 OVC220 03/M01 A2998 RMK SC5CI3 PRESFR SLP176",2025-11-01 18:32:55.065281,2025-11-01 14:32:55.065281
"CYUL",2025-11-01 18:00:00,2025-11-01 14:00:00,"VFR",6,-1,61,290,12,24100,29.82,NA,"OVC  ft","METAR CYUL 011800Z 29012G20KT 15SM OVC040 06/M01 A2982 RMK SC8 SLP100",2025-11-01 18:32:55.142672,2025-11-01 14:32:55.142672
"CYHU",2025-11-01 18:00:00,2025-11-01 14:00:00,"VFR",6,0,66,270,13,14500,29.8,NA,"OVC  ft","METAR CYHU 011800Z AUTO 27013G24KT 9SM OVC038 06/M00 A2980 RMK SLP093",2025-11-01 18:32:55.216266,2025-11-01 14:32:55.216266
"CYQB",2025-11-01 18:00:00,2025-11-01 14:00:00,"VFR",7,1,66,280,13,48300,29.62,NA,"BKN  ft; BKN  ft","METAR CYQB 011800Z 28013G28KT 30SM BKN035 BKN110 07/01 A2962 RMK SC6AC1 AC TR DIST SH SE SLP034",2025-11-01 18:32:55.290941,2025-11-01 14:32:55.290941
"CYVO",2025-11-01 18:00:00,2025-11-01 14:00:00,"MVFR",3,-1,75,320,7,19300,29.88,NA,"SCT  ft; BKN  ft","METAR CYVO 011800Z 32007G22KT 12SM -SHSN SCT015 BKN021 03/M01 A2988 RMK CF3CU4 SLP136",2025-11-01 18:32:55.367705,2025-11-01 14:32:55.367705
"CYUY",2025-11-01 18:00:00,2025-11-01 14:00:00,"MVFR",3,-1,75,330,11,12900,29.93,NA,"BKN  ft","METAR CYUY 011800Z 33011KT 280V360 8SM -SHSN BKN027 03/M01 A2993 RMK CU6 VIS HYR SW SLP151",2025-11-01 18:32:55.439162,2025-11-01 14:32:55.439162
"CYZV",2025-11-01 18:00:00,2025-11-01 14:00:00,"VFR",8,2,66,350,10,48300,29.14,NA,"BKN  ft; OVC  ft","METAR CYZV 011800Z 35010KT 30SM -SHRA BKN035 OVC066 08/02 A2914 RMK SC5AC3 CVCTV CLD EMBD SLP873",2025-11-01 18:32:55.51252,2025-11-01 14:32:55.51252
"CYBC",2025-11-01 18:10:00,2025-11-01 14:10:00,"VFR",7,3,76,320,10,14500,29.28,NA,"OVC  ft","SPECI CYBC 011810Z AUTO 32010G23KT 9SM OVC046 07/03 A2928 RMK SLP919",2025-11-01 18:32:55.58478,2025-11-01 14:32:55.58478
"CYRJ",2025-11-01 18:29:00,2025-11-01 14:29:00,"MVFR",4,0,75,310,19,40200,29.63,NA,"BKN  ft; OVC  ft","SPECI CYRJ 011829Z 31019G29KT 25SM BKN024 OVC036 04/00 A2963 RMK SC6SC2 SLP044",2025-11-01 18:32:55.662841,2025-11-01 14:32:55.662841
"CYHZ",2025-11-01 18:00:00,2025-11-01 14:00:00,"VFR",10,4,67,280,17,24100,29.3,NA,"BKN  ft","METAR CYHZ 011800Z 28017G31KT 15SM BKN032 10/04 A2930 RMK SC8 SLP927 DENSITY ALT 800FT",2025-11-01 18:32:55.734911,2025-11-01 14:32:55.734911
"CYYG",2025-11-01 18:00:00,2025-11-01 14:00:00,"MVFR",10,4,67,260,15,24100,29.17,NA,"OVC  ft","METAR CYYG 011800Z 26015G31KT 15SM OVC030 10/04 A2917 RMK SC8 PRESRR SLP881 DENSITY ALT 500FT",2025-11-01 18:32:55.815343,2025-11-01 14:32:55.815343
"CYQM",2025-11-01 18:00:00,2025-11-01 14:00:00,"MVFR",10,3,62,260,28,24100,29.24,NA,"BKN  ft","METAR CYQM 011800Z 26028G39KT 15SM BKN025 10/03 A2924 RMK SC7 CU ASOCTD SLP906 DENSITY ALT 600FT",2025-11-01 18:32:55.88883,2025-11-01 14:32:55.88883
"CYFC",2025-11-01 18:00:00,2025-11-01 14:00:00,"VFR",11,3,58,250,13,14500,29.35,NA,"OVC  ft","METAR CYFC 011800Z AUTO 25013G26KT 230V310 9SM OVC042 11/03 A2935 RMK SLP941 DENSITY ALT 300FT",2025-11-01 18:32:55.963553,2025-11-01 14:32:55.963553
"CYYT",2025-11-01 18:00:00,2025-11-01 14:00:00,"VFR",12,7,72,260,22,24100,29.01,NA,"SCT  ft; BKN  ft","METAR CYYT 011800Z 26022G37KT 15SM SCT028 BKN042 12/07 A2901 RMK SC4SC3 SLP829 DENSITY ALT 1300FT",2025-11-01 18:32:56.003241,2025-11-01 14:32:56.003241
"CYQY",2025-11-01 18:00:00,2025-11-01 14:00:00,"MVFR",10,7,82,270,19,24100,29.09,NA,"BKN  ft","METAR CYQY 011800Z 27019G33KT 15SM BKN027 10/07 A2909 RMK SC7 SLP854 DENSITY ALT 700FT",2025-11-01 18:32:56.082011,2025-11-01 14:32:56.082011
"CYXY",2025-11-01 18:00:00,2025-11-01 14:00:00,"VFR",1,-3,75,160,12,64400,29.1,NA,"FEW  ft; FEW  ft; SCT  ft","METAR CYXY 011800Z 16012KT 40SM FEW035 FEW190 SCT230 01/M03 A2910 RMK SC1AS1CI1 SLP885",2025-11-01 18:32:56.157644,2025-11-01 14:32:56.157644
"CYZF",2025-11-01 18:00:00,2025-11-01 14:00:00,"VFR",5,3,87,180,8,24100,28.99,NA,"FEW  ft; FEW  ft; FEW  ft","METAR CYZF 011800Z 18008KT 15SM FEW044 FEW160 FEW210 05/03 A2899 RMK SC1AC1CI1 SC TR SLP829",2025-11-01 18:32:56.231786,2025-11-01 14:32:56.231786
"CYFB",2025-11-01 18:00:00,2025-11-01 14:00:00,"VFR",-10,-13,79,320,7,48300,29.87,NA,"FEW  ft; FEW  ft","METAR CYFB 011800Z 32007KT 30SM FEW015 FEW250 M10/M13 A2987 RMK SC1CI1 SC TR CI TR SLP122",2025-11-01 18:32:56.304571,2025-11-01 14:32:56.304571
"CYRT",2025-11-01 18:00:00,2025-11-01 14:00:00,"MVFR",1,0,93,170,16,9999,29.67,NA,"SCT  ft; OVC  ft","METAR CYRT 011800Z 17016KT 10SM -SHSN SCT008 OVC020 01/00 A2967 RMK SC4SC4 CVCTV CLD EMBD SLP052",2025-11-01 18:32:56.377836,2025-11-01 14:32:56.377836
"CYBK",2025-11-01 18:09:00,2025-11-01 14:09:00,"IFR",-1,-2,93,150,18,9700,29.54,NA,"OVC  ft","SPECI CYBK 011809Z 15018KT 6SM -SN DRSN OVC008 M01/M02 A2954 RMK SC8 RAG BASE SLP007",2025-11-01 18:32:56.451663,2025-11-01 14:32:56.451663
"CYRB",2025-11-01 18:00:00,2025-11-01 14:00:00,"VFR",-11,-13,85,50,22,48300,29.82,NA,"FEW  ft","METAR CYRB 011800Z 05022KT 30SM FEW030 M11/M13 A2982 RMK SC1 SC TR SLP108",2025-11-01 18:32:56.535738,2025-11-01 14:32:56.535738
"CYCO",2025-11-01 18:00:00,2025-11-01 14:00:00,"MVFR",0,0,100,90,14,9700,28.95,NA,"SCT  ft; BKN  ft; OVC  ft","METAR CYCO 011800Z 09014G20KT 6SM -SN SCT004 BKN011 OVC047 00/M00 A2895 RMK ST3ST4SC1 /S02/ SLP808",2025-11-01 18:32:56.6123,2025-11-01 14:32:56.6123
"CYER",2025-11-01 19:00:00,2025-11-01 15:00:00,"MVFR",0,-1,93,250,11,14500,29.97,NA,"BKN  ft; OVC  ft","METAR CYER 011900Z AUTO 25011G16KT 9SM BKN012 OVC240 00/M01 A2997 RMK SLP153",2025-11-01 19:18:49.060317,2025-11-01 15:18:49.060317
"CYAT",2025-11-01 19:03:00,2025-11-01 15:03:00,"VFR",3,1,87,320,7,14500,29.96,NA,"FEW  ft; BKN  ft; BKN  ft; OVC  ft","SPECI CYAT 011903Z AUTO 32007KT 280V350 9SM FEW024 BKN033 BKN043 OVC049 03/01 A2996 RMK SLP150",2025-11-01 19:18:49.1617,2025-11-01 15:18:49.1617
"CYMO",2025-11-01 19:00:00,2025-11-01 15:00:00,"VFR",3,-1,75,320,10,14500,29.96,NA,"OVC  ft","METAR CYMO 011900Z AUTO 32010G16KT 9SM OVC034 03/M01 A2996 RMK SLP149",2025-11-01 19:18:49.2559,2025-11-01 15:18:49.2559
"CYPL",2025-11-01 19:00:00,2025-11-01 15:00:00,"MVFR",2,-4,65,220,7,14500,30.06,NA,"BKN  ft; BKN  ft","METAR CYPL 011900Z AUTO 22007KT 9SM BKN024 BKN029 02/M04 A3006 RMK SLP201",2025-11-01 19:18:49.357702,2025-11-01 15:18:49.357702
"CYQT",2025-11-01 19:00:00,2025-11-01 15:00:00,"VFR",4,-4,56,270,7,32200,30.13,NA,"BKN  ft","METAR CYQT 011900Z 27007KT 250V310 20SM BKN033 04/M04 A3013 RMK SC7 SLP214",2025-11-01 19:18:49.499463,2025-11-01 15:18:49.499463
"CYAM",2025-11-01 19:00:00,2025-11-01 15:00:00,"VFR",5,-3,57,340,6,32200,30.05,NA,"BKN  ft","METAR CYAM 011900Z 34006KT 20SM BKN034 05/M03 A3005 RMK CU7 SLP187",2025-11-01 19:18:49.597455,2025-11-01 15:18:49.597455
"CYTS",2025-11-01 19:00:00,2025-11-01 15:00:00,"VFR",1,-1,87,340,8,24100,30,NA,"SCT  ft; BKN  ft","METAR CYTS 011900Z 34008KT 15SM -SN SCT013 BKN033 01/M01 A3000 RMK SC4SC3 SLP175",2025-11-01 19:18:49.702838,2025-11-01 15:18:49.702838
"CYSB",2025-11-01 19:00:00,2025-11-01 15:00:00,"VFR",3,-5,56,300,6,32200,29.98,NA,"OVC  ft","METAR CYSB 011900Z 30006KT 280V360 20SM OVC035 03/M05 A2998 RMK SC8 SLP171",2025-11-01 19:18:49.804201,2025-11-01 15:18:49.804201
"CYYB",2025-11-01 19:00:00,2025-11-01 15:00:00,"VFR",4,-4,56,340,8,48300,29.95,NA,"OVC  ft","METAR CYYB 011900Z 34008KT 290V350 30SM OVC034 04/M04 A2995 RMK SC8 SLP160",2025-11-01 19:18:49.902527,2025-11-01 15:18:49.902527
"CYOW",2025-11-01 19:00:00,2025-11-01 15:00:00,"VFR",6,-2,57,300,10,24100,29.91,NA,"OVC  ft","METAR CYOW 011900Z 30010G17KT 15SM OVC037 06/M02 A2991 RMK SC8 SLP133",2025-11-01 19:18:50.002911,2025-11-01 15:18:50.002911
"CYGK",2025-11-01 19:00:00,2025-11-01 15:00:00,"VFR",6,0,66,270,8,24100,29.97,NA,"FEW  ft; OVC  ft","METAR CYGK 011900Z 27008KT 250V320 15SM VCSH FEW019 OVC042 06/M00 A2997 RMK CU2SC6 SLP155",2025-11-01 19:18:50.100153,2025-11-01 15:18:50.100153
"CYQG",2025-11-01 19:00:00,2025-11-01 15:00:00,"VFR",10,4,67,290,5,14500,30.03,NA,"OVC  ft","METAR CYQG 011900Z AUTO 29005KT 9SM OVC076 10/04 A3003 RMK SLP173",2025-11-01 19:18:50.234065,2025-11-01 15:18:50.234065
"CYVV",2025-11-01 19:00:00,2025-11-01 15:00:00,"VFR",7,-2,53,300,8,24100,30.01,NA,"BKN  ft","METAR CYVV 011900Z 30008KT 260V340 15SM BKN052 07/M02 A3001 RMK SC6 SLP171",2025-11-01 19:18:50.331734,2025-11-01 15:18:50.331734
"CYYZ",2025-11-01 19:00:00,2025-11-01 15:00:00,"VFR",9,1,58,280,7,24100,29.99,NA,"SCT  ft; BKN  ft","METAR CYYZ 011900Z 28007KT 260V330 15SM SCT032 BKN058 09/01 A2999 RMK CU3SC4 SLP162",2025-11-01 19:18:50.425832,2025-11-01 15:18:50.425832
"CYQA",2025-11-01 19:00:00,2025-11-01 15:00:00,"VFR",5,-3,57,320,9,14500,29.98,NA,"OVC  ft","METAR CYQA 011900Z AUTO 32009G15KT 9SM OVC040 05/M03 A2998 RMK SLP165",2025-11-01 19:18:50.521354,2025-11-01 15:18:50.521354
"CYVR",2025-11-01 19:00:00,2025-11-01 15:00:00,"MVFR",10,10,100,280,12,32200,29.71,NA,"BKN  ft; OVC  ft","METAR CYVR 011900Z 28012G18KT 20SM -RA BKN025 OVC068 10/10 A2971 RMK SC6AC2 SLP063",2025-11-01 19:18:50.614684,2025-11-01 15:18:50.614684
"CYYJ",2025-11-01 19:00:00,2025-11-01 15:00:00,"VFR",12,12,100,220,3,48300,29.73,NA,"FEW  ft; SCT  ft; BKN  ft","METAR CYYJ 011900Z 22003KT 180V280 30SM FEW014 SCT055 BKN088 12/12 A2973 RMK SC1SC3AC3 SC TR SLP069",2025-11-01 19:18:50.707833,2025-11-01 15:18:50.707833
"CYLW",2025-11-01 19:02:00,2025-11-01 15:02:00,"VFR",10,6,76,80,4,14500,29.58,NA,"FEW  ft; BKN  ft; BKN  ft; OVC  ft","SPECI CYLW 011902Z AUTO 08004KT 010V160 9SM -RA FEW029 BKN035 BKN042 OVC049 10/06 A2958 RMK SLP025",2025-11-01 19:18:50.803941,2025-11-01 15:18:50.803941
"CYXS",2025-11-01 19:00:00,2025-11-01 15:00:00,"VFR",5,2,81,190,5,14500,29.54,NA,"SCT  ft","METAR CYXS 011900Z AUTO 19005KT 9SM SCT120 05/02 A2954 RMK SLP026",2025-11-01 19:18:50.898496,2025-11-01 15:18:50.898496
"CYXT",2025-11-01 19:00:00,2025-11-01 15:00:00,"VFR",5,4,93,160,9,24100,29.61,NA,"FEW  ft; FEW  ft; OVC  ft","METAR CYXT 011900Z 16009KT 15SM -RA FEW002 FEW015 OVC065 05/04 A2961 RMK SF1SC1SC7 SF TR SLP036",2025-11-01 19:18:50.99194,2025-11-01 15:18:50.99194
"CYQQ",2025-11-01 19:00:00,2025-11-01 15:00:00,"VFR",10,7,82,320,5,32200,29.76,NA,"FEW  ft; FEW  ft; BKN  ft","METAR CYQQ 011900Z 32005KT 280V010 20SM FEW012 FEW060 BKN120 10/07 A2976 RMK SC1SC1AC6 DENSITY ALT -216FT SLP077",2025-11-01 19:18:51.089511,2025-11-01 15:18:51.089511
"CYYC",2025-11-01 19:00:00,2025-11-01 15:00:00,"VFR",13,1,44,190,9,32200,29.54,NA,"SCT  ft; BKN  ft; OVC  ft","METAR CYYC 011900Z 19009KT 20SM SCT150 BKN210 OVC250 13/01 A2954 RMK AC4CC3CI1 VIRGA S-SW SLP020 DENSITY ALT 4700FT",2025-11-01 19:18:51.183402,2025-11-01 15:18:51.183402
"CYEG",2025-11-01 19:00:00,2025-11-01 15:00:00,"VFR",9,1,58,0,0,32200,29.52,NA,"BKN  ft; BKN  ft; BKN  ft","METAR CYEG 011900Z 00000KT 20SM BKN110 BKN140 BKN250 09/01 A2952 RMK AC6AC1CI1 CI TR PRESFR SLP018 DENSITY ALT 2700FT",2025-11-01 19:18:51.275353,2025-11-01 15:18:51.275353
"CYMM",2025-11-01 19:00:00,2025-11-01 15:00:00,"VFR",9,2,62,250,14,14500,29.39,NA,"CLR  ft","METAR CYMM 011900Z AUTO 25014G21KT 9SM CLR 09/02 A2939 RMK SLP969 DENSITY ALT 1500FT",2025-11-01 19:18:51.369874,2025-11-01 15:18:51.369874
"CYQF",2025-11-01 19:00:00,2025-11-01 15:00:00,"VFR",10,0,50,90,3,14500,29.5,NA,"FEW  ft; BKN  ft; OVC  ft","METAR CYQF 011900Z AUTO 09003KT 9SM FEW060 BKN088 OVC110 10/00 A2950 RMK PRESFR SLP006 DENSITY ALT 3600FT",2025-11-01 19:18:51.463526,2025-11-01 15:18:51.463526
"CYXE",2025-11-01 19:00:00,2025-11-01 15:00:00,"VFR",13,-1,38,0,0,24100,29.6,NA,"SCT  ft","METAR CYXE 011900Z 00000KT 15SM SCT170 13/M01 A2960 RMK AC4 SLP042 DENSITY ALT 2200FT",2025-11-01 19:18:51.556748,2025-11-01 15:18:51.556748
"CYQR",2025-11-01 19:00:00,2025-11-01 15:00:00,"VFR",7,1,66,160,13,24100,29.72,NA,"FEW  ft; FEW  ft","METAR CYQR 011900Z 16013KT 15SM FEW230 FEW270 07/01 A2972 RMK CI1CI1 SLP092",2025-11-01 19:18:51.651061,2025-11-01 15:18:51.651061
"CYWG",2025-11-01 19:00:00,2025-11-01 15:00:00,"MVFR",2,-1,81,170,13,24100,30.06,NA,"BKN  ft","METAR CYWG 011900Z 17013G21KT 15SM BKN017 02/M01 A3006 RMK SC7 PRESFR SLP194",2025-11-01 19:18:51.792192,2025-11-01 15:18:51.792192
"CYBR",2025-11-01 19:00:00,2025-11-01 15:00:00,"VFR",3,-1,75,180,10,24100,29.96,NA,"FEW  ft; OVC  ft","METAR CYBR 011900Z 18010G16KT 15SM FEW020 OVC210 03/M01 A2996 RMK SC2CI6 SLP167",2025-11-01 19:18:51.886894,2025-11-01 15:18:51.886894
"CYUL",2025-11-01 19:00:00,2025-11-01 15:00:00,"VFR",6,-2,57,290,14,24100,29.85,NA,"OVC  ft","METAR CYUL 011900Z 29014KT 15SM OVC037 06/M02 A2985 RMK SC8 SLP110",2025-11-01 19:18:51.982989,2025-11-01 15:18:51.982989
"CYHU",2025-11-01 19:00:00,2025-11-01 15:00:00,"VFR",7,-2,53,290,13,14500,29.82,NA,"OVC  ft","METAR CYHU 011900Z AUTO 29013G24KT 9SM OVC042 07/M02 A2982 RMK SLP102",2025-11-01 19:18:52.076207,2025-11-01 15:18:52.076207
"CYQB",2025-11-01 19:00:00,2025-11-01 15:00:00,"VFR",7,1,66,270,14,48300,29.66,NA,"BKN  ft; BKN  ft; BKN  ft","METAR CYQB 011900Z 27014G24KT 260V320 30SM -SHRA BKN034 BKN045 BKN120 07/01 A2966 RMK SC5SC1AC1 AC TR CVCTV CLD EMBD SLP048",2025-11-01 19:18:52.207187,2025-11-01 15:18:52.207187
"CYVO",2025-11-01 19:00:00,2025-11-01 15:00:00,"MVFR",3,-1,75,320,8,20900,29.89,NA,"FEW  ft; BKN  ft; BKN  ft","METAR CYVO 011900Z 32008G15KT 13SM -SHSN FEW016 BKN022 BKN035 03/M01 A2989 RMK CF1CU5SC1 SLP142",2025-11-01 19:18:52.302114,2025-11-01 15:18:52.302114
"CYUY",2025-11-01 19:01:00,2025-11-01 15:01:00,"MVFR",4,-2,65,320,8,24100,29.94,NA,"BKN  ft","SPECI CYUY 011901Z 32008KT 280V360 15SM -SHSN BKN018 04/M02 A2994 RMK CU6 SLP154",2025-11-01 19:18:52.435466,2025-11-01 15:18:52.435466
"CYZV",2025-11-01 19:00:00,2025-11-01 15:00:00,"VFR",7,1,66,350,10,48300,29.19,NA,"BKN  ft; OVC  ft","METAR CYZV 011900Z 35010G23KT 30SM -SHRA BKN039 OVC055 07/01 A2919 RMK SC5SC3 CVCTV CLD EMBD PRESRR SLP890",2025-11-01 19:18:52.569413,2025-11-01 15:18:52.569413
"CYBC",2025-11-01 19:00:00,2025-11-01 15:00:00,"VFR",7,3,76,310,11,14500,29.33,NA,"OVC  ft","METAR CYBC 011900Z AUTO 31011G17KT 9SM -RA OVC047 07/03 A2933 RMK SLP933",2025-11-01 19:18:52.703328,2025-11-01 15:18:52.703328
"CYRJ",2025-11-01 19:13:00,2025-11-01 15:13:00,"MVFR",4,0,75,320,18,40200,29.66,NA,"BKN  ft; OVC  ft","SPECI CYRJ 011913Z 32018G27KT 25SM -RA BKN025 OVC035 04/00 A2966 RMK SC6SC2 SLP053",2025-11-01 19:18:52.84074,2025-11-01 15:18:52.84074
"CYHZ",2025-11-01 19:00:00,2025-11-01 15:00:00,"VFR",10,4,67,270,19,24100,29.35,NA,"OVC  ft","METAR CYHZ 011900Z 27019G29KT 15SM OVC035 10/04 A2935 RMK SC8 SLP942 DENSITY ALT 700FT",2025-11-01 19:18:52.936198,2025-11-01 15:18:52.936198
"CYYG",2025-11-01 19:00:00,2025-11-01 15:00:00,"VFR",10,3,62,270,14,24100,29.22,NA,"OVC  ft","METAR CYYG 011900Z 27014G28KT 15SM OVC032 10/03 A2922 RMK SC8 SLP897 DENSITY ALT 400FT",2025-11-01 19:18:53.029295,2025-11-01 15:18:53.029295
"CYQM",2025-11-01 19:00:00,2025-11-01 15:00:00,"MVFR",10,3,62,260,19,24100,29.27,NA,"BKN  ft","METAR CYQM 011900Z 26019G35KT 15SM BKN025 10/03 A2927 RMK SC7 SH W CU ASOCTD PRESRR SLP917 DENSITY ALT 500FT",2025-11-01 19:18:53.124431,2025-11-01 15:18:53.124431
"CYFC",2025-11-01 19:00:00,2025-11-01 15:00:00,"VFR",10,2,58,250,15,14500,29.39,NA,"BKN  ft; OVC  ft","METAR CYFC 011900Z AUTO 25015G26KT 220V290 9SM BKN046 OVC055 10/02 A2939 RMK SLP955",2025-11-01 19:18:53.218999,2025-11-01 15:18:53.218999
"CYYT",2025-11-01 19:00:00,2025-11-01 15:00:00,"VFR",11,8,82,250,24,24100,29.03,NA,"FEW  ft; BKN  ft; BKN  ft","METAR CYYT 011900Z 25024G34KT 15SM FEW021 BKN070 BKN081 11/08 A2903 RMK SC2AC3AC1 SLP833 DENSITY ALT 1100FT",2025-11-01 19:18:53.321213,2025-11-01 15:18:53.321213
"CYQY",2025-11-01 19:00:00,2025-11-01 15:00:00,"MVFR",11,6,72,270,22,24100,29.15,NA,"BKN  ft","METAR CYQY 011900Z 27022G30KT 15SM BKN027 11/06 A2915 RMK SC7 PRESRR SLP875 DENSITY ALT 600FT",2025-11-01 19:18:53.419826,2025-11-01 15:18:53.419826
"CYXY",2025-11-01 19:00:00,2025-11-01 15:00:00,"VFR",2,-3,70,160,13,64400,29.1,NA,"FEW  ft; FEW  ft; FEW  ft","METAR CYXY 011900Z 16013G18KT 40SM FEW035 FEW190 FEW230 02/M03 A2910 RMK SC1AS1CI1 CI TR SLP884",2025-11-01 19:18:53.512885,2025-11-01 15:18:53.512885
"CYZF",2025-11-01 19:00:00,2025-11-01 15:00:00,"VFR",5,2,81,200,5,24100,28.98,NA,"FEW  ft; FEW  ft; FEW  ft","METAR CYZF 011900Z 20005KT 15SM FEW044 FEW160 FEW210 05/02 A2898 RMK SC1AC1CI1 SC TR SLP826",2025-11-01 19:18:53.64611,2025-11-01 15:18:53.64611
"CYFB",2025-11-01 19:00:00,2025-11-01 15:00:00,"VFR",-11,-13,85,320,10,48300,29.86,NA,"FEW  ft; FEW  ft","METAR CYFB 011900Z 32010KT 30SM FEW015 FEW250 M11/M13 A2986 RMK SC1CI1 SC TR CI TR SLP118",2025-11-01 19:18:53.740144,2025-11-01 15:18:53.740144
"CYRT",2025-11-01 19:00:00,2025-11-01 15:00:00,"MVFR",2,0,87,170,18,24100,29.64,NA,"SCT  ft; OVC  ft","METAR CYRT 011900Z 17018KT 15SM SCT009 OVC018 02/M00 A2964 RMK SC3SC5 SLP043",2025-11-01 19:18:53.831992,2025-11-01 15:18:53.831992
"CYBK",2025-11-01 19:00:00,2025-11-01 15:00:00,"MVFR",0,-2,87,140,17,32200,29.52,NA,"OVC  ft","METAR CYBK 011900Z 14017KT 20SM DRSN OVC011 M00/M02 A2952 RMK SC8 RAG BASE SLP998",2025-11-01 19:18:53.924202,2025-11-01 15:18:53.924202
"CYRB",2025-11-01 19:00:00,2025-11-01 15:00:00,"VFR",-11,-13,85,50,18,48300,29.81,NA,"FEW  ft","METAR CYRB 011900Z 05018KT 30SM FEW030 M11/M13 A2981 RMK SC1 SC TR SLP106",2025-11-01 19:18:54.068852,2025-11-01 15:18:54.068852
"CYCO",2025-11-01 19:00:00,2025-11-01 15:00:00,"MVFR",0,0,100,90,14,9700,28.94,NA,"FEW  ft; BKN  ft; OVC  ft","METAR CYCO 011900Z 09014KT 6SM -PL FEW004 BKN024 OVC038 00/00 A2894 RMK ST2SC4SC2 SLP803",2025-11-01 19:18:54.163064,2025-11-01 15:18:54.163064
