"icao","observed_utc","observed_local","flight_category","temp_c","dewpoint_c","rh_percent","wind_dir_deg","wind_kts","vis_m","altimeter_hg","conditions","clouds","raw_text","fetched_at_utc","fetched_at_local"
"CYER",2025-09-05 18:10:00,2025-09-05 14:10:00,"IFR",8,8,100,30,13,3600,29.4,NA,"OVC  ft","CYER 051810Z AUTO 03013G19KT 2 1/4SM -RA BR OVC010 08/08 A2940 RMK VIS VRB 1 1/4-3 SLP958",2025-09-05 18:23:20.572107,2025-09-05 14:23:20.572107
"CYAT",2025-09-05 18:00:00,2025-09-05 14:00:00,"MVFR",11,7,77,160,5,14500,29.33,NA,"BKN  ft; BKN  ft; OVC  ft","CYAT 051800Z AUTO 16005KT 130V190 9SM -RA BKN026 BKN040 OVC055 11/07 A2933 RMK SLP933 DENSITY ALT 300FT",2025-09-05 18:23:20.664756,2025-09-05 14:23:20.664756
"CYMO",2025-09-05 18:15:00,2025-09-05 14:15:00,"MVFR",12,11,94,120,9,9700,29.32,NA,"SCT  ft; BKN  ft; BKN  ft; OVC  ft","CYMO 051815Z AUTO 12009KT 6SM -RA BR SCT014 BKN024 BKN034 OVC044 12/11 A2932 RMK PCPN 0.8MM PAST HR SLP932 DENSITY ALT 400FT",2025-09-05 18:23:20.748801,2025-09-05 14:23:20.748801
"CYPL",2025-09-05 18:00:00,2025-09-05 14:00:00,"MVFR",4,3,93,300,11,14500,29.39,NA,"OVC  ft","CYPL 051800Z AUTO 30011G18KT 270V330 9SM OVC013 04/03 A2939 RMK SLP971",2025-09-05 18:23:20.854971,2025-09-05 14:23:20.854971
"CYQT",2025-09-05 18:00:00,2025-09-05 14:00:00,"VFR",10,4,67,280,13,32200,29.48,NA,"SCT  ft; BKN  ft; OVC  ft","CYQT 051800Z 28013G24KT 20SM -RA SCT036 BKN046 OVC085 10/04 A2948 RMK SC3SC3AC2 -RA INTMT SLP990",2025-09-05 18:23:20.942671,2025-09-05 14:23:20.942671
"CYAM",2025-09-05 18:00:00,2025-09-05 14:00:00,"VFR",13,6,63,270,20,24100,29.51,NA,"SCT  ft; BKN  ft; BKN  ft","CYAM 051800Z 27020G26KT 15SM VCSH SCT031 BKN048 BKN084 13/06 A2951 RMK CU4SC2AC1 VCSH S W /R10/ SLP000 DENSITY ALT 1000FT",2025-09-05 18:23:21.028857,2025-09-05 14:23:21.028857
"CYTS",2025-09-05 18:00:00,2025-09-05 14:00:00,"MVFR",13,11,88,170,12,24100,29.25,NA,"BKN  ft; OVC  ft","CYTS 051800Z 17012G20KT 15SM -SHRA BKN010 OVC035 13/11 A2925 RMK SF5SC3 CVCTV CLD EMBD SLP913 DENSITY ALT 1700FT",2025-09-05 18:23:21.116136,2025-09-05 14:23:21.116136
"CYSB",2025-09-05 18:00:00,2025-09-05 14:00:00,"MVFR",11,9,88,220,22,32200,29.44,NA,"BKN  ft; BKN  ft","CYSB 051800Z 22022G40KT 20SM R22/4500VP6000FT/D -TSRA BKN025CB BKN060 11/09 A2944 RMK CB5SC2 CB E MVG E VIS E 2 PRESRR SLP977 DENSITY ALT 1500FT",2025-09-05 18:23:21.240186,2025-09-05 14:23:21.240186
"CYYB",2025-09-05 18:00:00,2025-09-05 14:00:00,"MVFR",17,11,68,190,27,32200,29.49,NA,"BKN  ft","CYYB 051800Z 19027G36KT 20SM BKN029 17/11 A2949 RMK CU7 SLP991 DENSITY ALT 2200FT",2025-09-05 18:23:21.326245,2025-09-05 14:23:21.326245
"CYOW",2025-09-05 18:00:00,2025-09-05 14:00:00,"VFR",23,11,47,180,16,24100,29.71,NA,"FEW  ft; BKN  ft","CYOW 051800Z 18016G24KT 150V210 15SM FEW040 BKN140 23/11 A2971 RMK CU1AC4 SLP065 DENSITY ALT 1700FT",2025-09-05 18:23:21.412062,2025-09-05 14:23:21.412062
"CYGK",2025-09-05 18:00:00,2025-09-05 14:00:00,"VFR",22,14,61,200,19,24100,29.75,NA,"SCT  ft; SCT  ft","CYGK 051800Z 20019G27KT 15SM SCT036 SCT250 22/14 A2975 RMK CU3CI1 SLP075 DENSITY ALT 1400FT",2025-09-05 18:23:21.499027,2025-09-05 14:23:21.499027
"CYQG",2025-09-05 18:00:00,2025-09-05 14:00:00,"VFR",23,9,41,250,23,14500,29.71,NA,"SCT  ft","CYQG 051800Z AUTO 25023G36KT 9SM SCT055 23/09 A2971 RMK SLP063 DENSITY ALT 1900FT",2025-09-05 18:23:21.583897,2025-09-05 14:23:21.583897
"CYVV",2025-09-05 18:18:00,2025-09-05 14:18:00,"VFR",18,12,68,220,19,9999,29.57,NA,"BKN  ft","CYVV 051818Z 22019G35KT 10SM -TSRA BKN043CB 18/12 A2957 RMK CB7 SLP018 DENSITY ALT 1700FT",2025-09-05 18:23:21.66789,2025-09-05 14:23:21.66789
"CYYZ",2025-09-05 18:00:00,2025-09-05 14:00:00,"VFR",22,12,53,210,19,24100,29.66,NA,"BKN  ft; BKN  ft","CYYZ 051800Z 21019G31KT 15SM BKN047 BKN100 22/12 A2966 RMK CU5AC2 SLP044 DENSITY ALT 1900FT",2025-09-05 18:23:21.752286,2025-09-05 14:23:21.752286
"CYQA",2025-09-05 18:17:00,2025-09-05 14:17:00,"VFR",18,12,68,220,9,14500,29.6,NA,"BKN  ft; BKN  ft; BKN  ft; OVC  ft","CYQA 051817Z AUTO 22009G16KT 200V260 9SM BKN035 BKN045 BKN055 OVC110 18/12 A2960 RMK LTNG DIST NW SLP024 DENSITY ALT 1900FT",2025-09-05 18:23:21.838666,2025-09-05 14:23:21.838666
"CYER",2025-09-05 18:22:00,2025-09-05 14:22:00,"IFR",8,8,100,30,13,2800,29.4,NA,"OVC  ft","CYER 051822Z AUTO 03013G19KT 1 3/4SM -RA BR OVC008 08/08 A2940 RMK PCPN 0.5MM PAST HR SLP959",2025-09-05 18:32:24.786505,2025-09-05 14:32:24.786505
"CYAT",2025-09-05 18:00:00,2025-09-05 14:00:00,"MVFR",11,7,77,160,5,14500,29.33,NA,"BKN  ft; BKN  ft; OVC  ft","CYAT 051800Z AUTO 16005KT 130V190 9SM -RA BKN026 BKN040 OVC055 11/07 A2933 RMK SLP933 DENSITY ALT 300FT",2025-09-05 18:32:24.88745,2025-09-05 14:32:24.88745
"CYMO",2025-09-05 18:15:00,2025-09-05 14:15:00,"MVFR",12,11,94,120,9,9700,29.32,NA,"SCT  ft; BKN  ft; BKN  ft; OVC  ft","CYMO 051815Z AUTO 12009KT 6SM -RA BR SCT014 BKN024 BKN034 OVC044 12/11 A2932 RMK PCPN 0.8MM PAST HR SLP932 DENSITY ALT 400FT",2025-09-05 18:32:24.980023,2025-09-05 14:32:24.980023
"CYPL",2025-09-05 18:00:00,2025-09-05 14:00:00,"MVFR",4,3,93,300,11,14500,29.39,NA,"OVC  ft","CYPL 051800Z AUTO 30011G18KT 270V330 9SM OVC013 04/03 A2939 RMK SLP971",2025-09-05 18:32:25.071877,2025-09-05 14:32:25.071877
"CYQT",2025-09-05 18:00:00,2025-09-05 14:00:00,"VFR",10,4,67,280,13,32200,29.48,NA,"SCT  ft; BKN  ft; OVC  ft","CYQT 051800Z 28013G24KT 20SM -RA SCT036 BKN046 OVC085 10/04 A2948 RMK SC3SC3AC2 -RA INTMT SLP990",2025-09-05 18:32:25.179548,2025-09-05 14:32:25.179548
"CYAM",2025-09-05 18:00:00,2025-09-05 14:00:00,"VFR",13,6,63,270,20,24100,29.51,NA,"SCT  ft; BKN  ft; BKN  ft","CYAM 051800Z 27020G26KT 15SM VCSH SCT031 BKN048 BKN084 13/06 A2951 RMK CU4SC2AC1 VCSH S W /R10/ SLP000 DENSITY ALT 1000FT",2025-09-05 18:32:25.278238,2025-09-05 14:32:25.278238
"CYTS",2025-09-05 18:00:00,2025-09-05 14:00:00,"MVFR",13,11,88,170,12,24100,29.25,NA,"BKN  ft; OVC  ft","CYTS 051800Z 17012G20KT 15SM -SHRA BKN010 OVC035 13/11 A2925 RMK SF5SC3 CVCTV CLD EMBD SLP913 DENSITY ALT 1700FT",2025-09-05 18:32:25.412797,2025-09-05 14:32:25.412797
"CYSB",2025-09-05 18:22:00,2025-09-05 14:22:00,"VFR",12,10,88,220,17,32200,29.43,NA,"SCT  ft; BKN  ft; BKN  ft","CYSB 051822Z 22017G25KT 20SM -SHRA SCT062 BKN110 BKN230 12/10 A2943 RMK CU3AC2CI1 SLP973 DENSITY ALT 1600FT",2025-09-05 18:32:25.508231,2025-09-05 14:32:25.508231
"CYYB",2025-09-05 18:00:00,2025-09-05 14:00:00,"MVFR",17,11,68,190,27,32200,29.49,NA,"BKN  ft","CYYB 051800Z 19027G36KT 20SM BKN029 17/11 A2949 RMK CU7 SLP991 DENSITY ALT 2200FT",2025-09-05 18:32:25.645684,2025-09-05 14:32:25.645684
"CYOW",2025-09-05 18:00:00,2025-09-05 14:00:00,"VFR",23,11,47,180,16,24100,29.71,NA,"FEW  ft; BKN  ft","CYOW 051800Z 18016G24KT 150V210 15SM FEW040 BKN140 23/11 A2971 RMK CU1AC4 SLP065 DENSITY ALT 1700FT",2025-09-05 18:32:25.737622,2025-09-05 14:32:25.737622
"CYGK",2025-09-05 18:00:00,2025-09-05 14:00:00,"VFR",22,14,61,200,19,24100,29.75,NA,"SCT  ft; SCT  ft","CYGK 051800Z 20019G27KT 15SM SCT036 SCT250 22/14 A2975 RMK CU3CI1 SLP075 DENSITY ALT 1400FT",2025-09-05 18:32:25.831022,2025-09-05 14:32:25.831022
"CYQG",2025-09-05 18:00:00,2025-09-05 14:00:00,"VFR",23,9,41,250,23,14500,29.71,NA,"SCT  ft","CYQG 051800Z AUTO 25023G36KT 9SM SCT055 23/09 A2971 RMK SLP063 DENSITY ALT 1900FT",2025-09-05 18:32:25.92152,2025-09-05 14:32:25.92152
"CYVV",2025-09-05 18:26:00,2025-09-05 14:26:00,"MVFR",14,11,82,250,19,6400,29.6,NA,"BKN  ft; BKN  ft","CYVV 051826Z 25019G35KT 4SM TSRA BKN033CB BKN080 14/11 A2960 RMK CB7AC1 AC TR PRESRR SLP027 DENSITY ALT 1200FT",2025-09-05 18:32:26.013116,2025-09-05 14:32:26.013116
"CYYZ",2025-09-05 18:00:00,2025-09-05 14:00:00,"VFR",22,12,53,210,19,24100,29.66,NA,"BKN  ft; BKN  ft","CYYZ 051800Z 21019G31KT 15SM BKN047 BKN100 22/12 A2966 RMK CU5AC2 SLP044 DENSITY ALT 1900FT",2025-09-05 18:32:26.103777,2025-09-05 14:32:26.103777
"CYQA",2025-09-05 18:28:00,2025-09-05 14:28:00,"VFR",18,12,68,210,9,14500,29.6,NA,"SCT  ft; BKN  ft; BKN  ft; OVC  ft","CYQA 051828Z AUTO 21009KT 9SM -RA SCT035 BKN042 BKN055 OVC075 18/12 A2960 RMK LTNG DIST NE W NW SLP024 DENSITY ALT 1900FT",2025-09-05 18:32:26.19432,2025-09-05 14:32:26.19432
"CYER",2025-09-05 18:29:00,2025-09-05 14:29:00,"IFR",8,8,100,30,13,4000,29.4,NA,"OVC  ft","CYER 051829Z AUTO 03013G19KT 2 1/2SM -RA BR OVC008 08/08 A2940 RMK PCPN 0.5MM PAST HR SLP959",2025-09-05 18:37:17.669546,2025-09-05 14:37:17.669546
"CYAT",2025-09-05 18:00:00,2025-09-05 14:00:00,"MVFR",11,7,77,160,5,14500,29.33,NA,"BKN  ft; BKN  ft; OVC  ft","CYAT 051800Z AUTO 16005KT 130V190 9SM -RA BKN026 BKN040 OVC055 11/07 A2933 RMK SLP933 DENSITY ALT 300FT",2025-09-05 18:37:17.746118,2025-09-05 14:37:17.746118
"CYMO",2025-09-05 18:34:00,2025-09-05 14:34:00,"MVFR",12,11,94,100,10,11300,29.31,NA,"FEW  ft; SCT  ft; BKN  ft; OVC  ft","CYMO 051834Z AUTO 10010G16KT 7SM -RA FEW009 SCT015 BKN027 OVC050 12/11 A2931 RMK PCPN 1.2MM PAST HR SLP928 DENSITY ALT 400FT",2025-09-05 18:37:17.815784,2025-09-05 14:37:17.815784
"CYPL",2025-09-05 18:00:00,2025-09-05 14:00:00,"MVFR",4,3,93,300,11,14500,29.39,NA,"OVC  ft","CYPL 051800Z AUTO 30011G18KT 270V330 9SM OVC013 04/03 A2939 RMK SLP971",2025-09-05 18:37:17.890694,2025-09-05 14:37:17.890694
"CYQT",2025-09-05 18:00:00,2025-09-05 14:00:00,"VFR",10,4,67,280,13,32200,29.48,NA,"SCT  ft; BKN  ft; OVC  ft","CYQT 051800Z 28013G24KT 20SM -RA SCT036 BKN046 OVC085 10/04 A2948 RMK SC3SC3AC2 -RA INTMT SLP990",2025-09-05 18:37:17.962849,2025-09-05 14:37:17.962849
"CYAM",2025-09-05 18:00:00,2025-09-05 14:00:00,"VFR",13,6,63,270,20,24100,29.51,NA,"SCT  ft; BKN  ft; BKN  ft","CYAM 051800Z 27020G26KT 15SM VCSH SCT031 BKN048 BKN084 13/06 A2951 RMK CU4SC2AC1 VCSH S W /R10/ SLP000 DENSITY ALT 1000FT",2025-09-05 18:37:18.031088,2025-09-05 14:37:18.031088
"CYTS",2025-09-05 18:00:00,2025-09-05 14:00:00,"MVFR",13,11,88,170,12,24100,29.25,NA,"BKN  ft; OVC  ft","CYTS 051800Z 17012G20KT 15SM -SHRA BKN010 OVC035 13/11 A2925 RMK SF5SC3 CVCTV CLD EMBD SLP913 DENSITY ALT 1700FT",2025-09-05 18:37:18.058828,2025-09-05 14:37:18.058828
"CYSB",2025-09-05 18:22:00,2025-09-05 14:22:00,"VFR",12,10,88,220,17,32200,29.43,NA,"SCT  ft; BKN  ft; BKN  ft","CYSB 051822Z 22017G25KT 20SM -SHRA SCT062 BKN110 BKN230 12/10 A2943 RMK CU3AC2CI1 SLP973 DENSITY ALT 1600FT",2025-09-05 18:37:18.127346,2025-09-05 14:37:18.127346
"CYYB",2025-09-05 18:00:00,2025-09-05 14:00:00,"MVFR",17,11,68,190,27,32200,29.49,NA,"BKN  ft","CYYB 051800Z 19027G36KT 20SM BKN029 17/11 A2949 RMK CU7 SLP991 DENSITY ALT 2200FT",2025-09-05 18:37:18.195532,2025-09-05 14:37:18.195532
"CYOW",2025-09-05 18:00:00,2025-09-05 14:00:00,"VFR",23,11,47,180,16,24100,29.71,NA,"FEW  ft; BKN  ft","CYOW 051800Z 18016G24KT 150V210 15SM FEW040 BKN140 23/11 A2971 RMK CU1AC4 SLP065 DENSITY ALT 1700FT",2025-09-05 18:37:18.262414,2025-09-05 14:37:18.262414
"CYGK",2025-09-05 18:00:00,2025-09-05 14:00:00,"VFR",22,14,61,200,19,24100,29.75,NA,"SCT  ft; SCT  ft","CYGK 051800Z 20019G27KT 15SM SCT036 SCT250 22/14 A2975 RMK CU3CI1 SLP075 DENSITY ALT 1400FT",2025-09-05 18:37:18.333788,2025-09-05 14:37:18.333788
"CYQG",2025-09-05 18:00:00,2025-09-05 14:00:00,"VFR",23,9,41,250,23,14500,29.71,NA,"SCT  ft","CYQG 051800Z AUTO 25023G36KT 9SM SCT055 23/09 A2971 RMK SLP063 DENSITY ALT 1900FT",2025-09-05 18:37:18.401715,2025-09-05 14:37:18.401715
"CYVV",2025-09-05 18:26:00,2025-09-05 14:26:00,"MVFR",14,11,82,250,19,6400,29.6,NA,"BKN  ft; BKN  ft","CYVV 051826Z 25019G35KT 4SM TSRA BKN033CB BKN080 14/11 A2960 RMK CB7AC1 AC TR PRESRR SLP027 DENSITY ALT 1200FT",2025-09-05 18:37:18.469835,2025-09-05 14:37:18.469835
"CYYZ",2025-09-05 18:00:00,2025-09-05 14:00:00,"VFR",22,12,53,210,19,24100,29.66,NA,"BKN  ft; BKN  ft","CYYZ 051800Z 21019G31KT 15SM BKN047 BKN100 22/12 A2966 RMK CU5AC2 SLP044 DENSITY ALT 1900FT",2025-09-05 18:37:18.542693,2025-09-05 14:37:18.542693
"CYQA",2025-09-05 18:28:00,2025-09-05 14:28:00,"VFR",18,12,68,210,9,14500,29.6,NA,"SCT  ft; BKN  ft; BKN  ft; OVC  ft","CYQA 051828Z AUTO 21009KT 9SM -RA SCT035 BKN042 BKN055 OVC075 18/12 A2960 RMK LTNG DIST NE W NW SLP024 DENSITY ALT 1900FT",2025-09-05 18:37:18.615676,2025-09-05 14:37:18.615676
"CYER",2025-09-05 18:44:00,2025-09-05 14:44:00,"IFR",8,8,100,40,11,12900,29.4,NA,"BKN  ft; OVC  ft","CYER 051844Z AUTO 04011G16KT 8SM BKN006 OVC010 08/08 A2940 RMK PCPN 0.5MM PAST HR SLP959",2025-09-05 18:48:16.951067,2025-09-05 14:48:16.951067
"CYAT",2025-09-05 18:00:00,2025-09-05 14:00:00,"MVFR",11,7,77,160,5,14500,29.33,NA,"BKN  ft; BKN  ft; OVC  ft","CYAT 051800Z AUTO 16005KT 130V190 9SM -RA BKN026 BKN040 OVC055 11/07 A2933 RMK SLP933 DENSITY ALT 300FT",2025-09-05 18:48:17.071234,2025-09-05 14:48:17.071234
"CYMO",2025-09-05 18:35:00,2025-09-05 14:35:00,"MVFR",12,11,94,100,11,11300,29.31,NA,"FEW  ft; SCT  ft; BKN  ft; OVC  ft","CYMO 051835Z AUTO 10011G16KT 7SM -RA FEW009 SCT015 BKN027 OVC050 12/11 A2931 RMK PCPN 1.2MM PAST HR SLP928 DENSITY ALT 400FT",2025-09-05 18:48:17.187673,2025-09-05 14:48:17.187673
"CYPL",2025-09-05 18:00:00,2025-09-05 14:00:00,"MVFR",4,3,93,300,11,14500,29.39,NA,"OVC  ft","CYPL 051800Z AUTO 30011G18KT 270V330 9SM OVC013 04/03 A2939 RMK SLP971",2025-09-05 18:48:17.261511,2025-09-05 14:48:17.261511
"CYQT",2025-09-05 18:42:00,2025-09-05 14:42:00,"VFR",11,3,58,290,20,32200,29.48,NA,"BKN  ft; OVC  ft","CYQT 051842Z 29020G30KT 20SM BKN040 OVC090 11/03 A2948 RMK SC6AC2 SLP991 DENSITY ALT 900FT",2025-09-05 18:48:17.339242,2025-09-05 14:48:17.339242
"CYAM",2025-09-05 18:35:00,2025-09-05 14:35:00,"VFR",13,6,63,270,15,9700,29.53,NA,"SCT  ft; BKN  ft","CYAM 051835Z 27015G22KT 6SM -SHRA BR SCT026 BKN048 13/06 A2953 RMK CU4SC3 SLP006 DENSITY ALT 1000FT",2025-09-05 18:48:17.415256,2025-09-05 14:48:17.415256
"CYTS",2025-09-05 18:00:00,2025-09-05 14:00:00,"MVFR",13,11,88,170,12,24100,29.25,NA,"BKN  ft; OVC  ft","CYTS 051800Z 17012G20KT 15SM -SHRA BKN010 OVC035 13/11 A2925 RMK SF5SC3 CVCTV CLD EMBD SLP913 DENSITY ALT 1700FT",2025-09-05 18:48:17.488706,2025-09-05 14:48:17.488706
"CYSB",2025-09-05 18:22:00,2025-09-05 14:22:00,"VFR",12,10,88,220,17,32200,29.43,NA,"SCT  ft; BKN  ft; BKN  ft","CYSB 051822Z 22017G25KT 20SM -SHRA SCT062 BKN110 BKN230 12/10 A2943 RMK CU3AC2CI1 SLP973 DENSITY ALT 1600FT",2025-09-05 18:48:17.565813,2025-09-05 14:48:17.565813
"CYYB",2025-09-05 18:00:00,2025-09-05 14:00:00,"MVFR",17,11,68,190,27,32200,29.49,NA,"BKN  ft","CYYB 051800Z 19027G36KT 20SM BKN029 17/11 A2949 RMK CU7 SLP991 DENSITY ALT 2200FT",2025-09-05 18:48:17.639867,2025-09-05 14:48:17.639867
"CYOW",2025-09-05 18:00:00,2025-09-05 14:00:00,"VFR",23,11,47,180,16,24100,29.71,NA,"FEW  ft; BKN  ft","CYOW 051800Z 18016G24KT 150V210 15SM FEW040 BKN140 23/11 A2971 RMK CU1AC4 SLP065 DENSITY ALT 1700FT",2025-09-05 18:48:17.711925,2025-09-05 14:48:17.711925
"CYGK",2025-09-05 18:00:00,2025-09-05 14:00:00,"VFR",22,14,61,200,19,24100,29.75,NA,"SCT  ft; SCT  ft","CYGK 051800Z 20019G27KT 15SM SCT036 SCT250 22/14 A2975 RMK CU3CI1 SLP075 DENSITY ALT 1400FT",2025-09-05 18:48:17.788347,2025-09-05 14:48:17.788347
"CYQG",2025-09-05 18:00:00,2025-09-05 14:00:00,"VFR",23,9,41,250,23,14500,29.71,NA,"SCT  ft","CYQG 051800Z AUTO 25023G36KT 9SM SCT055 23/09 A2971 RMK SLP063 DENSITY ALT 1900FT",2025-09-05 18:48:17.860687,2025-09-05 14:48:17.860687
"CYVV",2025-09-05 18:38:00,2025-09-05 14:38:00,"MVFR",15,12,82,230,14,9999,29.59,NA,"BKN  ft; BKN  ft","CYVV 051838Z 23014G25KT 10SM BKN029 BKN034 15/12 A2959 RMK CF6CU1 SLP023 DENSITY ALT 1300FT",2025-09-05 18:48:17.934744,2025-09-05 14:48:17.934744
"CYYZ",2025-09-05 18:00:00,2025-09-05 14:00:00,"VFR",22,12,53,210,19,24100,29.66,NA,"BKN  ft; BKN  ft","CYYZ 051800Z 21019G31KT 15SM BKN047 BKN100 22/12 A2966 RMK CU5AC2 SLP044 DENSITY ALT 1900FT",2025-09-05 18:48:18.047959,2025-09-05 14:48:18.047959
"CYQA",2025-09-05 18:42:00,2025-09-05 14:42:00,"VFR",20,12,60,220,16,14500,29.6,NA,"SCT  ft; BKN  ft; BKN  ft; OVC  ft","CYQA 051842Z AUTO 22016G27KT 180V250 9SM SCT040 BKN050 BKN066 OVC080 20/12 A2960 RMK LTNG DIST NE SLP023 DENSITY ALT 2200FT",2025-09-05 18:48:18.121835,2025-09-05 14:48:18.121835
"CYER",2025-09-05 18:53:00,2025-09-05 14:53:00,"IFR",8,8,100,30,12,8000,29.4,NA,"BKN  ft; OVC  ft","CYER 051853Z AUTO 03012KT 5SM BR BKN006 OVC013 08/08 A2940 RMK PCPN 0.5MM PAST HR SLP959",2025-09-05 19:01:59.390406,2025-09-05 15:01:59.390406
"CYAT",2025-09-05 18:00:00,2025-09-05 14:00:00,"MVFR",11,7,77,160,5,14500,29.33,NA,"BKN  ft; BKN  ft; OVC  ft","CYAT 051800Z AUTO 16005KT 130V190 9SM -RA BKN026 BKN040 OVC055 11/07 A2933 RMK SLP933 DENSITY ALT 300FT",2025-09-05 19:01:59.502625,2025-09-05 15:01:59.502625
"CYMO",2025-09-05 18:35:00,2025-09-05 14:35:00,"MVFR",12,11,94,100,11,11300,29.31,NA,"FEW  ft; SCT  ft; BKN  ft; OVC  ft","CYMO 051835Z AUTO 10011G16KT 7SM -RA FEW009 SCT015 BKN027 OVC050 12/11 A2931 RMK PCPN 1.2MM PAST HR SLP928 DENSITY ALT 400FT",2025-09-05 19:01:59.569474,2025-09-05 15:01:59.569474
"CYPL",2025-09-05 18:49:00,2025-09-05 14:49:00,"MVFR",5,4,93,300,10,6400,29.41,NA,"OVC  ft","CYPL 051849Z AUTO 30010G21KT 270V340 4SM BR OVC013 05/04 A2941 RMK SLP975",2025-09-05 19:01:59.634883,2025-09-05 15:01:59.634883
"CYQT",2025-09-05 18:42:00,2025-09-05 14:42:00,"VFR",11,3,58,290,20,32200,29.48,NA,"BKN  ft; OVC  ft","CYQT 051842Z 29020G30KT 20SM BKN040 OVC090 11/03 A2948 RMK SC6AC2 SLP991 DENSITY ALT 900FT",2025-09-05 19:01:59.703747,2025-09-05 15:01:59.703747
"CYAM",2025-09-05 18:35:00,2025-09-05 14:35:00,"VFR",13,6,63,270,15,9700,29.53,NA,"SCT  ft; BKN  ft","CYAM 051835Z 27015G22KT 6SM -SHRA BR SCT026 BKN048 13/06 A2953 RMK CU4SC3 SLP006 DENSITY ALT 1000FT",2025-09-05 19:01:59.768627,2025-09-05 15:01:59.768627
"CYTS",2025-09-05 18:00:00,2025-09-05 14:00:00,"MVFR",13,11,88,170,12,24100,29.25,NA,"BKN  ft; OVC  ft","CYTS 051800Z 17012G20KT 15SM -SHRA BKN010 OVC035 13/11 A2925 RMK SF5SC3 CVCTV CLD EMBD SLP913 DENSITY ALT 1700FT",2025-09-05 19:01:59.841861,2025-09-05 15:01:59.841861
"CYSB",2025-09-05 18:50:00,2025-09-05 14:50:00,"MVFR",13,10,82,220,22,32200,29.44,NA,"BKN  ft; BKN  ft","CYSB 051850Z 22022G29KT 20SM BKN020 BKN100 13/10 A2944 RMK SC6AC1 SLP977 DENSITY ALT 1800FT",2025-09-05 19:01:59.909164,2025-09-05 15:01:59.909164
"CYYB",2025-09-05 18:00:00,2025-09-05 14:00:00,"MVFR",17,11,68,190,27,32200,29.49,NA,"BKN  ft","CYYB 051800Z 19027G36KT 20SM BKN029 17/11 A2949 RMK CU7 SLP991 DENSITY ALT 2200FT",2025-09-05 19:01:59.976244,2025-09-05 15:01:59.976244
"CYOW",2025-09-05 18:00:00,2025-09-05 14:00:00,"VFR",23,11,47,180,16,24100,29.71,NA,"FEW  ft; BKN  ft","CYOW 051800Z 18016G24KT 150V210 15SM FEW040 BKN140 23/11 A2971 RMK CU1AC4 SLP065 DENSITY ALT 1700FT",2025-09-05 19:02:00.045405,2025-09-05 15:02:00.045405
"CYGK",2025-09-05 18:00:00,2025-09-05 14:00:00,"VFR",22,14,61,200,19,24100,29.75,NA,"SCT  ft; SCT  ft","CYGK 051800Z 20019G27KT 15SM SCT036 SCT250 22/14 A2975 RMK CU3CI1 SLP075 DENSITY ALT 1400FT",2025-09-05 19:02:00.117827,2025-09-05 15:02:00.117827
"CYQG",2025-09-05 18:00:00,2025-09-05 14:00:00,"VFR",23,9,41,250,23,14500,29.71,NA,"SCT  ft","CYQG 051800Z AUTO 25023G36KT 9SM SCT055 23/09 A2971 RMK SLP063 DENSITY ALT 1900FT",2025-09-05 19:02:00.186701,2025-09-05 15:02:00.186701
"CYVV",2025-09-05 18:50:00,2025-09-05 14:50:00,"MVFR",15,12,82,250,14,9999,29.6,NA,"BKN  ft; BKN  ft","CYVV 051850Z 25014G22KT 10SM -SHRA BKN023 BKN034 15/12 A2960 RMK CF5CU2 PRESRR SLP029 DENSITY ALT 1300FT",2025-09-05 19:02:00.253959,2025-09-05 15:02:00.253959
"CYYZ",2025-09-05 18:00:00,2025-09-05 14:00:00,"VFR",22,12,53,210,19,24100,29.66,NA,"BKN  ft; BKN  ft","CYYZ 051800Z 21019G31KT 15SM BKN047 BKN100 22/12 A2966 RMK CU5AC2 SLP044 DENSITY ALT 1900FT",2025-09-05 19:02:00.360715,2025-09-05 15:02:00.360715
"CYQA",2025-09-05 18:42:00,2025-09-05 14:42:00,"VFR",20,12,60,220,16,14500,29.6,NA,"SCT  ft; BKN  ft; BKN  ft; OVC  ft","CYQA 051842Z AUTO 22016G27KT 180V250 9SM SCT040 BKN050 BKN066 OVC080 20/12 A2960 RMK LTNG DIST NE SLP023 DENSITY ALT 2200FT",2025-09-05 19:02:00.436593,2025-09-05 15:02:00.436593
"CYER",2025-09-05 19:12:00,2025-09-05 15:12:00,"IFR",8,8,100,30,9,9700,29.41,NA,"BKN  ft; OVC  ft","CYER 051912Z AUTO 03009G16KT 6SM -RA BR BKN006 OVC013 08/08 A2941 RMK SLP961",2025-09-05 19:20:59.250226,2025-09-05 15:20:59.250226
"CYAT",2025-09-05 19:13:00,2025-09-05 15:13:00,"VFR",10,9,94,90,6,14500,29.31,NA,"FEW  ft; OVC  ft","CYAT 051913Z AUTO 09006KT 9SM -RA FEW008 OVC040 10/09 A2931 RMK SLP929",2025-09-05 19:20:59.325157,2025-09-05 15:20:59.325157
"CYMO",2025-09-05 19:01:00,2025-09-05 15:01:00,"MVFR",12,11,94,90,12,14500,29.29,NA,"SCT  ft; BKN  ft; BKN  ft; OVC  ft","CYMO 051901Z AUTO 09012G18KT 9SM -RA SCT011 BKN019 BKN030 OVC055 12/11 A2929 RMK SLP920 DENSITY ALT 500FT",2025-09-05 19:20:59.392239,2025-09-05 15:20:59.392239
"CYPL",2025-09-05 19:15:00,2025-09-05 15:15:00,"MVFR",5,4,93,300,11,8000,29.42,NA,"BKN  ft; OVC  ft","CYPL 051915Z AUTO 30011G20KT 270V340 5SM BR BKN011 OVC016 05/04 A2942 RMK SLP979",2025-09-05 19:20:59.464372,2025-09-05 15:20:59.464372
"CYQT",2025-09-05 19:11:00,2025-09-05 15:11:00,"VFR",11,4,62,290,17,32200,29.49,NA,"BKN  ft; BKN  ft; OVC  ft","CYQT 051911Z 29017G26KT 20SM -SHRA BKN036 BKN100 OVC260 11/04 A2949 RMK SC6AC1CI1 CVCTV CLD EMBD SLP993 DENSITY ALT 900FT",2025-09-05 19:20:59.53433,2025-09-05 15:20:59.53433
"CYAM",2025-09-05 19:00:00,2025-09-05 15:00:00,"VFR",11,7,77,280,17,9700,29.55,NA,"SCT  ft; BKN  ft; OVC  ft","CYAM 051900Z 28017G25KT 6SM -SHRA BR SCT021 BKN042 OVC062 11/07 A2955 RMK CU4SC2SC2 SLP011",2025-09-05 19:20:59.602315,2025-09-05 15:20:59.602315
"CYTS",2025-09-05 19:00:00,2025-09-05 15:00:00,"MVFR",14,11,82,200,11,24100,29.25,NA,"BKN  ft; OVC  ft","CYTS 051900Z 20011G21KT 15SM -SHRA BKN015 OVC030 14/11 A2925 RMK SC5SC3 CVCTV CLD EMBD SLP912 DENSITY ALT 1800FT",2025-09-05 19:20:59.671068,2025-09-05 15:20:59.671068
"CYSB",2025-09-05 19:00:00,2025-09-05 15:00:00,"MVFR",13,11,88,220,18,32200,29.45,NA,"BKN  ft; BKN  ft","CYSB 051900Z 22018G30KT 20SM BKN018 BKN100 13/11 A2945 RMK SC6AC1 SLP979 DENSITY ALT 1800FT",2025-09-05 19:20:59.736931,2025-09-05 15:20:59.736931
"CYYB",2025-09-05 19:00:00,2025-09-05 15:00:00,"VFR",17,9,59,210,23,32200,29.48,NA,"BKN  ft; BKN  ft","CYYB 051900Z 21023G36KT 20SM BKN037 BKN090 17/09 A2948 RMK CU6AC1 SLP987 DENSITY ALT 2300FT",2025-09-05 19:20:59.803413,2025-09-05 15:20:59.803413
"CYOW",2025-09-05 19:00:00,2025-09-05 15:00:00,"VFR",23,10,44,190,16,24100,29.68,NA,"FEW  ft; BKN  ft","CYOW 051900Z 19016G25KT 150V210 15SM FEW045 BKN110 23/10 A2968 RMK CU2AC4 SLP054 DENSITY ALT 1700FT",2025-09-05 19:20:59.869273,2025-09-05 15:20:59.869273
"CYGK",2025-09-05 19:00:00,2025-09-05 15:00:00,"VFR",22,16,69,190,15,24100,29.73,NA,"SCT  ft; SCT  ft; BKN  ft","CYGK 051900Z 19015KT 15SM SCT040 SCT120 BKN250 22/16 A2973 RMK SC3AC1CI2 SLP069 DENSITY ALT 1500FT",2025-09-05 19:20:59.94225,2025-09-05 15:20:59.94225
"CYQG",2025-09-05 19:00:00,2025-09-05 15:00:00,"VFR",22,8,41,260,17,14500,29.72,NA,"BKN  ft","CYQG 051900Z AUTO 26017G33KT 9SM BKN066 22/08 A2972 RMK SLP067 DENSITY ALT 1800FT",2025-09-05 19:21:00.009344,2025-09-05 15:21:00.009344
"CYVV",2025-09-05 19:13:00,2025-09-05 15:13:00,"MVFR",15,11,77,280,14,24100,29.63,NA,"BKN  ft; BKN  ft","CYVV 051913Z 28014G24KT 15SM BKN021 BKN035 15/11 A2963 RMK CF5SC2 PRESRR SLP036 DENSITY ALT 1300FT",2025-09-05 19:21:00.075404,2025-09-05 15:21:00.075404
"CYYZ",2025-09-05 19:00:00,2025-09-05 15:00:00,"VFR",22,12,53,220,22,24100,29.65,NA,"BKN  ft; BKN  ft","CYYZ 051900Z 22022G34KT 15SM BKN048 BKN110 22/12 A2965 RMK CU6AC1 SLP042 DENSITY ALT 1900FT",2025-09-05 19:21:00.14318,2025-09-05 15:21:00.14318
"CYQA",2025-09-05 19:00:00,2025-09-05 15:00:00,"VFR",19,12,64,200,13,14500,29.59,NA,"SCT  ft; SCT  ft; BKN  ft; OVC  ft","CYQA 051900Z AUTO 20013G19KT 9SM SCT044 SCT055 BKN067 OVC093 19/12 A2959 RMK SLP023 DENSITY ALT 2100FT",2025-09-05 19:21:00.210188,2025-09-05 15:21:00.210188
"CYER",2025-09-05 19:22:00,2025-09-05 15:22:00,"IFR",9,9,100,30,12,14500,29.41,NA,"BKN  ft; OVC  ft","CYER 051922Z AUTO 03012KT 9SM BKN006 OVC014 09/09 A2941 RMK SLP962",2025-09-05 19:31:28.64861,2025-09-05 15:31:28.64861
"CYAT",2025-09-05 19:13:00,2025-09-05 15:13:00,"VFR",10,9,94,90,6,14500,29.31,NA,"FEW  ft; OVC  ft","CYAT 051913Z AUTO 09006KT 9SM -RA FEW008 OVC040 10/09 A2931 RMK SLP929",2025-09-05 19:31:28.725215,2025-09-05 15:31:28.725215
"CYMO",2025-09-05 19:01:00,2025-09-05 15:01:00,"MVFR",12,11,94,90,12,14500,29.29,NA,"SCT  ft; BKN  ft; BKN  ft; OVC  ft","CYMO 051901Z AUTO 09012G18KT 9SM -RA SCT011 BKN019 BKN030 OVC055 12/11 A2929 RMK SLP920 DENSITY ALT 500FT",2025-09-05 19:31:28.805782,2025-09-05 15:31:28.805782
"CYPL",2025-09-05 19:26:00,2025-09-05 15:26:00,"MVFR",5,5,100,300,9,4800,29.42,NA,"SCT  ft; OVC  ft","CYPL 051926Z AUTO 30009G19KT 260V330 3SM -RA BR SCT009 OVC016 05/05 A2942 RMK SLP980",2025-09-05 19:31:28.878585,2025-09-05 15:31:28.878585
"CYQT",2025-09-05 19:11:00,2025-09-05 15:11:00,"VFR",11,4,62,290,17,32200,29.49,NA,"BKN  ft; BKN  ft; OVC  ft","CYQT 051911Z 29017G26KT 20SM -SHRA BKN036 BKN100 OVC260 11/04 A2949 RMK SC6AC1CI1 CVCTV CLD EMBD SLP993 DENSITY ALT 900FT",2025-09-05 19:31:28.956288,2025-09-05 15:31:28.956288
"CYAM",2025-09-05 19:00:00,2025-09-05 15:00:00,"VFR",11,7,77,280,17,9700,29.55,NA,"SCT  ft; BKN  ft; OVC  ft","CYAM 051900Z 28017G25KT 6SM -SHRA BR SCT021 BKN042 OVC062 11/07 A2955 RMK CU4SC2SC2 SLP011",2025-09-05 19:31:29.030633,2025-09-05 15:31:29.030633
"CYTS",2025-09-05 19:23:00,2025-09-05 15:23:00,"MVFR",14,11,82,210,11,9700,29.26,NA,"FEW  ft; BKN  ft; OVC  ft","CYTS 051923Z 21011G20KT 6SM -SHRA FEW015TCU BKN017 OVC033 14/11 A2926 RMK TCU1SC6SC1 SLP916 DENSITY ALT 1800FT",2025-09-05 19:31:29.099185,2025-09-05 15:31:29.099185
"CYSB",2025-09-05 19:00:00,2025-09-05 15:00:00,"MVFR",13,11,88,220,18,32200,29.45,NA,"BKN  ft; BKN  ft","CYSB 051900Z 22018G30KT 20SM BKN018 BKN100 13/11 A2945 RMK SC6AC1 SLP979 DENSITY ALT 1800FT",2025-09-05 19:31:29.168474,2025-09-05 15:31:29.168474
"CYYB",2025-09-05 19:25:00,2025-09-05 15:25:00,"MVFR",16,11,72,240,28,6400,29.51,NA,"OVC  ft","CYYB 051925Z 24028G43KT 190V260 4SM SHRA OVC030 16/11 A2951 RMK SC8 CVCTV CLD EMBD PRESRR SLP000 DENSITY ALT 2100FT",2025-09-05 19:31:29.236414,2025-09-05 15:31:29.236414
"CYOW",2025-09-05 19:00:00,2025-09-05 15:00:00,"VFR",23,10,44,190,16,24100,29.68,NA,"FEW  ft; BKN  ft","CYOW 051900Z 19016G25KT 150V210 15SM FEW045 BKN110 23/10 A2968 RMK CU2AC4 SLP054 DENSITY ALT 1700FT",2025-09-05 19:31:29.311467,2025-09-05 15:31:29.311467
"CYGK",2025-09-05 19:00:00,2025-09-05 15:00:00,"VFR",22,16,69,190,15,24100,29.73,NA,"SCT  ft; SCT  ft; BKN  ft","CYGK 051900Z 19015KT 15SM SCT040 SCT120 BKN250 22/16 A2973 RMK SC3AC1CI2 SLP069 DENSITY ALT 1500FT",2025-09-05 19:31:29.381689,2025-09-05 15:31:29.381689
"CYQG",2025-09-05 19:00:00,2025-09-05 15:00:00,"VFR",22,8,41,260,17,14500,29.72,NA,"BKN  ft","CYQG 051900Z AUTO 26017G33KT 9SM BKN066 22/08 A2972 RMK SLP067 DENSITY ALT 1800FT",2025-09-05 19:31:29.451659,2025-09-05 15:31:29.451659
"CYVV",2025-09-05 19:13:00,2025-09-05 15:13:00,"MVFR",15,11,77,280,14,24100,29.63,NA,"BKN  ft; BKN  ft","CYVV 051913Z 28014G24KT 15SM BKN021 BKN035 15/11 A2963 RMK CF5SC2 PRESRR SLP036 DENSITY ALT 1300FT",2025-09-05 19:31:29.520921,2025-09-05 15:31:29.520921
"CYYZ",2025-09-05 19:00:00,2025-09-05 15:00:00,"VFR",22,12,53,220,22,24100,29.65,NA,"BKN  ft; BKN  ft","CYYZ 051900Z 22022G34KT 15SM BKN048 BKN110 22/12 A2965 RMK CU6AC1 SLP042 DENSITY ALT 1900FT",2025-09-05 19:31:29.590049,2025-09-05 15:31:29.590049
"CYQA",2025-09-05 19:00:00,2025-09-05 15:00:00,"VFR",19,12,64,200,13,14500,29.59,NA,"SCT  ft; SCT  ft; BKN  ft; OVC  ft","CYQA 051900Z AUTO 20013G19KT 9SM SCT044 SCT055 BKN067 OVC093 19/12 A2959 RMK SLP023 DENSITY ALT 2100FT",2025-09-05 19:31:29.663157,2025-09-05 15:31:29.663157
"CYER",2025-09-05 19:28:00,2025-09-05 15:28:00,"MVFR",9,8,94,20,12,14500,29.41,NA,"FEW  ft; SCT  ft; OVC  ft","CYER 051928Z AUTO 02012KT 9SM FEW006 SCT010 OVC014 09/08 A2941 RMK SLP961",2025-09-05 19:41:03.160931,2025-09-05 15:41:03.160931
"CYAT",2025-09-05 19:13:00,2025-09-05 15:13:00,"VFR",10,9,94,90,6,14500,29.31,NA,"FEW  ft; OVC  ft","CYAT 051913Z AUTO 09006KT 9SM -RA FEW008 OVC040 10/09 A2931 RMK SLP929",2025-09-05 19:41:03.244756,2025-09-05 15:41:03.244756
"CYMO",2025-09-05 19:01:00,2025-09-05 15:01:00,"MVFR",12,11,94,90,12,14500,29.29,NA,"SCT  ft; BKN  ft; BKN  ft; OVC  ft","CYMO 051901Z AUTO 09012G18KT 9SM -RA SCT011 BKN019 BKN030 OVC055 12/11 A2929 RMK SLP920 DENSITY ALT 500FT",2025-09-05 19:41:03.32271,2025-09-05 15:41:03.32271
"CYPL",2025-09-05 19:31:00,2025-09-05 15:31:00,"MVFR",5,5,100,310,9,6400,29.43,NA,"SCT  ft; OVC  ft","CYPL 051931Z AUTO 31009G19KT 270V330 4SM -RA BR SCT009 OVC016 05/05 A2943 RMK SLP981",2025-09-05 19:41:03.396625,2025-09-05 15:41:03.396625
"CYQT",2025-09-05 19:11:00,2025-09-05 15:11:00,"VFR",11,4,62,290,17,32200,29.49,NA,"BKN  ft; BKN  ft; OVC  ft","CYQT 051911Z 29017G26KT 20SM -SHRA BKN036 BKN100 OVC260 11/04 A2949 RMK SC6AC1CI1 CVCTV CLD EMBD SLP993 DENSITY ALT 900FT",2025-09-05 19:41:03.473667,2025-09-05 15:41:03.473667
"CYAM",2025-09-05 19:00:00,2025-09-05 15:00:00,"VFR",11,7,77,280,17,9700,29.55,NA,"SCT  ft; BKN  ft; OVC  ft","CYAM 051900Z 28017G25KT 6SM -SHRA BR SCT021 BKN042 OVC062 11/07 A2955 RMK CU4SC2SC2 SLP011",2025-09-05 19:41:03.54698,2025-09-05 15:41:03.54698
"CYTS",2025-09-05 19:34:00,2025-09-05 15:34:00,"IFR",11,10,94,260,11,4000,29.29,NA,"FEW  ft; BKN  ft; OVC  ft","CYTS 051934Z 26011G33KT 190V280 2 1/2SM SHRA FEW007 BKN014TCU OVC038 11/10 A2929 RMK CF1TCU5SC2 PRESRR SLP926 DENSITY ALT 1500FT",2025-09-05 19:41:03.625213,2025-09-05 15:41:03.625213
"CYSB",2025-09-05 19:00:00,2025-09-05 15:00:00,"MVFR",13,11,88,220,18,32200,29.45,NA,"BKN  ft; BKN  ft","CYSB 051900Z 22018G30KT 20SM BKN018 BKN100 13/11 A2945 RMK SC6AC1 SLP979 DENSITY ALT 1800FT",2025-09-05 19:41:03.69973,2025-09-05 15:41:03.69973
"CYYB",2025-09-05 19:25:00,2025-09-05 15:25:00,"MVFR",16,11,72,240,28,6400,29.51,NA,"OVC  ft","CYYB 051925Z 24028G43KT 190V260 4SM SHRA OVC030 16/11 A2951 RMK SC8 CVCTV CLD EMBD PRESRR SLP000 DENSITY ALT 2100FT",2025-09-05 19:41:03.774957,2025-09-05 15:41:03.774957
"CYOW",2025-09-05 19:00:00,2025-09-05 15:00:00,"VFR",23,10,44,190,16,24100,29.68,NA,"FEW  ft; BKN  ft","CYOW 051900Z 19016G25KT 150V210 15SM FEW045 BKN110 23/10 A2968 RMK CU2AC4 SLP054 DENSITY ALT 1700FT",2025-09-05 19:41:03.848928,2025-09-05 15:41:03.848928
"CYGK",2025-09-05 19:00:00,2025-09-05 15:00:00,"VFR",22,16,69,190,15,24100,29.73,NA,"SCT  ft; SCT  ft; BKN  ft","CYGK 051900Z 19015KT 15SM SCT040 SCT120 BKN250 22/16 A2973 RMK SC3AC1CI2 SLP069 DENSITY ALT 1500FT",2025-09-05 19:41:03.924928,2025-09-05 15:41:03.924928
"CYQG",2025-09-05 19:00:00,2025-09-05 15:00:00,"VFR",22,8,41,260,17,14500,29.72,NA,"BKN  ft","CYQG 051900Z AUTO 26017G33KT 9SM BKN066 22/08 A2972 RMK SLP067 DENSITY ALT 1800FT",2025-09-05 19:41:03.998145,2025-09-05 15:41:03.998145
"CYVV",2025-09-05 19:13:00,2025-09-05 15:13:00,"MVFR",15,11,77,280,14,24100,29.63,NA,"BKN  ft; BKN  ft","CYVV 051913Z 28014G24KT 15SM BKN021 BKN035 15/11 A2963 RMK CF5SC2 PRESRR SLP036 DENSITY ALT 1300FT",2025-09-05 19:41:04.110054,2025-09-05 15:41:04.110054
"CYYZ",2025-09-05 19:00:00,2025-09-05 15:00:00,"VFR",22,12,53,220,22,24100,29.65,NA,"BKN  ft; BKN  ft","CYYZ 051900Z 22022G34KT 15SM BKN048 BKN110 22/12 A2965 RMK CU6AC1 SLP042 DENSITY ALT 1900FT",2025-09-05 19:41:04.184058,2025-09-05 15:41:04.184058
"CYQA",2025-09-05 19:00:00,2025-09-05 15:00:00,"VFR",19,12,64,200,13,14500,29.59,NA,"SCT  ft; SCT  ft; BKN  ft; OVC  ft","CYQA 051900Z AUTO 20013G19KT 9SM SCT044 SCT055 BKN067 OVC093 19/12 A2959 RMK SLP023 DENSITY ALT 2100FT",2025-09-05 19:41:04.257308,2025-09-05 15:41:04.257308
"CYER",2025-09-05 19:28:00,2025-09-05 15:28:00,"MVFR",9,8,94,20,12,14500,29.41,NA,"FEW  ft; SCT  ft; OVC  ft","CYER 051928Z AUTO 02012KT 9SM FEW006 SCT010 OVC014 09/08 A2941 RMK SLP961",2025-09-05 19:51:33.624126,2025-09-05 15:51:33.624126
"CYAT",2025-09-05 19:13:00,2025-09-05 15:13:00,"VFR",10,9,94,90,6,14500,29.31,NA,"FEW  ft; OVC  ft","CYAT 051913Z AUTO 09006KT 9SM -RA FEW008 OVC040 10/09 A2931 RMK SLP929",2025-09-05 19:51:33.704614,2025-09-05 15:51:33.704614
"CYMO",2025-09-05 19:01:00,2025-09-05 15:01:00,"MVFR",12,11,94,90,12,14500,29.29,NA,"SCT  ft; BKN  ft; BKN  ft; OVC  ft","CYMO 051901Z AUTO 09012G18KT 9SM -RA SCT011 BKN019 BKN030 OVC055 12/11 A2929 RMK SLP920 DENSITY ALT 500FT",2025-09-05 19:51:33.775432,2025-09-05 15:51:33.775432
"CYPL",2025-09-05 19:31:00,2025-09-05 15:31:00,"MVFR",5,5,100,310,9,6400,29.43,NA,"SCT  ft; OVC  ft","CYPL 051931Z AUTO 31009G19KT 270V330 4SM -RA BR SCT009 OVC016 05/05 A2943 RMK SLP981",2025-09-05 19:51:33.848386,2025-09-05 15:51:33.848386
"CYQT",2025-09-05 19:11:00,2025-09-05 15:11:00,"VFR",11,4,62,290,17,32200,29.49,NA,"BKN  ft; BKN  ft; OVC  ft","CYQT 051911Z 29017G26KT 20SM -SHRA BKN036 BKN100 OVC260 11/04 A2949 RMK SC6AC1CI1 CVCTV CLD EMBD SLP993 DENSITY ALT 900FT",2025-09-05 19:51:33.925634,2025-09-05 15:51:33.925634
"CYAM",2025-09-05 19:00:00,2025-09-05 15:00:00,"VFR",11,7,77,280,17,9700,29.55,NA,"SCT  ft; BKN  ft; OVC  ft","CYAM 051900Z 28017G25KT 6SM -SHRA BR SCT021 BKN042 OVC062 11/07 A2955 RMK CU4SC2SC2 SLP011",2025-09-05 19:51:33.99926,2025-09-05 15:51:33.99926
"CYTS",2025-09-05 19:43:00,2025-09-05 15:43:00,"MVFR",10,9,94,260,18,8000,29.29,NA,"FEW  ft; BKN  ft; OVC  ft","CYTS 051943Z 26018G28KT 210V310 5SM -SHRA FEW007 BKN013TCU OVC036 10/09 A2929 RMK CF1TCU6SC1 PRESRR SLP929 DENSITY ALT 1400FT",2025-09-05 19:51:34.071421,2025-09-05 15:51:34.071421
"CYSB",2025-09-05 19:00:00,2025-09-05 15:00:00,"MVFR",13,11,88,220,18,32200,29.45,NA,"BKN  ft; BKN  ft","CYSB 051900Z 22018G30KT 20SM BKN018 BKN100 13/11 A2945 RMK SC6AC1 SLP979 DENSITY ALT 1800FT",2025-09-05 19:51:34.144445,2025-09-05 15:51:34.144445
"CYYB",2025-09-05 19:41:00,2025-09-05 15:41:00,"MVFR",12,12,100,180,14,32200,29.53,NA,"BKN  ft; BKN  ft","CYYB 051941Z 18014KT 20SM BKN030 BKN050 12/12 A2953 RMK SC5SC2 WIND EST SLP006 DENSITY ALT 1600FT",2025-09-05 19:51:34.2182,2025-09-05 15:51:34.2182
"CYOW",2025-09-05 19:00:00,2025-09-05 15:00:00,"VFR",23,10,44,190,16,24100,29.68,NA,"FEW  ft; BKN  ft","CYOW 051900Z 19016G25KT 150V210 15SM FEW045 BKN110 23/10 A2968 RMK CU2AC4 SLP054 DENSITY ALT 1700FT",2025-09-05 19:51:34.292184,2025-09-05 15:51:34.292184
"CYGK",2025-09-05 19:00:00,2025-09-05 15:00:00,"VFR",22,16,69,190,15,24100,29.73,NA,"SCT  ft; SCT  ft; BKN  ft","CYGK 051900Z 19015KT 15SM SCT040 SCT120 BKN250 22/16 A2973 RMK SC3AC1CI2 SLP069 DENSITY ALT 1500FT",2025-09-05 19:51:34.375621,2025-09-05 15:51:34.375621
"CYQG",2025-09-05 19:00:00,2025-09-05 15:00:00,"VFR",22,8,41,260,17,14500,29.72,NA,"BKN  ft","CYQG 051900Z AUTO 26017G33KT 9SM BKN066 22/08 A2972 RMK SLP067 DENSITY ALT 1800FT",2025-09-05 19:51:34.453277,2025-09-05 15:51:34.453277
"CYVV",2025-09-05 19:13:00,2025-09-05 15:13:00,"MVFR",15,11,77,280,14,24100,29.63,NA,"BKN  ft; BKN  ft","CYVV 051913Z 28014G24KT 15SM BKN021 BKN035 15/11 A2963 RMK CF5SC2 PRESRR SLP036 DENSITY ALT 1300FT",2025-09-05 19:51:34.527399,2025-09-05 15:51:34.527399
"CYYZ",2025-09-05 19:00:00,2025-09-05 15:00:00,"VFR",22,12,53,220,22,24100,29.65,NA,"BKN  ft; BKN  ft","CYYZ 051900Z 22022G34KT 15SM BKN048 BKN110 22/12 A2965 RMK CU6AC1 SLP042 DENSITY ALT 1900FT",2025-09-05 19:51:34.599275,2025-09-05 15:51:34.599275
"CYQA",2025-09-05 19:00:00,2025-09-05 15:00:00,"VFR",19,12,64,200,13,14500,29.59,NA,"SCT  ft; SCT  ft; BKN  ft; OVC  ft","CYQA 051900Z AUTO 20013G19KT 9SM SCT044 SCT055 BKN067 OVC093 19/12 A2959 RMK SLP023 DENSITY ALT 2100FT",2025-09-05 19:51:34.673296,2025-09-05 15:51:34.673296
"CYER",2025-09-05 19:28:00,2025-09-05 15:28:00,"MVFR",9,8,94,20,12,14500,29.41,NA,"FEW  ft; SCT  ft; OVC  ft","CYER 051928Z AUTO 02012KT 9SM FEW006 SCT010 OVC014 09/08 A2941 RMK SLP961",2025-09-05 19:56:59.853552,2025-09-05 15:56:59.853552
"CYAT",2025-09-05 19:13:00,2025-09-05 15:13:00,"VFR",10,9,94,90,6,14500,29.31,NA,"FEW  ft; OVC  ft","CYAT 051913Z AUTO 09006KT 9SM -RA FEW008 OVC040 10/09 A2931 RMK SLP929",2025-09-05 19:56:59.95391,2025-09-05 15:56:59.95391
"CYMO",2025-09-05 19:50:00,2025-09-05 15:50:00,"MVFR",12,11,94,110,12,14500,29.26,NA,"FEW  ft; SCT  ft; BKN  ft; OVC  ft","CYMO 051950Z AUTO 11012G17KT 9SM -RA FEW012 SCT018 BKN022 OVC039 12/11 A2926 RMK PCPN 0.5MM PAST HR SLP910 DENSITY ALT 500FT",2025-09-05 19:57:00.047349,2025-09-05 15:57:00.047349
"CYPL",2025-09-05 19:31:00,2025-09-05 15:31:00,"MVFR",5,5,100,310,9,6400,29.43,NA,"SCT  ft; OVC  ft","CYPL 051931Z AUTO 31009G19KT 270V330 4SM -RA BR SCT009 OVC016 05/05 A2943 RMK SLP981",2025-09-05 19:57:00.145662,2025-09-05 15:57:00.145662
"CYQT",2025-09-05 19:11:00,2025-09-05 15:11:00,"VFR",11,4,62,290,17,32200,29.49,NA,"BKN  ft; BKN  ft; OVC  ft","CYQT 051911Z 29017G26KT 20SM -SHRA BKN036 BKN100 OVC260 11/04 A2949 RMK SC6AC1CI1 CVCTV CLD EMBD SLP993 DENSITY ALT 900FT",2025-09-05 19:57:00.24371,2025-09-05 15:57:00.24371
"CYAM",2025-09-05 19:00:00,2025-09-05 15:00:00,"VFR",11,7,77,280,17,9700,29.55,NA,"SCT  ft; BKN  ft; OVC  ft","CYAM 051900Z 28017G25KT 6SM -SHRA BR SCT021 BKN042 OVC062 11/07 A2955 RMK CU4SC2SC2 SLP011",2025-09-05 19:57:00.341665,2025-09-05 15:57:00.341665
"CYTS",2025-09-05 19:43:00,2025-09-05 15:43:00,"MVFR",10,9,94,260,18,8000,29.29,NA,"FEW  ft; BKN  ft; OVC  ft","CYTS 051943Z 26018G28KT 210V310 5SM -SHRA FEW007 BKN013TCU OVC036 10/09 A2929 RMK CF1TCU6SC1 PRESRR SLP929 DENSITY ALT 1400FT",2025-09-05 19:57:00.474064,2025-09-05 15:57:00.474064
"CYSB",2025-09-05 19:00:00,2025-09-05 15:00:00,"MVFR",13,11,88,220,18,32200,29.45,NA,"BKN  ft; BKN  ft","CYSB 051900Z 22018G30KT 20SM BKN018 BKN100 13/11 A2945 RMK SC6AC1 SLP979 DENSITY ALT 1800FT",2025-09-05 19:57:00.614385,2025-09-05 15:57:00.614385
"CYYB",2025-09-05 19:41:00,2025-09-05 15:41:00,"MVFR",12,12,100,180,14,32200,29.53,NA,"BKN  ft; BKN  ft","CYYB 051941Z 18014KT 20SM BKN030 BKN050 12/12 A2953 RMK SC5SC2 WIND EST SLP006 DENSITY ALT 1600FT",2025-09-05 19:57:00.706971,2025-09-05 15:57:00.706971
"CYOW",2025-09-05 19:00:00,2025-09-05 15:00:00,"VFR",23,10,44,190,16,24100,29.68,NA,"FEW  ft; BKN  ft","CYOW 051900Z 19016G25KT 150V210 15SM FEW045 BKN110 23/10 A2968 RMK CU2AC4 SLP054 DENSITY ALT 1700FT",2025-09-05 19:57:00.800237,2025-09-05 15:57:00.800237
"CYGK",2025-09-05 19:00:00,2025-09-05 15:00:00,"VFR",22,16,69,190,15,24100,29.73,NA,"SCT  ft; SCT  ft; BKN  ft","CYGK 051900Z 19015KT 15SM SCT040 SCT120 BKN250 22/16 A2973 RMK SC3AC1CI2 SLP069 DENSITY ALT 1500FT",2025-09-05 19:57:00.938766,2025-09-05 15:57:00.938766
"CYQG",2025-09-05 19:00:00,2025-09-05 15:00:00,"VFR",22,8,41,260,17,14500,29.72,NA,"BKN  ft","CYQG 051900Z AUTO 26017G33KT 9SM BKN066 22/08 A2972 RMK SLP067 DENSITY ALT 1800FT",2025-09-05 19:57:01.049024,2025-09-05 15:57:01.049024
"CYVV",2025-09-05 19:13:00,2025-09-05 15:13:00,"MVFR",15,11,77,280,14,24100,29.63,NA,"BKN  ft; BKN  ft","CYVV 051913Z 28014G24KT 15SM BKN021 BKN035 15/11 A2963 RMK CF5SC2 PRESRR SLP036 DENSITY ALT 1300FT",2025-09-05 19:57:01.143106,2025-09-05 15:57:01.143106
"CYYZ",2025-09-05 19:00:00,2025-09-05 15:00:00,"VFR",22,12,53,220,22,24100,29.65,NA,"BKN  ft; BKN  ft","CYYZ 051900Z 22022G34KT 15SM BKN048 BKN110 22/12 A2965 RMK CU6AC1 SLP042 DENSITY ALT 1900FT",2025-09-05 19:57:01.240415,2025-09-05 15:57:01.240415
"CYQA",2025-09-05 19:00:00,2025-09-05 15:00:00,"VFR",19,12,64,200,13,14500,29.59,NA,"SCT  ft; SCT  ft; BKN  ft; OVC  ft","CYQA 051900Z AUTO 20013G19KT 9SM SCT044 SCT055 BKN067 OVC093 19/12 A2959 RMK SLP023 DENSITY ALT 2100FT",2025-09-05 19:57:01.334239,2025-09-05 15:57:01.334239
"CYER",2025-09-05 19:28:00,2025-09-05 15:28:00,"MVFR",9,8,94,20,12,14500,29.41,NA,"FEW  ft; SCT  ft; OVC  ft","CYER 051928Z AUTO 02012KT 9SM FEW006 SCT010 OVC014 09/08 A2941 RMK SLP961",2025-09-05 20:09:17.065331,2025-09-05 16:09:17.065331
"CYAT",2025-09-05 19:58:00,2025-09-05 15:58:00,"MVFR",9,8,94,50,4,14500,29.31,NA,"OVC  ft","CYAT 051958Z AUTO 05004KT 9SM OVC026 09/08 A2931 RMK PCPN 0.5MM PAST HR SLP926",2025-09-05 20:09:17.154542,2025-09-05 16:09:17.154542
"CYMO",2025-09-05 19:50:00,2025-09-05 15:50:00,"MVFR",12,11,94,110,12,14500,29.26,NA,"FEW  ft; SCT  ft; BKN  ft; OVC  ft","CYMO 051950Z AUTO 11012G17KT 9SM -RA FEW012 SCT018 BKN022 OVC039 12/11 A2926 RMK PCPN 0.5MM PAST HR SLP910 DENSITY ALT 500FT",2025-09-05 20:09:17.23878,2025-09-05 16:09:17.23878
"CYPL",2025-09-05 20:04:00,2025-09-05 16:04:00,"MVFR",5,5,100,320,9,14500,29.43,NA,"BKN  ft; OVC  ft","CYPL 052004Z AUTO 32009G21KT 270V010 9SM BKN015 OVC021 05/05 A2943 RMK SLP984",2025-09-05 20:09:17.321661,2025-09-05 16:09:17.321661
"CYQT",2025-09-05 19:11:00,2025-09-05 15:11:00,"VFR",11,4,62,290,17,32200,29.49,NA,"BKN  ft; BKN  ft; OVC  ft","CYQT 051911Z 29017G26KT 20SM -SHRA BKN036 BKN100 OVC260 11/04 A2949 RMK SC6AC1CI1 CVCTV CLD EMBD SLP993 DENSITY ALT 900FT",2025-09-05 20:09:17.44443,2025-09-05 16:09:17.44443
"CYAM",2025-09-05 19:00:00,2025-09-05 15:00:00,"VFR",11,7,77,280,17,9700,29.55,NA,"SCT  ft; BKN  ft; OVC  ft","CYAM 051900Z 28017G25KT 6SM -SHRA BR SCT021 BKN042 OVC062 11/07 A2955 RMK CU4SC2SC2 SLP011",2025-09-05 20:09:17.520775,2025-09-05 16:09:17.520775
"CYTS",2025-09-05 19:43:00,2025-09-05 15:43:00,"MVFR",10,9,94,260,18,8000,29.29,NA,"FEW  ft; BKN  ft; OVC  ft","CYTS 051943Z 26018G28KT 210V310 5SM -SHRA FEW007 BKN013TCU OVC036 10/09 A2929 RMK CF1TCU6SC1 PRESRR SLP929 DENSITY ALT 1400FT",2025-09-05 20:09:17.595815,2025-09-05 16:09:17.595815
"CYSB",2025-09-05 19:00:00,2025-09-05 15:00:00,"MVFR",13,11,88,220,18,32200,29.45,NA,"BKN  ft; BKN  ft","CYSB 051900Z 22018G30KT 20SM BKN018 BKN100 13/11 A2945 RMK SC6AC1 SLP979 DENSITY ALT 1800FT",2025-09-05 20:09:17.673234,2025-09-05 16:09:17.673234
"CYYB",2025-09-05 19:41:00,2025-09-05 15:41:00,"MVFR",12,12,100,180,14,32200,29.53,NA,"BKN  ft; BKN  ft","CYYB 051941Z 18014KT 20SM BKN030 BKN050 12/12 A2953 RMK SC5SC2 WIND EST SLP006 DENSITY ALT 1600FT",2025-09-05 20:09:17.748746,2025-09-05 16:09:17.748746
"CYOW",2025-09-05 19:00:00,2025-09-05 15:00:00,"VFR",23,10,44,190,16,24100,29.68,NA,"FEW  ft; BKN  ft","CYOW 051900Z 19016G25KT 150V210 15SM FEW045 BKN110 23/10 A2968 RMK CU2AC4 SLP054 DENSITY ALT 1700FT",2025-09-05 20:09:17.827419,2025-09-05 16:09:17.827419
"CYGK",2025-09-05 19:00:00,2025-09-05 15:00:00,"VFR",22,16,69,190,15,24100,29.73,NA,"SCT  ft; SCT  ft; BKN  ft","CYGK 051900Z 19015KT 15SM SCT040 SCT120 BKN250 22/16 A2973 RMK SC3AC1CI2 SLP069 DENSITY ALT 1500FT",2025-09-05 20:09:17.906615,2025-09-05 16:09:17.906615
"CYQG",2025-09-05 19:00:00,2025-09-05 15:00:00,"VFR",22,8,41,260,17,14500,29.72,NA,"BKN  ft","CYQG 051900Z AUTO 26017G33KT 9SM BKN066 22/08 A2972 RMK SLP067 DENSITY ALT 1800FT",2025-09-05 20:09:17.983409,2025-09-05 16:09:17.983409
"CYVV",2025-09-05 19:13:00,2025-09-05 15:13:00,"MVFR",15,11,77,280,14,24100,29.63,NA,"BKN  ft; BKN  ft","CYVV 051913Z 28014G24KT 15SM BKN021 BKN035 15/11 A2963 RMK CF5SC2 PRESRR SLP036 DENSITY ALT 1300FT",2025-09-05 20:09:18.054202,2025-09-05 16:09:18.054202
"CYYZ",2025-09-05 19:00:00,2025-09-05 15:00:00,"VFR",22,12,53,220,22,24100,29.65,NA,"BKN  ft; BKN  ft","CYYZ 051900Z 22022G34KT 15SM BKN048 BKN110 22/12 A2965 RMK CU6AC1 SLP042 DENSITY ALT 1900FT",2025-09-05 20:09:18.125371,2025-09-05 16:09:18.125371
"CYQA",2025-09-05 19:00:00,2025-09-05 15:00:00,"VFR",19,12,64,200,13,14500,29.59,NA,"SCT  ft; SCT  ft; BKN  ft; OVC  ft","CYQA 051900Z AUTO 20013G19KT 9SM SCT044 SCT055 BKN067 OVC093 19/12 A2959 RMK SLP023 DENSITY ALT 2100FT",2025-09-05 20:09:18.196048,2025-09-05 16:09:18.196048
"CYER",2025-09-05 20:00:00,2025-09-05 16:00:00,"MVFR",9,8,94,40,10,14500,29.42,NA,"BKN  ft; OVC  ft","CYER 052000Z AUTO 04010G16KT 9SM BKN018 OVC023 09/08 A2942 RMK SLP966",2025-09-05 20:29:26.991096,2025-09-05 16:29:26.991096
"CYAT",2025-09-05 20:24:00,2025-09-05 16:24:00,"VFR",9,8,94,50,3,14500,29.3,NA,"SCT  ft; BKN  ft; OVC  ft","CYAT 052024Z AUTO 05003KT 9SM SCT024 BKN049 OVC060 09/08 A2930 RMK SLP925",2025-09-05 20:29:27.042304,2025-09-05 16:29:27.042304
"CYMO",2025-09-05 20:20:00,2025-09-05 16:20:00,"MVFR",11,10,94,110,10,14500,29.25,NA,"BKN  ft; OVC  ft","CYMO 052020Z AUTO 11010G15KT 9SM -RA BKN014 OVC023 11/10 A2925 RMK SLP906 DENSITY ALT 400FT",2025-09-05 20:29:27.126865,2025-09-05 16:29:27.126865
"CYPL",2025-09-05 20:24:00,2025-09-05 16:24:00,"MVFR",5,4,93,310,8,14500,29.45,NA,"OVC  ft","CYPL 052024Z AUTO 31008G17KT 260V020 9SM -RA OVC013 05/04 A2945 RMK SLP988",2025-09-05 20:29:27.171711,2025-09-05 16:29:27.171711
"CYQT",2025-09-05 20:00:00,2025-09-05 16:00:00,"VFR",10,6,76,280,17,32200,29.5,NA,"BKN  ft; OVC  ft","CYQT 052000Z 28017G26KT 20SM -SHRA BKN036 OVC050 10/06 A2950 RMK SC6SC2 CVCTV CLD EMBD SLP998",2025-09-05 20:29:27.260677,2025-09-05 16:29:27.260677
"CYAM",2025-09-05 20:00:00,2025-09-05 16:00:00,"VFR",11,8,82,270,12,32200,29.58,NA,"FEW  ft; BKN  ft; OVC  ft","CYAM 052000Z 27012G19KT 20SM VCSH FEW021 BKN046 OVC100 11/08 A2958 RMK CU2SC4AC2 VCSH SE SLP021",2025-09-05 20:29:27.306209,2025-09-05 16:29:27.306209
"CYTS",2025-09-05 20:00:00,2025-09-05 16:00:00,"MVFR",10,9,94,270,9,24100,29.32,NA,"BKN  ft; OVC  ft","CYTS 052000Z 27009G20KT 230V300 15SM -SHRA BKN014TCU OVC035 10/09 A2932 RMK TCU6SC2 PRESRR SLP940 DENSITY ALT 1300FT",2025-09-05 20:29:27.391512,2025-09-05 16:29:27.391512
"CYSB",2025-09-05 20:00:00,2025-09-05 16:00:00,"MVFR",15,8,63,260,15,32200,29.49,NA,"BKN  ft; BKN  ft","CYSB 052000Z 26015G36KT 20SM BKN030 BKN100 15/08 A2949 RMK SC6AC1 SLP995 DENSITY ALT 1900FT",2025-09-05 20:29:27.478673,2025-09-05 16:29:27.478673
"CYYB",2025-09-05 20:00:00,2025-09-05 16:00:00,"MVFR",12,11,94,270,9,32200,29.54,NA,"FEW  ft; BKN  ft","CYYB 052000Z 27009KT 20SM FEW005 BKN030 12/11 A2954 RMK SF2SC5 WIND EST SLP010 DENSITY ALT 1700FT",2025-09-05 20:29:27.562829,2025-09-05 16:29:27.562829
"CYOW",2025-09-05 20:00:00,2025-09-05 16:00:00,"VFR",22,9,44,210,22,24100,29.69,NA,"SCT  ft; BKN  ft","CYOW 052000Z 21022G33KT 15SM SCT055 BKN090 22/09 A2969 RMK CU3AC3 SLP055 DENSITY ALT 1600FT",2025-09-05 20:29:27.649685,2025-09-05 16:29:27.649685
"CYGK",2025-09-05 20:00:00,2025-09-05 16:00:00,"VFR",23,16,65,210,14,24100,29.73,NA,"FEW  ft; SCT  ft; BKN  ft","CYGK 052000Z 21014G20KT 15SM FEW050 SCT100 BKN220 23/16 A2973 RMK SC2AC2CI1 SLP068 DENSITY ALT 1500FT",2025-09-05 20:29:27.737108,2025-09-05 16:29:27.737108
"CYQG",2025-09-05 20:00:00,2025-09-05 16:00:00,"VFR",22,8,41,260,19,14500,29.75,NA,"BKN  ft; BKN  ft","CYQG 052000Z AUTO 26019G31KT 9SM BKN066 BKN080 22/08 A2975 RMK SLP077 DENSITY ALT 1800FT",2025-09-05 20:29:27.782201,2025-09-05 16:29:27.782201
"CYVV",2025-09-05 20:00:00,2025-09-05 16:00:00,"MVFR",15,10,72,260,14,24100,29.65,NA,"BKN  ft; BKN  ft","CYVV 052000Z 26014G24KT 15SM BKN021 BKN050 15/10 A2965 RMK SF5SC2 SLP045 DENSITY ALT 1200FT",2025-09-05 20:29:27.866896,2025-09-05 16:29:27.866896
"CYYZ",2025-09-05 20:00:00,2025-09-05 16:00:00,"VFR",23,13,53,230,22,24100,29.64,NA,"BKN  ft","CYYZ 052000Z 23022G34KT 15SM BKN047 23/13 A2964 RMK CU6 SLP038 DENSITY ALT 2000FT",2025-09-05 20:29:27.912228,2025-09-05 16:29:27.912228
"CYQA",2025-09-05 20:00:00,2025-09-05 16:00:00,"VFR",21,10,50,220,11,14500,29.59,NA,"FEW  ft; SCT  ft","CYQA 052000Z AUTO 22011G27KT 200V280 9SM FEW055 SCT099 21/10 A2959 RMK SLP023 DENSITY ALT 2300FT",2025-09-05 20:29:27.996383,2025-09-05 16:29:27.996383
"CYER",2025-09-05 20:00:00,2025-09-05 16:00:00,"MVFR",9,8,94,40,10,14500,29.42,NA,"BKN  ft; OVC  ft","CYER 052000Z AUTO 04010G16KT 9SM BKN018 OVC023 09/08 A2942 RMK SLP966",2025-09-05 20:39:13.227165,2025-09-05 16:39:13.227165
"CYAT",2025-09-05 20:35:00,2025-09-05 16:35:00,"MVFR",9,8,94,30,5,8000,29.3,NA,"FEW  ft; BKN  ft; BKN  ft; OVC  ft","CYAT 052035Z AUTO 03005KT 5SM BR FEW024 BKN032 BKN040 OVC055 09/08 A2930 RMK SLP924",2025-09-05 20:39:13.30682,2025-09-05 16:39:13.30682
"CYMO",2025-09-05 20:33:00,2025-09-05 16:33:00,"MVFR",12,11,94,110,13,14500,29.24,NA,"BKN  ft; BKN  ft; OVC  ft","CYMO 052033Z AUTO 11013G22KT 9SM BKN012 BKN018 OVC030 12/11 A2924 RMK SLP904 DENSITY ALT 400FT",2025-09-05 20:39:13.382022,2025-09-05 16:39:13.382022
"CYPL",2025-09-05 20:24:00,2025-09-05 16:24:00,"MVFR",5,4,93,310,8,14500,29.45,NA,"OVC  ft","CYPL 052024Z AUTO 31008G17KT 260V020 9SM -RA OVC013 05/04 A2945 RMK SLP988",2025-09-05 20:39:13.453907,2025-09-05 16:39:13.453907
"CYQT",2025-09-05 20:00:00,2025-09-05 16:00:00,"VFR",10,6,76,280,17,32200,29.5,NA,"BKN  ft; OVC  ft","CYQT 052000Z 28017G26KT 20SM -SHRA BKN036 OVC050 10/06 A2950 RMK SC6SC2 CVCTV CLD EMBD SLP998",2025-09-05 20:39:13.529758,2025-09-05 16:39:13.529758
"CYAM",2025-09-05 20:00:00,2025-09-05 16:00:00,"VFR",11,8,82,270,12,32200,29.58,NA,"FEW  ft; BKN  ft; OVC  ft","CYAM 052000Z 27012G19KT 20SM VCSH FEW021 BKN046 OVC100 11/08 A2958 RMK CU2SC4AC2 VCSH SE SLP021",2025-09-05 20:39:13.600883,2025-09-05 16:39:13.600883
"CYTS",2025-09-05 20:00:00,2025-09-05 16:00:00,"MVFR",10,9,94,270,9,24100,29.32,NA,"BKN  ft; OVC  ft","CYTS 052000Z 27009G20KT 230V300 15SM -SHRA BKN014TCU OVC035 10/09 A2932 RMK TCU6SC2 PRESRR SLP940 DENSITY ALT 1300FT",2025-09-05 20:39:13.674761,2025-09-05 16:39:13.674761
"CYSB",2025-09-05 20:00:00,2025-09-05 16:00:00,"MVFR",15,8,63,260,15,32200,29.49,NA,"BKN  ft; BKN  ft","CYSB 052000Z 26015G36KT 20SM BKN030 BKN100 15/08 A2949 RMK SC6AC1 SLP995 DENSITY ALT 1900FT",2025-09-05 20:39:13.749283,2025-09-05 16:39:13.749283
"CYYB",2025-09-05 20:00:00,2025-09-05 16:00:00,"MVFR",12,11,94,270,9,32200,29.54,NA,"FEW  ft; BKN  ft","CYYB 052000Z 27009KT 20SM FEW005 BKN030 12/11 A2954 RMK SF2SC5 WIND EST SLP010 DENSITY ALT 1700FT",2025-09-05 20:39:13.825133,2025-09-05 16:39:13.825133
"CYOW",2025-09-05 20:00:00,2025-09-05 16:00:00,"VFR",22,9,44,210,22,24100,29.69,NA,"SCT  ft; BKN  ft","CYOW 052000Z 21022G33KT 15SM SCT055 BKN090 22/09 A2969 RMK CU3AC3 SLP055 DENSITY ALT 1600FT",2025-09-05 20:39:13.896285,2025-09-05 16:39:13.896285
"CYGK",2025-09-05 20:00:00,2025-09-05 16:00:00,"VFR",23,16,65,210,14,24100,29.73,NA,"FEW  ft; SCT  ft; BKN  ft","CYGK 052000Z 21014G20KT 15SM FEW050 SCT100 BKN220 23/16 A2973 RMK SC2AC2CI1 SLP068 DENSITY ALT 1500FT",2025-09-05 20:39:13.971989,2025-09-05 16:39:13.971989
"CYQG",2025-09-05 20:00:00,2025-09-05 16:00:00,"VFR",22,8,41,260,19,14500,29.75,NA,"BKN  ft; BKN  ft","CYQG 052000Z AUTO 26019G31KT 9SM BKN066 BKN080 22/08 A2975 RMK SLP077 DENSITY ALT 1800FT",2025-09-05 20:39:14.003491,2025-09-05 16:39:14.003491
"CYVV",2025-09-05 20:00:00,2025-09-05 16:00:00,"MVFR",15,10,72,260,14,24100,29.65,NA,"BKN  ft; BKN  ft","CYVV 052000Z 26014G24KT 15SM BKN021 BKN050 15/10 A2965 RMK SF5SC2 SLP045 DENSITY ALT 1200FT",2025-09-05 20:39:14.075254,2025-09-05 16:39:14.075254
"CYYZ",2025-09-05 20:00:00,2025-09-05 16:00:00,"VFR",23,13,53,230,22,24100,29.64,NA,"BKN  ft","CYYZ 052000Z 23022G34KT 15SM BKN047 23/13 A2964 RMK CU6 SLP038 DENSITY ALT 2000FT",2025-09-05 20:39:14.148209,2025-09-05 16:39:14.148209
"CYQA",2025-09-05 20:36:00,2025-09-05 16:36:00,"VFR",19,10,56,270,22,14500,29.62,NA,"FEW  ft; SCT  ft; BKN  ft; BKN  ft","CYQA 052036Z AUTO 27022G36KT 210V300 9SM FEW033 SCT060 BKN075 BKN089 19/10 A2962 RMK LTNG DIST W PRESRR SLP033 DENSITY ALT 2000FT",2025-09-05 20:39:14.218911,2025-09-05 16:39:14.218911
"CYER",2025-09-05 20:00:00,2025-09-05 16:00:00,"MVFR",9,8,94,40,10,14500,29.42,NA,"BKN  ft; OVC  ft","CYER 052000Z AUTO 04010G16KT 9SM BKN018 OVC023 09/08 A2942 RMK SLP966",2025-09-05 20:45:37.030677,2025-09-05 16:45:37.030677
"CYAT",2025-09-05 20:37:00,2025-09-05 16:37:00,"MVFR",9,8,94,20,4,6400,29.3,NA,"FEW  ft; SCT  ft; BKN  ft; OVC  ft","CYAT 052037Z AUTO 02004KT 4SM -RA BR FEW024 SCT032 BKN038 OVC055 09/08 A2930 RMK SLP924",2025-09-05 20:45:37.083044,2025-09-05 16:45:37.083044
"CYMO",2025-09-05 20:33:00,2025-09-05 16:33:00,"MVFR",12,11,94,110,13,14500,29.24,NA,"BKN  ft; BKN  ft; OVC  ft","CYMO 052033Z AUTO 11013G22KT 9SM BKN012 BKN018 OVC030 12/11 A2924 RMK SLP904 DENSITY ALT 400FT",2025-09-05 20:45:37.167483,2025-09-05 16:45:37.167483
"CYPL",2025-09-05 20:41:00,2025-09-05 16:41:00,"MVFR",5,4,93,330,6,14500,29.45,NA,"BKN  ft; BKN  ft; OVC  ft","CYPL 052041Z AUTO 33006G20KT 200V350 9SM BKN013 BKN028 OVC060 05/04 A2945 RMK SLP990",2025-09-05 20:45:37.251699,2025-09-05 16:45:37.251699
"CYQT",2025-09-05 20:00:00,2025-09-05 16:00:00,"VFR",10,6,76,280,17,32200,29.5,NA,"BKN  ft; OVC  ft","CYQT 052000Z 28017G26KT 20SM -SHRA BKN036 OVC050 10/06 A2950 RMK SC6SC2 CVCTV CLD EMBD SLP998",2025-09-05 20:45:37.341372,2025-09-05 16:45:37.341372
"CYAM",2025-09-05 20:00:00,2025-09-05 16:00:00,"VFR",11,8,82,270,12,32200,29.58,NA,"FEW  ft; BKN  ft; OVC  ft","CYAM 052000Z 27012G19KT 20SM VCSH FEW021 BKN046 OVC100 11/08 A2958 RMK CU2SC4AC2 VCSH SE SLP021",2025-09-05 20:45:37.427518,2025-09-05 16:45:37.427518
"CYTS",2025-09-05 20:00:00,2025-09-05 16:00:00,"MVFR",10,9,94,270,9,24100,29.32,NA,"BKN  ft; OVC  ft","CYTS 052000Z 27009G20KT 230V300 15SM -SHRA BKN014TCU OVC035 10/09 A2932 RMK TCU6SC2 PRESRR SLP940 DENSITY ALT 1300FT",2025-09-05 20:45:37.476256,2025-09-05 16:45:37.476256
"CYSB",2025-09-05 20:00:00,2025-09-05 16:00:00,"MVFR",15,8,63,260,15,32200,29.49,NA,"BKN  ft; BKN  ft","CYSB 052000Z 26015G36KT 20SM BKN030 BKN100 15/08 A2949 RMK SC6AC1 SLP995 DENSITY ALT 1900FT",2025-09-05 20:45:37.560485,2025-09-05 16:45:37.560485
"CYYB",2025-09-05 20:00:00,2025-09-05 16:00:00,"MVFR",12,11,94,270,9,32200,29.54,NA,"FEW  ft; BKN  ft","CYYB 052000Z 27009KT 20SM FEW005 BKN030 12/11 A2954 RMK SF2SC5 WIND EST SLP010 DENSITY ALT 1700FT",2025-09-05 20:45:37.646636,2025-09-05 16:45:37.646636
"CYOW",2025-09-05 20:00:00,2025-09-05 16:00:00,"VFR",22,9,44,210,22,24100,29.69,NA,"SCT  ft; BKN  ft","CYOW 052000Z 21022G33KT 15SM SCT055 BKN090 22/09 A2969 RMK CU3AC3 SLP055 DENSITY ALT 1600FT",2025-09-05 20:45:37.731608,2025-09-05 16:45:37.731608
"CYGK",2025-09-05 20:00:00,2025-09-05 16:00:00,"VFR",23,16,65,210,14,24100,29.73,NA,"FEW  ft; SCT  ft; BKN  ft","CYGK 052000Z 21014G20KT 15SM FEW050 SCT100 BKN220 23/16 A2973 RMK SC2AC2CI1 SLP068 DENSITY ALT 1500FT",2025-09-05 20:45:37.817468,2025-09-05 16:45:37.817468
"CYQG",2025-09-05 20:00:00,2025-09-05 16:00:00,"VFR",22,8,41,260,19,14500,29.75,NA,"BKN  ft; BKN  ft","CYQG 052000Z AUTO 26019G31KT 9SM BKN066 BKN080 22/08 A2975 RMK SLP077 DENSITY ALT 1800FT",2025-09-05 20:45:37.904658,2025-09-05 16:45:37.904658
"CYVV",2025-09-05 20:00:00,2025-09-05 16:00:00,"MVFR",15,10,72,260,14,24100,29.65,NA,"BKN  ft; BKN  ft","CYVV 052000Z 26014G24KT 15SM BKN021 BKN050 15/10 A2965 RMK SF5SC2 SLP045 DENSITY ALT 1200FT",2025-09-05 20:45:37.995548,2025-09-05 16:45:37.995548
"CYYZ",2025-09-05 20:00:00,2025-09-05 16:00:00,"VFR",23,13,53,230,22,24100,29.64,NA,"BKN  ft","CYYZ 052000Z 23022G34KT 15SM BKN047 23/13 A2964 RMK CU6 SLP038 DENSITY ALT 2000FT",2025-09-05 20:45:38.080657,2025-09-05 16:45:38.080657
"CYQA",2025-09-05 20:42:00,2025-09-05 16:42:00,"VFR",15,11,77,300,17,9700,29.64,NA,"FEW  ft; SCT  ft; BKN  ft; BKN  ft","CYQA 052042Z AUTO 30017G36KT 210V330 6SM +RA FEW031 SCT045 BKN060 BKN077 15/11 A2964 RMK PRESRR PCPN 1.0MM PAST HR SLP040 DENSITY ALT 1600FT",2025-09-05 20:45:38.167453,2025-09-05 16:45:38.167453
"CYER",2025-09-05 20:00:00,2025-09-05 16:00:00,"MVFR",9,8,94,40,10,14500,29.42,NA,"BKN  ft; OVC  ft","CYER 052000Z AUTO 04010G16KT 9SM BKN018 OVC023 09/08 A2942 RMK SLP966",2025-09-05 20:51:31.883184,2025-09-05 16:51:31.883184
"CYAT",2025-09-05 20:46:00,2025-09-05 16:46:00,"MVFR",9,8,94,20,5,12900,29.3,NA,"FEW  ft; BKN  ft; BKN  ft; OVC  ft","CYAT 052046Z AUTO 02005KT 8SM -RA FEW026 BKN030 BKN040 OVC055 09/08 A2930 RMK SLP924",2025-09-05 20:51:31.976684,2025-09-05 16:51:31.976684
"CYMO",2025-09-05 20:33:00,2025-09-05 16:33:00,"MVFR",12,11,94,110,13,14500,29.24,NA,"BKN  ft; BKN  ft; OVC  ft","CYMO 052033Z AUTO 11013G22KT 9SM BKN012 BKN018 OVC030 12/11 A2924 RMK SLP904 DENSITY ALT 400FT",2025-09-05 20:51:32.068238,2025-09-05 16:51:32.068238
"CYPL",2025-09-05 20:41:00,2025-09-05 16:41:00,"MVFR",5,4,93,330,6,14500,29.45,NA,"BKN  ft; BKN  ft; OVC  ft","CYPL 052041Z AUTO 33006G20KT 200V350 9SM BKN013 BKN028 OVC060 05/04 A2945 RMK SLP990",2025-09-05 20:51:32.12501,2025-09-05 16:51:32.12501
"CYQT",2025-09-05 20:00:00,2025-09-05 16:00:00,"VFR",10,6,76,280,17,32200,29.5,NA,"BKN  ft; OVC  ft","CYQT 052000Z 28017G26KT 20SM -SHRA BKN036 OVC050 10/06 A2950 RMK SC6SC2 CVCTV CLD EMBD SLP998",2025-09-05 20:51:32.224732,2025-09-05 16:51:32.224732
"CYAM",2025-09-05 20:00:00,2025-09-05 16:00:00,"VFR",11,8,82,270,12,32200,29.58,NA,"FEW  ft; BKN  ft; OVC  ft","CYAM 052000Z 27012G19KT 20SM VCSH FEW021 BKN046 OVC100 11/08 A2958 RMK CU2SC4AC2 VCSH SE SLP021",2025-09-05 20:51:32.316819,2025-09-05 16:51:32.316819
"CYTS",2025-09-05 20:46:00,2025-09-05 16:46:00,"MVFR",9,8,94,260,12,9700,29.38,NA,"FEW  ft; OVC  ft","CYTS 052046Z 26012G20KT 220V300 6SM -SHRA BR FEW015 OVC026 09/08 A2938 RMK CF2CU6 PRESRR SLP959",2025-09-05 20:51:32.412599,2025-09-05 16:51:32.412599
"CYSB",2025-09-05 20:00:00,2025-09-05 16:00:00,"MVFR",15,8,63,260,15,32200,29.49,NA,"BKN  ft; BKN  ft","CYSB 052000Z 26015G36KT 20SM BKN030 BKN100 15/08 A2949 RMK SC6AC1 SLP995 DENSITY ALT 1900FT",2025-09-05 20:51:32.463924,2025-09-05 16:51:32.463924
"CYYB",2025-09-05 20:00:00,2025-09-05 16:00:00,"MVFR",12,11,94,270,9,32200,29.54,NA,"FEW  ft; BKN  ft","CYYB 052000Z 27009KT 20SM FEW005 BKN030 12/11 A2954 RMK SF2SC5 WIND EST SLP010 DENSITY ALT 1700FT",2025-09-05 20:51:32.554479,2025-09-05 16:51:32.554479
"CYOW",2025-09-05 20:00:00,2025-09-05 16:00:00,"VFR",22,9,44,210,22,24100,29.69,NA,"SCT  ft; BKN  ft","CYOW 052000Z 21022G33KT 15SM SCT055 BKN090 22/09 A2969 RMK CU3AC3 SLP055 DENSITY ALT 1600FT",2025-09-05 20:51:32.604827,2025-09-05 16:51:32.604827
"CYGK",2025-09-05 20:00:00,2025-09-05 16:00:00,"VFR",23,16,65,210,14,24100,29.73,NA,"FEW  ft; SCT  ft; BKN  ft","CYGK 052000Z 21014G20KT 15SM FEW050 SCT100 BKN220 23/16 A2973 RMK SC2AC2CI1 SLP068 DENSITY ALT 1500FT",2025-09-05 20:51:32.709019,2025-09-05 16:51:32.709019
"CYQG",2025-09-05 20:00:00,2025-09-05 16:00:00,"VFR",22,8,41,260,19,14500,29.75,NA,"BKN  ft; BKN  ft","CYQG 052000Z AUTO 26019G31KT 9SM BKN066 BKN080 22/08 A2975 RMK SLP077 DENSITY ALT 1800FT",2025-09-05 20:51:32.760278,2025-09-05 16:51:32.760278
"CYVV",2025-09-05 20:00:00,2025-09-05 16:00:00,"MVFR",15,10,72,260,14,24100,29.65,NA,"BKN  ft; BKN  ft","CYVV 052000Z 26014G24KT 15SM BKN021 BKN050 15/10 A2965 RMK SF5SC2 SLP045 DENSITY ALT 1200FT",2025-09-05 20:51:32.85369,2025-09-05 16:51:32.85369
"CYYZ",2025-09-05 20:00:00,2025-09-05 16:00:00,"VFR",23,13,53,230,22,24100,29.64,NA,"BKN  ft","CYYZ 052000Z 23022G34KT 15SM BKN047 23/13 A2964 RMK CU6 SLP038 DENSITY ALT 2000FT",2025-09-05 20:51:32.944235,2025-09-05 16:51:32.944235
"CYQA",2025-09-05 20:48:00,2025-09-05 16:48:00,"VFR",15,12,82,290,13,9700,29.65,NA,"FEW  ft; BKN  ft; BKN  ft; OVC  ft","CYQA 052048Z AUTO 29013G35KT 260V330 6SM -RA FEW033 BKN050 BKN066 OVC077 15/12 A2965 RMK PRESRR PCPN 1.2MM PAST HR SLP043 DENSITY ALT 1500FT",2025-09-05 20:51:32.992193,2025-09-05 16:51:32.992193
"CYER",2025-09-05 20:00:00,2025-09-05 16:00:00,"MVFR",9,8,94,40,10,14500,29.42,NA,"BKN  ft; OVC  ft","CYER 052000Z AUTO 04010G16KT 9SM BKN018 OVC023 09/08 A2942 RMK SLP966",2025-09-05 21:01:42.700439,2025-09-05 17:01:42.700439
"CYAT",2025-09-05 20:54:00,2025-09-05 16:54:00,"MVFR",9,8,94,40,6,12900,29.3,NA,"FEW  ft; BKN  ft; BKN  ft; OVC  ft","CYAT 052054Z AUTO 04006KT 8SM -RA FEW017 BKN023 BKN030 OVC036 09/08 A2930 RMK SLP924",2025-09-05 21:01:42.779085,2025-09-05 17:01:42.779085
"CYMO",2025-09-05 20:53:00,2025-09-05 16:53:00,"MVFR",12,11,94,110,12,14500,29.23,NA,"FEW  ft; SCT  ft; BKN  ft; OVC  ft","CYMO 052053Z AUTO 11012G17KT 9SM FEW008 SCT012 BKN017 OVC034 12/11 A2923 RMK SLP901 DENSITY ALT 500FT",2025-09-05 21:01:42.846258,2025-09-05 17:01:42.846258
"CYPL",2025-09-05 20:41:00,2025-09-05 16:41:00,"MVFR",5,4,93,330,6,14500,29.45,NA,"BKN  ft; BKN  ft; OVC  ft","CYPL 052041Z AUTO 33006G20KT 200V350 9SM BKN013 BKN028 OVC060 05/04 A2945 RMK SLP990",2025-09-05 21:01:42.913427,2025-09-05 17:01:42.913427
"CYQT",2025-09-05 20:00:00,2025-09-05 16:00:00,"VFR",10,6,76,280,17,32200,29.5,NA,"BKN  ft; OVC  ft","CYQT 052000Z 28017G26KT 20SM -SHRA BKN036 OVC050 10/06 A2950 RMK SC6SC2 CVCTV CLD EMBD SLP998",2025-09-05 21:01:42.944689,2025-09-05 17:01:42.944689
"CYAM",2025-09-05 20:00:00,2025-09-05 16:00:00,"VFR",11,8,82,270,12,32200,29.58,NA,"FEW  ft; BKN  ft; OVC  ft","CYAM 052000Z 27012G19KT 20SM VCSH FEW021 BKN046 OVC100 11/08 A2958 RMK CU2SC4AC2 VCSH SE SLP021",2025-09-05 21:01:43.013509,2025-09-05 17:01:43.013509
"CYTS",2025-09-05 20:46:00,2025-09-05 16:46:00,"MVFR",9,8,94,260,12,9700,29.38,NA,"FEW  ft; OVC  ft","CYTS 052046Z 26012G20KT 220V300 6SM -SHRA BR FEW015 OVC026 09/08 A2938 RMK CF2CU6 PRESRR SLP959",2025-09-05 21:01:43.082582,2025-09-05 17:01:43.082582
"CYSB",2025-09-05 20:00:00,2025-09-05 16:00:00,"MVFR",15,8,63,260,15,32200,29.49,NA,"BKN  ft; BKN  ft","CYSB 052000Z 26015G36KT 20SM BKN030 BKN100 15/08 A2949 RMK SC6AC1 SLP995 DENSITY ALT 1900FT",2025-09-05 21:01:43.15056,2025-09-05 17:01:43.15056
"CYYB",2025-09-05 20:00:00,2025-09-05 16:00:00,"MVFR",12,11,94,270,9,32200,29.54,NA,"FEW  ft; BKN  ft","CYYB 052000Z 27009KT 20SM FEW005 BKN030 12/11 A2954 RMK SF2SC5 WIND EST SLP010 DENSITY ALT 1700FT",2025-09-05 21:01:43.21921,2025-09-05 17:01:43.21921
"CYOW",2025-09-05 20:00:00,2025-09-05 16:00:00,"VFR",22,9,44,210,22,24100,29.69,NA,"SCT  ft; BKN  ft","CYOW 052000Z 21022G33KT 15SM SCT055 BKN090 22/09 A2969 RMK CU3AC3 SLP055 DENSITY ALT 1600FT",2025-09-05 21:01:43.288499,2025-09-05 17:01:43.288499
"CYGK",2025-09-05 20:00:00,2025-09-05 16:00:00,"VFR",23,16,65,210,14,24100,29.73,NA,"FEW  ft; SCT  ft; BKN  ft","CYGK 052000Z 21014G20KT 15SM FEW050 SCT100 BKN220 23/16 A2973 RMK SC2AC2CI1 SLP068 DENSITY ALT 1500FT",2025-09-05 21:01:43.362012,2025-09-05 17:01:43.362012
"CYQG",2025-09-05 20:00:00,2025-09-05 16:00:00,"VFR",22,8,41,260,19,14500,29.75,NA,"BKN  ft; BKN  ft","CYQG 052000Z AUTO 26019G31KT 9SM BKN066 BKN080 22/08 A2975 RMK SLP077 DENSITY ALT 1800FT",2025-09-05 21:01:43.42848,2025-09-05 17:01:43.42848
"CYVV",2025-09-05 20:00:00,2025-09-05 16:00:00,"MVFR",15,10,72,260,14,24100,29.65,NA,"BKN  ft; BKN  ft","CYVV 052000Z 26014G24KT 15SM BKN021 BKN050 15/10 A2965 RMK SF5SC2 SLP045 DENSITY ALT 1200FT",2025-09-05 21:01:43.498286,2025-09-05 17:01:43.498286
"CYYZ",2025-09-05 20:00:00,2025-09-05 16:00:00,"VFR",23,13,53,230,22,24100,29.64,NA,"BKN  ft","CYYZ 052000Z 23022G34KT 15SM BKN047 23/13 A2964 RMK CU6 SLP038 DENSITY ALT 2000FT",2025-09-05 21:01:43.567824,2025-09-05 17:01:43.567824
"CYQA",2025-09-05 20:48:00,2025-09-05 16:48:00,"VFR",15,12,82,290,13,9700,29.65,NA,"FEW  ft; BKN  ft; BKN  ft; OVC  ft","CYQA 052048Z AUTO 29013G35KT 260V330 6SM -RA FEW033 BKN050 BKN066 OVC077 15/12 A2965 RMK PRESRR PCPN 1.2MM PAST HR SLP043 DENSITY ALT 1500FT",2025-09-05 21:01:43.636599,2025-09-05 17:01:43.636599
"CYER",2025-09-05 21:00:00,2025-09-05 17:00:00,"MVFR",10,7,82,40,9,14500,29.43,NA,"BKN  ft; OVC  ft","CYER 052100Z AUTO 04009G15KT 9SM BKN018 OVC025 10/07 A2943 RMK SLP969",2025-09-05 21:14:25.544562,2025-09-05 17:14:25.544562
"CYAT",2025-09-05 21:10:00,2025-09-05 17:10:00,"MVFR",9,8,94,360,5,8000,29.3,NA,"FEW  ft; BKN  ft; BKN  ft; OVC  ft","CYAT 052110Z AUTO 36005KT 350V050 5SM -RA BR FEW015 BKN023 BKN030 OVC044 09/08 A2930 RMK SLP923",2025-09-05 21:14:25.636736,2025-09-05 17:14:25.636736
"CYMO",2025-09-05 21:00:00,2025-09-05 17:00:00,"MVFR",12,11,94,120,12,14500,29.23,NA,"SCT  ft; OVC  ft","CYMO 052100Z AUTO 12012G18KT 090V150 9SM SCT010 OVC016 12/11 A2923 RMK SLP900 DENSITY ALT 500FT",2025-09-05 21:14:25.721767,2025-09-05 17:14:25.721767
"CYPL",2025-09-05 21:08:00,2025-09-05 17:08:00,"MVFR",6,5,93,320,10,11300,29.46,NA,"SCT  ft; BKN  ft; OVC  ft","CYPL 052108Z AUTO 32010G21KT 260V360 7SM -RA SCT013 BKN019 OVC055 06/05 A2946 RMK SLP993",2025-09-05 21:14:25.806256,2025-09-05 17:14:25.806256
"CYQT",2025-09-05 21:00:00,2025-09-05 17:00:00,"VFR",10,6,76,280,14,32200,29.52,NA,"BKN  ft; OVC  ft","CYQT 052100Z 28014G24KT 20SM -SHRA BKN045 OVC080 10/06 A2952 RMK SC5AC3 CVCTV CLD EMBD SLP006",2025-09-05 21:14:25.89724,2025-09-05 17:14:25.89724
"CYAM",2025-09-05 21:00:00,2025-09-05 17:00:00,"VFR",12,7,72,260,12,32200,29.6,NA,"SCT  ft; BKN  ft; BKN  ft","CYAM 052100Z 26012G18KT 20SM VCSH SCT024 BKN042 BKN095 12/07 A2960 RMK CU3SC3AC1 VCSH W NW SLP029",2025-09-05 21:14:25.984862,2025-09-05 17:14:25.984862
"CYTS",2025-09-05 21:00:00,2025-09-05 17:00:00,"MVFR",9,8,94,260,11,8000,29.39,NA,"SCT  ft; BKN  ft; OVC  ft","CYTS 052100Z 26011G18KT 220V300 5SM -SHRA BR SCT015 BKN028 OVC036 09/08 A2939 RMK CF3CU4SC1 SLP963",2025-09-05 21:14:26.111362,2025-09-05 17:14:26.111362
"CYSB",2025-09-05 21:00:00,2025-09-05 17:00:00,"VFR",13,6,63,250,13,32200,29.54,NA,"BKN  ft","CYSB 052100Z 25013G25KT 20SM BKN038 13/06 A2954 RMK SC5 SLP012 DENSITY ALT 1700FT",2025-09-05 21:14:26.236895,2025-09-05 17:14:26.236895
"CYYB",2025-09-05 21:00:00,2025-09-05 17:00:00,"MVFR",13,11,88,270,14,48300,29.56,NA,"BKN  ft; BKN  ft","CYYB 052100Z 27014KT 30SM BKN025 BKN100 13/11 A2956 RMK CU6AC1 WIND EST SLP019 DENSITY ALT 1700FT",2025-09-05 21:14:26.323406,2025-09-05 17:14:26.323406
"CYOW",2025-09-05 21:00:00,2025-09-05 17:00:00,"VFR",22,12,53,200,14,24100,29.69,NA,"BKN  ft; BKN  ft","CYOW 052100Z 20014G25KT 15SM BKN062 BKN090 22/12 A2969 RMK SC5AC1 CU ASOCT SLP056 DENSITY ALT 1600FT",2025-09-05 21:14:26.448971,2025-09-05 17:14:26.448971
"CYGK",2025-09-05 21:00:00,2025-09-05 17:00:00,"VFR",22,16,69,200,14,24100,29.73,NA,"SCT  ft; SCT  ft; BKN  ft","CYGK 052100Z 20014KT 15SM SCT060 SCT120 BKN220 22/16 A2973 RMK SC3AC1CI1 SLP068 DENSITY ALT 1500FT",2025-09-05 21:14:26.537016,2025-09-05 17:14:26.537016
"CYQG",2025-09-05 21:00:00,2025-09-05 17:00:00,"VFR",22,7,38,270,23,14500,29.77,NA,"SCT  ft","CYQG 052100Z AUTO 27023G30KT 9SM SCT071 22/07 A2977 RMK SLP083 DENSITY ALT 1800FT",2025-09-05 21:14:26.661944,2025-09-05 17:14:26.661944
"CYVV",2025-09-05 21:00:00,2025-09-05 17:00:00,"VFR",16,9,63,250,16,24100,29.68,NA,"BKN  ft","CYVV 052100Z 25016G27KT 15SM BKN035 16/09 A2968 RMK CU7 SLP053 DENSITY ALT 1400FT",2025-09-05 21:14:26.749655,2025-09-05 17:14:26.749655
"CYYZ",2025-09-05 21:00:00,2025-09-05 17:00:00,"VFR",23,9,41,260,24,24100,29.67,NA,"SCT  ft","CYYZ 052100Z 26024G30KT 15SM SCT063 23/09 A2967 RMK CU3 SLP049 DENSITY ALT 1900FT",2025-09-05 21:14:26.878126,2025-09-05 17:14:26.878126
"CYQA",2025-09-05 21:00:00,2025-09-05 17:00:00,"VFR",14,12,88,290,11,14500,29.65,NA,"FEW  ft; BKN  ft; BKN  ft; OVC  ft","CYQA 052100Z AUTO 29011G22KT 230V320 9SM FEW033 BKN049 BKN060 OVC094 14/12 A2965 RMK PCPN 1.2MM PAST HR SLP047 DENSITY ALT 1400FT",2025-09-05 21:14:26.965391,2025-09-05 17:14:26.965391
"CYER",2025-09-05 21:00:00,2025-09-05 17:00:00,"MVFR",10,7,82,40,9,14500,29.43,NA,"BKN  ft; OVC  ft","CYER 052100Z AUTO 04009G15KT 9SM BKN018 OVC025 10/07 A2943 RMK SLP969",2025-09-05 21:23:22.877713,2025-09-05 17:23:22.877713
"CYAT",2025-09-05 21:15:00,2025-09-05 17:15:00,"MVFR",9,8,94,10,4,9700,29.3,NA,"FEW  ft; BKN  ft; BKN  ft; OVC  ft","CYAT 052115Z AUTO 01004KT 6SM -RA BR FEW015 BKN023 BKN033 OVC044 09/08 A2930 RMK SLP923",2025-09-05 21:23:22.962907,2025-09-05 17:23:22.962907
"CYMO",2025-09-05 21:00:00,2025-09-05 17:00:00,"MVFR",12,11,94,120,12,14500,29.23,NA,"SCT  ft; OVC  ft","CYMO 052100Z AUTO 12012G18KT 090V150 9SM SCT010 OVC016 12/11 A2923 RMK SLP900 DENSITY ALT 500FT",2025-09-05 21:23:23.038398,2025-09-05 17:23:23.038398
"CYPL",2025-09-05 21:19:00,2025-09-05 17:19:00,"VFR",6,5,93,300,9,14500,29.47,NA,"SCT  ft; BKN  ft; BKN  ft; OVC  ft","CYPL 052119Z AUTO 30009G20KT 270V350 9SM SCT017 BKN048 BKN066 OVC079 06/05 A2947 RMK SLP994",2025-09-05 21:23:23.113513,2025-09-05 17:23:23.113513
"CYQT",2025-09-05 21:00:00,2025-09-05 17:00:00,"VFR",10,6,76,280,14,32200,29.52,NA,"BKN  ft; OVC  ft","CYQT 052100Z 28014G24KT 20SM -SHRA BKN045 OVC080 10/06 A2952 RMK SC5AC3 CVCTV CLD EMBD SLP006",2025-09-05 21:23:23.231788,2025-09-05 17:23:23.231788
"CYAM",2025-09-05 21:00:00,2025-09-05 17:00:00,"VFR",12,7,72,260,12,32200,29.6,NA,"SCT  ft; BKN  ft; BKN  ft","CYAM 052100Z 26012G18KT 20SM VCSH SCT024 BKN042 BKN095 12/07 A2960 RMK CU3SC3AC1 VCSH W NW SLP029",2025-09-05 21:23:23.307176,2025-09-05 17:23:23.307176
"CYTS",2025-09-05 21:00:00,2025-09-05 17:00:00,"MVFR",9,8,94,260,11,8000,29.39,NA,"SCT  ft; BKN  ft; OVC  ft","CYTS 052100Z 26011G18KT 220V300 5SM -SHRA BR SCT015 BKN028 OVC036 09/08 A2939 RMK CF3CU4SC1 SLP963",2025-09-05 21:23:23.383463,2025-09-05 17:23:23.383463
"CYSB",2025-09-05 21:00:00,2025-09-05 17:00:00,"VFR",13,6,63,250,13,32200,29.54,NA,"BKN  ft","CYSB 052100Z 25013G25KT 20SM BKN038 13/06 A2954 RMK SC5 SLP012 DENSITY ALT 1700FT",2025-09-05 21:23:23.460233,2025-09-05 17:23:23.460233
"CYYB",2025-09-05 21:00:00,2025-09-05 17:00:00,"MVFR",13,11,88,270,14,48300,29.56,NA,"BKN  ft; BKN  ft","CYYB 052100Z 27014KT 30SM BKN025 BKN100 13/11 A2956 RMK CU6AC1 WIND EST SLP019 DENSITY ALT 1700FT",2025-09-05 21:23:23.536205,2025-09-05 17:23:23.536205
"CYOW",2025-09-05 21:00:00,2025-09-05 17:00:00,"VFR",22,12,53,200,14,24100,29.69,NA,"BKN  ft; BKN  ft","CYOW 052100Z 20014G25KT 15SM BKN062 BKN090 22/12 A2969 RMK SC5AC1 CU ASOCT SLP056 DENSITY ALT 1600FT",2025-09-05 21:23:23.610849,2025-09-05 17:23:23.610849
"CYGK",2025-09-05 21:00:00,2025-09-05 17:00:00,"VFR",22,16,69,200,14,24100,29.73,NA,"SCT  ft; SCT  ft; BKN  ft","CYGK 052100Z 20014KT 15SM SCT060 SCT120 BKN220 22/16 A2973 RMK SC3AC1CI1 SLP068 DENSITY ALT 1500FT",2025-09-05 21:23:23.689018,2025-09-05 17:23:23.689018
"CYQG",2025-09-05 21:00:00,2025-09-05 17:00:00,"VFR",22,7,38,270,23,14500,29.77,NA,"SCT  ft","CYQG 052100Z AUTO 27023G30KT 9SM SCT071 22/07 A2977 RMK SLP083 DENSITY ALT 1800FT",2025-09-05 21:23:23.763684,2025-09-05 17:23:23.763684
"CYVV",2025-09-05 21:00:00,2025-09-05 17:00:00,"VFR",16,9,63,250,16,24100,29.68,NA,"BKN  ft","CYVV 052100Z 25016G27KT 15SM BKN035 16/09 A2968 RMK CU7 SLP053 DENSITY ALT 1400FT",2025-09-05 21:23:23.8377,2025-09-05 17:23:23.8377
"CYYZ",2025-09-05 21:00:00,2025-09-05 17:00:00,"VFR",23,9,41,260,24,24100,29.67,NA,"SCT  ft","CYYZ 052100Z 26024G30KT 15SM SCT063 23/09 A2967 RMK CU3 SLP049 DENSITY ALT 1900FT",2025-09-05 21:23:23.952067,2025-09-05 17:23:23.952067
"CYQA",2025-09-05 21:18:00,2025-09-05 17:18:00,"MVFR",14,12,88,310,13,11300,29.66,NA,"SCT  ft; BKN  ft; BKN  ft; OVC  ft","CYQA 052118Z AUTO 31013G24KT 260V340 7SM RA SCT014 BKN020 BKN050 OVC091 14/12 A2966 RMK SLP050 DENSITY ALT 1300FT",2025-09-05 21:23:24.026965,2025-09-05 17:23:24.026965
"CYER",2025-09-05 21:00:00,2025-09-05 17:00:00,"MVFR",10,7,82,40,9,14500,29.43,NA,"BKN  ft; OVC  ft","CYER 052100Z AUTO 04009G15KT 9SM BKN018 OVC025 10/07 A2943 RMK SLP969",2025-09-05 21:31:33.372202,2025-09-05 17:31:33.372202
"CYAT",2025-09-05 21:15:00,2025-09-05 17:15:00,"MVFR",9,8,94,10,4,9700,29.3,NA,"FEW  ft; BKN  ft; BKN  ft; OVC  ft","CYAT 052115Z AUTO 01004KT 6SM -RA BR FEW015 BKN023 BKN033 OVC044 09/08 A2930 RMK SLP923",2025-09-05 21:31:33.48871,2025-09-05 17:31:33.48871
"CYMO",2025-09-05 21:24:00,2025-09-05 17:24:00,"MVFR",12,11,94,140,11,14500,29.23,NA,"SCT  ft; BKN  ft; BKN  ft; OVC  ft","CYMO 052124Z AUTO 14011G17KT 9SM SCT009 BKN012 BKN018 OVC035 12/11 A2923 RMK SLP899 DENSITY ALT 500FT",2025-09-05 21:31:33.545352,2025-09-05 17:31:33.545352
"CYPL",2025-09-05 21:23:00,2025-09-05 17:23:00,"MVFR",6,5,93,310,9,14500,29.47,NA,"BKN  ft; BKN  ft; BKN  ft; OVC  ft","CYPL 052123Z AUTO 31009G20KT 260V350 9SM BKN017 BKN050 BKN066 OVC079 06/05 A2947 RMK SLP995",2025-09-05 21:31:33.601115,2025-09-05 17:31:33.601115
"CYQT",2025-09-05 21:00:00,2025-09-05 17:00:00,"VFR",10,6,76,280,14,32200,29.52,NA,"BKN  ft; OVC  ft","CYQT 052100Z 28014G24KT 20SM -SHRA BKN045 OVC080 10/06 A2952 RMK SC5AC3 CVCTV CLD EMBD SLP006",2025-09-05 21:31:33.701085,2025-09-05 17:31:33.701085
"CYAM",2025-09-05 21:23:00,2025-09-05 17:23:00,"MVFR",11,7,77,280,14,24100,29.61,NA,"BKN  ft; BKN  ft; OVC  ft","CYAM 052123Z 28014G23KT 15SM -SHRA BKN026 BKN042 OVC080 11/07 A2961 RMK CU5SC2AC1 SLP033",2025-09-05 21:31:33.760164,2025-09-05 17:31:33.760164
"CYTS",2025-09-05 21:00:00,2025-09-05 17:00:00,"MVFR",9,8,94,260,11,8000,29.39,NA,"SCT  ft; BKN  ft; OVC  ft","CYTS 052100Z 26011G18KT 220V300 5SM -SHRA BR SCT015 BKN028 OVC036 09/08 A2939 RMK CF3CU4SC1 SLP963",2025-09-05 21:31:33.820207,2025-09-05 17:31:33.820207
"CYSB",2025-09-05 21:00:00,2025-09-05 17:00:00,"VFR",13,6,63,250,13,32200,29.54,NA,"BKN  ft","CYSB 052100Z 25013G25KT 20SM BKN038 13/06 A2954 RMK SC5 SLP012 DENSITY ALT 1700FT",2025-09-05 21:31:33.878248,2025-09-05 17:31:33.878248
"CYYB",2025-09-05 21:00:00,2025-09-05 17:00:00,"MVFR",13,11,88,270,14,48300,29.56,NA,"BKN  ft; BKN  ft","CYYB 052100Z 27014KT 30SM BKN025 BKN100 13/11 A2956 RMK CU6AC1 WIND EST SLP019 DENSITY ALT 1700FT",2025-09-05 21:31:33.937035,2025-09-05 17:31:33.937035
"CYOW",2025-09-05 21:00:00,2025-09-05 17:00:00,"VFR",22,12,53,200,14,24100,29.69,NA,"BKN  ft; BKN  ft","CYOW 052100Z 20014G25KT 15SM BKN062 BKN090 22/12 A2969 RMK SC5AC1 CU ASOCT SLP056 DENSITY ALT 1600FT",2025-09-05 21:31:33.994128,2025-09-05 17:31:33.994128
"CYGK",2025-09-05 21:00:00,2025-09-05 17:00:00,"VFR",22,16,69,200,14,24100,29.73,NA,"SCT  ft; SCT  ft; BKN  ft","CYGK 052100Z 20014KT 15SM SCT060 SCT120 BKN220 22/16 A2973 RMK SC3AC1CI1 SLP068 DENSITY ALT 1500FT",2025-09-05 21:31:34.096245,2025-09-05 17:31:34.096245
"CYQG",2025-09-05 21:00:00,2025-09-05 17:00:00,"VFR",22,7,38,270,23,14500,29.77,NA,"SCT  ft","CYQG 052100Z AUTO 27023G30KT 9SM SCT071 22/07 A2977 RMK SLP083 DENSITY ALT 1800FT",2025-09-05 21:31:34.151917,2025-09-05 17:31:34.151917
"CYVV",2025-09-05 21:00:00,2025-09-05 17:00:00,"VFR",16,9,63,250,16,24100,29.68,NA,"BKN  ft","CYVV 052100Z 25016G27KT 15SM BKN035 16/09 A2968 RMK CU7 SLP053 DENSITY ALT 1400FT",2025-09-05 21:31:34.208496,2025-09-05 17:31:34.208496
"CYYZ",2025-09-05 21:00:00,2025-09-05 17:00:00,"VFR",23,9,41,260,24,24100,29.67,NA,"SCT  ft","CYYZ 052100Z 26024G30KT 15SM SCT063 23/09 A2967 RMK CU3 SLP049 DENSITY ALT 1900FT",2025-09-05 21:31:34.266138,2025-09-05 17:31:34.266138
"CYQA",2025-09-05 21:18:00,2025-09-05 17:18:00,"MVFR",14,12,88,310,13,11300,29.66,NA,"SCT  ft; BKN  ft; BKN  ft; OVC  ft","CYQA 052118Z AUTO 31013G24KT 260V340 7SM RA SCT014 BKN020 BKN050 OVC091 14/12 A2966 RMK SLP050 DENSITY ALT 1300FT",2025-09-05 21:31:34.326017,2025-09-05 17:31:34.326017
"CYER",2025-09-05 21:00:00,2025-09-05 17:00:00,"MVFR",10,7,82,40,9,14500,29.43,NA,"BKN  ft; OVC  ft","CYER 052100Z AUTO 04009G15KT 9SM BKN018 OVC025 10/07 A2943 RMK SLP969",2025-09-05 21:41:38.760479,2025-09-05 17:41:38.760479
"CYAT",2025-09-05 21:34:00,2025-09-05 17:34:00,"MVFR",9,8,94,350,5,14500,29.3,NA,"FEW  ft; BKN  ft; BKN  ft; OVC  ft","CYAT 052134Z AUTO 35005KT 9SM -RA FEW005 BKN023 BKN031 OVC038 09/08 A2930 RMK PCPN 0.5MM PAST HR SLP923",2025-09-05 21:41:38.837606,2025-09-05 17:41:38.837606
"CYMO",2025-09-05 21:24:00,2025-09-05 17:24:00,"MVFR",12,11,94,140,11,14500,29.23,NA,"SCT  ft; BKN  ft; BKN  ft; OVC  ft","CYMO 052124Z AUTO 14011G17KT 9SM SCT009 BKN012 BKN018 OVC035 12/11 A2923 RMK SLP899 DENSITY ALT 500FT",2025-09-05 21:41:38.906505,2025-09-05 17:41:38.906505
"CYPL",2025-09-05 21:23:00,2025-09-05 17:23:00,"MVFR",6,5,93,310,9,14500,29.47,NA,"BKN  ft; BKN  ft; BKN  ft; OVC  ft","CYPL 052123Z AUTO 31009G20KT 260V350 9SM BKN017 BKN050 BKN066 OVC079 06/05 A2947 RMK SLP995",2025-09-05 21:41:38.973575,2025-09-05 17:41:38.973575
"CYQT",2025-09-05 21:00:00,2025-09-05 17:00:00,"VFR",10,6,76,280,14,32200,29.52,NA,"BKN  ft; OVC  ft","CYQT 052100Z 28014G24KT 20SM -SHRA BKN045 OVC080 10/06 A2952 RMK SC5AC3 CVCTV CLD EMBD SLP006",2025-09-05 21:41:39.045707,2025-09-05 17:41:39.045707
"CYAM",2025-09-05 21:23:00,2025-09-05 17:23:00,"MVFR",11,7,77,280,14,24100,29.61,NA,"BKN  ft; BKN  ft; OVC  ft","CYAM 052123Z 28014G23KT 15SM -SHRA BKN026 BKN042 OVC080 11/07 A2961 RMK CU5SC2AC1 SLP033",2025-09-05 21:41:39.116816,2025-09-05 17:41:39.116816
"CYTS",2025-09-05 21:00:00,2025-09-05 17:00:00,"MVFR",9,8,94,260,11,8000,29.39,NA,"SCT  ft; BKN  ft; OVC  ft","CYTS 052100Z 26011G18KT 220V300 5SM -SHRA BR SCT015 BKN028 OVC036 09/08 A2939 RMK CF3CU4SC1 SLP963",2025-09-05 21:41:39.185918,2025-09-05 17:41:39.185918
"CYSB",2025-09-05 21:00:00,2025-09-05 17:00:00,"VFR",13,6,63,250,13,32200,29.54,NA,"BKN  ft","CYSB 052100Z 25013G25KT 20SM BKN038 13/06 A2954 RMK SC5 SLP012 DENSITY ALT 1700FT",2025-09-05 21:41:39.25323,2025-09-05 17:41:39.25323
"CYYB",2025-09-05 21:00:00,2025-09-05 17:00:00,"MVFR",13,11,88,270,14,48300,29.56,NA,"BKN  ft; BKN  ft","CYYB 052100Z 27014KT 30SM BKN025 BKN100 13/11 A2956 RMK CU6AC1 WIND EST SLP019 DENSITY ALT 1700FT",2025-09-05 21:41:39.320848,2025-09-05 17:41:39.320848
"CYOW",2025-09-05 21:00:00,2025-09-05 17:00:00,"VFR",22,12,53,200,14,24100,29.69,NA,"BKN  ft; BKN  ft","CYOW 052100Z 20014G25KT 15SM BKN062 BKN090 22/12 A2969 RMK SC5AC1 CU ASOCT SLP056 DENSITY ALT 1600FT",2025-09-05 21:41:39.388613,2025-09-05 17:41:39.388613
"CYGK",2025-09-05 21:00:00,2025-09-05 17:00:00,"VFR",22,16,69,200,14,24100,29.73,NA,"SCT  ft; SCT  ft; BKN  ft","CYGK 052100Z 20014KT 15SM SCT060 SCT120 BKN220 22/16 A2973 RMK SC3AC1CI1 SLP068 DENSITY ALT 1500FT",2025-09-05 21:41:39.457172,2025-09-05 17:41:39.457172
"CYQG",2025-09-05 21:00:00,2025-09-05 17:00:00,"VFR",22,7,38,270,23,14500,29.77,NA,"SCT  ft","CYQG 052100Z AUTO 27023G30KT 9SM SCT071 22/07 A2977 RMK SLP083 DENSITY ALT 1800FT",2025-09-05 21:41:39.524417,2025-09-05 17:41:39.524417
"CYVV",2025-09-05 21:00:00,2025-09-05 17:00:00,"VFR",16,9,63,250,16,24100,29.68,NA,"BKN  ft","CYVV 052100Z 25016G27KT 15SM BKN035 16/09 A2968 RMK CU7 SLP053 DENSITY ALT 1400FT",2025-09-05 21:41:39.590677,2025-09-05 17:41:39.590677
"CYYZ",2025-09-05 21:00:00,2025-09-05 17:00:00,"VFR",23,9,41,260,24,24100,29.67,NA,"SCT  ft","CYYZ 052100Z 26024G30KT 15SM SCT063 23/09 A2967 RMK CU3 SLP049 DENSITY ALT 1900FT",2025-09-05 21:41:39.700596,2025-09-05 17:41:39.700596
"CYQA",2025-09-05 21:32:00,2025-09-05 17:32:00,"VFR",14,13,94,300,10,14500,29.68,NA,"SCT  ft; BKN  ft; BKN  ft; OVC  ft","CYQA 052132Z AUTO 30010G19KT 260V350 9SM SCT016 BKN047 BKN076 OVC097 14/13 A2968 RMK SLP053 DENSITY ALT 1400FT",2025-09-05 21:41:39.769258,2025-09-05 17:41:39.769258
"CYER",2025-09-05 21:00:00,2025-09-05 17:00:00,"MVFR",10,7,82,40,9,14500,29.43,NA,"BKN  ft; OVC  ft","CYER 052100Z AUTO 04009G15KT 9SM BKN018 OVC025 10/07 A2943 RMK SLP969",2025-09-05 21:51:08.134778,2025-09-05 17:51:08.134778
"CYAT",2025-09-05 21:45:00,2025-09-05 17:45:00,"MVFR",9,8,94,340,3,14500,29.3,NA,"SCT  ft; BKN  ft; BKN  ft; OVC  ft","CYAT 052145Z AUTO 34003KT 9SM -RA SCT016 BKN023 BKN029 OVC038 09/08 A2930 RMK PCPN 0.8MM PAST HR SLP923",2025-09-05 21:51:08.217941,2025-09-05 17:51:08.217941
"CYMO",2025-09-05 21:24:00,2025-09-05 17:24:00,"MVFR",12,11,94,140,11,14500,29.23,NA,"SCT  ft; BKN  ft; BKN  ft; OVC  ft","CYMO 052124Z AUTO 14011G17KT 9SM SCT009 BKN012 BKN018 OVC035 12/11 A2923 RMK SLP899 DENSITY ALT 500FT",2025-09-05 21:51:08.294564,2025-09-05 17:51:08.294564
"CYPL",2025-09-05 21:23:00,2025-09-05 17:23:00,"MVFR",6,5,93,310,9,14500,29.47,NA,"BKN  ft; BKN  ft; BKN  ft; OVC  ft","CYPL 052123Z AUTO 31009G20KT 260V350 9SM BKN017 BKN050 BKN066 OVC079 06/05 A2947 RMK SLP995",2025-09-05 21:51:08.366765,2025-09-05 17:51:08.366765
"CYQT",2025-09-05 21:00:00,2025-09-05 17:00:00,"VFR",10,6,76,280,14,32200,29.52,NA,"BKN  ft; OVC  ft","CYQT 052100Z 28014G24KT 20SM -SHRA BKN045 OVC080 10/06 A2952 RMK SC5AC3 CVCTV CLD EMBD SLP006",2025-09-05 21:51:08.442016,2025-09-05 17:51:08.442016
"CYAM",2025-09-05 21:42:00,2025-09-05 17:42:00,"MVFR",11,7,77,280,13,24100,29.62,NA,"FEW  ft; BKN  ft; BKN  ft; OVC  ft","CYAM 052142Z 28013KT 15SM FEW015 BKN022 BKN049 OVC078 11/07 A2962 RMK CF2CU3SC2AC1 SLP036",2025-09-05 21:51:08.513557,2025-09-05 17:51:08.513557
"CYTS",2025-09-05 21:00:00,2025-09-05 17:00:00,"MVFR",9,8,94,260,11,8000,29.39,NA,"SCT  ft; BKN  ft; OVC  ft","CYTS 052100Z 26011G18KT 220V300 5SM -SHRA BR SCT015 BKN028 OVC036 09/08 A2939 RMK CF3CU4SC1 SLP963",2025-09-05 21:51:08.584671,2025-09-05 17:51:08.584671
"CYSB",2025-09-05 21:00:00,2025-09-05 17:00:00,"VFR",13,6,63,250,13,32200,29.54,NA,"BKN  ft","CYSB 052100Z 25013G25KT 20SM BKN038 13/06 A2954 RMK SC5 SLP012 DENSITY ALT 1700FT",2025-09-05 21:51:08.655504,2025-09-05 17:51:08.655504
"CYYB",2025-09-05 21:00:00,2025-09-05 17:00:00,"MVFR",13,11,88,270,14,48300,29.56,NA,"BKN  ft; BKN  ft","CYYB 052100Z 27014KT 30SM BKN025 BKN100 13/11 A2956 RMK CU6AC1 WIND EST SLP019 DENSITY ALT 1700FT",2025-09-05 21:51:08.728509,2025-09-05 17:51:08.728509
"CYOW",2025-09-05 21:00:00,2025-09-05 17:00:00,"VFR",22,12,53,200,14,24100,29.69,NA,"BKN  ft; BKN  ft","CYOW 052100Z 20014G25KT 15SM BKN062 BKN090 22/12 A2969 RMK SC5AC1 CU ASOCT SLP056 DENSITY ALT 1600FT",2025-09-05 21:51:08.801898,2025-09-05 17:51:08.801898
"CYGK",2025-09-05 21:00:00,2025-09-05 17:00:00,"VFR",22,16,69,200,14,24100,29.73,NA,"SCT  ft; SCT  ft; BKN  ft","CYGK 052100Z 20014KT 15SM SCT060 SCT120 BKN220 22/16 A2973 RMK SC3AC1CI1 SLP068 DENSITY ALT 1500FT",2025-09-05 21:51:08.874836,2025-09-05 17:51:08.874836
"CYQG",2025-09-05 21:00:00,2025-09-05 17:00:00,"VFR",22,7,38,270,23,14500,29.77,NA,"SCT  ft","CYQG 052100Z AUTO 27023G30KT 9SM SCT071 22/07 A2977 RMK SLP083 DENSITY ALT 1800FT",2025-09-05 21:51:08.949241,2025-09-05 17:51:08.949241
"CYVV",2025-09-05 21:00:00,2025-09-05 17:00:00,"VFR",16,9,63,250,16,24100,29.68,NA,"BKN  ft","CYVV 052100Z 25016G27KT 15SM BKN035 16/09 A2968 RMK CU7 SLP053 DENSITY ALT 1400FT",2025-09-05 21:51:09.021748,2025-09-05 17:51:09.021748
"CYYZ",2025-09-05 21:00:00,2025-09-05 17:00:00,"VFR",23,9,41,260,24,24100,29.67,NA,"SCT  ft","CYYZ 052100Z 26024G30KT 15SM SCT063 23/09 A2967 RMK CU3 SLP049 DENSITY ALT 1900FT",2025-09-05 21:51:09.092655,2025-09-05 17:51:09.092655
"CYQA",2025-09-05 21:32:00,2025-09-05 17:32:00,"VFR",14,13,94,300,10,14500,29.68,NA,"SCT  ft; BKN  ft; BKN  ft; OVC  ft","CYQA 052132Z AUTO 30010G19KT 260V350 9SM SCT016 BKN047 BKN076 OVC097 14/13 A2968 RMK SLP053 DENSITY ALT 1400FT",2025-09-05 21:51:09.165766,2025-09-05 17:51:09.165766
"CYER",2025-09-05 21:00:00,2025-09-05 17:00:00,"MVFR",10,7,82,40,9,14500,29.43,NA,"BKN  ft; OVC  ft","CYER 052100Z AUTO 04009G15KT 9SM BKN018 OVC025 10/07 A2943 RMK SLP969",2025-09-05 22:02:52.736136,2025-09-05 18:02:52.736136
"CYAT",2025-09-05 21:59:00,2025-09-05 17:59:00,"MVFR",9,8,94,350,5,14500,29.3,NA,"FEW  ft; SCT  ft; BKN  ft; OVC  ft","CYAT 052159Z AUTO 35005KT 320V020 9SM -RA FEW006 SCT012 BKN018 OVC023 09/08 A2930 RMK PCPN 1.0MM PAST HR SLP923",2025-09-05 22:02:52.812074,2025-09-05 18:02:52.812074
"CYMO",2025-09-05 21:55:00,2025-09-05 17:55:00,"VFR",12,11,94,120,7,14500,29.22,NA,"FEW  ft; SCT  ft; OVC  ft","CYMO 052155Z AUTO 12007KT 9SM FEW009 SCT015 OVC033 12/11 A2922 RMK SLP896 DENSITY ALT 500FT",2025-09-05 22:02:52.881769,2025-09-05 18:02:52.881769
"CYPL",2025-09-05 21:23:00,2025-09-05 17:23:00,"MVFR",6,5,93,310,9,14500,29.47,NA,"BKN  ft; BKN  ft; BKN  ft; OVC  ft","CYPL 052123Z AUTO 31009G20KT 260V350 9SM BKN017 BKN050 BKN066 OVC079 06/05 A2947 RMK SLP995",2025-09-05 22:02:52.952875,2025-09-05 18:02:52.952875
"CYQT",2025-09-05 21:00:00,2025-09-05 17:00:00,"VFR",10,6,76,280,14,32200,29.52,NA,"BKN  ft; OVC  ft","CYQT 052100Z 28014G24KT 20SM -SHRA BKN045 OVC080 10/06 A2952 RMK SC5AC3 CVCTV CLD EMBD SLP006",2025-09-05 22:02:53.024768,2025-09-05 18:02:53.024768
"CYAM",2025-09-05 21:42:00,2025-09-05 17:42:00,"MVFR",11,7,77,280,13,24100,29.62,NA,"FEW  ft; BKN  ft; BKN  ft; OVC  ft","CYAM 052142Z 28013KT 15SM FEW015 BKN022 BKN049 OVC078 11/07 A2962 RMK CF2CU3SC2AC1 SLP036",2025-09-05 22:02:53.092471,2025-09-05 18:02:53.092471
"CYTS",2025-09-05 21:52:00,2025-09-05 17:52:00,"IFR",9,8,94,250,6,4000,29.43,NA,"SCT  ft; OVC  ft","CYTS 052152Z 25006G15KT 190V290 2 1/2SM -SHRA BR SCT016 OVC024 09/08 A2943 RMK CF4CU4 SLP975",2025-09-05 22:02:53.162567,2025-09-05 18:02:53.162567
"CYSB",2025-09-05 21:00:00,2025-09-05 17:00:00,"VFR",13,6,63,250,13,32200,29.54,NA,"BKN  ft","CYSB 052100Z 25013G25KT 20SM BKN038 13/06 A2954 RMK SC5 SLP012 DENSITY ALT 1700FT",2025-09-05 22:02:53.231538,2025-09-05 18:02:53.231538
"CYYB",2025-09-05 21:00:00,2025-09-05 17:00:00,"MVFR",13,11,88,270,14,48300,29.56,NA,"BKN  ft; BKN  ft","CYYB 052100Z 27014KT 30SM BKN025 BKN100 13/11 A2956 RMK CU6AC1 WIND EST SLP019 DENSITY ALT 1700FT",2025-09-05 22:02:53.300606,2025-09-05 18:02:53.300606
"CYOW",2025-09-05 21:00:00,2025-09-05 17:00:00,"VFR",22,12,53,200,14,24100,29.69,NA,"BKN  ft; BKN  ft","CYOW 052100Z 20014G25KT 15SM BKN062 BKN090 22/12 A2969 RMK SC5AC1 CU ASOCT SLP056 DENSITY ALT 1600FT",2025-09-05 22:02:53.369631,2025-09-05 18:02:53.369631
"CYGK",2025-09-05 21:00:00,2025-09-05 17:00:00,"VFR",22,16,69,200,14,24100,29.73,NA,"SCT  ft; SCT  ft; BKN  ft","CYGK 052100Z 20014KT 15SM SCT060 SCT120 BKN220 22/16 A2973 RMK SC3AC1CI1 SLP068 DENSITY ALT 1500FT",2025-09-05 22:02:53.44049,2025-09-05 18:02:53.44049
"CYQG",2025-09-05 21:00:00,2025-09-05 17:00:00,"VFR",22,7,38,270,23,14500,29.77,NA,"SCT  ft","CYQG 052100Z AUTO 27023G30KT 9SM SCT071 22/07 A2977 RMK SLP083 DENSITY ALT 1800FT",2025-09-05 22:02:53.510671,2025-09-05 18:02:53.510671
"CYVV",2025-09-05 21:00:00,2025-09-05 17:00:00,"VFR",16,9,63,250,16,24100,29.68,NA,"BKN  ft","CYVV 052100Z 25016G27KT 15SM BKN035 16/09 A2968 RMK CU7 SLP053 DENSITY ALT 1400FT",2025-09-05 22:02:53.588125,2025-09-05 18:02:53.588125
"CYYZ",2025-09-05 21:00:00,2025-09-05 17:00:00,"VFR",23,9,41,260,24,24100,29.67,NA,"SCT  ft","CYYZ 052100Z 26024G30KT 15SM SCT063 23/09 A2967 RMK CU3 SLP049 DENSITY ALT 1900FT",2025-09-05 22:02:53.658881,2025-09-05 18:02:53.658881
"CYQA",2025-09-05 21:32:00,2025-09-05 17:32:00,"VFR",14,13,94,300,10,14500,29.68,NA,"SCT  ft; BKN  ft; BKN  ft; OVC  ft","CYQA 052132Z AUTO 30010G19KT 260V350 9SM SCT016 BKN047 BKN076 OVC097 14/13 A2968 RMK SLP053 DENSITY ALT 1400FT",2025-09-05 22:02:53.731627,2025-09-05 18:02:53.731627
"CYVR",2025-09-05 21:00:00,2025-09-05 17:00:00,"VFR",21,19,88,250,4,32200,29.84,NA,"FEW  ft; SCT  ft","CYVR 052100Z 25004KT 200V280 20SM FEW160 SCT210 21/19 A2984 RMK AC1CI3 AC TR HZ SLP106 DENSITY ALT 900FT",2025-09-05 22:02:53.801258,2025-09-05 18:02:53.801258
"CYYJ",2025-09-05 21:00:00,2025-09-05 17:00:00,"VFR",18,14,78,120,8,48300,29.84,NA,"FEW  ft; SCT  ft","CYYJ 052100Z 12008KT 30SM FEW200 SCT250 18/14 A2984 RMK CI2CI2 SLP106 DENSITY ALT 600FT",2025-09-05 22:02:53.831261,2025-09-05 18:02:53.831261
"CYLW",2025-09-05 21:29:00,2025-09-05 17:29:00,"VFR",26,9,34,160,3,11300,29.85,NA,"CLR  ft","CYLW 052129Z AUTO 16003KT 140V210 7SM CLR 26/09 A2985 RMK SLP106 DENSITY ALT 3200FT",2025-09-05 22:02:53.905793,2025-09-05 18:02:53.905793
"CYXS",2025-09-05 21:00:00,2025-09-05 17:00:00,"VFR",21,11,53,0,3,14500,29.92,NA,"CLR  ft","CYXS 052100Z AUTO VRB03KT 9SM CLR 21/11 A2992 RMK SLP142 DENSITY ALT 3600FT",2025-09-05 22:02:53.978056,2025-09-05 18:02:53.978056
"CYXT",2025-09-05 21:00:00,2025-09-05 17:00:00,"VFR",23,15,61,0,2,32200,29.84,NA,"FEW  ft","CYXT 052100Z VRB02KT 20SM FEW150 23/15 A2984 RMK AC1 AC TR FU SLP109 DENSITY ALT 1900FT",2025-09-05 22:02:54.052319,2025-09-05 18:02:54.052319
"CYQQ",2025-09-05 21:00:00,2025-09-05 17:00:00,"VFR",22,16,69,40,5,24100,29.84,NA,"BKN  ft; BKN  ft","CYQQ 052100Z 04005KT 15SM BKN060 BKN250 22/16 A2984 RMK FU6CI1 DENSITY ALT 1219FT CIG PDMTLY TRANSPARENT HZ SLP103",2025-09-05 22:02:54.124428,2025-09-05 18:02:54.124428
"CYYC",2025-09-05 21:00:00,2025-09-05 17:00:00,"VFR",20,4,35,160,12,14500,30.05,NA,"SKC  ft","CYYC 052100Z 16012KT 9SM SKC 20/04 A3005 RMK SLP188 DENSITY ALT 4900FT",2025-09-05 22:02:54.194955,2025-09-05 18:02:54.194955
"CYEG",2025-09-05 21:00:00,2025-09-05 17:00:00,"VFR",22,1,25,150,8,32200,30.02,NA,"FEW  ft; FEW  ft","CYEG 052100Z 15008G18KT 20SM FEW180 FEW250 22/01 A3002 RMK AC1CI2 AC TR SLP179 DENSITY ALT 3600FT",2025-09-05 22:02:54.26419,2025-09-05 18:02:54.26419
"CYMM",2025-09-05 21:00:00,2025-09-05 17:00:00,"VFR",19,7,46,90,6,14500,30.03,NA,"CLR  ft","CYMM 052100Z AUTO 09006KT 010V120 9SM CLR 19/07 A3003 RMK SLP184 DENSITY ALT 1900FT",2025-09-05 22:02:54.334457,2025-09-05 18:02:54.334457
"CYQF",2025-09-05 21:00:00,2025-09-05 17:00:00,"VFR",21,4,33,160,8,14500,30.04,NA,"CLR  ft","CYQF 052100Z AUTO 16008G17KT 9SM CLR 21/04 A3004 RMK SLP188 DENSITY ALT 4300FT",2025-09-05 22:02:54.400876,2025-09-05 18:02:54.400876
"CYXE",2025-09-05 21:00:00,2025-09-05 17:00:00,"VFR",16,4,45,350,8,24100,30.08,NA,"SCT  ft; BKN  ft","CYXE 052100Z 35008KT 270V030 15SM SCT045 BKN250 16/04 A3008 RMK CU3CI2 SLP203 DENSITY ALT 2000FT",2025-09-05 22:02:54.472355,2025-09-05 18:02:54.472355
"CYQR",2025-09-05 21:00:00,2025-09-05 17:00:00,"VFR",14,4,51,340,12,24100,30.08,NA,"FEW  ft","CYQR 052100Z 34012G21KT 15SM FEW040 14/04 A3008 RMK CU2 SLP206 DENSITY ALT 2100FT",2025-09-05 22:02:54.541048,2025-09-05 18:02:54.541048
"CYWG",2025-09-05 21:00:00,2025-09-05 17:00:00,"VFR",16,2,39,340,19,24100,29.83,NA,"FEW  ft; FEW  ft; FEW  ft","CYWG 052100Z 34019G31KT 15SM FEW061 FEW140 FEW230 16/02 A2983 RMK SC1AC1CC1 CC TR SLP110 DENSITY ALT 1200FT",2025-09-05 22:02:54.609294,2025-09-05 18:02:54.609294
"CYBR",2025-09-05 21:48:00,2025-09-05 17:48:00,"VFR",13,5,59,330,19,24100,29.95,NA,"BKN  ft; BKN  ft; BKN  ft","CYBR 052148Z 33019G25KT 15SM BKN050 BKN075 BKN160 13/05 A2995 RMK SC6AC1AC1 AC TR SLP156",2025-09-05 22:02:54.679522,2025-09-05 18:02:54.679522
"CYUL",2025-09-05 21:00:00,2025-09-05 17:00:00,"VFR",25,12,44,220,13,48300,29.71,NA,"FEW  ft; FEW  ft; FEW  ft","CYUL 052100Z 22013KT 30SM FEW065 FEW080 FEW250 25/12 A2971 RMK CF1AC1CI1 CF TR AC TR SLP064 DENSITY ALT 1600FT",2025-09-05 22:02:54.749386,2025-09-05 18:02:54.749386
"CYHU",2025-09-05 21:00:00,2025-09-05 17:00:00,"VFR",24,13,50,180,14,14500,29.72,NA,"CLR  ft","CYHU 052100Z AUTO 18014G22KT 9SM CLR 24/13 A2972 RMK SLP065 DENSITY ALT 1400FT",2025-09-05 22:02:54.818983,2025-09-05 18:02:54.818983
"CYQB",2025-09-05 21:00:00,2025-09-05 17:00:00,"VFR",23,11,47,0,0,48300,29.76,NA,"FEW  ft; SCT  ft","CYQB 052100Z 00000KT 30SM FEW056 SCT100 23/11 A2976 RMK CU2AC1 SLP079 DENSITY ALT 1400FT",2025-09-05 22:02:54.886561,2025-09-05 18:02:54.886561
"CYVO",2025-09-05 21:33:00,2025-09-05 17:33:00,"VFR",13,11,88,200,12,9999,29.44,NA,"FEW  ft; SCT  ft; BKN  ft; BKN  ft","CYVO 052133Z 20012G19KT 10SM -SHRA FEW013 SCT026TCU BKN055 BKN090 13/11 A2944 RMK CF1TCU3SC2AC1 SLP980 DENSITY ALT 1700FT",2025-09-05 22:02:54.955018,2025-09-05 18:02:54.955018
"CYUY",2025-09-05 21:50:00,2025-09-05 17:50:00,"MVFR",12,11,94,230,23,24100,29.42,NA,"SCT  ft; BKN  ft; BKN  ft","CYUY 052150Z 23023G37KT 15SM SCT020TCU BKN030 BKN100 12/11 A2942 RMK TCU3CU3AC1 PRESRR SLP972 DENSITY ALT 1500FT",2025-09-05 22:02:55.023392,2025-09-05 18:02:55.023392
"CYZV",2025-09-05 21:49:00,2025-09-05 17:49:00,"MVFR",16,14,88,100,7,32200,29.87,NA,"FEW  ft; BKN  ft","CYZV 052149Z 10007KT 20SM -RA FEW001 BKN028 16/14 A2987 RMK SF1SC7 SF TR SLP120 DENSITY ALT 400FT",2025-09-05 22:02:55.093477,2025-09-05 18:02:55.093477
"CYBC",2025-09-05 21:00:00,2025-09-05 17:00:00,"VFR",20,16,78,180,7,14500,29.8,NA,"CLR  ft","CYBC 052100Z AUTO 18007KT 9SM CLR 20/16 A2980 RMK SLP094 DENSITY ALT 900FT",2025-09-05 22:02:55.163113,2025-09-05 18:02:55.163113
"CYRJ",2025-09-05 21:00:00,2025-09-05 17:00:00,"VFR",19,9,52,180,7,64400,29.7,NA,"FEW  ft; BKN  ft","CYRJ 052100Z 18007KT 150V210 40SM FEW050 BKN170 19/09 A2970 RMK SC2AC5 SLP061 DENSITY ALT 1500FT",2025-09-05 22:02:55.234776,2025-09-05 18:02:55.234776
"CYHZ",2025-09-05 21:00:00,2025-09-05 17:00:00,"IFR",20,19,94,170,7,6400,30.07,NA,"BKN  ft; BKN  ft","CYHZ 052100Z 17007KT 130V190 4SM -DZ BR BKN006 BKN024 20/19 A3007 RMK ST6SC1 VIS NW-N 10SM SLP183 DENSITY ALT 1000FT",2025-09-05 22:02:55.30594,2025-09-05 18:02:55.30594
"CYYG",2025-09-05 21:55:00,2025-09-05 17:55:00,"VFR",21,20,94,150,11,24100,30.01,NA,"SCT  ft","CYYG 052155Z 15011KT 15SM SCT040 21/20 A3001 RMK SC4 SLP164 DENSITY ALT 900FT",2025-09-05 22:02:55.373818,2025-09-05 18:02:55.373818
"CYQM",2025-09-05 21:00:00,2025-09-05 17:00:00,"VFR",27,12,39,200,14,24100,29.95,NA,"FEW  ft; FEW  ft","CYQM 052100Z 20014G20KT 15SM FEW056 FEW120 27/12 A2995 RMK CU1AC1 CU TR SLP145 DENSITY ALT 1600FT",2025-09-05 22:02:55.442488,2025-09-05 18:02:55.442488
"CYFC",2025-09-05 21:00:00,2025-09-05 17:00:00,"VFR",22,13,57,180,10,14500,29.94,NA,"OVC  ft","CYFC 052100Z AUTO 18010G17KT 9SM OVC071 22/13 A2994 RMK SLP142 DENSITY ALT 900FT",2025-09-05 22:02:55.51014,2025-09-05 18:02:55.51014
"CYYT",2025-09-05 21:48:00,2025-09-05 17:48:00,"LIFR",11,11,100,140,7,2000,30.24,NA,"OVC  ft","CYYT 052148Z 14007KT 1 1/4SM BR OVC002 11/11 A3024 RMK ST8 SLP247",2025-09-05 22:02:55.578273,2025-09-05 18:02:55.578273
"CYQY",2025-09-05 21:00:00,2025-09-05 17:00:00,"VFR",21,17,78,180,10,24100,30.11,NA,"FEW  ft; BKN  ft; BKN  ft","CYQY 052100Z 18010G16KT 15SM FEW055 BKN080 BKN240 21/17 A3011 RMK SC2AC3CI2 SLP200 DENSITY ALT 800FT",2025-09-05 22:02:55.610663,2025-09-05 18:02:55.610663
"CYXY",2025-09-05 21:00:00,2025-09-05 17:00:00,"VFR",23,9,41,150,14,64400,29.75,NA,"FEW  ft; FEW  ft; SCT  ft","CYXY 052100Z 15014G21KT 40SM FEW100 FEW200 SCT300 23/09 A2975 RMK AC1CC1CI2 SLP082 DENSITY ALT 4000FT",2025-09-05 22:02:55.637578,2025-09-05 18:02:55.637578
"CYZF",2025-09-05 21:00:00,2025-09-05 17:00:00,"VFR",17,7,52,150,13,24100,30,NA,"FEW  ft","CYZF 052100Z 15013KT 15SM FEW240 17/07 A3000 RMK CI1 SLP169 DENSITY ALT 1000FT",2025-09-05 22:02:55.705816,2025-09-05 18:02:55.705816
"CYFB",2025-09-05 21:00:00,2025-09-05 17:00:00,"VFR",4,0,75,140,15,48300,30.01,NA,"FEW  ft; SCT  ft; BKN  ft","CYFB 052100Z 14015KT 30SM FEW020 SCT160 BKN220 04/M00 A3001 RMK SC1AS3CI3 SC TR SLP168",2025-09-05 22:02:55.773529,2025-09-05 18:02:55.773529
"CYRT",2025-09-05 21:51:00,2025-09-05 17:51:00,"MVFR",7,4,81,10,16,24100,29.91,NA,"BKN  ft; OVC  ft","CYRT 052151Z 01016KT 15SM BKN015 OVC036 07/04 A2991 RMK SC6SC2 SLP131",2025-09-05 22:02:55.84255,2025-09-05 18:02:55.84255
"CYBK",2025-09-05 21:00:00,2025-09-05 17:00:00,"VFR",7,2,71,360,15,40200,30.03,NA,"OVC  ft","CYBK 052100Z 36015KT 25SM OVC035 07/02 A3003 RMK SC8 SLP174",2025-09-05 22:02:55.911251,2025-09-05 18:02:55.911251
"CYRB",2025-09-05 21:00:00,2025-09-05 17:00:00,"MVFR",-2,-4,86,150,15,32200,30.12,NA,"BKN  ft","CYRB 052100Z 15015KT 20SM -SN BKN010 M02/M04 A3012 RMK ST7 SLP209",2025-09-05 22:02:55.992779,2025-09-05 18:02:55.992779
"CYCO",2025-09-05 21:00:00,2025-09-05 17:00:00,"VFR",19,6,43,200,10,9700,29.89,NA,"BKN  ft; BKN  ft","CYCO 052100Z 20010G17KT 6SM FU BKN100 BKN240 19/06 A2989 RMK FU2AC3CI2 SLP125 DENSITY ALT 600FT",2025-09-05 22:02:56.066879,2025-09-05 18:02:56.066879
"CYER",2025-09-05 22:00:00,2025-09-05 18:00:00,"MVFR",9,7,87,20,9,14500,29.44,NA,"BKN  ft; BKN  ft","CYER 052200Z AUTO 02009KT 9SM BKN016 BKN021 09/07 A2944 RMK SLP974",2025-09-05 22:18:44.140252,2025-09-05 18:18:44.140252
"CYAT",2025-09-05 22:00:00,2025-09-05 18:00:00,"MVFR",9,9,100,340,5,14500,29.3,NA,"FEW  ft; BKN  ft; BKN  ft; OVC  ft","CYAT 052200Z AUTO 34005KT 320V020 9SM -RA FEW006 BKN012 BKN018 OVC023 09/09 A2930 RMK PCPN 1.0MM PAST HR SLP923",2025-09-05 22:18:44.202193,2025-09-05 18:18:44.202193
"CYMO",2025-09-05 22:00:00,2025-09-05 18:00:00,"VFR",12,11,94,110,10,14500,29.21,NA,"FEW  ft; OVC  ft","CYMO 052200Z AUTO 11010KT 9SM FEW009 OVC037 12/11 A2921 RMK SLP895 DENSITY ALT 500FT",2025-09-05 22:18:44.28976,2025-09-05 18:18:44.28976
"CYPL",2025-09-05 22:14:00,2025-09-05 18:14:00,"MVFR",6,5,93,320,9,12900,29.49,NA,"FEW  ft; SCT  ft; BKN  ft; OVC  ft","CYPL 052214Z AUTO 32009G21KT 270V010 8SM FEW015 SCT022 BKN028 OVC055 06/05 A2949 RMK SLP002",2025-09-05 22:18:44.37815,2025-09-05 18:18:44.37815
"CYQT",2025-09-05 22:00:00,2025-09-05 18:00:00,"VFR",11,4,62,290,13,32200,29.54,NA,"BKN  ft; BKN  ft","CYQT 052200Z 29013G21KT 20SM -SHRA BKN037 BKN075 11/04 A2954 RMK SC5AC2 CVCTV CLD EMBD SLP013",2025-09-05 22:18:44.469217,2025-09-05 18:18:44.469217
"CYAM",2025-09-05 22:00:00,2025-09-05 18:00:00,"MVFR",11,7,77,260,15,24100,29.62,NA,"FEW  ft; BKN  ft; BKN  ft; OVC  ft","CYAM 052200Z 26015KT 15SM -SHRA FEW014 BKN024 BKN041 OVC080 11/07 A2962 RMK CF1CU4SC2AC1 SLP037",2025-09-05 22:18:44.518053,2025-09-05 18:18:44.518053
"CYTS",2025-09-05 22:00:00,2025-09-05 18:00:00,"MVFR",8,7,93,240,10,4800,29.44,NA,"SCT  ft; OVC  ft","CYTS 052200Z 24010G16KT 190V290 3SM -SHRA BR SCT016 OVC024 08/07 A2944 RMK CF4CU4 PRESRR SLP978",2025-09-05 22:18:44.605988,2025-09-05 18:18:44.605988
"CYSB",2025-09-05 22:00:00,2025-09-05 18:00:00,"VFR",13,5,59,240,12,32200,29.58,NA,"BKN  ft","CYSB 052200Z 24012G22KT 20SM BKN039 13/05 A2958 RMK SC7 SLP024 DENSITY ALT 1600FT",2025-09-05 22:18:44.694595,2025-09-05 18:18:44.694595
"CYYB",2025-09-05 22:00:00,2025-09-05 18:00:00,"MVFR",13,10,82,230,14,48300,29.58,NA,"BKN  ft; BKN  ft","CYYB 052200Z 23014KT 30SM BKN030 BKN090 13/10 A2958 RMK CU5AC1 WIND EST SLP026 DENSITY ALT 1700FT",2025-09-05 22:18:44.74174,2025-09-05 18:18:44.74174
"CYOW",2025-09-05 22:00:00,2025-09-05 18:00:00,"VFR",22,12,53,200,15,24100,29.67,NA,"FEW  ft; FEW  ft","CYOW 052200Z 20015G24KT 15SM FEW060 FEW250 22/12 A2967 RMK CU1CI1 CU TR SLP051 DENSITY ALT 1700FT",2025-09-05 22:18:44.828539,2025-09-05 18:18:44.828539
"CYGK",2025-09-05 22:00:00,2025-09-05 18:00:00,"VFR",21,16,73,200,12,24100,29.72,NA,"SCT  ft; BKN  ft","CYGK 052200Z 20012KT 15SM SCT100 BKN220 21/16 A2972 RMK AC3CI2 SLP067 DENSITY ALT 1400FT",2025-09-05 22:18:44.917607,2025-09-05 18:18:44.917607
"CYQG",2025-09-05 22:00:00,2025-09-05 18:00:00,"VFR",21,7,40,260,15,14500,29.81,NA,"SCT  ft; SCT  ft","CYQG 052200Z AUTO 26015G23KT 9SM SCT071 SCT085 21/07 A2981 RMK SLP095 DENSITY ALT 1600FT",2025-09-05 22:18:44.964608,2025-09-05 18:18:44.964608
"CYVV",2025-09-05 22:00:00,2025-09-05 18:00:00,"VFR",15,9,68,270,11,24100,29.71,NA,"BKN  ft","CYVV 052200Z 27011G21KT 15SM BKN035 15/09 A2971 RMK CU6 SLP064 DENSITY ALT 1200FT",2025-09-05 22:18:45.051149,2025-09-05 18:18:45.051149
"CYYZ",2025-09-05 22:00:00,2025-09-05 18:00:00,"VFR",22,8,41,260,21,24100,29.69,NA,"BKN  ft","CYYZ 052200Z 26021G29KT 15SM BKN067 22/08 A2969 RMK CU6 SLP056 DENSITY ALT 1900FT",2025-09-05 22:18:45.139157,2025-09-05 18:18:45.139157
"CYQA",2025-09-05 22:00:00,2025-09-05 18:00:00,"VFR",14,12,88,280,6,14500,29.69,NA,"FEW  ft; BKN  ft; BKN  ft; OVC  ft","CYQA 052200Z AUTO 28006G15KT 250V330 9SM FEW019 BKN048 BKN060 OVC075 14/12 A2969 RMK SLP060 DENSITY ALT 1400FT",2025-09-05 22:18:45.226099,2025-09-05 18:18:45.226099
"CYVR",2025-09-05 22:00:00,2025-09-05 18:00:00,"VFR",22,19,83,240,6,24100,29.82,NA,"FEW  ft; FEW  ft; SCT  ft","CYVR 052200Z 24006KT 15SM FEW110 FEW160 SCT220 22/19 A2982 RMK AC1AC1CI3 AC TR HZ SLP101 DENSITY ALT 900FT",2025-09-05 22:18:45.313248,2025-09-05 18:18:45.313248
"CYYJ",2025-09-05 22:00:00,2025-09-05 18:00:00,"VFR",19,14,73,130,9,48300,29.82,NA,"FEW  ft; SCT  ft","CYYJ 052200Z 13009KT 30SM FEW220 SCT250 19/14 A2982 RMK CC1CI3 SLP101 DENSITY ALT 700FT",2025-09-05 22:18:45.401114,2025-09-05 18:18:45.401114
"CYLW",2025-09-05 22:00:00,2025-09-05 18:00:00,"VFR",27,9,32,170,4,11300,29.84,NA,"CLR  ft","CYLW 052200Z AUTO 17004KT 140V210 7SM CLR 27/09 A2984 RMK SLP102 DENSITY ALT 3300FT",2025-09-05 22:18:45.451528,2025-09-05 18:18:45.451528
"CYXS",2025-09-05 22:00:00,2025-09-05 18:00:00,"VFR",23,13,53,0,0,14500,29.91,NA,"CLR  ft","CYXS 052200Z AUTO 00000KT 9SM CLR 23/13 A2991 RMK SLP137 DENSITY ALT 3800FT",2025-09-05 22:18:45.537866,2025-09-05 18:18:45.537866
"CYXT",2025-09-05 22:00:00,2025-09-05 18:00:00,"VFR",24,15,57,0,0,24100,29.83,NA,"FEW  ft","CYXT 052200Z 00000KT 15SM FEW130 24/15 A2983 RMK AC2 SLP104 DENSITY ALT 2100FT",2025-09-05 22:18:45.626038,2025-09-05 18:18:45.626038
"CYQQ",2025-09-05 22:00:00,2025-09-05 18:00:00,"VFR",22,15,65,50,5,32200,29.82,NA,"SCT  ft; SCT  ft","CYQQ 052200Z 05005KT 20SM SCT060 SCT250 22/15 A2982 RMK FU4CI1 DENSITY ALT 1250FT SLP098",2025-09-05 22:18:45.712895,2025-09-05 18:18:45.712895
"CYYC",2025-09-05 22:00:00,2025-09-05 18:00:00,"VFR",21,3,31,160,12,14500,30.03,NA,"SKC  ft","CYYC 052200Z 16012KT 9SM SKC 21/03 A3003 RMK SLP182 DENSITY ALT 5000FT",2025-09-05 22:18:45.76061,2025-09-05 18:18:45.76061
"CYEG",2025-09-05 22:00:00,2025-09-05 18:00:00,"VFR",23,0,22,170,10,32200,30,NA,"FEW  ft; FEW  ft","CYEG 052200Z 17010G15KT 20SM FEW180 FEW250 23/00 A3000 RMK AC1CI2 AC TR SLP172 DENSITY ALT 3800FT",2025-09-05 22:18:45.847929,2025-09-05 18:18:45.847929
"CYMM",2025-09-05 22:00:00,2025-09-05 18:00:00,"VFR",20,7,43,40,7,14500,30.02,NA,"CLR  ft","CYMM 052200Z AUTO 04007KT 9SM CLR 20/07 A3002 RMK SLP179 DENSITY ALT 2000FT",2025-09-05 22:18:45.936622,2025-09-05 18:18:45.936622
"CYQF",2025-09-05 22:00:00,2025-09-05 18:00:00,"VFR",22,3,29,140,10,14500,30.02,NA,"CLR  ft","CYQF 052200Z AUTO 14010G18KT 9SM CLR 22/03 A3002 RMK SLP181 DENSITY ALT 4300FT",2025-09-05 22:18:45.982791,2025-09-05 18:18:45.982791
"CYXE",2025-09-05 22:00:00,2025-09-05 18:00:00,"VFR",16,3,42,320,7,24100,30.07,NA,"SCT  ft; SCT  ft","CYXE 052200Z 32007KT 290V010 15SM SCT045 SCT250 16/03 A3007 RMK CU3CI1 SLP202 DENSITY ALT 2000FT",2025-09-05 22:18:46.06795,2025-09-05 18:18:46.06795
"CYQR",2025-09-05 22:00:00,2025-09-05 18:00:00,"VFR",14,3,48,330,10,24100,30.08,NA,"FEW  ft","CYQR 052200Z 33010G15KT 290V360 15SM FEW042 14/03 A3008 RMK CF2 SLP203 DENSITY ALT 2100FT",2025-09-05 22:18:46.154332,2025-09-05 18:18:46.154332
"CYWG",2025-09-05 22:00:00,2025-09-05 18:00:00,"VFR",16,1,36,320,20,24100,29.85,NA,"FEW  ft; FEW  ft; FEW  ft","CYWG 052200Z 32020G27KT 15SM FEW064 FEW140 FEW240 16/01 A2985 RMK SC1AC1CC1 SC TR AC TR SLP114 DENSITY ALT 1200FT",2025-09-05 22:18:46.208248,2025-09-05 18:18:46.208248
"CYBR",2025-09-05 22:00:00,2025-09-05 18:00:00,"VFR",12,5,63,340,14,24100,29.95,NA,"BKN  ft; BKN  ft; BKN  ft","CYBR 052200Z 34014G22KT 15SM BKN050 BKN072 BKN160 12/05 A2995 RMK SC6AC1AC1 AC TR SLP157",2025-09-05 22:18:46.29631,2025-09-05 18:18:46.29631
"CYUL",2025-09-05 22:00:00,2025-09-05 18:00:00,"VFR",25,11,42,210,12,48300,29.7,NA,"FEW  ft; SCT  ft; BKN  ft","CYUL 052200Z 21012KT 30SM FEW070 SCT120 BKN250 25/11 A2970 RMK AC1AC3CI2 AC TR SLP061 DENSITY ALT 1600FT",2025-09-05 22:18:46.384977,2025-09-05 18:18:46.384977
"CYHU",2025-09-05 22:00:00,2025-09-05 18:00:00,"VFR",24,14,54,170,11,14500,29.71,NA,"FEW  ft","CYHU 052200Z AUTO 17011G16KT 9SM FEW076 24/14 A2971 RMK SLP062 DENSITY ALT 1400FT",2025-09-05 22:18:46.435509,2025-09-05 18:18:46.435509
"CYQB",2025-09-05 22:00:00,2025-09-05 18:00:00,"VFR",22,14,61,0,0,48300,29.74,NA,"FEW  ft; FEW  ft; SCT  ft","CYQB 052200Z 00000KT 30SM FEW057 FEW160 SCT240 22/14 A2974 RMK CU1AC1CS3 AC TR DIST TCU TOP SE SLP072 DENSITY ALT 1400FT",2025-09-05 22:18:46.484234,2025-09-05 18:18:46.484234
"CYVO",2025-09-05 22:00:00,2025-09-05 18:00:00,"VFR",13,12,94,190,12,24100,29.45,NA,"FEW  ft; BKN  ft; BKN  ft","CYVO 052200Z 19012G20KT 15SM FEW020 BKN033 BKN090 13/12 A2945 RMK CF2CU4AC1 SLP983 DENSITY ALT 1800FT",2025-09-05 22:18:46.569592,2025-09-05 18:18:46.569592
"CYUY",2025-09-05 22:09:00,2025-09-05 18:09:00,"MVFR",12,9,82,260,21,24100,29.44,NA,"BKN  ft; BKN  ft","CYUY 052209Z 26021G33KT 15SM -SHRA BKN020TCU BKN070 12/09 A2944 RMK TCU6AC1 PRESRR SLP979 DENSITY ALT 1400FT",2025-09-05 22:18:46.657278,2025-09-05 18:18:46.657278
"CYZV",2025-09-05 22:00:00,2025-09-05 18:00:00,"MVFR",16,14,88,100,7,32200,29.87,NA,"FEW  ft; BKN  ft","CYZV 052200Z 10007KT 20SM -RA FEW001 BKN029 16/14 A2987 RMK SF1SC7 SF TR SLP119 DENSITY ALT 400FT",2025-09-05 22:18:46.706678,2025-09-05 18:18:46.706678
"CYBC",2025-09-05 22:00:00,2025-09-05 18:00:00,"VFR",18,15,83,0,2,14500,29.8,NA,"FEW  ft","CYBC 052200Z AUTO VRB02KT 9SM FEW048 18/15 A2980 RMK SLP092 DENSITY ALT 600FT",2025-09-05 22:18:46.798259,2025-09-05 18:18:46.798259
"CYRJ",2025-09-05 22:00:00,2025-09-05 18:00:00,"VFR",19,10,56,180,7,64400,29.68,NA,"FEW  ft; BKN  ft","CYRJ 052200Z 18007KT 160V220 40SM FEW050 BKN140 19/10 A2968 RMK SC1AC5 SC TR SLP055 DENSITY ALT 1500FT",2025-09-05 22:18:46.852037,2025-09-05 18:18:46.852037
"CYHZ",2025-09-05 22:12:00,2025-09-05 18:12:00,"IFR",19,19,100,170,8,9999,30.06,NA,"SCT  ft; BKN  ft","CYHZ 052212Z 17008KT 10SM SCT003 BKN005 19/19 A3006 RMK SF3ST4 VIS E-S 3 SLP181 DENSITY ALT 1000FT",2025-09-05 22:18:46.943237,2025-09-05 18:18:46.943237
"CYYG",2025-09-05 22:00:00,2025-09-05 18:00:00,"VFR",21,20,94,150,10,24100,30.01,NA,"FEW  ft","CYYG 052200Z 15010G15KT 15SM FEW030 21/20 A3001 RMK SC3 SLP164 DENSITY ALT 900FT",2025-09-05 22:18:47.034509,2025-09-05 18:18:47.034509
"CYQM",2025-09-05 22:00:00,2025-09-05 18:00:00,"VFR",25,12,44,200,9,24100,29.96,NA,"FEW  ft; BKN  ft; BKN  ft","CYQM 052200Z 20009KT 15SM FEW052TCU BKN074 BKN260 25/12 A2996 RMK TCU1AC7CI1 TCU TR CI TR TCU CLD SE-SW SLP149 DENSITY ALT 1500FT",2025-09-05 22:18:47.082873,2025-09-05 18:18:47.082873
"CYFC",2025-09-05 22:00:00,2025-09-05 18:00:00,"VFR",21,15,69,170,10,14500,29.95,NA,"SCT  ft; BKN  ft; OVC  ft","CYFC 052200Z AUTO 17010G16KT 150V210 9SM SCT060 BKN075 OVC087 21/15 A2995 RMK SLP143 DENSITY ALT 800FT",2025-09-05 22:18:47.169031,2025-09-05 18:18:47.169031
"CYYT",2025-09-05 22:14:00,2025-09-05 18:14:00,"LIFR",11,11,100,140,5,NA,30.25,NA,"OVX  ft","CYYT 052214Z 14005KT 090V160 1/2SM R10/P6000FT/U R16/P6000FT/U FG VV002 11/11 A3025 RMK FG8 SLP249",2025-09-05 22:18:47.25841,2025-09-05 18:18:47.25841
"CYQY",2025-09-05 22:00:00,2025-09-05 18:00:00,"VFR",19,16,83,170,7,24100,30.1,NA,"FEW  ft; FEW  ft; SCT  ft","CYQY 052200Z 17007KT 15SM FEW055 FEW080 SCT240 19/16 A3010 RMK SC1AC1CI3 AC TR SLP197 DENSITY ALT 600FT",2025-09-05 22:18:47.355446,2025-09-05 18:18:47.355446
"CYXY",2025-09-05 22:00:00,2025-09-05 18:00:00,"VFR",24,8,36,150,15,64400,29.74,NA,"FEW  ft; SCT  ft; BKN  ft","CYXY 052200Z 15015KT 40SM FEW100 SCT170 BKN250 24/08 A2974 RMK AC1AC2CI4 SLP078 DENSITY ALT 4200FT",2025-09-05 22:18:47.406149,2025-09-05 18:18:47.406149
"CYZF",2025-09-05 22:00:00,2025-09-05 18:00:00,"VFR",17,6,49,150,11,24100,29.99,NA,"FEW  ft","CYZF 052200Z 15011KT 15SM FEW240 17/06 A2999 RMK CI1 SLP167 DENSITY ALT 1000FT",2025-09-05 22:18:47.496942,2025-09-05 18:18:47.496942
"CYFB",2025-09-05 22:00:00,2025-09-05 18:00:00,"VFR",4,-1,70,140,15,48300,30,NA,"FEW  ft; BKN  ft; BKN  ft","CYFB 052200Z 14015KT 30SM FEW020 BKN130 BKN220 04/M01 A3000 RMK SC1AS5CS2 SC TR SLP163",2025-09-05 22:18:47.59309,2025-09-05 18:18:47.59309
"CYRT",2025-09-05 22:00:00,2025-09-05 18:00:00,"MVFR",7,4,81,10,16,24100,29.9,NA,"BKN  ft; OVC  ft","CYRT 052200Z 01016KT 15SM BKN018 OVC032 07/04 A2990 RMK SC6SC2 SLP130",2025-09-05 22:18:47.68324,2025-09-05 18:18:47.68324
"CYBK",2025-09-05 22:00:00,2025-09-05 18:00:00,"VFR",7,3,76,360,11,40200,30.03,NA,"OVC  ft","CYBK 052200Z 36011G16KT 25SM OVC037 07/03 A3003 RMK SC8 SLP174",2025-09-05 22:18:47.773143,2025-09-05 18:18:47.773143
"CYRB",2025-09-05 22:00:00,2025-09-05 18:00:00,"MVFR",-2,-4,86,150,15,48300,30.12,NA,"BKN  ft","CYRB 052200Z 15015KT 30SM -SN BKN010 M02/M04 A3012 RMK ST6 SLP207",2025-09-05 22:18:47.875926,2025-09-05 18:18:47.875926
"CYCO",2025-09-05 22:00:00,2025-09-05 18:00:00,"VFR",20,6,40,210,9,9700,29.88,NA,"BKN  ft; BKN  ft","CYCO 052200Z 21009G15KT 6SM FU BKN110 BKN240 20/06 A2988 RMK FU2AC3CI2 SLP121 DENSITY ALT 700FT",2025-09-05 22:18:47.922702,2025-09-05 18:18:47.922702
"CYER",2025-09-05 22:00:00,2025-09-05 18:00:00,"MVFR",9,7,87,20,9,14500,29.44,NA,"BKN  ft; BKN  ft","CYER 052200Z AUTO 02009KT 9SM BKN016 BKN021 09/07 A2944 RMK SLP974",2025-09-05 22:40:48.664185,2025-09-05 18:40:48.664185
"CYAT",2025-09-05 22:00:00,2025-09-05 18:00:00,"MVFR",9,9,100,340,5,14500,29.3,NA,"FEW  ft; BKN  ft; BKN  ft; OVC  ft","CYAT 052200Z AUTO 34005KT 320V020 9SM -RA FEW006 BKN012 BKN018 OVC023 09/09 A2930 RMK PCPN 1.0MM PAST HR SLP923",2025-09-05 22:40:48.772302,2025-09-05 18:40:48.772302
"CYMO",2025-09-05 22:00:00,2025-09-05 18:00:00,"VFR",12,11,94,110,10,14500,29.21,NA,"FEW  ft; OVC  ft","CYMO 052200Z AUTO 11010KT 9SM FEW009 OVC037 12/11 A2921 RMK SLP895 DENSITY ALT 500FT",2025-09-05 22:40:48.862894,2025-09-05 18:40:48.862894
"CYPL",2025-09-05 22:14:00,2025-09-05 18:14:00,"MVFR",6,5,93,320,9,12900,29.49,NA,"FEW  ft; SCT  ft; BKN  ft; OVC  ft","CYPL 052214Z AUTO 32009G21KT 270V010 8SM FEW015 SCT022 BKN028 OVC055 06/05 A2949 RMK SLP002",2025-09-05 22:40:48.957193,2025-09-05 18:40:48.957193
"CYQT",2025-09-05 22:00:00,2025-09-05 18:00:00,"VFR",11,4,62,290,13,32200,29.54,NA,"BKN  ft; BKN  ft","CYQT 052200Z 29013G21KT 20SM -SHRA BKN037 BKN075 11/04 A2954 RMK SC5AC2 CVCTV CLD EMBD SLP013",2025-09-05 22:40:49.063945,2025-09-05 18:40:49.063945
"CYAM",2025-09-05 22:15:00,2025-09-05 18:15:00,"VFR",11,7,77,250,11,32200,29.63,NA,"FEW  ft; SCT  ft; SCT  ft; OVC  ft","CYAM 052215Z 25011G17KT 20SM FEW015 SCT021 SCT049 OVC082 11/07 A2963 RMK SF1CU2SC1AC4 SLP038",2025-09-05 22:40:49.160698,2025-09-05 18:40:49.160698
"CYTS",2025-09-05 22:00:00,2025-09-05 18:00:00,"MVFR",8,7,93,240,10,4800,29.44,NA,"SCT  ft; OVC  ft","CYTS 052200Z 24010G16KT 190V290 3SM -SHRA BR SCT016 OVC024 08/07 A2944 RMK CF4CU4 PRESRR SLP978",2025-09-05 22:40:49.253755,2025-09-05 18:40:49.253755
"CYSB",2025-09-05 22:00:00,2025-09-05 18:00:00,"VFR",13,5,59,240,12,32200,29.58,NA,"BKN  ft","CYSB 052200Z 24012G22KT 20SM BKN039 13/05 A2958 RMK SC7 SLP024 DENSITY ALT 1600FT",2025-09-05 22:40:49.349538,2025-09-05 18:40:49.349538
"CYYB",2025-09-05 22:00:00,2025-09-05 18:00:00,"MVFR",13,10,82,230,14,48300,29.58,NA,"BKN  ft; BKN  ft","CYYB 052200Z 23014KT 30SM BKN030 BKN090 13/10 A2958 RMK CU5AC1 WIND EST SLP026 DENSITY ALT 1700FT",2025-09-05 22:40:49.440951,2025-09-05 18:40:49.440951
"CYOW",2025-09-05 22:00:00,2025-09-05 18:00:00,"VFR",22,12,53,200,15,24100,29.67,NA,"FEW  ft; FEW  ft","CYOW 052200Z 20015G24KT 15SM FEW060 FEW250 22/12 A2967 RMK CU1CI1 CU TR SLP051 DENSITY ALT 1700FT",2025-09-05 22:40:49.531867,2025-09-05 18:40:49.531867
"CYGK",2025-09-05 22:00:00,2025-09-05 18:00:00,"VFR",21,16,73,200,12,24100,29.72,NA,"SCT  ft; BKN  ft","CYGK 052200Z 20012KT 15SM SCT100 BKN220 21/16 A2972 RMK AC3CI2 SLP067 DENSITY ALT 1400FT",2025-09-05 22:40:49.625397,2025-09-05 18:40:49.625397
"CYQG",2025-09-05 22:00:00,2025-09-05 18:00:00,"VFR",21,7,40,260,15,14500,29.81,NA,"SCT  ft; SCT  ft","CYQG 052200Z AUTO 26015G23KT 9SM SCT071 SCT085 21/07 A2981 RMK SLP095 DENSITY ALT 1600FT",2025-09-05 22:40:49.718372,2025-09-05 18:40:49.718372
"CYVV",2025-09-05 22:00:00,2025-09-05 18:00:00,"VFR",15,9,68,270,11,24100,29.71,NA,"BKN  ft","CYVV 052200Z 27011G21KT 15SM BKN035 15/09 A2971 RMK CU6 SLP064 DENSITY ALT 1200FT",2025-09-05 22:40:49.820999,2025-09-05 18:40:49.820999
"CYYZ",2025-09-05 22:00:00,2025-09-05 18:00:00,"VFR",22,8,41,260,21,24100,29.69,NA,"BKN  ft","CYYZ 052200Z 26021G29KT 15SM BKN067 22/08 A2969 RMK CU6 SLP056 DENSITY ALT 1900FT",2025-09-05 22:40:49.953053,2025-09-05 18:40:49.953053
"CYQA",2025-09-05 22:00:00,2025-09-05 18:00:00,"VFR",14,12,88,280,6,14500,29.69,NA,"FEW  ft; BKN  ft; BKN  ft; OVC  ft","CYQA 052200Z AUTO 28006G15KT 250V330 9SM FEW019 BKN048 BKN060 OVC075 14/12 A2969 RMK SLP060 DENSITY ALT 1400FT",2025-09-05 22:40:50.044506,2025-09-05 18:40:50.044506
"CYVR",2025-09-05 22:00:00,2025-09-05 18:00:00,"VFR",22,19,83,240,6,24100,29.82,NA,"FEW  ft; FEW  ft; SCT  ft","CYVR 052200Z 24006KT 15SM FEW110 FEW160 SCT220 22/19 A2982 RMK AC1AC1CI3 AC TR HZ SLP101 DENSITY ALT 900FT",2025-09-05 22:40:50.139155,2025-09-05 18:40:50.139155
"CYYJ",2025-09-05 22:00:00,2025-09-05 18:00:00,"VFR",19,14,73,130,9,48300,29.82,NA,"FEW  ft; SCT  ft","CYYJ 052200Z 13009KT 30SM FEW220 SCT250 19/14 A2982 RMK CC1CI3 SLP101 DENSITY ALT 700FT",2025-09-05 22:40:50.23222,2025-09-05 18:40:50.23222
"CYLW",2025-09-05 22:00:00,2025-09-05 18:00:00,"VFR",27,9,32,170,4,11300,29.84,NA,"CLR  ft","CYLW 052200Z AUTO 17004KT 140V210 7SM CLR 27/09 A2984 RMK SLP102 DENSITY ALT 3300FT",2025-09-05 22:40:50.327211,2025-09-05 18:40:50.327211
"CYXS",2025-09-05 22:00:00,2025-09-05 18:00:00,"VFR",23,13,53,0,0,14500,29.91,NA,"CLR  ft","CYXS 052200Z AUTO 00000KT 9SM CLR 23/13 A2991 RMK SLP137 DENSITY ALT 3800FT",2025-09-05 22:40:50.420121,2025-09-05 18:40:50.420121
"CYXT",2025-09-05 22:00:00,2025-09-05 18:00:00,"VFR",24,15,57,0,0,24100,29.83,NA,"FEW  ft","CYXT 052200Z 00000KT 15SM FEW130 24/15 A2983 RMK AC2 SLP104 DENSITY ALT 2100FT",2025-09-05 22:40:50.512111,2025-09-05 18:40:50.512111
"CYQQ",2025-09-05 22:00:00,2025-09-05 18:00:00,"VFR",22,15,65,50,5,32200,29.82,NA,"SCT  ft; SCT  ft","CYQQ 052200Z 05005KT 20SM SCT060 SCT250 22/15 A2982 RMK FU4CI1 DENSITY ALT 1250FT SLP098",2025-09-05 22:40:50.643985,2025-09-05 18:40:50.643985
"CYYC",2025-09-05 22:00:00,2025-09-05 18:00:00,"VFR",21,3,31,160,12,14500,30.03,NA,"SKC  ft","CYYC 052200Z 16012KT 9SM SKC 21/03 A3003 RMK SLP182 DENSITY ALT 5000FT",2025-09-05 22:40:50.775991,2025-09-05 18:40:50.775991
"CYEG",2025-09-05 22:00:00,2025-09-05 18:00:00,"VFR",23,0,22,170,10,32200,30,NA,"FEW  ft; FEW  ft","CYEG 052200Z 17010G15KT 20SM FEW180 FEW250 23/00 A3000 RMK AC1CI2 AC TR SLP172 DENSITY ALT 3800FT",2025-09-05 22:40:50.868001,2025-09-05 18:40:50.868001
"CYMM",2025-09-05 22:00:00,2025-09-05 18:00:00,"VFR",20,7,43,40,7,14500,30.02,NA,"CLR  ft","CYMM 052200Z AUTO 04007KT 9SM CLR 20/07 A3002 RMK SLP179 DENSITY ALT 2000FT",2025-09-05 22:40:50.964374,2025-09-05 18:40:50.964374
"CYQF",2025-09-05 22:00:00,2025-09-05 18:00:00,"VFR",22,3,29,140,10,14500,30.02,NA,"CLR  ft","CYQF 052200Z AUTO 14010G18KT 9SM CLR 22/03 A3002 RMK SLP181 DENSITY ALT 4300FT",2025-09-05 22:40:51.058957,2025-09-05 18:40:51.058957
"CYXE",2025-09-05 22:00:00,2025-09-05 18:00:00,"VFR",16,3,42,320,7,24100,30.07,NA,"SCT  ft; SCT  ft","CYXE 052200Z 32007KT 290V010 15SM SCT045 SCT250 16/03 A3007 RMK CU3CI1 SLP202 DENSITY ALT 2000FT",2025-09-05 22:40:51.155273,2025-09-05 18:40:51.155273
"CYQR",2025-09-05 22:00:00,2025-09-05 18:00:00,"VFR",14,3,48,330,10,24100,30.08,NA,"FEW  ft","CYQR 052200Z 33010G15KT 290V360 15SM FEW042 14/03 A3008 RMK CF2 SLP203 DENSITY ALT 2100FT",2025-09-05 22:40:51.250182,2025-09-05 18:40:51.250182
"CYWG",2025-09-05 22:00:00,2025-09-05 18:00:00,"VFR",16,1,36,320,20,24100,29.85,NA,"FEW  ft; FEW  ft; FEW  ft","CYWG 052200Z 32020G27KT 15SM FEW064 FEW140 FEW240 16/01 A2985 RMK SC1AC1CC1 SC TR AC TR SLP114 DENSITY ALT 1200FT",2025-09-05 22:40:51.382498,2025-09-05 18:40:51.382498
"CYBR",2025-09-05 22:00:00,2025-09-05 18:00:00,"VFR",12,5,63,340,14,24100,29.95,NA,"BKN  ft; BKN  ft; BKN  ft","CYBR 052200Z 34014G22KT 15SM BKN050 BKN072 BKN160 12/05 A2995 RMK SC6AC1AC1 AC TR SLP157",2025-09-05 22:40:51.474137,2025-09-05 18:40:51.474137
"CYUL",2025-09-05 22:00:00,2025-09-05 18:00:00,"VFR",25,11,42,210,12,48300,29.7,NA,"FEW  ft; SCT  ft; BKN  ft","CYUL 052200Z 21012KT 30SM FEW070 SCT120 BKN250 25/11 A2970 RMK AC1AC3CI2 AC TR SLP061 DENSITY ALT 1600FT",2025-09-05 22:40:51.61037,2025-09-05 18:40:51.61037
"CYHU",2025-09-05 22:00:00,2025-09-05 18:00:00,"VFR",24,14,54,170,11,14500,29.71,NA,"FEW  ft","CYHU 052200Z AUTO 17011G16KT 9SM FEW076 24/14 A2971 RMK SLP062 DENSITY ALT 1400FT",2025-09-05 22:40:51.704515,2025-09-05 18:40:51.704515
"CYQB",2025-09-05 22:00:00,2025-09-05 18:00:00,"VFR",22,14,61,0,0,48300,29.74,NA,"FEW  ft; FEW  ft; SCT  ft","CYQB 052200Z 00000KT 30SM FEW057 FEW160 SCT240 22/14 A2974 RMK CU1AC1CS3 AC TR DIST TCU TOP SE SLP072 DENSITY ALT 1400FT",2025-09-05 22:40:51.836935,2025-09-05 18:40:51.836935
"CYVO",2025-09-05 22:00:00,2025-09-05 18:00:00,"VFR",13,12,94,190,12,24100,29.45,NA,"FEW  ft; BKN  ft; BKN  ft","CYVO 052200Z 19012G20KT 15SM FEW020 BKN033 BKN090 13/12 A2945 RMK CF2CU4AC1 SLP983 DENSITY ALT 1800FT",2025-09-05 22:40:51.930721,2025-09-05 18:40:51.930721
"CYUY",2025-09-05 22:19:00,2025-09-05 18:19:00,"VFR",11,9,88,260,21,24100,29.45,NA,"SCT  ft; BKN  ft; BKN  ft","CYUY 052219Z 26021G39KT 15SM SCT023TCU BKN050 BKN070 11/09 A2945 RMK TCU4SC1AC1 PRESRR SLP984 DENSITY ALT 1400FT",2025-09-05 22:40:52.021841,2025-09-05 18:40:52.021841
"CYZV",2025-09-05 22:00:00,2025-09-05 18:00:00,"MVFR",16,14,88,100,7,32200,29.87,NA,"FEW  ft; BKN  ft","CYZV 052200Z 10007KT 20SM -RA FEW001 BKN029 16/14 A2987 RMK SF1SC7 SF TR SLP119 DENSITY ALT 400FT",2025-09-05 22:40:52.115377,2025-09-05 18:40:52.115377
"CYBC",2025-09-05 22:00:00,2025-09-05 18:00:00,"VFR",18,15,83,0,2,14500,29.8,NA,"FEW  ft","CYBC 052200Z AUTO VRB02KT 9SM FEW048 18/15 A2980 RMK SLP092 DENSITY ALT 600FT",2025-09-05 22:40:52.208374,2025-09-05 18:40:52.208374
"CYRJ",2025-09-05 22:00:00,2025-09-05 18:00:00,"VFR",19,10,56,180,7,64400,29.68,NA,"FEW  ft; BKN  ft","CYRJ 052200Z 18007KT 160V220 40SM FEW050 BKN140 19/10 A2968 RMK SC1AC5 SC TR SLP055 DENSITY ALT 1500FT",2025-09-05 22:40:52.302522,2025-09-05 18:40:52.302522
"CYHZ",2025-09-05 22:16:00,2025-09-05 18:16:00,"LIFR",19,19,100,160,9,9999,30.06,NA,"BKN  ft; BKN  ft","CYHZ 052216Z 16009KT 10SM -DZ BKN004 BKN050 19/19 A3006 RMK ST7SC1 SC TR SLP181 DENSITY ALT 1000FT",2025-09-05 22:40:52.39531,2025-09-05 18:40:52.39531
"CYYG",2025-09-05 22:00:00,2025-09-05 18:00:00,"VFR",21,20,94,150,10,24100,30.01,NA,"FEW  ft","CYYG 052200Z 15010G15KT 15SM FEW030 21/20 A3001 RMK SC3 SLP164 DENSITY ALT 900FT",2025-09-05 22:40:52.489039,2025-09-05 18:40:52.489039
"CYQM",2025-09-05 22:00:00,2025-09-05 18:00:00,"VFR",25,12,44,200,9,24100,29.96,NA,"FEW  ft; BKN  ft; BKN  ft","CYQM 052200Z 20009KT 15SM FEW052TCU BKN074 BKN260 25/12 A2996 RMK TCU1AC7CI1 TCU TR CI TR TCU CLD SE-SW SLP149 DENSITY ALT 1500FT",2025-09-05 22:40:52.581804,2025-09-05 18:40:52.581804
"CYFC",2025-09-05 22:00:00,2025-09-05 18:00:00,"VFR",21,15,69,170,10,14500,29.95,NA,"SCT  ft; BKN  ft; OVC  ft","CYFC 052200Z AUTO 17010G16KT 150V210 9SM SCT060 BKN075 OVC087 21/15 A2995 RMK SLP143 DENSITY ALT 800FT",2025-09-05 22:40:52.673702,2025-09-05 18:40:52.673702
"CYYT",2025-09-05 22:14:00,2025-09-05 18:14:00,"LIFR",11,11,100,140,5,NA,30.25,NA,"OVX  ft","CYYT 052214Z 14005KT 090V160 1/2SM R10/P6000FT/U R16/P6000FT/U FG VV002 11/11 A3025 RMK FG8 SLP249",2025-09-05 22:40:52.812125,2025-09-05 18:40:52.812125
"CYQY",2025-09-05 22:00:00,2025-09-05 18:00:00,"VFR",19,16,83,170,7,24100,30.1,NA,"FEW  ft; FEW  ft; SCT  ft","CYQY 052200Z 17007KT 15SM FEW055 FEW080 SCT240 19/16 A3010 RMK SC1AC1CI3 AC TR SLP197 DENSITY ALT 600FT",2025-09-05 22:40:52.946339,2025-09-05 18:40:52.946339
"CYXY",2025-09-05 22:00:00,2025-09-05 18:00:00,"VFR",24,8,36,150,15,64400,29.74,NA,"FEW  ft; SCT  ft; BKN  ft","CYXY 052200Z 15015KT 40SM FEW100 SCT170 BKN250 24/08 A2974 RMK AC1AC2CI4 SLP078 DENSITY ALT 4200FT",2025-09-05 22:40:53.044689,2025-09-05 18:40:53.044689
"CYZF",2025-09-05 22:00:00,2025-09-05 18:00:00,"VFR",17,6,49,150,11,24100,29.99,NA,"FEW  ft","CYZF 052200Z 15011KT 15SM FEW240 17/06 A2999 RMK CI1 SLP167 DENSITY ALT 1000FT",2025-09-05 22:40:53.135825,2025-09-05 18:40:53.135825
"CYFB",2025-09-05 22:00:00,2025-09-05 18:00:00,"VFR",4,-1,70,140,15,48300,30,NA,"FEW  ft; BKN  ft; BKN  ft","CYFB 052200Z 14015KT 30SM FEW020 BKN130 BKN220 04/M01 A3000 RMK SC1AS5CS2 SC TR SLP163",2025-09-05 22:40:53.233185,2025-09-05 18:40:53.233185
"CYRT",2025-09-05 22:00:00,2025-09-05 18:00:00,"MVFR",7,4,81,10,16,24100,29.9,NA,"BKN  ft; OVC  ft","CYRT 052200Z 01016KT 15SM BKN018 OVC032 07/04 A2990 RMK SC6SC2 SLP130",2025-09-05 22:40:53.330306,2025-09-05 18:40:53.330306
"CYBK",2025-09-05 22:00:00,2025-09-05 18:00:00,"VFR",7,3,76,360,11,40200,30.03,NA,"OVC  ft","CYBK 052200Z 36011G16KT 25SM OVC037 07/03 A3003 RMK SC8 SLP174",2025-09-05 22:40:53.428108,2025-09-05 18:40:53.428108
"CYRB",2025-09-05 22:00:00,2025-09-05 18:00:00,"MVFR",-2,-4,86,150,15,48300,30.12,NA,"BKN  ft","CYRB 052200Z 15015KT 30SM -SN BKN010 M02/M04 A3012 RMK ST6 SLP207",2025-09-05 22:40:53.537615,2025-09-05 18:40:53.537615
"CYCO",2025-09-05 22:00:00,2025-09-05 18:00:00,"VFR",20,6,40,210,9,9700,29.88,NA,"BKN  ft; BKN  ft","CYCO 052200Z 21009G15KT 6SM FU BKN110 BKN240 20/06 A2988 RMK FU2AC3CI2 SLP121 DENSITY ALT 700FT",2025-09-05 22:40:53.671822,2025-09-05 18:40:53.671822
"CYER",2025-09-05 22:00:00,2025-09-05 18:00:00,"MVFR",9,7,87,20,9,14500,29.44,NA,"BKN  ft; BKN  ft","CYER 052200Z AUTO 02009KT 9SM BKN016 BKN021 09/07 A2944 RMK SLP974",2025-09-05 23:03:09.244364,2025-09-05 19:03:09.244364
"CYAT",2025-09-05 22:48:00,2025-09-05 18:48:00,"VFR",9,9,100,310,7,14500,29.29,NA,"SCT  ft; OVC  ft","CYAT 052248Z AUTO 31007KT 9SM -RA SCT014 OVC066 09/09 A2929 RMK PCPN 0.5MM PAST HR SLP921",2025-09-05 23:03:09.324293,2025-09-05 19:03:09.324293
"CYMO",2025-09-05 22:00:00,2025-09-05 18:00:00,"VFR",12,11,94,110,10,14500,29.21,NA,"FEW  ft; OVC  ft","CYMO 052200Z AUTO 11010KT 9SM FEW009 OVC037 12/11 A2921 RMK SLP895 DENSITY ALT 500FT",2025-09-05 23:03:09.435456,2025-09-05 19:03:09.435456
"CYPL",2025-09-05 22:14:00,2025-09-05 18:14:00,"MVFR",6,5,93,320,9,12900,29.49,NA,"FEW  ft; SCT  ft; BKN  ft; OVC  ft","CYPL 052214Z AUTO 32009G21KT 270V010 8SM FEW015 SCT022 BKN028 OVC055 06/05 A2949 RMK SLP002",2025-09-05 23:03:09.513586,2025-09-05 19:03:09.513586
"CYQT",2025-09-05 22:00:00,2025-09-05 18:00:00,"VFR",11,4,62,290,13,32200,29.54,NA,"BKN  ft; BKN  ft","CYQT 052200Z 29013G21KT 20SM -SHRA BKN037 BKN075 11/04 A2954 RMK SC5AC2 CVCTV CLD EMBD SLP013",2025-09-05 23:03:09.591519,2025-09-05 19:03:09.591519
"CYAM",2025-09-05 22:50:00,2025-09-05 18:50:00,"VFR",11,7,77,250,11,24100,29.64,NA,"FEW  ft; SCT  ft; OVC  ft","CYAM 052250Z CCA 25011G19KT 15SM -SHRA FEW033 SCT047 OVC070 11/07 A2964 RMK CU2SC1AS5 SLP044",2025-09-05 23:03:09.665822,2025-09-05 19:03:09.665822
"CYTS",2025-09-05 22:00:00,2025-09-05 18:00:00,"MVFR",8,7,93,240,10,4800,29.44,NA,"SCT  ft; OVC  ft","CYTS 052200Z 24010G16KT 190V290 3SM -SHRA BR SCT016 OVC024 08/07 A2944 RMK CF4CU4 PRESRR SLP978",2025-09-05 23:03:09.742934,2025-09-05 19:03:09.742934
"CYSB",2025-09-05 22:00:00,2025-09-05 18:00:00,"VFR",13,5,59,240,12,32200,29.58,NA,"BKN  ft","CYSB 052200Z 24012G22KT 20SM BKN039 13/05 A2958 RMK SC7 SLP024 DENSITY ALT 1600FT",2025-09-05 23:03:09.817095,2025-09-05 19:03:09.817095
"CYYB",2025-09-05 22:00:00,2025-09-05 18:00:00,"MVFR",13,10,82,230,14,48300,29.58,NA,"BKN  ft; BKN  ft","CYYB 052200Z 23014KT 30SM BKN030 BKN090 13/10 A2958 RMK CU5AC1 WIND EST SLP026 DENSITY ALT 1700FT",2025-09-05 23:03:09.890171,2025-09-05 19:03:09.890171
"CYOW",2025-09-05 22:00:00,2025-09-05 18:00:00,"VFR",22,12,53,200,15,24100,29.67,NA,"FEW  ft; FEW  ft","CYOW 052200Z 20015G24KT 15SM FEW060 FEW250 22/12 A2967 RMK CU1CI1 CU TR SLP051 DENSITY ALT 1700FT",2025-09-05 23:03:09.965185,2025-09-05 19:03:09.965185
"CYGK",2025-09-05 22:00:00,2025-09-05 18:00:00,"VFR",21,16,73,200,12,24100,29.72,NA,"SCT  ft; BKN  ft","CYGK 052200Z 20012KT 15SM SCT100 BKN220 21/16 A2972 RMK AC3CI2 SLP067 DENSITY ALT 1400FT",2025-09-05 23:03:10.040396,2025-09-05 19:03:10.040396
"CYQG",2025-09-05 22:00:00,2025-09-05 18:00:00,"VFR",21,7,40,260,15,14500,29.81,NA,"SCT  ft; SCT  ft","CYQG 052200Z AUTO 26015G23KT 9SM SCT071 SCT085 21/07 A2981 RMK SLP095 DENSITY ALT 1600FT",2025-09-05 23:03:10.112159,2025-09-05 19:03:10.112159
"CYVV",2025-09-05 22:00:00,2025-09-05 18:00:00,"VFR",15,9,68,270,11,24100,29.71,NA,"BKN  ft","CYVV 052200Z 27011G21KT 15SM BKN035 15/09 A2971 RMK CU6 SLP064 DENSITY ALT 1200FT",2025-09-05 23:03:10.224476,2025-09-05 19:03:10.224476
"CYYZ",2025-09-05 22:00:00,2025-09-05 18:00:00,"VFR",22,8,41,260,21,24100,29.69,NA,"BKN  ft","CYYZ 052200Z 26021G29KT 15SM BKN067 22/08 A2969 RMK CU6 SLP056 DENSITY ALT 1900FT",2025-09-05 23:03:10.295923,2025-09-05 19:03:10.295923
"CYQA",2025-09-05 22:00:00,2025-09-05 18:00:00,"VFR",14,12,88,280,6,14500,29.69,NA,"FEW  ft; BKN  ft; BKN  ft; OVC  ft","CYQA 052200Z AUTO 28006G15KT 250V330 9SM FEW019 BKN048 BKN060 OVC075 14/12 A2969 RMK SLP060 DENSITY ALT 1400FT",2025-09-05 23:03:10.369088,2025-09-05 19:03:10.369088
"CYVR",2025-09-05 22:00:00,2025-09-05 18:00:00,"VFR",22,19,83,240,6,24100,29.82,NA,"FEW  ft; FEW  ft; SCT  ft","CYVR 052200Z 24006KT 15SM FEW110 FEW160 SCT220 22/19 A2982 RMK AC1AC1CI3 AC TR HZ SLP101 DENSITY ALT 900FT",2025-09-05 23:03:10.44245,2025-09-05 19:03:10.44245
"CYYJ",2025-09-05 22:00:00,2025-09-05 18:00:00,"VFR",19,14,73,130,9,48300,29.82,NA,"FEW  ft; SCT  ft","CYYJ 052200Z 13009KT 30SM FEW220 SCT250 19/14 A2982 RMK CC1CI3 SLP101 DENSITY ALT 700FT",2025-09-05 23:03:10.517265,2025-09-05 19:03:10.517265
"CYLW",2025-09-05 22:00:00,2025-09-05 18:00:00,"VFR",27,9,32,170,4,11300,29.84,NA,"CLR  ft","CYLW 052200Z AUTO 17004KT 140V210 7SM CLR 27/09 A2984 RMK SLP102 DENSITY ALT 3300FT",2025-09-05 23:03:10.591176,2025-09-05 19:03:10.591176
"CYXS",2025-09-05 22:00:00,2025-09-05 18:00:00,"VFR",23,13,53,0,0,14500,29.91,NA,"CLR  ft","CYXS 052200Z AUTO 00000KT 9SM CLR 23/13 A2991 RMK SLP137 DENSITY ALT 3800FT",2025-09-05 23:03:10.661715,2025-09-05 19:03:10.661715
"CYXT",2025-09-05 22:00:00,2025-09-05 18:00:00,"VFR",24,15,57,0,0,24100,29.83,NA,"FEW  ft","CYXT 052200Z 00000KT 15SM FEW130 24/15 A2983 RMK AC2 SLP104 DENSITY ALT 2100FT",2025-09-05 23:03:10.734699,2025-09-05 19:03:10.734699
"CYQQ",2025-09-05 22:00:00,2025-09-05 18:00:00,"VFR",22,15,65,50,5,32200,29.82,NA,"SCT  ft; SCT  ft","CYQQ 052200Z 05005KT 20SM SCT060 SCT250 22/15 A2982 RMK FU4CI1 DENSITY ALT 1250FT SLP098",2025-09-05 23:03:10.809603,2025-09-05 19:03:10.809603
"CYYC",2025-09-05 22:00:00,2025-09-05 18:00:00,"VFR",21,3,31,160,12,14500,30.03,NA,"SKC  ft","CYYC 052200Z 16012KT 9SM SKC 21/03 A3003 RMK SLP182 DENSITY ALT 5000FT",2025-09-05 23:03:10.880965,2025-09-05 19:03:10.880965
"CYEG",2025-09-05 22:00:00,2025-09-05 18:00:00,"VFR",23,0,22,170,10,32200,30,NA,"FEW  ft; FEW  ft","CYEG 052200Z 17010G15KT 20SM FEW180 FEW250 23/00 A3000 RMK AC1CI2 AC TR SLP172 DENSITY ALT 3800FT",2025-09-05 23:03:10.954615,2025-09-05 19:03:10.954615
"CYMM",2025-09-05 22:00:00,2025-09-05 18:00:00,"VFR",20,7,43,40,7,14500,30.02,NA,"CLR  ft","CYMM 052200Z AUTO 04007KT 9SM CLR 20/07 A3002 RMK SLP179 DENSITY ALT 2000FT",2025-09-05 23:03:11.028031,2025-09-05 19:03:11.028031
"CYQF",2025-09-05 22:00:00,2025-09-05 18:00:00,"VFR",22,3,29,140,10,14500,30.02,NA,"CLR  ft","CYQF 052200Z AUTO 14010G18KT 9SM CLR 22/03 A3002 RMK SLP181 DENSITY ALT 4300FT",2025-09-05 23:03:11.099237,2025-09-05 19:03:11.099237
"CYXE",2025-09-05 22:00:00,2025-09-05 18:00:00,"VFR",16,3,42,320,7,24100,30.07,NA,"SCT  ft; SCT  ft","CYXE 052200Z 32007KT 290V010 15SM SCT045 SCT250 16/03 A3007 RMK CU3CI1 SLP202 DENSITY ALT 2000FT",2025-09-05 23:03:11.170668,2025-09-05 19:03:11.170668
"CYQR",2025-09-05 22:00:00,2025-09-05 18:00:00,"VFR",14,3,48,330,10,24100,30.08,NA,"FEW  ft","CYQR 052200Z 33010G15KT 290V360 15SM FEW042 14/03 A3008 RMK CF2 SLP203 DENSITY ALT 2100FT",2025-09-05 23:03:11.280965,2025-09-05 19:03:11.280965
"CYWG",2025-09-05 22:00:00,2025-09-05 18:00:00,"VFR",16,1,36,320,20,24100,29.85,NA,"FEW  ft; FEW  ft; FEW  ft","CYWG 052200Z 32020G27KT 15SM FEW064 FEW140 FEW240 16/01 A2985 RMK SC1AC1CC1 SC TR AC TR SLP114 DENSITY ALT 1200FT",2025-09-05 23:03:11.354015,2025-09-05 19:03:11.354015
"CYBR",2025-09-05 22:00:00,2025-09-05 18:00:00,"VFR",12,5,63,340,14,24100,29.95,NA,"BKN  ft; BKN  ft; BKN  ft","CYBR 052200Z 34014G22KT 15SM BKN050 BKN072 BKN160 12/05 A2995 RMK SC6AC1AC1 AC TR SLP157",2025-09-05 23:03:11.427935,2025-09-05 19:03:11.427935
"CYUL",2025-09-05 22:00:00,2025-09-05 18:00:00,"VFR",25,11,42,210,12,48300,29.7,NA,"FEW  ft; SCT  ft; BKN  ft","CYUL 052200Z 21012KT 30SM FEW070 SCT120 BKN250 25/11 A2970 RMK AC1AC3CI2 AC TR SLP061 DENSITY ALT 1600FT",2025-09-05 23:03:11.504798,2025-09-05 19:03:11.504798
"CYHU",2025-09-05 22:00:00,2025-09-05 18:00:00,"VFR",24,14,54,170,11,14500,29.71,NA,"FEW  ft","CYHU 052200Z AUTO 17011G16KT 9SM FEW076 24/14 A2971 RMK SLP062 DENSITY ALT 1400FT",2025-09-05 23:03:11.577491,2025-09-05 19:03:11.577491
"CYQB",2025-09-05 22:00:00,2025-09-05 18:00:00,"VFR",22,14,61,0,0,48300,29.74,NA,"FEW  ft; FEW  ft; SCT  ft","CYQB 052200Z 00000KT 30SM FEW057 FEW160 SCT240 22/14 A2974 RMK CU1AC1CS3 AC TR DIST TCU TOP SE SLP072 DENSITY ALT 1400FT",2025-09-05 23:03:11.655328,2025-09-05 19:03:11.655328
"CYVO",2025-09-05 22:00:00,2025-09-05 18:00:00,"VFR",13,12,94,190,12,24100,29.45,NA,"FEW  ft; BKN  ft; BKN  ft","CYVO 052200Z 19012G20KT 15SM FEW020 BKN033 BKN090 13/12 A2945 RMK CF2CU4AC1 SLP983 DENSITY ALT 1800FT",2025-09-05 23:03:11.727352,2025-09-05 19:03:11.727352
"CYUY",2025-09-05 22:19:00,2025-09-05 18:19:00,"VFR",11,9,88,260,21,24100,29.45,NA,"SCT  ft; BKN  ft; BKN  ft","CYUY 052219Z 26021G39KT 15SM SCT023TCU BKN050 BKN070 11/09 A2945 RMK TCU4SC1AC1 PRESRR SLP984 DENSITY ALT 1400FT",2025-09-05 23:03:11.800246,2025-09-05 19:03:11.800246
"CYZV",2025-09-05 22:48:00,2025-09-05 18:48:00,"VFR",16,14,88,110,9,32200,29.86,NA,"FEW  ft; BKN  ft","CYZV 052248Z 11009KT 20SM FEW001 BKN033 16/14 A2986 RMK SF1SC6 SLP116 DENSITY ALT 400FT",2025-09-05 23:03:11.875121,2025-09-05 19:03:11.875121
"CYBC",2025-09-05 22:00:00,2025-09-05 18:00:00,"VFR",18,15,83,0,2,14500,29.8,NA,"FEW  ft","CYBC 052200Z AUTO VRB02KT 9SM FEW048 18/15 A2980 RMK SLP092 DENSITY ALT 600FT",2025-09-05 23:03:11.959849,2025-09-05 19:03:11.959849
"CYRJ",2025-09-05 22:00:00,2025-09-05 18:00:00,"VFR",19,10,56,180,7,64400,29.68,NA,"FEW  ft; BKN  ft","CYRJ 052200Z 18007KT 160V220 40SM FEW050 BKN140 19/10 A2968 RMK SC1AC5 SC TR SLP055 DENSITY ALT 1500FT",2025-09-05 23:03:12.089147,2025-09-05 19:03:12.089147
"CYHZ",2025-09-05 22:39:00,2025-09-05 18:39:00,"LIFR",19,19,100,170,9,4800,30.06,NA,"BKN  ft; OVC  ft","CYHZ 052239Z 17009KT 3SM -DZ BR BKN003 OVC050 19/19 A3006 RMK ST7SC1 VIS NW-N 10 SLP181 DENSITY ALT 1000FT",2025-09-05 23:03:12.631594,2025-09-05 19:03:12.631594
"CYYG",2025-09-05 22:00:00,2025-09-05 18:00:00,"VFR",21,20,94,150,10,24100,30.01,NA,"FEW  ft","CYYG 052200Z 15010G15KT 15SM FEW030 21/20 A3001 RMK SC3 SLP164 DENSITY ALT 900FT",2025-09-05 23:03:12.715275,2025-09-05 19:03:12.715275
"CYQM",2025-09-05 22:00:00,2025-09-05 18:00:00,"VFR",25,12,44,200,9,24100,29.96,NA,"FEW  ft; BKN  ft; BKN  ft","CYQM 052200Z 20009KT 15SM FEW052TCU BKN074 BKN260 25/12 A2996 RMK TCU1AC7CI1 TCU TR CI TR TCU CLD SE-SW SLP149 DENSITY ALT 1500FT",2025-09-05 23:03:12.797557,2025-09-05 19:03:12.797557
"CYFC",2025-09-05 22:00:00,2025-09-05 18:00:00,"VFR",21,15,69,170,10,14500,29.95,NA,"SCT  ft; BKN  ft; OVC  ft","CYFC 052200Z AUTO 17010G16KT 150V210 9SM SCT060 BKN075 OVC087 21/15 A2995 RMK SLP143 DENSITY ALT 800FT",2025-09-05 23:03:12.875659,2025-09-05 19:03:12.875659
"CYYT",2025-09-05 22:14:00,2025-09-05 18:14:00,"LIFR",11,11,100,140,5,NA,30.25,NA,"OVX  ft","CYYT 052214Z 14005KT 090V160 1/2SM R10/P6000FT/U R16/P6000FT/U FG VV002 11/11 A3025 RMK FG8 SLP249",2025-09-05 23:03:12.96246,2025-09-05 19:03:12.96246
"CYQY",2025-09-05 22:00:00,2025-09-05 18:00:00,"VFR",19,16,83,170,7,24100,30.1,NA,"FEW  ft; FEW  ft; SCT  ft","CYQY 052200Z 17007KT 15SM FEW055 FEW080 SCT240 19/16 A3010 RMK SC1AC1CI3 AC TR SLP197 DENSITY ALT 600FT",2025-09-05 23:03:13.044665,2025-09-05 19:03:13.044665
"CYXY",2025-09-05 22:00:00,2025-09-05 18:00:00,"VFR",24,8,36,150,15,64400,29.74,NA,"FEW  ft; SCT  ft; BKN  ft","CYXY 052200Z 15015KT 40SM FEW100 SCT170 BKN250 24/08 A2974 RMK AC1AC2CI4 SLP078 DENSITY ALT 4200FT",2025-09-05 23:03:13.120533,2025-09-05 19:03:13.120533
"CYZF",2025-09-05 22:00:00,2025-09-05 18:00:00,"VFR",17,6,49,150,11,24100,29.99,NA,"FEW  ft","CYZF 052200Z 15011KT 15SM FEW240 17/06 A2999 RMK CI1 SLP167 DENSITY ALT 1000FT",2025-09-05 23:03:13.195057,2025-09-05 19:03:13.195057
"CYFB",2025-09-05 22:00:00,2025-09-05 18:00:00,"VFR",4,-1,70,140,15,48300,30,NA,"FEW  ft; BKN  ft; BKN  ft","CYFB 052200Z 14015KT 30SM FEW020 BKN130 BKN220 04/M01 A3000 RMK SC1AS5CS2 SC TR SLP163",2025-09-05 23:03:13.270727,2025-09-05 19:03:13.270727
"CYRT",2025-09-05 22:00:00,2025-09-05 18:00:00,"MVFR",7,4,81,10,16,24100,29.9,NA,"BKN  ft; OVC  ft","CYRT 052200Z 01016KT 15SM BKN018 OVC032 07/04 A2990 RMK SC6SC2 SLP130",2025-09-05 23:03:13.345416,2025-09-05 19:03:13.345416
"CYBK",2025-09-05 22:00:00,2025-09-05 18:00:00,"VFR",7,3,76,360,11,40200,30.03,NA,"OVC  ft","CYBK 052200Z 36011G16KT 25SM OVC037 07/03 A3003 RMK SC8 SLP174",2025-09-05 23:03:13.460556,2025-09-05 19:03:13.460556
"CYRB",2025-09-05 22:00:00,2025-09-05 18:00:00,"MVFR",-2,-4,86,150,15,48300,30.12,NA,"BKN  ft","CYRB 052200Z 15015KT 30SM -SN BKN010 M02/M04 A3012 RMK ST6 SLP207",2025-09-05 23:03:13.543166,2025-09-05 19:03:13.543166
"CYCO",2025-09-05 22:00:00,2025-09-05 18:00:00,"VFR",20,6,40,210,9,9700,29.88,NA,"BKN  ft; BKN  ft","CYCO 052200Z 21009G15KT 6SM FU BKN110 BKN240 20/06 A2988 RMK FU2AC3CI2 SLP121 DENSITY ALT 700FT",2025-09-05 23:03:13.618223,2025-09-05 19:03:13.618223
"CYER",2025-09-05 23:00:00,2025-09-05 19:00:00,"MVFR",8,7,93,360,9,14500,29.46,NA,"BKN  ft; BKN  ft","CYER 052300Z AUTO 36009KT 9SM BKN018 BKN024 08/07 A2946 RMK SLP980",2025-09-05 23:20:06.332046,2025-09-05 19:20:06.332046
"CYAT",2025-09-05 23:14:00,2025-09-05 19:14:00,"VFR",9,9,100,330,7,14500,29.29,NA,"FEW  ft; SCT  ft; SCT  ft; OVC  ft","CYAT 052314Z AUTO 33007KT 9SM -RA FEW007 SCT023 SCT055 OVC066 09/09 A2929 RMK SLP920",2025-09-05 23:20:06.388279,2025-09-05 19:20:06.388279
"CYMO",2025-09-05 23:00:00,2025-09-05 19:00:00,"VFR",13,11,88,140,7,14500,29.21,NA,"BKN  ft; OVC  ft","CYMO 052300Z AUTO 14007KT 9SM BKN046 OVC100 13/11 A2921 RMK SLP893 DENSITY ALT 600FT",2025-09-05 23:20:06.475354,2025-09-05 19:20:06.475354
"CYPL",2025-09-05 23:09:00,2025-09-05 19:09:00,"MVFR",6,5,93,320,9,14500,29.51,NA,"SCT  ft; BKN  ft; BKN  ft; OVC  ft","CYPL 052309Z AUTO 32009G19KT 290V030 9SM -RA SCT024 BKN029 BKN037 OVC060 06/05 A2951 RMK SLP010",2025-09-05 23:20:06.558969,2025-09-05 19:20:06.558969
"CYQT",2025-09-05 23:00:00,2025-09-05 19:00:00,"VFR",10,5,71,290,17,32200,29.57,NA,"FEW  ft; BKN  ft; BKN  ft","CYQT 052300Z 29017G25KT 20SM FEW037 BKN085 BKN260 10/05 A2957 RMK SC2AC3CI2 SLP023",2025-09-05 23:20:06.647503,2025-09-05 19:20:06.647503
"CYAM",2025-09-05 23:00:00,2025-09-05 19:00:00,"VFR",11,7,77,240,12,32200,29.65,NA,"FEW  ft; SCT  ft; OVC  ft","CYAM 052300Z 24012G18KT 20SM -SHRA FEW033 SCT053 OVC070 11/07 A2965 RMK CU2SC1AS5 SLP045",2025-09-05 23:20:06.731574,2025-09-05 19:20:06.731574
"CYTS",2025-09-05 23:00:00,2025-09-05 19:00:00,"MVFR",7,6,93,250,7,9999,29.48,NA,"BKN  ft; BKN  ft","CYTS 052300Z 25007G18KT 200V280 10SM -SHRA BKN016 BKN032 07/06 A2948 RMK CU5SC3 PRESRR SLP994",2025-09-05 23:20:06.777291,2025-09-05 19:20:06.777291
"CYSB",2025-09-05 23:00:00,2025-09-05 19:00:00,"VFR",11,5,67,240,18,32200,29.62,NA,"BKN  ft","CYSB 052300Z 24018G26KT 20SM BKN039 11/05 A2962 RMK SC5 SLP039",2025-09-05 23:20:06.861634,2025-09-05 19:20:06.861634
"CYYB",2025-09-05 23:00:00,2025-09-05 19:00:00,"MVFR",13,8,72,270,14,48300,29.62,NA,"BKN  ft; BKN  ft","CYYB 052300Z 27014KT 30SM BKN025 BKN090 13/08 A2962 RMK CU6AC1 WIND EST SLP037 DENSITY ALT 1600FT",2025-09-05 23:20:06.906389,2025-09-05 19:20:06.906389
"CYOW",2025-09-05 23:00:00,2025-09-05 19:00:00,"VFR",21,12,57,190,11,24100,29.67,NA,"SCT  ft; SCT  ft","CYOW 052300Z 19011G17KT 15SM SCT040TCU SCT250 21/12 A2967 RMK TCU4CI1 CI TR TCU W QUAD SLP051 DENSITY ALT 1500FT",2025-09-05 23:20:06.993235,2025-09-05 19:20:06.993235
"CYGK",2025-09-05 23:00:00,2025-09-05 19:00:00,"VFR",21,17,78,190,12,24100,29.72,NA,"SCT  ft; BKN  ft","CYGK 052300Z 19012KT 15SM SCT080 BKN240 21/17 A2972 RMK AC3CI3 SLP067 DENSITY ALT 1300FT",2025-09-05 23:20:07.086728,2025-09-05 19:20:07.086728
"CYQG",2025-09-05 23:00:00,2025-09-05 19:00:00,"VFR",20,7,43,280,13,14500,29.83,NA,"BKN  ft","CYQG 052300Z AUTO 28013G18KT 9SM BKN066 20/07 A2983 RMK SLP104 DENSITY ALT 1400FT",2025-09-05 23:20:07.172953,2025-09-05 19:20:07.172953
"CYVV",2025-09-05 23:00:00,2025-09-05 19:00:00,"VFR",15,8,63,250,11,24100,29.74,NA,"SCT  ft; BKN  ft; BKN  ft","CYVV 052300Z 25011G22KT 15SM SCT035 BKN050 BKN250 15/08 A2974 RMK CU3CU2CC1 SLP074 DENSITY ALT 1100FT",2025-09-05 23:20:07.260308,2025-09-05 19:20:07.260308
"CYYZ",2025-09-05 23:00:00,2025-09-05 19:00:00,"VFR",21,9,46,300,19,24100,29.72,NA,"FEW  ft","CYYZ 052300Z 30019KT 240V310 15SM FEW066 21/09 A2972 RMK AC2 SLP067 DENSITY ALT 1600FT",2025-09-05 23:20:07.348172,2025-09-05 19:20:07.348172
"CYQA",2025-09-05 23:00:00,2025-09-05 19:00:00,"VFR",14,10,77,250,6,14500,29.71,NA,"FEW  ft; SCT  ft; BKN  ft; OVC  ft","CYQA 052300Z AUTO 25006G15KT 230V310 9SM FEW034 SCT041 BKN050 OVC066 14/10 A2971 RMK SLP067 DENSITY ALT 1300FT",2025-09-05 23:20:07.43153,2025-09-05 19:20:07.43153
"CYVR",2025-09-05 23:00:00,2025-09-05 19:00:00,"VFR",22,19,83,240,5,24100,29.81,NA,"FEW  ft; FEW  ft","CYVR 052300Z 24005KT 210V280 15SM FEW110 FEW220 22/19 A2981 RMK AC1CI1 AC TR HZ SLP096 DENSITY ALT 1000FT",2025-09-05 23:20:07.519326,2025-09-05 19:20:07.519326
"CYYJ",2025-09-05 23:00:00,2025-09-05 19:00:00,"VFR",21,15,69,120,9,48300,29.81,NA,"SCT  ft","CYYJ 052300Z 12009KT 30SM SCT250 21/15 A2981 RMK CI3 SLP097 DENSITY ALT 900FT",2025-09-05 23:20:07.567897,2025-09-05 19:20:07.567897
"CYLW",2025-09-05 23:00:00,2025-09-05 19:00:00,"VFR",28,9,30,160,3,11300,29.82,NA,"CLR  ft","CYLW 052300Z AUTO 16003KT 7SM CLR 28/09 A2982 RMK SLP097 DENSITY ALT 3300FT",2025-09-05 23:20:07.65275,2025-09-05 19:20:07.65275
"CYXS",2025-09-05 23:00:00,2025-09-05 19:00:00,"VFR",24,13,50,320,3,12900,29.89,NA,"CLR  ft","CYXS 052300Z AUTO 32003KT 290V020 8SM CLR 24/13 A2989 RMK SLP130 DENSITY ALT 3900FT",2025-09-05 23:20:07.694696,2025-09-05 19:20:07.694696
"CYXT",2025-09-05 23:00:00,2025-09-05 19:00:00,"VFR",25,16,57,0,2,24100,29.82,NA,"SKC  ft","CYXT 052300Z VRB02KT 15SM SKC 25/16 A2982 RMK FU SLP100 DENSITY ALT 2200FT",2025-09-05 23:20:07.776437,2025-09-05 19:20:07.776437
"CYQQ",2025-09-05 23:00:00,2025-09-05 19:00:00,"VFR",22,15,65,70,5,32200,29.81,NA,"SCT  ft; SCT  ft","CYQQ 052300Z 07005KT 20SM SCT060 SCT250 22/15 A2981 RMK FU4CI1 DENSITY ALT 1314FT SLP094",2025-09-05 23:20:07.867663,2025-09-05 19:20:07.867663
"CYYC",2025-09-05 23:00:00,2025-09-05 19:00:00,"VFR",21,3,31,160,12,14500,30.02,NA,"SKC  ft","CYYC 052300Z 16012KT 9SM SKC 21/03 A3002 RMK SLP177 DENSITY ALT 5000FT",2025-09-05 23:20:07.951202,2025-09-05 19:20:07.951202
"CYEG",2025-09-05 23:00:00,2025-09-05 19:00:00,"VFR",23,1,23,180,9,32200,29.99,NA,"FEW  ft","CYEG 052300Z 18009KT 20SM FEW250 23/01 A2999 RMK CI2 SLP168 DENSITY ALT 3800FT",2025-09-05 23:20:08.034731,2025-09-05 19:20:08.034731
"CYMM",2025-09-05 23:00:00,2025-09-05 19:00:00,"VFR",20,7,43,50,8,14500,29.99,NA,"CLR  ft","CYMM 052300Z AUTO 05008KT 9SM CLR 20/07 A2999 RMK SLP172 DENSITY ALT 2000FT",2025-09-05 23:20:08.122053,2025-09-05 19:20:08.122053
"CYQF",2025-09-05 23:00:00,2025-09-05 19:00:00,"VFR",22,3,29,150,11,14500,30,NA,"CLR  ft","CYQF 052300Z AUTO 15011G17KT 9SM CLR 22/03 A3000 RMK SLP175 DENSITY ALT 4400FT",2025-09-05 23:20:08.205955,2025-09-05 19:20:08.205955
"CYXE",2025-09-05 23:00:00,2025-09-05 19:00:00,"VFR",16,2,39,10,9,24100,30.06,NA,"SCT  ft; SCT  ft","CYXE 052300Z 01009KT 300V020 15SM SCT045 SCT250 16/02 A3006 RMK CU3CI1 SLP199 DENSITY ALT 2100FT",2025-09-05 23:20:08.290433,2025-09-05 19:20:08.290433
"CYQR",2025-09-05 23:00:00,2025-09-05 19:00:00,"VFR",15,3,45,330,13,24100,30.07,NA,"FEW  ft","CYQR 052300Z 33013KT 15SM FEW043 15/03 A3007 RMK CU1 SLP201 DENSITY ALT 2200FT",2025-09-05 23:20:08.376179,2025-09-05 19:20:08.376179
"CYWG",2025-09-05 23:00:00,2025-09-05 19:00:00,"VFR",15,0,36,330,16,24100,29.86,NA,"FEW  ft; FEW  ft; FEW  ft","CYWG 052300Z 33016G23KT 15SM FEW068 FEW140 FEW240 15/M00 A2986 RMK AC1AC1CC1 AC TR AC TR CC TR SLP119 DENSITY ALT 1100FT",2025-09-05 23:20:08.424787,2025-09-05 19:20:08.424787
"CYBR",2025-09-05 23:16:00,2025-09-05 19:16:00,"VFR",11,6,72,340,15,24100,29.97,NA,"BKN  ft; BKN  ft","CYBR 052316Z 34015G29KT 15SM -SHRA BKN050 BKN075 11/06 A2997 RMK SC5AC2 CVCTV CLD EMBD SLP163",2025-09-05 23:20:08.512498,2025-09-05 19:20:08.512498
"CYUL",2025-09-05 23:00:00,2025-09-05 19:00:00,"VFR",24,12,47,190,11,48300,29.69,NA,"FEW  ft; SCT  ft; BKN  ft","CYUL 052300Z 19011KT 30SM FEW090 SCT120 BKN250 24/12 A2969 RMK AC2AC2CI1 SLP057 DENSITY ALT 1500FT",2025-09-05 23:20:08.560583,2025-09-05 19:20:08.560583
"CYHU",2025-09-05 23:00:00,2025-09-05 19:00:00,"VFR",22,15,65,170,8,14500,29.7,NA,"SCT  ft; BKN  ft","CYHU 052300Z AUTO 17008KT 9SM SCT100 BKN120 22/15 A2970 RMK SLP061 DENSITY ALT 1200FT",2025-09-05 23:20:08.645794,2025-09-05 19:20:08.645794
"CYQB",2025-09-05 23:00:00,2025-09-05 19:00:00,"VFR",20,14,69,350,3,48300,29.73,NA,"BKN  ft; BKN  ft; BKN  ft","CYQB 052300Z 35003KT 30SM BKN065 BKN087 BKN250 20/14 A2973 RMK SC5AC1CS1 AC TR SLP071 DENSITY ALT 1200FT",2025-09-05 23:20:08.692607,2025-09-05 19:20:08.692607
"CYVO",2025-09-05 23:00:00,2025-09-05 19:00:00,"MVFR",13,11,88,210,11,24100,29.48,NA,"FEW  ft; BKN  ft; BKN  ft","CYVO 052300Z 21011G18KT 15SM FEW020 BKN026TCU BKN045 13/11 A2948 RMK CF2TCU4SC1 SLP995 DENSITY ALT 1600FT",2025-09-05 23:20:08.777281,2025-09-05 19:20:08.777281
"CYUY",2025-09-05 23:00:00,2025-09-05 19:00:00,"VFR",11,8,82,250,12,24100,29.49,NA,"FEW  ft; SCT  ft; SCT  ft","CYUY 052300Z 25012G19KT 15SM FEW024 SCT050 SCT070 11/08 A2949 RMK CU1SC2AC1 AC TR SLP996 DENSITY ALT 1200FT",2025-09-05 23:20:08.864078,2025-09-05 19:20:08.864078
"CYZV",2025-09-05 23:00:00,2025-09-05 19:00:00,"VFR",16,14,88,110,10,32200,29.86,NA,"FEW  ft; BKN  ft; BKN  ft","CYZV 052300Z 11010KT 20SM FEW001 BKN040 BKN062 16/14 A2986 RMK SC1SC5SC1 SLP116 DENSITY ALT 400FT",2025-09-05 23:20:08.949961,2025-09-05 19:20:08.949961
"CYBC",2025-09-05 23:00:00,2025-09-05 19:00:00,"VFR",16,15,94,0,0,14500,29.79,NA,"CLR  ft","CYBC 052300Z AUTO 00000KT 9SM CLR 16/15 A2979 RMK SLP091 DENSITY ALT 400FT",2025-09-05 23:20:09.034491,2025-09-05 19:20:09.034491
"CYRJ",2025-09-05 23:00:00,2025-09-05 19:00:00,"VFR",17,9,59,190,6,40200,29.69,NA,"FEW  ft; SCT  ft","CYRJ 052300Z 19006KT 25SM FEW050 SCT140 17/09 A2969 RMK SC1AC3 SC TR SLP059 DENSITY ALT 1200FT",2025-09-05 23:20:09.118393,2025-09-05 19:20:09.118393
"CYHZ",2025-09-05 23:00:00,2025-09-05 19:00:00,"LIFR",19,19,100,180,6,6400,30.06,NA,"BKN  ft; BKN  ft; BKN  ft","CYHZ 052300Z 18006KT 4SM -DZ BR BKN004 BKN009 BKN050 19/19 A3006 RMK ST6ST1SC1 SC TR SLP182 DENSITY ALT 1000FT",2025-09-05 23:20:09.204762,2025-09-05 19:20:09.204762
"CYYG",2025-09-05 23:00:00,2025-09-05 19:00:00,"VFR",21,19,88,160,13,24100,30.01,NA,"FEW  ft; FEW  ft","CYYG 052300Z 16013G19KT 15SM FEW040 FEW250 21/19 A3001 RMK SC1CI1 SC TR CI TR SLP165 DENSITY ALT 800FT",2025-09-05 23:20:09.290544,2025-09-05 19:20:09.290544
"CYQM",2025-09-05 23:00:00,2025-09-05 19:00:00,"VFR",23,16,65,170,9,24100,29.98,NA,"FEW  ft; BKN  ft; BKN  ft","CYQM 052300Z 17009KT 15SM FEW030TCU BKN080 BKN260 23/16 A2998 RMK TCU1AC7CI1 TCU TR CI TR TCU CLD SE-S ACC NW SLP153 DENSITY ALT 1200FT",2025-09-05 23:20:09.373629,2025-09-05 19:20:09.373629
"CYFC",2025-09-05 23:00:00,2025-09-05 19:00:00,"VFR",20,15,73,170,8,14500,29.95,NA,"FEW  ft; BKN  ft","CYFC 052300Z AUTO 17008G15KT 9SM FEW055 BKN083 20/15 A2995 RMK SLP143 DENSITY ALT 600FT",2025-09-05 23:20:09.422392,2025-09-05 19:20:09.422392
"CYYT",2025-09-05 23:08:00,2025-09-05 19:08:00,"LIFR",11,11,100,160,7,NA,30.25,NA,"OVX  ft","CYYT 052308Z 16007KT 3/8SM R10/4500VP6000FT/D R16/2800VP6000FT/D FG VV002 11/11 A3025 RMK FG8 SLP248",2025-09-05 23:20:09.508297,2025-09-05 19:20:09.508297
"CYQY",2025-09-05 23:00:00,2025-09-05 19:00:00,"VFR",17,17,100,170,8,24100,30.11,NA,"FEW  ft; FEW  ft; FEW  ft","CYQY 052300Z 17008KT 15SM FEW055 FEW130 FEW240 17/17 A3011 RMK SC1AC1CI1 SC TR SLP199",2025-09-05 23:20:09.592597,2025-09-05 19:20:09.592597
"CYXY",2025-09-05 23:00:00,2025-09-05 19:00:00,"VFR",25,8,34,150,8,64400,29.74,NA,"FEW  ft; SCT  ft; BKN  ft","CYXY 052300Z 15008G15KT 110V180 40SM FEW080 SCT170 BKN250 25/08 A2974 RMK AC2AC2CI3 SLP078 DENSITY ALT 4200FT",2025-09-05 23:20:09.673746,2025-09-05 19:20:09.673746
"CYZF",2025-09-05 23:00:00,2025-09-05 19:00:00,"VFR",17,6,49,150,12,24100,29.98,NA,"FEW  ft","CYZF 052300Z 15012G18KT 15SM FEW240 17/06 A2998 RMK CI1 SLP162 DENSITY ALT 1100FT",2025-09-05 23:20:09.759938,2025-09-05 19:20:09.759938
"CYFB",2025-09-05 23:00:00,2025-09-05 19:00:00,"VFR",4,0,75,140,12,48300,30,NA,"FEW  ft; BKN  ft; OVC  ft","CYFB 052300Z 14012KT 30SM FEW020 BKN120 OVC220 04/M00 A3000 RMK SC1AC6CS2 SC TR SLP163",2025-09-05 23:20:09.843951,2025-09-05 19:20:09.843951
"CYRT",2025-09-05 23:00:00,2025-09-05 19:00:00,"MVFR",7,4,81,30,15,24100,29.91,NA,"FEW  ft; BKN  ft; OVC  ft","CYRT 052300Z 03015G21KT 15SM FEW012 BKN024 OVC035 07/04 A2991 RMK SF1SC5SC2 SLP132",2025-09-05 23:20:09.888622,2025-09-05 19:20:09.888622
"CYBK",2025-09-05 23:00:00,2025-09-05 19:00:00,"VFR",8,3,71,360,9,40200,30.04,NA,"OVC  ft","CYBK 052300Z 36009KT 25SM OVC039 08/03 A3004 RMK SC8 SLP176",2025-09-05 23:20:09.972722,2025-09-05 19:20:09.972722
"CYRB",2025-09-05 23:00:00,2025-09-05 19:00:00,"MVFR",-2,-4,86,130,16,48300,30.11,NA,"BKN  ft","CYRB 052300Z 13016G21KT 30SM -SN BKN010 M02/M04 A3011 RMK ST5 SLP206",2025-09-05 23:20:10.026463,2025-09-05 19:20:10.026463
"CYCO",2025-09-05 23:00:00,2025-09-05 19:00:00,"MVFR",19,6,43,210,7,8000,29.87,NA,"BKN  ft; BKN  ft","CYCO 052300Z 21007KT 5SM FU BKN110 BKN240 19/06 A2987 RMK FU2AC4CI1 SLP119 DENSITY ALT 700FT",2025-09-05 23:20:10.109913,2025-09-05 19:20:10.109913
"CYER",2025-09-05 23:24:00,2025-09-05 19:24:00,"VFR",8,6,87,360,9,14500,29.47,NA,"SCT  ft; BKN  ft; BKN  ft","CYER 052324Z AUTO 36009KT 9SM SCT022 BKN044 BKN250 08/06 A2947 RMK SLP982",2025-09-05 23:39:26.540993,2025-09-05 19:39:26.540993
"CYAT",2025-09-05 23:22:00,2025-09-05 19:22:00,"MVFR",9,9,100,320,7,14500,29.29,NA,"FEW  ft; BKN  ft; BKN  ft; OVC  ft","CYAT 052322Z AUTO 32007KT 9SM -RA FEW007 BKN021 BKN035 OVC066 09/09 A2929 RMK SLP920",2025-09-05 23:39:26.621186,2025-09-05 19:39:26.621186
"CYMO",2025-09-05 23:36:00,2025-09-05 19:36:00,"MVFR",11,9,88,260,14,14500,29.22,NA,"SCT  ft; BKN  ft; OVC  ft","CYMO 052336Z AUTO 26014G21KT 140V270 9SM -RA SCT009 BKN023 OVC048 11/09 A2922 RMK PRESRR SLP898 DENSITY ALT 400FT",2025-09-05 23:39:26.695071,2025-09-05 19:39:26.695071
"CYPL",2025-09-05 23:29:00,2025-09-05 19:29:00,"MVFR",6,5,93,330,9,14500,29.52,NA,"BKN  ft; BKN  ft; OVC  ft","CYPL 052329Z AUTO 33009G17KT 270V040 9SM -RA BKN022 BKN028 OVC034 06/05 A2952 RMK SLP014",2025-09-05 23:39:26.810248,2025-09-05 19:39:26.810248
"CYQT",2025-09-05 23:00:00,2025-09-05 19:00:00,"VFR",10,5,71,290,17,32200,29.57,NA,"FEW  ft; BKN  ft; BKN  ft","CYQT 052300Z 29017G25KT 20SM FEW037 BKN085 BKN260 10/05 A2957 RMK SC2AC3CI2 SLP023",2025-09-05 23:39:26.886805,2025-09-05 19:39:26.886805
"CYAM",2025-09-05 23:00:00,2025-09-05 19:00:00,"VFR",11,7,77,240,12,32200,29.65,NA,"FEW  ft; SCT  ft; OVC  ft","CYAM 052300Z 24012G18KT 20SM -SHRA FEW033 SCT053 OVC070 11/07 A2965 RMK CU2SC1AS5 SLP045",2025-09-05 23:39:27.000671,2025-09-05 19:39:27.000671
"CYTS",2025-09-05 23:00:00,2025-09-05 19:00:00,"MVFR",7,6,93,250,7,9999,29.48,NA,"BKN  ft; BKN  ft","CYTS 052300Z 25007G18KT 200V280 10SM -SHRA BKN016 BKN032 07/06 A2948 RMK CU5SC3 PRESRR SLP994",2025-09-05 23:39:27.078451,2025-09-05 19:39:27.078451
"CYSB",2025-09-05 23:00:00,2025-09-05 19:00:00,"VFR",11,5,67,240,18,32200,29.62,NA,"BKN  ft","CYSB 052300Z 24018G26KT 20SM BKN039 11/05 A2962 RMK SC5 SLP039",2025-09-05 23:39:27.154966,2025-09-05 19:39:27.154966
"CYYB",2025-09-05 23:32:00,2025-09-05 19:32:00,"VFR",12,8,77,230,14,48300,29.64,NA,"SCT  ft; BKN  ft","CYYB 052332Z 23014KT 30SM SCT025 BKN090 12/08 A2964 RMK CU4AC1 WIND EST SLP046 DENSITY ALT 1500FT",2025-09-05 23:39:27.236809,2025-09-05 19:39:27.236809
"CYOW",2025-09-05 23:00:00,2025-09-05 19:00:00,"VFR",21,12,57,190,11,24100,29.67,NA,"SCT  ft; SCT  ft","CYOW 052300Z 19011G17KT 15SM SCT040TCU SCT250 21/12 A2967 RMK TCU4CI1 CI TR TCU W QUAD SLP051 DENSITY ALT 1500FT",2025-09-05 23:39:27.311305,2025-09-05 19:39:27.311305
"CYGK",2025-09-05 23:00:00,2025-09-05 19:00:00,"VFR",21,17,78,190,12,24100,29.72,NA,"SCT  ft; BKN  ft","CYGK 052300Z 19012KT 15SM SCT080 BKN240 21/17 A2972 RMK AC3CI3 SLP067 DENSITY ALT 1300FT",2025-09-05 23:39:27.390487,2025-09-05 19:39:27.390487
"CYQG",2025-09-05 23:00:00,2025-09-05 19:00:00,"VFR",20,7,43,280,13,14500,29.83,NA,"BKN  ft","CYQG 052300Z AUTO 28013G18KT 9SM BKN066 20/07 A2983 RMK SLP104 DENSITY ALT 1400FT",2025-09-05 23:39:27.467676,2025-09-05 19:39:27.467676
"CYVV",2025-09-05 23:00:00,2025-09-05 19:00:00,"VFR",15,8,63,250,11,24100,29.74,NA,"SCT  ft; BKN  ft; BKN  ft","CYVV 052300Z 25011G22KT 15SM SCT035 BKN050 BKN250 15/08 A2974 RMK CU3CU2CC1 SLP074 DENSITY ALT 1100FT",2025-09-05 23:39:27.547349,2025-09-05 19:39:27.547349
"CYYZ",2025-09-05 23:00:00,2025-09-05 19:00:00,"VFR",21,9,46,300,19,24100,29.72,NA,"FEW  ft","CYYZ 052300Z 30019KT 240V310 15SM FEW066 21/09 A2972 RMK AC2 SLP067 DENSITY ALT 1600FT",2025-09-05 23:39:27.620446,2025-09-05 19:39:27.620446
"CYQA",2025-09-05 23:00:00,2025-09-05 19:00:00,"VFR",14,10,77,250,6,14500,29.71,NA,"FEW  ft; SCT  ft; BKN  ft; OVC  ft","CYQA 052300Z AUTO 25006G15KT 230V310 9SM FEW034 SCT041 BKN050 OVC066 14/10 A2971 RMK SLP067 DENSITY ALT 1300FT",2025-09-05 23:39:27.733497,2025-09-05 19:39:27.733497
"CYVR",2025-09-05 23:00:00,2025-09-05 19:00:00,"VFR",22,19,83,240,5,24100,29.81,NA,"FEW  ft; FEW  ft","CYVR 052300Z 24005KT 210V280 15SM FEW110 FEW220 22/19 A2981 RMK AC1CI1 AC TR HZ SLP096 DENSITY ALT 1000FT",2025-09-05 23:39:27.806112,2025-09-05 19:39:27.806112
"CYYJ",2025-09-05 23:00:00,2025-09-05 19:00:00,"VFR",21,15,69,120,9,48300,29.81,NA,"SCT  ft","CYYJ 052300Z 12009KT 30SM SCT250 21/15 A2981 RMK CI3 SLP097 DENSITY ALT 900FT",2025-09-05 23:39:27.883823,2025-09-05 19:39:27.883823
"CYLW",2025-09-05 23:00:00,2025-09-05 19:00:00,"VFR",28,9,30,160,3,11300,29.82,NA,"CLR  ft","CYLW 052300Z AUTO 16003KT 7SM CLR 28/09 A2982 RMK SLP097 DENSITY ALT 3300FT",2025-09-05 23:39:27.960684,2025-09-05 19:39:27.960684
"CYXS",2025-09-05 23:00:00,2025-09-05 19:00:00,"VFR",24,13,50,320,3,12900,29.89,NA,"CLR  ft","CYXS 052300Z AUTO 32003KT 290V020 8SM CLR 24/13 A2989 RMK SLP130 DENSITY ALT 3900FT",2025-09-05 23:39:28.033474,2025-09-05 19:39:28.033474
"CYXT",2025-09-05 23:00:00,2025-09-05 19:00:00,"VFR",25,16,57,0,2,24100,29.82,NA,"SKC  ft","CYXT 052300Z VRB02KT 15SM SKC 25/16 A2982 RMK FU SLP100 DENSITY ALT 2200FT",2025-09-05 23:39:28.106467,2025-09-05 19:39:28.106467
"CYQQ",2025-09-05 23:00:00,2025-09-05 19:00:00,"VFR",22,15,65,70,5,32200,29.81,NA,"SCT  ft; SCT  ft","CYQQ 052300Z 07005KT 20SM SCT060 SCT250 22/15 A2981 RMK FU4CI1 DENSITY ALT 1314FT SLP094",2025-09-05 23:39:28.185669,2025-09-05 19:39:28.185669
"CYYC",2025-09-05 23:00:00,2025-09-05 19:00:00,"VFR",21,3,31,160,12,14500,30.02,NA,"SKC  ft","CYYC 052300Z 16012KT 9SM SKC 21/03 A3002 RMK SLP177 DENSITY ALT 5000FT",2025-09-05 23:39:28.257798,2025-09-05 19:39:28.257798
"CYEG",2025-09-05 23:00:00,2025-09-05 19:00:00,"VFR",23,1,23,180,9,32200,29.99,NA,"FEW  ft","CYEG 052300Z 18009KT 20SM FEW250 23/01 A2999 RMK CI2 SLP168 DENSITY ALT 3800FT",2025-09-05 23:39:28.331574,2025-09-05 19:39:28.331574
"CYMM",2025-09-05 23:00:00,2025-09-05 19:00:00,"VFR",20,7,43,50,8,14500,29.99,NA,"CLR  ft","CYMM 052300Z AUTO 05008KT 9SM CLR 20/07 A2999 RMK SLP172 DENSITY ALT 2000FT",2025-09-05 23:39:28.405952,2025-09-05 19:39:28.405952
"CYQF",2025-09-05 23:00:00,2025-09-05 19:00:00,"VFR",22,3,29,150,11,14500,30,NA,"CLR  ft","CYQF 052300Z AUTO 15011G17KT 9SM CLR 22/03 A3000 RMK SLP175 DENSITY ALT 4400FT",2025-09-05 23:39:28.481883,2025-09-05 19:39:28.481883
"CYXE",2025-09-05 23:00:00,2025-09-05 19:00:00,"VFR",16,2,39,10,9,24100,30.06,NA,"SCT  ft; SCT  ft","CYXE 052300Z 01009KT 300V020 15SM SCT045 SCT250 16/02 A3006 RMK CU3CI1 SLP199 DENSITY ALT 2100FT",2025-09-05 23:39:28.595431,2025-09-05 19:39:28.595431
"CYQR",2025-09-05 23:00:00,2025-09-05 19:00:00,"VFR",15,3,45,330,13,24100,30.07,NA,"FEW  ft","CYQR 052300Z 33013KT 15SM FEW043 15/03 A3007 RMK CU1 SLP201 DENSITY ALT 2200FT",2025-09-05 23:39:28.70862,2025-09-05 19:39:28.70862
"CYWG",2025-09-05 23:00:00,2025-09-05 19:00:00,"VFR",15,0,36,330,16,24100,29.86,NA,"FEW  ft; FEW  ft; FEW  ft","CYWG 052300Z 33016G23KT 15SM FEW068 FEW140 FEW240 15/M00 A2986 RMK AC1AC1CC1 AC TR AC TR CC TR SLP119 DENSITY ALT 1100FT",2025-09-05 23:39:28.781483,2025-09-05 19:39:28.781483
"CYBR",2025-09-05 23:16:00,2025-09-05 19:16:00,"VFR",11,6,72,340,15,24100,29.97,NA,"BKN  ft; BKN  ft","CYBR 052316Z 34015G29KT 15SM -SHRA BKN050 BKN075 11/06 A2997 RMK SC5AC2 CVCTV CLD EMBD SLP163",2025-09-05 23:39:28.85656,2025-09-05 19:39:28.85656
"CYUL",2025-09-05 23:00:00,2025-09-05 19:00:00,"VFR",24,12,47,190,11,48300,29.69,NA,"FEW  ft; SCT  ft; BKN  ft","CYUL 052300Z 19011KT 30SM FEW090 SCT120 BKN250 24/12 A2969 RMK AC2AC2CI1 SLP057 DENSITY ALT 1500FT",2025-09-05 23:39:28.930767,2025-09-05 19:39:28.930767
"CYHU",2025-09-05 23:00:00,2025-09-05 19:00:00,"VFR",22,15,65,170,8,14500,29.7,NA,"SCT  ft; BKN  ft","CYHU 052300Z AUTO 17008KT 9SM SCT100 BKN120 22/15 A2970 RMK SLP061 DENSITY ALT 1200FT",2025-09-05 23:39:29.042347,2025-09-05 19:39:29.042347
"CYQB",2025-09-05 23:00:00,2025-09-05 19:00:00,"VFR",20,14,69,350,3,48300,29.73,NA,"BKN  ft; BKN  ft; BKN  ft","CYQB 052300Z 35003KT 30SM BKN065 BKN087 BKN250 20/14 A2973 RMK SC5AC1CS1 AC TR SLP071 DENSITY ALT 1200FT",2025-09-05 23:39:29.113594,2025-09-05 19:39:29.113594
"CYVO",2025-09-05 23:19:00,2025-09-05 19:19:00,"MVFR",12,10,88,260,11,19300,29.51,NA,"FEW  ft; BKN  ft; BKN  ft","CYVO 052319Z 26011G18KT 180V290 12SM -SHRA FEW019 BKN027TCU BKN045 12/10 A2951 RMK CF2TCU4SC1 PRESRR SLP003 DENSITY ALT 1600FT",2025-09-05 23:39:29.187483,2025-09-05 19:39:29.187483
"CYUY",2025-09-05 23:00:00,2025-09-05 19:00:00,"VFR",11,8,82,250,12,24100,29.49,NA,"FEW  ft; SCT  ft; SCT  ft","CYUY 052300Z 25012G19KT 15SM FEW024 SCT050 SCT070 11/08 A2949 RMK CU1SC2AC1 AC TR SLP996 DENSITY ALT 1200FT",2025-09-05 23:39:29.263479,2025-09-05 19:39:29.263479
"CYZV",2025-09-05 23:00:00,2025-09-05 19:00:00,"VFR",16,14,88,110,10,32200,29.86,NA,"FEW  ft; BKN  ft; BKN  ft","CYZV 052300Z 11010KT 20SM FEW001 BKN040 BKN062 16/14 A2986 RMK SC1SC5SC1 SLP116 DENSITY ALT 400FT",2025-09-05 23:39:29.336831,2025-09-05 19:39:29.336831
"CYBC",2025-09-05 23:00:00,2025-09-05 19:00:00,"VFR",16,15,94,0,0,14500,29.79,NA,"CLR  ft","CYBC 052300Z AUTO 00000KT 9SM CLR 16/15 A2979 RMK SLP091 DENSITY ALT 400FT",2025-09-05 23:39:29.40952,2025-09-05 19:39:29.40952
"CYRJ",2025-09-05 23:00:00,2025-09-05 19:00:00,"VFR",17,9,59,190,6,40200,29.69,NA,"FEW  ft; SCT  ft","CYRJ 052300Z 19006KT 25SM FEW050 SCT140 17/09 A2969 RMK SC1AC3 SC TR SLP059 DENSITY ALT 1200FT",2025-09-05 23:39:29.482149,2025-09-05 19:39:29.482149
"CYHZ",2025-09-05 23:00:00,2025-09-05 19:00:00,"LIFR",19,19,100,180,6,6400,30.06,NA,"BKN  ft; BKN  ft; BKN  ft","CYHZ 052300Z 18006KT 4SM -DZ BR BKN004 BKN009 BKN050 19/19 A3006 RMK ST6ST1SC1 SC TR SLP182 DENSITY ALT 1000FT",2025-09-05 23:39:29.556015,2025-09-05 19:39:29.556015
"CYYG",2025-09-05 23:00:00,2025-09-05 19:00:00,"VFR",21,19,88,160,13,24100,30.01,NA,"FEW  ft; FEW  ft","CYYG 052300Z 16013G19KT 15SM FEW040 FEW250 21/19 A3001 RMK SC1CI1 SC TR CI TR SLP165 DENSITY ALT 800FT",2025-09-05 23:39:29.627887,2025-09-05 19:39:29.627887
"CYQM",2025-09-05 23:00:00,2025-09-05 19:00:00,"VFR",23,16,65,170,9,24100,29.98,NA,"FEW  ft; BKN  ft; BKN  ft","CYQM 052300Z 17009KT 15SM FEW030TCU BKN080 BKN260 23/16 A2998 RMK TCU1AC7CI1 TCU TR CI TR TCU CLD SE-S ACC NW SLP153 DENSITY ALT 1200FT",2025-09-05 23:39:29.70287,2025-09-05 19:39:29.70287
"CYFC",2025-09-05 23:00:00,2025-09-05 19:00:00,"VFR",20,15,73,170,8,14500,29.95,NA,"FEW  ft; BKN  ft","CYFC 052300Z AUTO 17008G15KT 9SM FEW055 BKN083 20/15 A2995 RMK SLP143 DENSITY ALT 600FT",2025-09-05 23:39:29.776506,2025-09-05 19:39:29.776506
"CYYT",2025-09-05 23:08:00,2025-09-05 19:08:00,"LIFR",11,11,100,160,7,NA,30.25,NA,"OVX  ft","CYYT 052308Z 16007KT 3/8SM R10/4500VP6000FT/D R16/2800VP6000FT/D FG VV002 11/11 A3025 RMK FG8 SLP248",2025-09-05 23:39:29.84915,2025-09-05 19:39:29.84915
"CYQY",2025-09-05 23:00:00,2025-09-05 19:00:00,"VFR",17,17,100,170,8,24100,30.11,NA,"FEW  ft; FEW  ft; FEW  ft","CYQY 052300Z 17008KT 15SM FEW055 FEW130 FEW240 17/17 A3011 RMK SC1AC1CI1 SC TR SLP199",2025-09-05 23:39:29.96522,2025-09-05 19:39:29.96522
"CYXY",2025-09-05 23:00:00,2025-09-05 19:00:00,"VFR",25,8,34,150,8,64400,29.74,NA,"FEW  ft; SCT  ft; BKN  ft","CYXY 052300Z 15008G15KT 110V180 40SM FEW080 SCT170 BKN250 25/08 A2974 RMK AC2AC2CI3 SLP078 DENSITY ALT 4200FT",2025-09-05 23:39:30.042355,2025-09-05 19:39:30.042355
"CYZF",2025-09-05 23:00:00,2025-09-05 19:00:00,"VFR",17,6,49,150,12,24100,29.98,NA,"FEW  ft","CYZF 052300Z 15012G18KT 15SM FEW240 17/06 A2998 RMK CI1 SLP162 DENSITY ALT 1100FT",2025-09-05 23:39:30.113967,2025-09-05 19:39:30.113967
"CYFB",2025-09-05 23:00:00,2025-09-05 19:00:00,"VFR",4,0,75,140,12,48300,30,NA,"FEW  ft; BKN  ft; OVC  ft","CYFB 052300Z 14012KT 30SM FEW020 BKN120 OVC220 04/M00 A3000 RMK SC1AC6CS2 SC TR SLP163",2025-09-05 23:39:30.187656,2025-09-05 19:39:30.187656
"CYRT",2025-09-05 23:00:00,2025-09-05 19:00:00,"MVFR",7,4,81,30,15,24100,29.91,NA,"FEW  ft; BKN  ft; OVC  ft","CYRT 052300Z 03015G21KT 15SM FEW012 BKN024 OVC035 07/04 A2991 RMK SF1SC5SC2 SLP132",2025-09-05 23:39:30.26054,2025-09-05 19:39:30.26054
"CYBK",2025-09-05 23:00:00,2025-09-05 19:00:00,"VFR",8,3,71,360,9,40200,30.04,NA,"OVC  ft","CYBK 052300Z 36009KT 25SM OVC039 08/03 A3004 RMK SC8 SLP176",2025-09-05 23:39:30.335078,2025-09-05 19:39:30.335078
"CYRB",2025-09-05 23:00:00,2025-09-05 19:00:00,"MVFR",-2,-4,86,130,16,48300,30.11,NA,"BKN  ft","CYRB 052300Z 13016G21KT 30SM -SN BKN010 M02/M04 A3011 RMK ST5 SLP206",2025-09-05 23:39:30.418254,2025-09-05 19:39:30.418254
"CYCO",2025-09-05 23:00:00,2025-09-05 19:00:00,"MVFR",19,6,43,210,7,8000,29.87,NA,"BKN  ft; BKN  ft","CYCO 052300Z 21007KT 5SM FU BKN110 BKN240 19/06 A2987 RMK FU2AC4CI1 SLP119 DENSITY ALT 700FT",2025-09-05 23:39:30.52984,2025-09-05 19:39:30.52984
"CYER",2025-09-06 01:00:00,2025-09-05 21:00:00,"VFR",8,7,93,360,6,14500,29.49,NA,"SCT  ft; OVC  ft","CYER 060100Z AUTO 36006KT 9SM SCT011 OVC040 08/07 A2949 RMK SLP988",2025-09-06 01:42:34.670901,2025-09-05 21:42:34.670901
"CYAT",2025-09-06 01:00:00,2025-09-05 21:00:00,"IFR",8,8,100,320,7,14500,29.28,NA,"BKN  ft; OVC  ft","CYAT 060100Z AUTO 32007KT 9SM -RA BKN006 OVC046 08/08 A2928 RMK PCPN 1.2MM PAST HR SLP918",2025-09-06 01:42:34.766205,2025-09-05 21:42:34.766205
"CYMO",2025-09-06 01:32:00,2025-09-05 21:32:00,"MVFR",8,7,93,250,13,14500,29.32,NA,"BKN  ft; OVC  ft","CYMO 060132Z AUTO 25013G21KT 9SM -RA BKN013 OVC055 08/07 A2932 RMK SLP932",2025-09-06 01:42:34.842291,2025-09-05 21:42:34.842291
"CYPL",2025-09-06 01:35:00,2025-09-05 21:35:00,"MVFR",5,5,100,310,8,8000,29.59,NA,"BKN  ft; OVC  ft","CYPL 060135Z AUTO 31008G25KT 270V360 5SM -RA BR BKN016 OVC027 05/05 A2959 RMK SLP036",2025-09-06 01:42:34.91521,2025-09-05 21:42:34.91521
"CYQT",2025-09-06 01:00:00,2025-09-05 21:00:00,"VFR",9,5,76,280,9,24100,29.64,NA,"FEW  ft; BKN  ft; OVC  ft","CYQT 060100Z 28009KT 15SM FEW030 BKN085 OVC260 09/05 A2964 RMK SC2AC5CI1 SLP045",2025-09-06 01:42:34.994481,2025-09-05 21:42:34.994481
"CYAM",2025-09-06 01:00:00,2025-09-05 21:00:00,"VFR",10,7,82,240,9,32200,29.68,NA,"OVC  ft; OVC  ft","CYAM 060100Z 24009G17KT 20SM OVC051 OVC091 10/07 A2968 RMK SC2AC6 SLP057",2025-09-06 01:42:35.067403,2025-09-05 21:42:35.067403
"CYTS",2025-09-06 01:00:00,2025-09-05 21:00:00,"VFR",7,6,93,220,5,24100,29.54,NA,"FEW  ft; OVC  ft","CYTS 060100Z 22005G15KT 15SM FEW024 OVC094 07/06 A2954 RMK SC2AC6 SLP013",2025-09-06 01:42:35.14308,2025-09-05 21:42:35.14308
"CYSB",2025-09-06 01:00:00,2025-09-05 21:00:00,"VFR",10,5,71,240,12,24100,29.68,NA,"BKN  ft","CYSB 060100Z 24012G19KT 15SM BKN086 10/05 A2968 RMK AC7 SLP061",2025-09-06 01:42:35.214961,2025-09-05 21:42:35.214961
"CYYB",2025-09-06 01:00:00,2025-09-05 21:00:00,"VFR",12,7,72,230,14,24100,29.7,NA,"SCT  ft; BKN  ft; BKN  ft","CYYB 060100Z 23014KT 15SM SCT025 BKN090 BKN260 12/07 A2970 RMK SC3AC2CI2 WIND EST SLP063",2025-09-06 01:42:35.286695,2025-09-05 21:42:35.286695
"CYOW",2025-09-06 01:17:00,2025-09-05 21:17:00,"VFR",16,13,83,230,11,24100,29.73,NA,"FEW  ft; SCT  ft; SCT  ft","CYOW 060117Z 23011KT 15SM FEW057 SCT072 SCT100 16/13 A2973 RMK SC2AC1AC1 SLP071 DENSITY ALT 900FT",2025-09-06 01:42:35.357629,2025-09-05 21:42:35.357629
"CYGK",2025-09-06 01:00:00,2025-09-05 21:00:00,"VFR",21,15,69,250,11,24100,29.75,NA,"BKN  ft; BKN  ft","CYGK 060100Z 25011KT 15SM BKN060TCU BKN220 21/15 A2975 RMK TCU5CI2 SLP077 DENSITY ALT 1300FT",2025-09-06 01:42:35.431712,2025-09-05 21:42:35.431712
"CYQG",2025-09-06 01:00:00,2025-09-05 21:00:00,"VFR",17,7,52,290,11,14500,29.88,NA,"CLR  ft","CYQG 060100Z AUTO 29011KT 9SM CLR 17/07 A2988 RMK SLP121 DENSITY ALT 1100FT",2025-09-06 01:42:35.503504,2025-09-05 21:42:35.503504
"CYVV",2025-09-06 01:00:00,2025-09-05 21:00:00,"VFR",14,6,59,270,14,9999,29.78,NA,"SCT  ft; SCT  ft","CYVV 060100Z 27014G21KT 10SM SCT035 SCT070 14/06 A2978 RMK CU3AC1 SLP089 DENSITY ALT 1000FT",2025-09-06 01:42:35.577823,2025-09-05 21:42:35.577823
"CYYZ",2025-09-06 01:00:00,2025-09-05 21:00:00,"VFR",17,8,56,290,12,24100,29.82,NA,"SCT  ft","CYYZ 060100Z 29012KT 15SM SCT063 17/08 A2982 RMK SC3 SLP100 DENSITY ALT 1100FT",2025-09-06 01:42:35.652802,2025-09-05 21:42:35.652802
"CYQA",2025-09-06 01:00:00,2025-09-05 21:00:00,"VFR",12,10,88,300,4,14500,29.78,NA,"FEW  ft; BKN  ft; BKN  ft; BKN  ft","CYQA 060100Z AUTO 30004KT 250V320 9SM FEW028 BKN038 BKN047 BKN060 12/10 A2978 RMK SLP089",2025-09-06 01:42:35.729592,2025-09-05 21:42:35.729592
"CYVR",2025-09-06 01:00:00,2025-09-05 21:00:00,"VFR",21,17,78,230,3,19300,29.8,NA,"FEW  ft","CYVR 060100Z 23003KT 200V270 12SM FEW220 21/17 A2980 RMK CI2 HZ SLP094 DENSITY ALT 900FT",2025-09-06 01:42:35.807121,2025-09-05 21:42:35.807121
"CYYJ",2025-09-06 01:00:00,2025-09-05 21:00:00,"VFR",18,14,78,90,6,32200,29.8,NA,"SCT  ft; BKN  ft","CYYJ 060100Z 09006KT 20SM SCT210 BKN250 18/14 A2980 RMK CC3CI3 HZ SLP092 DENSITY ALT 600FT",2025-09-06 01:42:35.880881,2025-09-05 21:42:35.880881
"CYLW",2025-09-06 01:24:00,2025-09-05 21:24:00,"VFR",25,12,44,160,3,11300,29.8,NA,"CLR  ft","CYLW 060124Z AUTO 16003KT 7SM CLR 25/12 A2980 RMK SLP090 DENSITY ALT 3100FT",2025-09-06 01:42:35.95551,2025-09-05 21:42:35.95551
"CYXS",2025-09-06 01:00:00,2025-09-05 21:00:00,"VFR",23,12,50,0,0,12900,29.88,NA,"CLR  ft","CYXS 060100Z AUTO 00000KT 8SM CLR 23/12 A2988 RMK SLP128 DENSITY ALT 3800FT",2025-09-06 01:42:36.029837,2025-09-05 21:42:36.029837
"CYXT",2025-09-06 01:00:00,2025-09-05 21:00:00,"VFR",26,17,58,220,4,24100,29.81,NA,"SKC  ft","CYXT 060100Z 22004KT 190V270 15SM SKC 26/17 A2981 RMK FU SLP096 DENSITY ALT 2300FT",2025-09-06 01:42:36.104141,2025-09-05 21:42:36.104141
"CYQQ",2025-09-06 01:00:00,2025-09-05 21:00:00,"VFR",22,16,69,80,3,24100,29.8,NA,"SCT  ft; BKN  ft","CYQQ 060100Z 08003KT 15SM SCT080 BKN240 22/16 A2980 RMK FU3CI2 DENSITY ALT 1299FT CIG PDMTLY TRANSPARENT CC ASOCTD SLP091",2025-09-06 01:42:36.177994,2025-09-05 21:42:36.177994
"CYYC",2025-09-06 01:00:00,2025-09-05 21:00:00,"VFR",19,5,40,180,8,14500,30,NA,"SKC  ft","CYYC 060100Z 18008KT 9SM SKC 19/05 A3000 RMK SLP175 DENSITY ALT 4900FT",2025-09-06 01:42:36.249671,2025-09-05 21:42:36.249671
"CYEG",2025-09-06 01:00:00,2025-09-05 21:00:00,"VFR",21,1,27,150,6,32200,29.96,NA,"FEW  ft","CYEG 060100Z 15006KT 20SM FEW250 21/01 A2996 RMK CI1 CI TR SLP162 DENSITY ALT 3600FT",2025-09-06 01:42:36.325817,2025-09-05 21:42:36.325817
"CYMM",2025-09-06 01:00:00,2025-09-05 21:00:00,"VFR",18,7,49,90,7,14500,29.99,NA,"CLR  ft","CYMM 060100Z AUTO 09007KT 9SM CLR 18/07 A2999 RMK SLP171 DENSITY ALT 1800FT",2025-09-06 01:42:36.40328,2025-09-05 21:42:36.40328
"CYQF",2025-09-06 01:00:00,2025-09-05 21:00:00,"VFR",21,4,33,150,7,14500,29.99,NA,"CLR  ft","CYQF 060100Z AUTO 15007G15KT 9SM CLR 21/04 A2999 RMK SLP171 DENSITY ALT 4300FT",2025-09-06 01:42:36.48124,2025-09-05 21:42:36.48124
"CYXE",2025-09-06 01:00:00,2025-09-05 21:00:00,"VFR",14,2,44,350,6,24100,30.06,NA,"SCT  ft","CYXE 060100Z 35006KT 15SM SCT250 14/02 A3006 RMK CI3 SLP198 DENSITY ALT 1900FT",2025-09-06 01:42:36.55581,2025-09-05 21:42:36.55581
"CYQR",2025-09-06 01:00:00,2025-09-05 21:00:00,"VFR",12,4,58,10,9,24100,30.08,NA,"FEW  ft","CYQR 060100Z 01009G16KT 15SM FEW040 12/04 A3008 RMK SC1 SC TR SLP205",2025-09-06 01:42:36.628936,2025-09-05 21:42:36.628936
"CYWG",2025-09-06 01:00:00,2025-09-05 21:00:00,"VFR",10,4,67,310,8,24100,29.89,NA,"FEW  ft; FEW  ft","CYWG 060100Z 31008KT 15SM FEW068 FEW240 10/04 A2989 RMK AC1CC1 AC TR CC TR SLP130",2025-09-06 01:42:36.701069,2025-09-05 21:42:36.701069
"CYBR",2025-09-06 01:00:00,2025-09-05 21:00:00,"VFR",9,7,87,310,7,24100,29.98,NA,"SCT  ft; BKN  ft","CYBR 060100Z 31007KT 15SM SCT055 BKN090 09/07 A2998 RMK SC3AC4 SLP171",2025-09-06 01:42:36.775447,2025-09-05 21:42:36.775447
"CYUL",2025-09-06 01:00:00,2025-09-05 21:00:00,"VFR",23,13,53,180,11,24100,29.71,NA,"FEW  ft; SCT  ft; BKN  ft","CYUL 060100Z CCA 18011KT 15SM FEW075 SCT090 BKN250 23/13 A2971 RMK AC2AC1CI2 SLP062 DENSITY ALT 1400FT",2025-09-06 01:42:36.848749,2025-09-05 21:42:36.848749
"CYHU",2025-09-06 01:00:00,2025-09-05 21:00:00,"VFR",21,14,64,180,10,14500,29.71,NA,"FEW  ft","CYHU 060100Z AUTO 18010KT 9SM FEW076 21/14 A2971 RMK SLP064 DENSITY ALT 1100FT",2025-09-06 01:42:36.924712,2025-09-05 21:42:36.924712
"CYQB",2025-09-06 01:00:00,2025-09-05 21:00:00,"VFR",16,15,94,0,0,24100,29.74,NA,"FEW  ft; FEW  ft; SCT  ft","CYQB 060100Z 00000KT 15SM FEW055 FEW100 SCT120 16/15 A2974 RMK SC1AC2AC2 SC TR SLP074 DENSITY ALT 700FT",2025-09-06 01:42:36.996966,2025-09-05 21:42:36.996966
"CYVO",2025-09-06 01:00:00,2025-09-05 21:00:00,"VFR",10,9,94,210,6,24100,29.58,NA,"FEW  ft; SCT  ft","CYVO 060100Z 21006KT 15SM FEW030 SCT075 10/09 A2958 RMK CU1AC2 SLP029",2025-09-06 01:42:37.077978,2025-09-05 21:42:37.077978
"CYUY",2025-09-06 01:00:00,2025-09-05 21:00:00,"VFR",9,6,82,250,17,24100,29.57,NA,"BKN  ft","CYUY 060100Z 25017G27KT 15SM -SHRA BKN045 09/06 A2957 RMK SC5 CVCTV CLD EMBD SLP022",2025-09-06 01:42:37.158714,2025-09-05 21:42:37.158714
"CYZV",2025-09-06 01:00:00,2025-09-05 21:00:00,"VFR",15,13,88,90,9,24100,29.85,NA,"BKN  ft; BKN  ft","CYZV 060100Z 09009KT 15SM BKN036 BKN046 15/13 A2985 RMK SC5SC2 SLP111 DENSITY ALT 400FT",2025-09-06 01:42:37.23595,2025-09-05 21:42:37.23595
"CYBC",2025-09-06 01:00:00,2025-09-05 21:00:00,"VFR",15,15,100,0,2,14500,29.78,NA,"BKN  ft; BKN  ft","CYBC 060100Z AUTO VRB02KT 9SM BKN071 BKN170 15/15 A2978 RMK SLP088 DENSITY ALT 300FT",2025-09-06 01:42:37.313079,2025-09-05 21:42:37.313079
"CYRJ",2025-09-06 01:00:00,2025-09-05 21:00:00,"VFR",14,10,77,130,4,40200,29.64,NA,"FEW  ft","CYRJ 060100Z 13004KT 25SM FEW100 14/10 A2964 RMK AC2 SLP043 DENSITY ALT 900FT",2025-09-06 01:42:37.395722,2025-09-05 21:42:37.395722
"CYHZ",2025-09-06 01:00:00,2025-09-05 21:00:00,"LIFR",19,19,100,180,10,600,30.08,NA,"OVC  ft","CYHZ 060100Z 18010KT 3/8SM R14/P6000FT/D R23/P6000FT/D DZ FG OVC002 19/19 A3008 RMK FG4ST4 SLP189 DENSITY ALT 900FT",2025-09-06 01:42:37.473311,2025-09-05 21:42:37.473311
"CYYG",2025-09-06 01:00:00,2025-09-05 21:00:00,"VFR",20,19,94,160,12,24100,30.02,NA,"FEW  ft","CYYG 060100Z 16012G17KT 15SM FEW030 20/19 A3002 RMK SC1 SC TR SLP170 DENSITY ALT 700FT",2025-09-06 01:42:37.555597,2025-09-05 21:42:37.555597
"CYQM",2025-09-06 01:00:00,2025-09-05 21:00:00,"VFR",20,15,73,150,7,24100,29.99,NA,"FEW  ft; SCT  ft; SCT  ft; SCT  ft","CYQM 060100Z 15007KT 15SM FEW032 SCT062 SCT082 SCT260 20/15 A2999 RMK SC1SC2AC1CI1 AC TR CI TR CU ASOCTD SLP158 DENSITY ALT 800FT",2025-09-06 01:42:37.631325,2025-09-05 21:42:37.631325
"CYFC",2025-09-06 01:00:00,2025-09-05 21:00:00,"VFR",18,15,83,190,11,14500,29.96,NA,"FEW  ft","CYFC 060100Z AUTO 19011G17KT 9SM FEW014 18/15 A2996 RMK SLP149 DENSITY ALT 400FT",2025-09-06 01:42:37.668454,2025-09-05 21:42:37.668454
"CYYT",2025-09-06 01:00:00,2025-09-05 21:00:00,"LIFR",11,11,100,160,7,NA,30.26,NA,"OVX  ft","CYYT 060100Z 16007KT 1/4SM R10/1600V2000FT/N R16/2200VP6000FT/D FG VV002 11/11 A3026 RMK FG8 SLP251",2025-09-06 01:42:37.749851,2025-09-05 21:42:37.749851
"CYQY",2025-09-06 01:00:00,2025-09-05 21:00:00,"MVFR",18,18,100,160,4,24100,30.13,NA,"SCT  ft; BKN  ft","CYQY 060100Z 16004KT 15SM SCT009 BKN014 18/18 A3013 RMK ST4SC3 SLP204",2025-09-06 01:42:37.829619,2025-09-05 21:42:37.829619
"CYXY",2025-09-06 01:00:00,2025-09-05 21:00:00,"VFR",24,8,36,240,8,64400,29.75,NA,"FEW  ft; SCT  ft; BKN  ft; BKN  ft","CYXY 060100Z 24008KT 40SM FEW060 SCT085 BKN150 BKN250 24/08 A2975 RMK SC1AC4AC1CI2 SC TR SLP085 DENSITY ALT 4100FT",2025-09-06 01:42:37.908638,2025-09-05 21:42:37.908638
"CYZF",2025-09-06 01:00:00,2025-09-05 21:00:00,"VFR",16,7,55,130,9,24100,29.95,NA,"FEW  ft","CYZF 060100Z 13009KT 15SM FEW240 16/07 A2995 RMK CI2 SLP154 DENSITY ALT 1000FT",2025-09-06 01:42:37.985545,2025-09-05 21:42:37.985545
"CYFB",2025-09-06 01:00:00,2025-09-05 21:00:00,"VFR",4,0,75,140,14,24100,29.97,NA,"OVC  ft","CYFB 060100Z 14014KT 15SM OVC110 04/M00 A2997 RMK AS8 SLP153",2025-09-06 01:42:38.061912,2025-09-05 21:42:38.061912
"CYRT",2025-09-06 01:00:00,2025-09-05 21:00:00,"MVFR",6,4,87,20,18,24100,29.92,NA,"BKN  ft; OVC  ft","CYRT 060100Z 02018KT 15SM BKN016 OVC033 06/04 A2992 RMK SC7SC1 SLP135",2025-09-06 01:42:38.136142,2025-09-05 21:42:38.136142
"CYBK",2025-09-06 01:00:00,2025-09-05 21:00:00,"VFR",7,1,66,350,13,40200,30.05,NA,"BKN  ft","CYBK 060100Z 35013KT 25SM BKN035 07/01 A3005 RMK SC7 SLP178",2025-09-06 01:42:38.212081,2025-09-05 21:42:38.212081
"CYRB",2025-09-06 01:00:00,2025-09-05 21:00:00,"MVFR",-2,-4,86,150,15,48300,30.12,NA,"BKN  ft","CYRB 060100Z 15015KT 30SM BKN010 M02/M04 A3012 RMK ST7 SLP209",2025-09-06 01:42:38.292226,2025-09-05 21:42:38.292226
"CYCO",2025-09-06 01:00:00,2025-09-05 21:00:00,"MVFR",18,6,46,180,7,8000,29.85,NA,"BKN  ft; BKN  ft","CYCO 060100Z 18007KT 5SM FU BKN110 BKN280 18/06 A2985 RMK FU2AC3CI2 SLP111 DENSITY ALT 600FT",2025-09-06 01:42:38.380986,2025-09-05 21:42:38.380986
"CYER",2025-09-06 02:13:00,2025-09-05 22:13:00,"MVFR",8,7,93,360,7,14500,29.49,NA,"SCT  ft; BKN  ft; OVC  ft","CYER 060213Z AUTO 36007KT 9SM SCT013 BKN017 OVC036 08/07 A2949 RMK SLP990",2025-09-06 02:56:33.97499,2025-09-05 22:56:33.97499
"CYAT",2025-09-06 02:38:00,2025-09-05 22:38:00,"IFR",9,9,100,300,8,11300,29.27,NA,"OVC  ft","CYAT 060238Z AUTO 30008KT 7SM -RA OVC006 09/09 A2927 RMK PCPN 2.2MM PAST HR SLP913",2025-09-06 02:56:34.077385,2025-09-05 22:56:34.077385
"CYMO",2025-09-06 02:52:00,2025-09-05 22:52:00,"MVFR",7,7,100,230,10,14500,29.34,NA,"BKN  ft; BKN  ft; OVC  ft","CYMO 060252Z AUTO 23010G17KT 9SM BKN010 BKN022 OVC044 07/07 A2934 RMK SLP939",2025-09-06 02:56:34.17134,2025-09-05 22:56:34.17134
"CYPL",2025-09-06 02:36:00,2025-09-05 22:36:00,"MVFR",5,4,93,320,12,14500,29.61,NA,"FEW  ft; BKN  ft; OVC  ft","CYPL 060236Z AUTO 32012G32KT 270V010 9SM FEW009 BKN015 OVC020 05/04 A2961 RMK SLP043",2025-09-06 02:56:34.310369,2025-09-05 22:56:34.310369
"CYQT",2025-09-06 02:00:00,2025-09-05 22:00:00,"VFR",8,5,82,260,7,24100,29.66,NA,"FEW  ft; BKN  ft; OVC  ft","CYQT 060200Z 26007KT 15SM FEW040 BKN095 OVC260 08/05 A2966 RMK SC2AC5CI1 SLP053",2025-09-06 02:56:34.451958,2025-09-05 22:56:34.451958
"CYAM",2025-09-06 02:00:00,2025-09-05 22:00:00,"VFR",10,8,88,230,10,32200,29.69,NA,"FEW  ft; OVC  ft","CYAM 060200Z 23010KT 20SM FEW046 OVC092 10/08 A2969 RMK SC1AC7 SLP061",2025-09-06 02:56:34.55318,2025-09-05 22:56:34.55318
"CYTS",2025-09-06 02:00:00,2025-09-05 22:00:00,"VFR",7,5,87,220,7,24100,29.55,NA,"FEW  ft; OVC  ft","CYTS 060200Z 22007KT 15SM FEW030 OVC085 07/05 A2955 RMK SC2AC6 SLP017",2025-09-06 02:56:34.650756,2025-09-05 22:56:34.650756
"CYSB",2025-09-06 02:00:00,2025-09-05 22:00:00,"VFR",9,6,82,230,7,24100,29.7,NA,"SCT  ft; OVC  ft","CYSB 060200Z 23007KT 15SM SCT033 OVC092 09/06 A2970 RMK SC3AC5 SLP065",2025-09-06 02:56:34.743664,2025-09-05 22:56:34.743664
"CYYB",2025-09-06 02:00:00,2025-09-05 22:00:00,"VFR",10,6,76,270,9,24100,29.72,NA,"SCT  ft; BKN  ft","CYYB 060200Z 27009KT 15SM SCT040 BKN120 10/06 A2972 RMK SC3AC2 LAST STFD OBS/NEXT 061100 UTC WIND EST SLP072",2025-09-06 02:56:34.841581,2025-09-05 22:56:34.841581
"CYOW",2025-09-06 02:00:00,2025-09-05 22:00:00,"VFR",16,12,77,280,12,24100,29.77,NA,"FEW  ft; FEW  ft","CYOW 060200Z 28012G20KT 15SM FEW055 FEW070 16/12 A2977 RMK SC1AC1 SC TR SLP084 DENSITY ALT 800FT",2025-09-06 02:56:34.939265,2025-09-05 22:56:34.939265
"CYGK",2025-09-06 02:00:00,2025-09-05 22:00:00,"VFR",21,12,57,260,12,24100,29.78,NA,"SCT  ft; BKN  ft","CYGK 060200Z 26012G19KT 15SM SCT060 BKN220 21/12 A2978 RMK CU4CI2 SLP087 DENSITY ALT 1200FT",2025-09-06 02:56:35.036915,2025-09-05 22:56:35.036915
"CYQG",2025-09-06 02:00:00,2025-09-05 22:00:00,"VFR",17,8,56,300,8,14500,29.91,NA,"SCT  ft","CYQG 060200Z AUTO 30008G16KT 9SM SCT060 17/08 A2991 RMK SLP130 DENSITY ALT 1000FT",2025-09-06 02:56:35.171685,2025-09-05 22:56:35.171685
"CYVV",2025-09-06 02:00:00,2025-09-05 22:00:00,"VFR",14,6,59,280,11,9999,29.8,NA,"FEW  ft; BKN  ft","CYVV 060200Z 28011G16KT 230V300 10SM FEW040 BKN070 14/06 A2980 RMK CU2AC3 SLP096",2025-09-06 02:56:35.266374,2025-09-05 22:56:35.266374
"CYYZ",2025-09-06 02:00:00,2025-09-05 22:00:00,"VFR",15,8,63,280,9,24100,29.84,NA,"FEW  ft","CYYZ 060200Z 28009KT 15SM FEW060 15/08 A2984 RMK SC1 SC TR SLP108 DENSITY ALT 800FT",2025-09-06 02:56:35.359837,2025-09-05 22:56:35.359837
"CYQA",2025-09-06 02:27:00,2025-09-05 22:27:00,"VFR",12,9,82,250,5,14500,29.8,NA,"FEW  ft; SCT  ft; BKN  ft","CYQA 060227Z AUTO 25005KT 9SM FEW036 SCT049 BKN060 12/09 A2980 RMK SLP097",2025-09-06 02:56:35.455572,2025-09-05 22:56:35.455572
"CYVR",2025-09-06 02:00:00,2025-09-05 22:00:00,"VFR",21,17,78,0,2,19300,29.8,NA,"BKN  ft","CYVR 060200Z VRB02KT 12SM BKN220 21/17 A2980 RMK HZ4CI2 SLP092 DENSITY ALT 900FT",2025-09-06 02:56:35.550428,2025-09-05 22:56:35.550428
"CYYJ",2025-09-06 02:00:00,2025-09-05 22:00:00,"VFR",16,14,88,100,5,48300,29.79,NA,"SCT  ft; BKN  ft","CYYJ 060200Z 10005KT 30SM SCT210 BKN250 16/14 A2979 RMK CC4CI2 SLP090 DENSITY ALT 400FT",2025-09-06 02:56:35.648547,2025-09-05 22:56:35.648547
"CYLW",2025-09-06 02:00:00,2025-09-05 22:00:00,"VFR",23,13,53,0,0,9700,29.8,NA,"CLR  ft","CYLW 060200Z AUTO 00000KT 6SM HZ CLR 23/13 A2980 RMK SLP092 DENSITY ALT 2800FT",2025-09-06 02:56:35.749795,2025-09-05 22:56:35.749795
"CYXS",2025-09-06 02:54:00,2025-09-05 22:54:00,"MVFR",16,13,83,0,0,8000,29.88,NA,"CLR  ft","CYXS 060254Z AUTO 00000KT 5SM HZ CLR 16/13 A2988 RMK SLP131 DENSITY ALT 3000FT",2025-09-06 02:56:35.886017,2025-09-05 22:56:35.886017
"CYXT",2025-09-06 02:00:00,2025-09-05 22:00:00,"VFR",24,17,65,250,2,24100,29.81,NA,"SKC  ft","CYXT 060200Z 25002KT 15SM SKC 24/17 A2981 RMK FU SLP099 DENSITY ALT 2100FT",2025-09-06 02:56:35.978456,2025-09-05 22:56:35.978456
"CYQQ",2025-09-06 02:00:00,2025-09-05 22:00:00,"VFR",20,16,78,100,3,19300,29.8,NA,"SCT  ft; BKN  ft","CYQQ 060200Z 10003KT 12SM SCT080 BKN240 20/16 A2980 RMK FU4CI3 DENSITY ALT 1106FT CIG PDMTLY TRANSPARENT CC ASOCTD SLP093",2025-09-06 02:56:36.074961,2025-09-05 22:56:36.074961
"CYYC",2025-09-06 02:00:00,2025-09-05 22:00:00,"VFR",18,4,40,170,8,14500,30,NA,"SKC  ft","CYYC 060200Z 17008KT 9SM SKC 18/04 A3000 RMK FU SLP174 DENSITY ALT 4700FT",2025-09-06 02:56:36.208657,2025-09-05 22:56:36.208657
"CYEG",2025-09-06 02:00:00,2025-09-05 22:00:00,"VFR",16,3,42,120,7,32200,29.96,NA,"FEW  ft","CYEG 060200Z 12007KT 20SM FEW250 16/03 A2996 RMK CI1 CI TR SLP162 DENSITY ALT 3000FT",2025-09-06 02:56:36.307688,2025-09-05 22:56:36.307688
"CYMM",2025-09-06 02:04:00,2025-09-05 22:04:00,"VFR",15,7,59,110,7,11300,29.99,NA,"CLR  ft","CYMM 060204Z AUTO 11007KT 7SM CLR 15/07 A2999 RMK SLP170 DENSITY ALT 1500FT",2025-09-06 02:56:36.408721,2025-09-05 22:56:36.408721
"CYQF",2025-09-06 02:51:00,2025-09-05 22:51:00,"VFR",13,3,51,150,6,9700,29.98,NA,"CLR  ft","CYQF 060251Z AUTO 15006KT 6SM HZ CLR 13/03 A2998 RMK SLP166 DENSITY ALT 3400FT",2025-09-06 02:56:36.503228,2025-09-05 22:56:36.503228
"CYXE",2025-09-06 02:00:00,2025-09-05 22:00:00,"VFR",10,4,67,70,6,24100,30.06,NA,"SCT  ft","CYXE 060200Z 07006KT 15SM SCT250 10/04 A3006 RMK CI3 SLP197",2025-09-06 02:56:36.597116,2025-09-05 22:56:36.597116
"CYQR",2025-09-06 02:00:00,2025-09-05 22:00:00,"VFR",10,3,62,30,8,24100,30.08,NA,"FEW  ft; FEW  ft","CYQR 060200Z 03008KT 15SM FEW040 FEW100 10/03 A3008 RMK SC1AC1 SC TR AC TR SLP207",2025-09-06 02:56:36.690836,2025-09-05 22:56:36.690836
"CYWG",2025-09-06 02:00:00,2025-09-05 22:00:00,"VFR",7,4,81,310,8,24100,29.9,NA,"FEW  ft; FEW  ft","CYWG 060200Z 31008KT 15SM FEW068 FEW250 07/04 A2990 RMK AC1CC1 SLP136",2025-09-06 02:56:36.790423,2025-09-05 22:56:36.790423
"CYBR",2025-09-06 02:00:00,2025-09-05 22:00:00,"VFR",9,7,87,280,6,24100,29.99,NA,"BKN  ft","CYBR 060200Z 28006KT 15SM BKN095 09/07 A2999 RMK AC7 SLP170",2025-09-06 02:56:36.885699,2025-09-05 22:56:36.885699
"CYUL",2025-09-06 02:00:00,2025-09-05 22:00:00,"VFR",23,13,53,190,11,24100,29.72,NA,"FEW  ft; FEW  ft","CYUL 060200Z 19011KT 15SM FEW075 FEW250 23/13 A2972 RMK AC1CI1 AC TR SLP065 DENSITY ALT 1300FT",2025-09-06 02:56:36.984103,2025-09-05 22:56:36.984103
"CYHU",2025-09-06 02:00:00,2025-09-05 22:00:00,"VFR",21,15,69,180,11,14500,29.72,NA,"FEW  ft; SCT  ft; SCT  ft","CYHU 060200Z AUTO 18011G20KT 9SM FEW071 SCT098 SCT120 21/15 A2972 RMK SLP066 DENSITY ALT 1100FT",2025-09-06 02:56:37.084637,2025-09-05 22:56:37.084637
"CYQB",2025-09-06 02:00:00,2025-09-05 22:00:00,"VFR",16,14,88,0,0,24100,29.73,NA,"BKN  ft; BKN  ft","CYQB 060200Z 00000KT 15SM BKN067 BKN120 16/14 A2973 RMK AC5AC2 SLP072 DENSITY ALT 600FT",2025-09-06 02:56:37.180698,2025-09-05 22:56:37.180698
"CYVO",2025-09-06 02:30:00,2025-09-05 22:30:00,"VFR",9,7,87,230,7,14500,29.61,NA,"FEW  ft; BKN  ft; BKN  ft","CYVO 060230Z AUTO 23007KT 9SM FEW033 BKN050 BKN091 09/07 A2961 RMK PCPN 0.8MM PAST HR SLP038",2025-09-06 02:56:37.313613,2025-09-05 22:56:37.313613
"CYUY",2025-09-06 02:00:00,2025-09-05 22:00:00,"VFR",8,5,82,250,11,24100,29.59,NA,"FEW  ft; BKN  ft; BKN  ft","CYUY 060200Z 25011KT 15SM FEW040 BKN090 BKN140 08/05 A2959 RMK SC1AC4AC1 AC TR SLP032",2025-09-06 02:56:37.409216,2025-09-05 22:56:37.409216
"CYZV",2025-09-06 02:00:00,2025-09-05 22:00:00,"VFR",16,14,88,90,8,24100,29.84,NA,"BKN  ft; BKN  ft","CYZV 060200Z 09008G16KT 15SM BKN035 BKN062 16/14 A2984 RMK SC5SC2 SLP109 DENSITY ALT 400FT",2025-09-06 02:56:37.507695,2025-09-05 22:56:37.507695
"CYBC",2025-09-06 02:00:00,2025-09-05 22:00:00,"VFR",16,15,94,80,6,14500,29.77,NA,"SCT  ft; BKN  ft","CYBC 060200Z AUTO 08006KT 9SM SCT036 BKN180 16/15 A2977 RMK SLP083 DENSITY ALT 400FT",2025-09-06 02:56:37.604593,2025-09-05 22:56:37.604593
"CYRJ",2025-09-06 02:22:00,2025-09-05 22:22:00,"VFR",14,10,77,100,4,32200,29.62,NA,"OVC  ft","CYRJ 060222Z 10004KT 20SM -SHRA OVC053 14/10 A2962 RMK SC8 CVCTV CLD EMBD SLP033 DENSITY ALT 1000FT",2025-09-06 02:56:37.700176,2025-09-05 22:56:37.700176
"CYHZ",2025-09-06 02:00:00,2025-09-05 22:00:00,"LIFR",19,19,100,180,8,600,30.09,NA,"OVC  ft","CYHZ 060200Z 18008KT 3/8SM R14/P6000FT/N R23/P6000FT/U -DZ FG OVC002 19/19 A3009 RMK FG5ST3 SLP190 DENSITY ALT 900FT",2025-09-06 02:56:37.797456,2025-09-05 22:56:37.797456
"CYYG",2025-09-06 02:00:00,2025-09-05 22:00:00,"VFR",20,18,88,180,12,24100,30.04,NA,"SCT  ft","CYYG 060200Z 18012G18KT 15SM SCT017 20/18 A3004 RMK SC3 SLP173 DENSITY ALT 700FT",2025-09-06 02:56:37.893029,2025-09-05 22:56:37.893029
"CYQM",2025-09-06 02:00:00,2025-09-05 22:00:00,"VFR",18,15,83,140,7,24100,30,NA,"FEW  ft; FEW  ft; FEW  ft","CYQM 060200Z 14007KT 15SM FEW032 FEW082 FEW260 18/15 A3000 RMK SC1AC1CI1 SC TR CI TR CU ASOCTD SLP160 DENSITY ALT 600FT",2025-09-06 02:56:37.98743,2025-09-05 22:56:37.98743
"CYFC",2025-09-06 02:34:00,2025-09-05 22:34:00,"MVFR",17,15,88,160,7,14500,29.95,NA,"BKN  ft; BKN  ft; BKN  ft","CYFC 060234Z AUTO 16007G16KT 9SM BKN016 BKN027 BKN060 17/15 A2995 RMK SLP144 DENSITY ALT 400FT",2025-09-06 02:56:38.083679,2025-09-05 22:56:38.083679
"CYYT",2025-09-06 02:00:00,2025-09-05 22:00:00,"LIFR",11,11,100,160,8,NA,30.25,NA,"OVX  ft","CYYT 060200Z 16008KT 1/4SM R10/1400V1800FT/N R16/1400V2000FT/N FG VV002 11/11 A3025 RMK FG8 SLP249",2025-09-06 02:56:38.178855,2025-09-05 22:56:38.178855
"CYQY",2025-09-06 02:00:00,2025-09-05 22:00:00,"IFR",18,18,100,180,7,24100,30.12,NA,"SCT  ft; OVC  ft","CYQY 060200Z 18007KT 15SM SCT004 OVC008 18/18 A3012 RMK ST3ST5 SLP203",2025-09-06 02:56:38.275699,2025-09-05 22:56:38.275699
"CYXY",2025-09-06 02:00:00,2025-09-05 22:00:00,"VFR",23,8,38,260,5,64400,29.76,NA,"FEW  ft; SCT  ft; BKN  ft; BKN  ft","CYXY 060200Z 26005KT 210V300 40SM FEW060 SCT085 BKN150 BKN250 23/08 A2976 RMK SC1AC3AC2CI2 SC TR SLP088 DENSITY ALT 4000FT",2025-09-06 02:56:38.370528,2025-09-05 22:56:38.370528
"CYZF",2025-09-06 02:00:00,2025-09-05 22:00:00,"VFR",15,7,59,120,8,24100,29.95,NA,"FEW  ft","CYZF 060200Z 12008KT 15SM FEW240 15/07 A2995 RMK CI2 SLP152",2025-09-06 02:56:38.466811,2025-09-05 22:56:38.466811
"CYFB",2025-09-06 02:00:00,2025-09-05 22:00:00,"VFR",3,0,81,140,13,24100,29.96,NA,"OVC  ft","CYFB 060200Z 14013KT 15SM OVC100 03/00 A2996 RMK AS8 SLP149",2025-09-06 02:56:38.602196,2025-09-05 22:56:38.602196
"CYRT",2025-09-06 02:00:00,2025-09-05 22:00:00,"MVFR",6,4,87,10,17,24100,29.93,NA,"BKN  ft; OVC  ft","CYRT 060200Z 01017KT 15SM BKN011 OVC035 06/04 A2993 RMK SC7SC1 SLP140",2025-09-06 02:56:38.706843,2025-09-05 22:56:38.706843
"CYBK",2025-09-06 02:00:00,2025-09-05 22:00:00,"VFR",6,1,71,330,10,32200,30.05,NA,"BKN  ft","CYBK 060200Z 33010KT 20SM BKN035 06/01 A3005 RMK SC7 SLP178",2025-09-06 02:56:38.79879,2025-09-05 22:56:38.79879
"CYRB",2025-09-06 02:00:00,2025-09-05 22:00:00,"MVFR",-2,-3,93,130,15,48300,30.12,NA,"OVC  ft","CYRB 060200Z 13015KT 30SM OVC010 M02/M03 A3012 RMK ST8 SLP207",2025-09-06 02:56:38.906045,2025-09-05 22:56:38.906045
"CYCO",2025-09-06 02:00:00,2025-09-05 22:00:00,"VFR",15,7,59,160,7,9700,29.84,NA,"FEW  ft; BKN  ft","CYCO 060200Z 16007KT 6SM FU FEW100 BKN260 15/07 A2984 RMK FU1AC1CI3 SLP109 DENSITY ALT 300FT",2025-09-06 02:56:39.000786,2025-09-05 22:56:39.000786
"CYER",2025-09-06 03:25:00,2025-09-05 23:25:00,"IFR",7,7,100,350,9,14500,29.5,NA,"OVC  ft","CYER 060325Z AUTO 35009KT 9SM OVC009 07/07 A2950 RMK SLP992",2025-09-06 03:30:45.535926,2025-09-05 23:30:45.535926
"CYAT",2025-09-06 03:00:00,2025-09-05 23:00:00,"IFR",9,9,100,300,8,11300,29.26,NA,"OVC  ft","CYAT 060300Z AUTO 30008KT 7SM -RA OVC006 09/09 A2926 RMK PCPN 3.2MM PAST HR SLP911",2025-09-06 03:30:45.611668,2025-09-05 23:30:45.611668
"CYMO",2025-09-06 03:23:00,2025-09-05 23:23:00,"IFR",7,7,100,230,12,14500,29.35,NA,"BKN  ft; OVC  ft","CYMO 060323Z AUTO 23012G18KT 9SM -RA BKN008 OVC016 07/07 A2935 RMK SLP941",2025-09-06 03:30:45.681344,2025-09-05 23:30:45.681344
"CYPL",2025-09-06 03:00:00,2025-09-05 23:00:00,"MVFR",5,4,93,320,10,14500,29.61,NA,"OVC  ft","CYPL 060300Z AUTO 32010G22KT 280V040 9SM OVC017 05/04 A2961 RMK SLP045",2025-09-06 03:30:45.75029,2025-09-05 23:30:45.75029
"CYQT",2025-09-06 03:00:00,2025-09-05 23:00:00,"VFR",8,5,82,280,8,24100,29.68,NA,"FEW  ft; BKN  ft","CYQT 060300Z 28008G19KT 15SM FEW033 BKN090 08/05 A2968 RMK SC1AC4 SLP059",2025-09-06 03:30:45.82022,2025-09-05 23:30:45.82022
"CYAM",2025-09-06 03:00:00,2025-09-05 23:00:00,"VFR",10,8,88,240,10,32200,29.7,NA,"SCT  ft; OVC  ft","CYAM 060300Z 24010G18KT 20SM SCT043 OVC080 10/08 A2970 RMK SC3AC5 SLP062",2025-09-06 03:30:45.885926,2025-09-05 23:30:45.885926
"CYTS",2025-09-06 03:00:00,2025-09-05 23:00:00,"VFR",7,5,87,210,9,24100,29.56,NA,"SCT  ft; BKN  ft; OVC  ft","CYTS 060300Z 21009KT 15SM SCT030 BKN071 OVC091 07/05 A2956 RMK SC4AC1AC3 SLP020",2025-09-06 03:30:45.994893,2025-09-05 23:30:45.994893
"CYSB",2025-09-06 03:00:00,2025-09-05 23:00:00,"VFR",9,5,76,230,10,24100,29.71,NA,"FEW  ft; OVC  ft","CYSB 060300Z 23010KT 15SM FEW092 OVC110 09/05 A2971 RMK AC2AC6 SLP068",2025-09-06 03:30:46.060413,2025-09-05 23:30:46.060413
"CYYB",2025-09-06 03:00:00,2025-09-05 23:00:00,NA,10,7,82,NA,NA,NA,29.73,NA,NA,"CYYB 060300Z AUTO /////KT 10/07 A2973 RMK WIND MISG CLD MISG WX MISG VIS MISG ICE MISG SLP074",2025-09-06 03:30:46.126555,2025-09-05 23:30:46.126555
"CYOW",2025-09-06 03:00:00,2025-09-05 23:00:00,"VFR",15,11,77,260,12,24100,29.8,NA,"SCT  ft","CYOW 060300Z 26012G18KT 15SM SCT056 15/11 A2980 RMK SC4 SLP094 DENSITY ALT 600FT",2025-09-06 03:30:46.19029,2025-09-05 23:30:46.19029
"CYGK",2025-09-06 03:00:00,2025-09-05 23:00:00,"VFR",17,11,68,300,7,24100,29.83,NA,"FEW  ft; SCT  ft","CYGK 060300Z 30007KT 15SM FEW080 SCT250 17/11 A2983 RMK AC2CI2 LAST STFD OBS/ NXT 061000Z PRESRR SLP105 DENSITY ALT 800FT",2025-09-06 03:30:46.260377,2025-09-05 23:30:46.260377
"CYQG",2025-09-06 03:00:00,2025-09-05 23:00:00,"VFR",16,8,59,290,8,14500,29.94,NA,"FEW  ft; BKN  ft","CYQG 060300Z AUTO 29008KT 9SM FEW055 BKN070 16/08 A2994 RMK SLP138 DENSITY ALT 900FT",2025-09-06 03:30:46.325371,2025-09-05 23:30:46.325371
"CYVV",2025-09-06 03:00:00,2025-09-05 23:00:00,"VFR",14,5,55,260,14,9999,29.81,NA,"FEW  ft; OVC  ft","CYVV 060300Z 26014G21KT 10SM FEW040 OVC070 14/05 A2981 RMK CU2AC6 SLP099",2025-09-06 03:30:46.432028,2025-09-05 23:30:46.432028
"CYYZ",2025-09-06 03:00:00,2025-09-05 23:00:00,"VFR",14,8,67,280,8,24100,29.86,NA,"FEW  ft","CYYZ 060300Z 28008KT 15SM FEW250 14/08 A2986 RMK CI1 CI TR SLP114",2025-09-06 03:30:46.536947,2025-09-05 23:30:46.536947
"CYQA",2025-09-06 03:00:00,2025-09-05 23:00:00,"VFR",12,9,82,250,5,14500,29.8,NA,"SCT  ft; SCT  ft","CYQA 060300Z AUTO 25005KT 9SM SCT050 SCT060 12/09 A2980 RMK SLP096",2025-09-06 03:30:46.603914,2025-09-05 23:30:46.603914
"CYVR",2025-09-06 03:00:00,2025-09-05 23:00:00,"VFR",19,17,88,0,0,19300,29.79,NA,"BKN  ft; BKN  ft","CYVR 060300Z 00000KT 12SM BKN099 BKN220 19/17 A2979 RMK HZ4AC1CI2 SLP090 DENSITY ALT 700FT",2025-09-06 03:30:46.668314,2025-09-05 23:30:46.668314
"CYYJ",2025-09-06 03:00:00,2025-09-05 23:00:00,"VFR",15,13,88,100,5,48300,29.79,NA,"FEW  ft; BKN  ft","CYYJ 060300Z 10005KT 30SM FEW170 BKN250 15/13 A2979 RMK AC2CS4 SLP089 DENSITY ALT 300FT",2025-09-06 03:30:46.734406,2025-09-05 23:30:46.734406
"CYLW",2025-09-06 03:00:00,2025-09-05 23:00:00,"VFR",20,12,60,80,3,11300,29.8,NA,"OVC  ft","CYLW 060300Z AUTO 08003KT 7SM OVC140 20/12 A2980 RMK SLP094 DENSITY ALT 2500FT",2025-09-06 03:30:46.802393,2025-09-05 23:30:46.802393
"CYXS",2025-09-06 03:27:00,2025-09-05 23:27:00,"MVFR",15,12,82,60,2,8000,29.88,NA,"CLR  ft","CYXS 060327Z AUTO 06002KT 5SM BR CLR 15/12 A2988 RMK SLP131 DENSITY ALT 2900FT",2025-09-06 03:30:46.865789,2025-09-05 23:30:46.865789
"CYXT",2025-09-06 03:00:00,2025-09-05 23:00:00,"VFR",21,16,73,150,5,24100,29.82,NA,"SKC  ft","CYXT 060300Z 15005KT 15SM SKC 21/16 A2982 RMK FU SLP100 DENSITY ALT 1800FT",2025-09-06 03:30:46.930341,2025-09-05 23:30:46.930341
"CYQQ",2025-09-06 03:00:00,2025-09-05 23:00:00,"VFR",20,15,73,180,2,19300,29.8,NA,"SCT  ft; BKN  ft; BKN  ft","CYQQ 060300Z 18002KT 12SM SCT060 BKN190 BKN240 20/15 A2980 RMK FU3AC2CI1 DENSITY ALT 1048FT CIG PDMTLY TRANSPARENT SLP091",2025-09-06 03:30:46.995676,2025-09-05 23:30:46.995676
"CYYC",2025-09-06 03:00:00,2025-09-05 23:00:00,"VFR",17,4,42,150,8,12900,30,NA,"SKC  ft","CYYC 060300Z 15008KT 8SM SKC 17/04 A3000 RMK FU SLP173 DENSITY ALT 4600FT",2025-09-06 03:30:47.059384,2025-09-05 23:30:47.059384
"CYEG",2025-09-06 03:00:00,2025-09-05 23:00:00,"VFR",10,3,62,110,9,32200,29.96,NA,"FEW  ft","CYEG 060300Z 11009KT 20SM FEW250 10/03 A2996 RMK CI1 CI TR SLP162",2025-09-06 03:30:47.124018,2025-09-05 23:30:47.124018
"CYMM",2025-09-06 03:00:00,2025-09-05 23:00:00,"VFR",14,6,59,110,7,14500,29.98,NA,"CLR  ft","CYMM 060300Z AUTO 11007KT 9SM CLR 14/06 A2998 RMK SLP168",2025-09-06 03:30:47.191884,2025-09-05 23:30:47.191884
"CYQF",2025-09-06 03:27:00,2025-09-05 23:27:00,"VFR",11,3,58,150,6,9700,29.98,NA,"CLR  ft","CYQF 060327Z AUTO 15006KT 6SM HZ CLR 11/03 A2998 RMK SLP170 DENSITY ALT 3200FT",2025-09-06 03:30:47.256204,2025-09-05 23:30:47.256204
"CYXE",2025-09-06 03:00:00,2025-09-05 23:00:00,"VFR",8,4,76,80,7,24100,30.07,NA,"SCT  ft","CYXE 060300Z 08007KT 15SM SCT250 08/04 A3007 RMK CI3 SLP200",2025-09-06 03:30:47.319194,2025-09-05 23:30:47.319194
"CYQR",2025-09-06 03:00:00,2025-09-05 23:00:00,"VFR",8,3,71,30,5,24100,30.09,NA,"SKC  ft","CYQR 060300Z 03005KT 15SM SKC 08/03 A3009 RMK SLP209",2025-09-06 03:30:47.42389,2025-09-05 23:30:47.42389
"CYWG",2025-09-06 03:00:00,2025-09-05 23:00:00,"VFR",5,4,93,280,7,24100,29.91,NA,"FEW  ft","CYWG 060300Z 28007KT 15SM FEW120 05/04 A2991 RMK AC1 SLP139",2025-09-06 03:30:47.488374,2025-09-05 23:30:47.488374
"CYBR",2025-09-06 03:00:00,2025-09-05 23:00:00,"VFR",8,6,87,280,5,24100,30,NA,"BKN  ft","CYBR 060300Z 28005KT 15SM BKN097 08/06 A3000 RMK AC6 LAST STFD OBS/NEXT 061200Z SLP173",2025-09-06 03:30:47.552411,2025-09-05 23:30:47.552411
"CYUL",2025-09-06 03:00:00,2025-09-05 23:00:00,"VFR",20,15,73,250,9,24100,29.76,NA,"BKN  ft; OVC  ft","CYUL 060300Z 25009G19KT 15SM -RA BKN060 OVC110 20/15 A2976 RMK SC5AC3 SLP080 DENSITY ALT 1000FT",2025-09-06 03:30:47.619127,2025-09-05 23:30:47.619127
"CYHU",2025-09-06 03:00:00,2025-09-05 23:00:00,"VFR",21,15,69,220,19,14500,29.74,NA,"FEW  ft; SCT  ft; BKN  ft; OVC  ft","CYHU 060300Z AUTO 22019G30KT 170V240 9SM -RA FEW055 SCT077 BKN100 OVC130 21/15 A2974 RMK SLP073 DENSITY ALT 1100FT",2025-09-06 03:30:47.685308,2025-09-05 23:30:47.685308
"CYQB",2025-09-06 03:00:00,2025-09-05 23:00:00,"VFR",16,14,88,340,3,24100,29.74,NA,"FEW  ft; SCT  ft","CYQB 060300Z 34003KT 15SM FEW070 SCT100 16/14 A2974 RMK AC1AC3 AC TR SLP073 DENSITY ALT 700FT",2025-09-06 03:30:47.749261,2025-09-05 23:30:47.749261
"CYVO",2025-09-06 03:00:00,2025-09-05 23:00:00,"VFR",9,8,94,210,4,14500,29.62,NA,"SCT  ft; BKN  ft; BKN  ft; OVC  ft","CYVO 060300Z AUTO 21004KT 9SM SCT037 BKN046 BKN120 OVC220 09/08 A2962 RMK PCPN 0.8MM PAST HR SLP043",2025-09-06 03:30:47.812368,2025-09-05 23:30:47.812368
"CYUY",2025-09-06 03:00:00,2025-09-05 23:00:00,"VFR",8,5,82,220,7,24100,29.6,NA,"BKN  ft; BKN  ft; OVC  ft","CYUY 060300Z 22007KT 15SM BKN040 BKN090 OVC210 08/05 A2960 RMK SC6AC1CI1 SLP034",2025-09-06 03:30:47.915078,2025-09-05 23:30:47.915078
"CYZV",2025-09-06 03:00:00,2025-09-05 23:00:00,"VFR",16,14,88,80,7,24100,29.82,NA,"SCT  ft; BKN  ft; BKN  ft","CYZV 060300Z 08007KT 15SM SCT047 BKN073 BKN170 16/14 A2982 RMK SC4AC2AC1 SLP103 DENSITY ALT 500FT",2025-09-06 03:30:47.986846,2025-09-05 23:30:47.986846
"CYBC",2025-09-06 03:26:00,2025-09-05 23:26:00,"IFR",16,15,94,0,2,2400,29.74,NA,"FEW  ft; OVC  ft","CYBC 060326Z AUTO VRB02KT 1 1/2SM +RA BR FEW023 OVC029 16/15 A2974 RMK PCPN 2.0MM PAST HR SLP074 DENSITY ALT 500FT",2025-09-06 03:30:48.057622,2025-09-05 23:30:48.057622
"CYRJ",2025-09-06 03:19:00,2025-09-05 23:19:00,"VFR",14,12,88,250,15,19300,29.65,NA,"OVC  ft","CYRJ 060319Z 25015G26KT 12SM SHRA OVC052 14/12 A2965 RMK SC8 CVCTV CLD EMBD DIST LTNG E SLP043 DENSITY ALT 1000FT",2025-09-06 03:30:48.128784,2025-09-05 23:30:48.128784
"CYHZ",2025-09-06 03:24:00,2025-09-05 23:24:00,"LIFR",19,19,100,180,10,1000,30.08,NA,"BKN  ft; OVC  ft","CYHZ 060324Z 18010KT 5/8SM R14/P6000FT/N R23/P6000FT/U -DZ BR BKN004 OVC013 19/19 A3008 RMK ST6SC2 SLP189 DENSITY ALT 900FT",2025-09-06 03:30:48.195032,2025-09-05 23:30:48.195032
"CYYG",2025-09-06 03:10:00,2025-09-05 23:10:00,"VFR",20,18,88,170,13,24100,30.03,NA,"SCT  ft","CYYG 060310Z 17013KT 15SM SCT017 20/18 A3003 RMK SC3 SLP172 DENSITY ALT 700FT",2025-09-06 03:30:48.259121,2025-09-05 23:30:48.259121
"CYQM",2025-09-06 03:00:00,2025-09-05 23:00:00,"VFR",17,15,88,160,8,24100,29.98,NA,"FEW  ft; FEW  ft; FEW  ft","CYQM 060300Z 16008KT 15SM FEW032 FEW082 FEW260 17/15 A2998 RMK SC1AC1CI1 SC TR AC TR CI TR CU ASOCTD SLP156 DENSITY ALT 500FT",2025-09-06 03:30:48.32256,2025-09-05 23:30:48.32256
"CYFC",2025-09-06 03:00:00,2025-09-05 23:00:00,"MVFR",17,15,88,190,8,14500,29.96,NA,"BKN  ft","CYFC 060300Z AUTO 19008G15KT 9SM BKN016 17/15 A2996 RMK SLP146 DENSITY ALT 400FT",2025-09-06 03:30:48.386203,2025-09-05 23:30:48.386203
"CYYT",2025-09-06 03:00:00,2025-09-05 23:00:00,"LIFR",11,11,100,180,6,NA,30.26,NA,"OVX  ft","CYYT 060300Z 18006KT 1/4SM R10/1200V2000FT/U R16/1600V2000FT/N FG VV002 11/11 A3026 RMK FG8 SLP250",2025-09-06 03:30:48.449849,2025-09-05 23:30:48.449849
"CYQY",2025-09-06 03:00:00,2025-09-05 23:00:00,"IFR",18,18,100,180,6,24100,30.12,NA,"OVC  ft","CYQY 060300Z 18006KT 15SM OVC007 18/18 A3012 RMK ST8 SLP201 DENSITY ALT 500FT",2025-09-06 03:30:48.515747,2025-09-05 23:30:48.515747
"CYXY",2025-09-06 03:00:00,2025-09-05 23:00:00,"VFR",22,9,44,10,3,64400,29.78,NA,"FEW  ft; SCT  ft; BKN  ft; BKN  ft","CYXY 060300Z 01003KT 320V100 40SM FEW065 SCT095 BKN150 BKN220 22/09 A2978 RMK SC2AC2AC2CI1 SLP094 DENSITY ALT 3800FT",2025-09-06 03:30:48.578777,2025-09-05 23:30:48.578777
"CYZF",2025-09-06 03:00:00,2025-09-05 23:00:00,"VFR",14,7,63,110,10,24100,29.94,NA,"FEW  ft","CYZF 060300Z 11010KT 15SM FEW240 14/07 A2994 RMK CI2 SLP150",2025-09-06 03:30:48.642542,2025-09-05 23:30:48.642542
"CYFB",2025-09-06 03:00:00,2025-09-05 23:00:00,"VFR",3,0,81,150,9,24100,29.94,NA,"BKN  ft; OVC  ft","CYFB 060300Z 15009G15KT 15SM -RA BKN041 OVC078 03/00 A2994 RMK SC6AC2 SLP145",2025-09-06 03:30:48.705848,2025-09-05 23:30:48.705848
"CYRT",2025-09-06 03:00:00,2025-09-05 23:00:00,"MVFR",6,4,87,10,18,24100,29.93,NA,"BKN  ft; OVC  ft","CYRT 060300Z 01018KT 15SM BKN013 OVC033 06/04 A2993 RMK SC6SC2 SLP139",2025-09-06 03:30:48.768,2025-09-05 23:30:48.768
"CYBK",2025-09-06 03:00:00,2025-09-05 23:00:00,"VFR",6,2,76,330,11,32200,30.04,NA,"BKN  ft","CYBK 060300Z 33011KT 20SM BKN035 06/02 A3004 RMK SC7 SLP175",2025-09-06 03:30:48.833026,2025-09-05 23:30:48.833026
"CYRB",2025-09-06 03:00:00,2025-09-05 23:00:00,"MVFR",-2,-4,86,140,16,48300,30.11,NA,"OVC  ft","CYRB 060300Z 14016KT 30SM OVC010 M02/M04 A3011 RMK ST8 SLP206",2025-09-06 03:30:48.907306,2025-09-05 23:30:48.907306
"CYCO",2025-09-06 03:00:00,2025-09-05 23:00:00,"VFR",13,7,67,170,9,12900,29.84,NA,"FEW  ft; SCT  ft","CYCO 060300Z 17009KT 8SM FEW100 SCT260 13/07 A2984 RMK FU1AC1CI2 AC TR SLP107",2025-09-06 03:30:48.970468,2025-09-05 23:30:48.970468
"CYER",2025-09-06 04:00:00,2025-09-06,"IFR",7,7,100,350,9,14500,29.5,NA,"OVC  ft","CYER 060400Z AUTO 35009KT 9SM OVC009 07/07 A2950 RMK SLP993",2025-09-06 04:25:44.390609,2025-09-06 00:25:44.390609
"CYAT",2025-09-06 04:01:00,2025-09-06 00:01:00,"LIFR",9,9,100,300,5,8000,29.26,NA,"OVC  ft","CYAT 060401Z AUTO 30005KT 5SM -RA BR OVC004 09/09 A2926 RMK SLP909",2025-09-06 04:25:44.519754,2025-09-06 00:25:44.519754
"CYMO",2025-09-06 04:17:00,2025-09-06 00:17:00,"MVFR",8,7,93,230,13,14500,29.36,NA,"BKN  ft; OVC  ft","CYMO 060417Z AUTO 23013G19KT 9SM BKN012 OVC018 08/07 A2936 RMK SLP943",2025-09-06 04:25:44.603645,2025-09-06 00:25:44.603645
"CYPL",2025-09-06 04:00:00,2025-09-06,"MVFR",5,4,93,320,10,14500,29.63,NA,"OVC  ft","CYPL 060400Z AUTO 32010G21KT 290V010 9SM OVC017 05/04 A2963 RMK SLP051",2025-09-06 04:25:44.685656,2025-09-06 00:25:44.685656
"CYQT",2025-09-06 04:00:00,2025-09-06,"VFR",8,5,82,300,8,24100,29.69,NA,"FEW  ft; BKN  ft","CYQT 060400Z 30008G17KT 15SM FEW032 BKN190 08/05 A2969 RMK SC2AC4 SLP063",2025-09-06 04:25:44.770299,2025-09-06 00:25:44.770299
"CYAM",2025-09-06 04:00:00,2025-09-06,"VFR",10,7,82,240,14,32200,29.7,NA,"SCT  ft; BKN  ft","CYAM 060400Z 24014G22KT 20SM SCT048 BKN100 10/07 A2970 RMK SC3AC4 SLP062",2025-09-06 04:25:44.852097,2025-09-06 00:25:44.852097
"CYTS",2025-09-06 04:00:00,2025-09-06,"MVFR",7,5,87,210,8,24100,29.57,NA,"BKN  ft; BKN  ft; OVC  ft","CYTS 060400Z 21008KT 15SM BKN023 BKN040 OVC061 07/05 A2957 RMK SC5SC2SC1 SLP024",2025-09-06 04:25:44.93881,2025-09-06 00:25:44.93881
"CYSB",2025-09-06 04:00:00,2025-09-06,"VFR",9,5,76,230,12,24100,29.71,NA,"SCT  ft; OVC  ft","CYSB 060400Z 23012KT 15SM SCT095 OVC130 09/05 A2971 RMK AC3AC5 SLP069",2025-09-06 04:25:45.025789,2025-09-06 00:25:45.025789
"CYYB",2025-09-06 04:00:00,2025-09-06,NA,11,7,77,NA,NA,NA,29.74,NA,NA,"CYYB 060400Z AUTO /////KT 11/07 A2974 RMK WIND MISG CLD MISG WX MISG VIS MISG ICE MISG SLP078",2025-09-06 04:25:45.112953,2025-09-06 00:25:45.112953
"CYOW",2025-09-06 04:00:00,2025-09-06,"VFR",13,10,82,260,7,24100,29.82,NA,"FEW  ft","CYOW 060400Z 26007KT 15SM FEW100 13/10 A2982 RMK AC1 AC TR SLP099",2025-09-06 04:25:45.196468,2025-09-06 00:25:45.196468
"CYGK",2025-09-06 03:00:00,2025-09-05 23:00:00,"VFR",17,11,68,300,7,24100,29.83,NA,"FEW  ft; SCT  ft","CYGK 060300Z 30007KT 15SM FEW080 SCT250 17/11 A2983 RMK AC2CI2 LAST STFD OBS/ NXT 061000Z PRESRR SLP105 DENSITY ALT 800FT",2025-09-06 04:25:45.284174,2025-09-06 00:25:45.284174
"CYQG",2025-09-06 04:00:00,2025-09-06,"VFR",15,8,63,310,7,14500,29.94,NA,"FEW  ft; BKN  ft","CYQG 060400Z AUTO 31007KT 9SM FEW066 BKN240 15/08 A2994 RMK SLP141",2025-09-06 04:25:45.375002,2025-09-06 00:25:45.375002
"CYVV",2025-09-06 04:00:00,2025-09-06,"VFR",13,6,63,250,13,9999,29.83,NA,"FEW  ft; OVC  ft","CYVV 060400Z 25013G20KT 10SM FEW050 OVC070 13/06 A2983 RMK CU1AC7 SLP106",2025-09-06 04:25:45.462574,2025-09-06 00:25:45.462574
"CYYZ",2025-09-06 04:00:00,2025-09-06,"VFR",13,7,67,280,6,24100,29.88,NA,"FEW  ft","CYYZ 060400Z 28006KT 15SM FEW250 13/07 A2988 RMK CI1 CI TR SLP120",2025-09-06 04:25:45.556541,2025-09-06 00:25:45.556541
"CYQA",2025-09-06 04:00:00,2025-09-06,"VFR",12,9,82,260,5,14500,29.82,NA,"SCT  ft; OVC  ft","CYQA 060400Z AUTO 26005KT 9SM -RA SCT033 OVC041 12/09 A2982 RMK SLP104",2025-09-06 04:25:45.64312,2025-09-06 00:25:45.64312
"CYVR",2025-09-06 04:00:00,2025-09-06,"VFR",19,18,94,0,2,9999,29.8,NA,"BKN  ft; BKN  ft","CYVR 060400Z VRB02KT 10SM BKN096 BKN220 19/18 A2980 RMK HZ3AC2CI1 SLP093 DENSITY ALT 700FT",2025-09-06 04:25:45.727524,2025-09-06 00:25:45.727524
"CYYJ",2025-09-06 04:00:00,2025-09-06,"VFR",15,13,88,110,4,32200,29.8,NA,"SCT  ft; BKN  ft","CYYJ 060400Z 11004KT 20SM SCT170 BKN210 15/13 A2980 RMK AC3CS4 SLP094 DENSITY ALT 300FT",2025-09-06 04:25:45.849607,2025-09-06 00:25:45.849607
"CYLW",2025-09-06 04:00:00,2025-09-06,"VFR",18,11,64,40,4,11300,29.81,NA,"OVC  ft","CYLW 060400Z AUTO 04004KT 7SM OVC140 18/11 A2981 RMK SLP095 DENSITY ALT 2200FT",2025-09-06 04:25:45.936296,2025-09-06 00:25:45.936296
"CYXS",2025-09-06 04:13:00,2025-09-06 00:13:00,"MVFR",13,11,88,0,0,8000,29.88,NA,"CLR  ft","CYXS 060413Z AUTO 00000KT 5SM BR CLR 13/11 A2988 RMK SLP133 DENSITY ALT 2600FT",2025-09-06 04:25:46.018873,2025-09-06 00:25:46.018873
"CYXT",2025-09-06 04:00:00,2025-09-06,"VFR",19,16,83,180,6,24100,29.83,NA,"SKC  ft","CYXT 060400Z 18006KT 15SM SKC 19/16 A2983 RMK FU SLP107 DENSITY ALT 1500FT",2025-09-06 04:25:46.14583,2025-09-06 00:25:46.14583
"CYQQ",2025-09-06 04:00:00,2025-09-06,"VFR",19,15,78,330,2,24100,29.82,NA,"SCT  ft; BKN  ft; BKN  ft","CYQQ 060400Z 33002KT 15SM SCT060 BKN190 BKN230 19/15 A2982 RMK FU3AC2CI2 DENSITY ALT 935FT CIG PDMTLY TRANSPARENT SLP096",2025-09-06 04:25:46.270732,2025-09-06 00:25:46.270732
"CYYC",2025-09-06 04:00:00,2025-09-06,"VFR",15,4,48,150,6,9999,30,NA,"SKC  ft","CYYC 060400Z 15006KT 10SM SKC 15/04 A3000 RMK SLP170 DENSITY ALT 4400FT",2025-09-06 04:25:46.404804,2025-09-06 00:25:46.404804
"CYEG",2025-09-06 04:00:00,2025-09-06,"VFR",10,3,62,120,8,32200,29.96,NA,"FEW  ft","CYEG 060400Z 12008KT 20SM FEW250 10/03 A2996 RMK CI1 CI TR SLP157",2025-09-06 04:25:46.49142,2025-09-06 00:25:46.49142
"CYMM",2025-09-06 04:00:00,2025-09-06,"VFR",12,6,67,120,8,14500,29.99,NA,"CLR  ft","CYMM 060400Z AUTO 12008KT 9SM CLR 12/06 A2999 RMK SLP168",2025-09-06 04:25:46.577458,2025-09-06 00:25:46.577458
"CYQF",2025-09-06 04:04:00,2025-09-06 00:04:00,"VFR",10,3,62,230,2,9700,29.98,NA,"CLR  ft","CYQF 060404Z AUTO 23002KT 6SM HZ CLR 10/03 A2998 RMK SLP173",2025-09-06 04:25:46.701989,2025-09-06 00:25:46.701989
"CYXE",2025-09-06 04:00:00,2025-09-06,"VFR",8,4,76,100,8,24100,30.07,NA,"SCT  ft","CYXE 060400Z 10008KT 15SM SCT250 08/04 A3007 RMK CI3 SLP201",2025-09-06 04:25:46.828587,2025-09-06 00:25:46.828587
"CYQR",2025-09-06 04:00:00,2025-09-06,"VFR",7,3,76,30,2,24100,30.09,NA,"SKC  ft","CYQR 060400Z 03002KT 15SM SKC 07/03 A3009 RMK SLP208",2025-09-06 04:25:46.953529,2025-09-06 00:25:46.953529
"CYWG",2025-09-06 04:00:00,2025-09-06,"VFR",7,6,93,290,5,24100,29.91,NA,"BKN  ft","CYWG 060400Z 29005KT 15SM BKN130 07/06 A2991 RMK AC6 SLP138",2025-09-06 04:25:47.078498,2025-09-06 00:25:47.078498
"CYBR",2025-09-06 04:00:00,2025-09-06,"VFR",8,7,93,260,7,14500,29.99,NA,"OVC  ft","CYBR 060400Z AUTO 26007KT 9SM OVC096 08/07 A2999 RMK SLP171",2025-09-06 04:25:47.16435,2025-09-06 00:25:47.16435
"CYUL",2025-09-06 04:00:00,2025-09-06,"VFR",19,14,73,280,11,24100,29.79,NA,"FEW  ft; BKN  ft","CYUL 060400Z 28011G18KT 15SM FEW060 BKN120 19/14 A2979 RMK SC2AC5 SLP091 DENSITY ALT 800FT",2025-09-06 04:25:47.251348,2025-09-06 00:25:47.251348
"CYHU",2025-09-06 04:07:00,2025-09-06 00:07:00,"VFR",18,16,88,220,8,14500,29.78,NA,"FEW  ft; SCT  ft; OVC  ft","CYHU 060407Z AUTO 22008G16KT 9SM -RA FEW060 SCT080 OVC100 18/16 A2978 RMK SLP087 DENSITY ALT 700FT",2025-09-06 04:25:47.378935,2025-09-06 00:25:47.378935
"CYQB",2025-09-06 04:00:00,2025-09-06,"VFR",18,15,83,230,13,9999,29.73,NA,"FEW  ft; SCT  ft; SCT  ft","CYQB 060400Z 23013G20KT 10SM FEW030 SCT060 SCT120 18/15 A2973 RMK SC1SC3AC1 AC TR PRESFR SLP071 DENSITY ALT 900FT",2025-09-06 04:25:47.503823,2025-09-06 00:25:47.503823
"CYVO",2025-09-06 04:00:00,2025-09-06,"VFR",9,7,87,220,6,14500,29.63,NA,"BKN  ft; BKN  ft","CYVO 060400Z AUTO 22006KT 9SM BKN033 BKN045 09/07 A2963 RMK SLP045",2025-09-06 04:25:47.591795,2025-09-06 00:25:47.591795
"CYUY",2025-09-06 04:14:00,2025-09-06 00:14:00,"VFR",8,6,87,220,7,24100,29.62,NA,"FEW  ft; OVC  ft","CYUY 060414Z 22007KT 15SM -SHRA FEW033 OVC075 08/06 A2962 RMK SC2AS6 CVCTV CLD EMBD SLP039",2025-09-06 04:25:47.679007,2025-09-06 00:25:47.679007
"CYZV",2025-09-06 04:00:00,2025-09-06,"VFR",16,14,88,70,3,24100,29.8,NA,"BKN  ft; BKN  ft; BKN  ft","CYZV 060400Z 07003KT 020V100 15SM BKN040 BKN070 BKN090 16/14 A2980 RMK SC6AC1AC1 AC TR SLP093 DENSITY ALT 500FT",2025-09-06 04:25:47.807092,2025-09-06 00:25:47.807092
"CYBC",2025-09-06 04:00:00,2025-09-06,"MVFR",17,16,94,150,6,14500,29.73,NA,"BKN  ft; OVC  ft","CYBC 060400Z AUTO 15006KT 9SM BKN029 OVC040 17/16 A2973 RMK PCPN 4.3MM PAST HR SLP068 DENSITY ALT 600FT",2025-09-06 04:25:47.896144,2025-09-06 00:25:47.896144
"CYRJ",2025-09-06 04:00:00,2025-09-06,"VFR",13,13,100,230,11,19300,29.65,NA,"OVC  ft","CYRJ 060400Z 23011G17KT 12SM -SHRA OVC090 13/13 A2965 RMK AC8 SLP044 DENSITY ALT 900FT",2025-09-06 04:25:47.987884,2025-09-06 00:25:47.987884
"CYHZ",2025-09-06 04:00:00,2025-09-06,"IFR",19,19,100,190,10,6400,30.09,NA,"BKN  ft; OVC  ft","CYHZ 060400Z 19010G15KT 4SM BR BKN005 OVC011 19/19 A3009 RMK ST7SC1 VIS NW.NE 10 SLP191 DENSITY ALT 900FT",2025-09-06 04:25:48.07298,2025-09-06 00:25:48.07298
"CYYG",2025-09-06 04:00:00,2025-09-06,"VFR",19,19,100,160,12,24100,30.02,NA,"SCT  ft","CYYG 060400Z 16012KT 15SM SCT017 19/19 A3002 RMK SC3 SLP167 DENSITY ALT 700FT",2025-09-06 04:25:48.198693,2025-09-06 00:25:48.198693
"CYQM",2025-09-06 04:00:00,2025-09-06,"VFR",18,16,88,170,10,24100,29.99,NA,"BKN  ft; BKN  ft; BKN  ft","CYQM 060400Z CCA 17010KT 15SM BKN048 BKN072 BKN260 18/16 A2999 RMK SC5AC1CI1 AC TR CI TR SLP159 DENSITY ALT 600FT",2025-09-06 04:25:48.325154,2025-09-06 00:25:48.325154
"CYFC",2025-09-06 04:20:00,2025-09-06 00:20:00,"IFR",18,16,88,180,7,14500,29.95,NA,"OVC  ft","CYFC 060420Z AUTO 18007KT 9SM OVC008 18/16 A2995 RMK SLP143 DENSITY ALT 400FT",2025-09-06 04:25:48.450727,2025-09-06 00:25:48.450727
"CYYT",2025-09-06 04:00:00,2025-09-06,"LIFR",11,11,100,210,6,NA,30.25,NA,"OVX  ft","CYYT 060400Z 21006KT 3/8SM R10/2600V4000FT/N R16/2600VP6000FT/U FG VV002 11/11 A3025 RMK FG8 SLP248",2025-09-06 04:25:48.533767,2025-09-06 00:25:48.533767
"CYQY",2025-09-06 04:06:00,2025-09-06 00:06:00,"LIFR",18,18,100,180,8,4800,30.11,NA,"OVC  ft","CYQY 060406Z 18008KT 3SM -DZ BR OVC004 18/18 A3011 RMK ST8 SLP199 DENSITY ALT 500FT",2025-09-06 04:25:48.623413,2025-09-06 00:25:48.623413
"CYXY",2025-09-06 04:00:00,2025-09-06,"VFR",20,9,49,0,2,64400,29.8,NA,"SCT  ft; BKN  ft; OVC  ft","CYXY 060400Z VRB02KT 40SM SCT072 BKN160 OVC220 20/09 A2980 RMK AC3AC4CI1 VIRGA SE-NW SLP100 DENSITY ALT 3600FT",2025-09-06 04:25:48.708384,2025-09-06 00:25:48.708384
"CYZF",2025-09-06 04:00:00,2025-09-06,"VFR",13,7,67,100,8,24100,29.94,NA,"FEW  ft","CYZF 060400Z 10008KT 15SM FEW240 13/07 A2994 RMK CI2 SLP149",2025-09-06 04:25:48.836754,2025-09-06 00:25:48.836754
"CYFB",2025-09-06 04:00:00,2025-09-06,"VFR",3,1,87,0,2,24100,29.92,NA,"BKN  ft; OVC  ft","CYFB 060400Z VRB02KT 15SM -RA BKN041 OVC078 03/01 A2992 RMK SC6AC2 SLP136",2025-09-06 04:25:48.92264,2025-09-06 00:25:48.92264
"CYRT",2025-09-06 04:00:00,2025-09-06,"VFR",6,4,87,20,16,24100,29.92,NA,"OVC  ft","CYRT 060400Z 02016G22KT 15SM OVC031 06/04 A2992 RMK SC8 SLP135",2025-09-06 04:25:49.00669,2025-09-06 00:25:49.00669
"CYBK",2025-09-06 04:00:00,2025-09-06,"VFR",5,2,81,340,9,24100,30.04,NA,"BKN  ft","CYBK 060400Z 34009KT 15SM BKN032 05/02 A3004 RMK SC8 SLP177",2025-09-06 04:25:49.130888,2025-09-06 00:25:49.130888
"CYRB",2025-09-06 04:00:00,2025-09-06,"VFR",-3,-4,93,130,15,48300,30.11,NA,"SCT  ft","CYRB 060400Z 13015KT 30SM SCT009 M03/M04 A3011 RMK ST3 SLP204",2025-09-06 04:25:49.227167,2025-09-06 00:25:49.227167
"CYCO",2025-09-06 04:00:00,2025-09-06,"VFR",11,6,72,190,6,9999,29.83,NA,"FEW  ft; FEW  ft","CYCO 060400Z 19006KT 10SM FEW120 FEW260 11/06 A2983 RMK AC1CI2 AC TR SLP103",2025-09-06 04:25:49.31277,2025-09-06 00:25:49.31277
"CYER",2025-09-06 04:00:00,2025-09-06,"IFR",7,7,100,350,9,14500,29.5,NA,"OVC  ft","CYER 060400Z AUTO 35009KT 9SM OVC009 07/07 A2950 RMK SLP993",2025-09-06 04:41:54.711536,2025-09-06 00:41:54.711536
"CYAT",2025-09-06 04:01:00,2025-09-06 00:01:00,"LIFR",9,9,100,300,5,8000,29.26,NA,"OVC  ft","CYAT 060401Z AUTO 30005KT 5SM -RA BR OVC004 09/09 A2926 RMK SLP909",2025-09-06 04:41:54.814083,2025-09-06 00:41:54.814083
"CYMO",2025-09-06 04:35:00,2025-09-06 00:35:00,"IFR",8,7,93,240,11,14500,29.36,NA,"BKN  ft; OVC  ft","CYMO 060435Z AUTO 24011G20KT 9SM BKN009 OVC014 08/07 A2936 RMK SLP944",2025-09-06 04:41:54.94849,2025-09-06 00:41:54.94849
"CYPL",2025-09-06 04:00:00,2025-09-06,"MVFR",5,4,93,320,10,14500,29.63,NA,"OVC  ft","CYPL 060400Z AUTO 32010G21KT 290V010 9SM OVC017 05/04 A2963 RMK SLP051",2025-09-06 04:41:55.044922,2025-09-06 00:41:55.044922
"CYQT",2025-09-06 04:00:00,2025-09-06,"VFR",8,5,82,300,8,24100,29.69,NA,"FEW  ft; BKN  ft","CYQT 060400Z 30008G17KT 15SM FEW032 BKN190 08/05 A2969 RMK SC2AC4 SLP063",2025-09-06 04:41:55.145597,2025-09-06 00:41:55.145597
"CYAM",2025-09-06 04:00:00,2025-09-06,"VFR",10,7,82,240,14,32200,29.7,NA,"SCT  ft; BKN  ft","CYAM 060400Z 24014G22KT 20SM SCT048 BKN100 10/07 A2970 RMK SC3AC4 SLP062",2025-09-06 04:41:55.240965,2025-09-06 00:41:55.240965
"CYTS",2025-09-06 04:00:00,2025-09-06,"MVFR",7,5,87,210,8,24100,29.57,NA,"BKN  ft; BKN  ft; OVC  ft","CYTS 060400Z 21008KT 15SM BKN023 BKN040 OVC061 07/05 A2957 RMK SC5SC2SC1 SLP024",2025-09-06 04:41:55.336263,2025-09-06 00:41:55.336263
"CYSB",2025-09-06 04:00:00,2025-09-06,"VFR",9,5,76,230,12,24100,29.71,NA,"SCT  ft; OVC  ft","CYSB 060400Z 23012KT 15SM SCT095 OVC130 09/05 A2971 RMK AC3AC5 SLP069",2025-09-06 04:41:55.430747,2025-09-06 00:41:55.430747
"CYYB",2025-09-06 04:00:00,2025-09-06,NA,11,7,77,NA,NA,NA,29.74,NA,NA,"CYYB 060400Z AUTO /////KT 11/07 A2974 RMK WIND MISG CLD MISG WX MISG VIS MISG ICE MISG SLP078",2025-09-06 04:41:55.571628,2025-09-06 00:41:55.571628
"CYOW",2025-09-06 04:00:00,2025-09-06,"VFR",13,10,82,260,7,24100,29.82,NA,"FEW  ft","CYOW 060400Z 26007KT 15SM FEW100 13/10 A2982 RMK AC1 AC TR SLP099",2025-09-06 04:41:55.667333,2025-09-06 00:41:55.667333
"CYGK",2025-09-06 03:00:00,2025-09-05 23:00:00,"VFR",17,11,68,300,7,24100,29.83,NA,"FEW  ft; SCT  ft","CYGK 060300Z 30007KT 15SM FEW080 SCT250 17/11 A2983 RMK AC2CI2 LAST STFD OBS/ NXT 061000Z PRESRR SLP105 DENSITY ALT 800FT",2025-09-06 04:41:55.771114,2025-09-06 00:41:55.771114
"CYQG",2025-09-06 04:00:00,2025-09-06,"VFR",15,8,63,310,7,14500,29.94,NA,"FEW  ft; BKN  ft","CYQG 060400Z AUTO 31007KT 9SM FEW066 BKN240 15/08 A2994 RMK SLP141",2025-09-06 04:41:55.870194,2025-09-06 00:41:55.870194
"CYVV",2025-09-06 04:00:00,2025-09-06,"VFR",13,6,63,250,13,9999,29.83,NA,"FEW  ft; OVC  ft","CYVV 060400Z 25013G20KT 10SM FEW050 OVC070 13/06 A2983 RMK CU1AC7 SLP106",2025-09-06 04:41:55.964401,2025-09-06 00:41:55.964401
"CYYZ",2025-09-06 04:00:00,2025-09-06,"VFR",13,7,67,280,6,24100,29.88,NA,"FEW  ft","CYYZ 060400Z 28006KT 15SM FEW250 13/07 A2988 RMK CI1 CI TR SLP120",2025-09-06 04:41:56.065301,2025-09-06 00:41:56.065301
"CYQA",2025-09-06 04:00:00,2025-09-06,"VFR",12,9,82,260,5,14500,29.82,NA,"SCT  ft; OVC  ft","CYQA 060400Z AUTO 26005KT 9SM -RA SCT033 OVC041 12/09 A2982 RMK SLP104",2025-09-06 04:41:56.161973,2025-09-06 00:41:56.161973
"CYVR",2025-09-06 04:00:00,2025-09-06,"VFR",19,18,94,0,2,9999,29.8,NA,"BKN  ft; BKN  ft","CYVR 060400Z VRB02KT 10SM BKN096 BKN220 19/18 A2980 RMK HZ3AC2CI1 SLP093 DENSITY ALT 700FT",2025-09-06 04:41:56.26279,2025-09-06 00:41:56.26279
"CYYJ",2025-09-06 04:00:00,2025-09-06,"VFR",15,13,88,110,4,32200,29.8,NA,"SCT  ft; BKN  ft","CYYJ 060400Z 11004KT 20SM SCT170 BKN210 15/13 A2980 RMK AC3CS4 SLP094 DENSITY ALT 300FT",2025-09-06 04:41:56.358028,2025-09-06 00:41:56.358028
"CYLW",2025-09-06 04:00:00,2025-09-06,"VFR",18,11,64,40,4,11300,29.81,NA,"OVC  ft","CYLW 060400Z AUTO 04004KT 7SM OVC140 18/11 A2981 RMK SLP095 DENSITY ALT 2200FT",2025-09-06 04:41:56.455018,2025-09-06 00:41:56.455018
"CYXS",2025-09-06 04:13:00,2025-09-06 00:13:00,"MVFR",13,11,88,0,0,8000,29.88,NA,"CLR  ft","CYXS 060413Z AUTO 00000KT 5SM BR CLR 13/11 A2988 RMK SLP133 DENSITY ALT 2600FT",2025-09-06 04:41:56.591542,2025-09-06 00:41:56.591542
"CYXT",2025-09-06 04:00:00,2025-09-06,"VFR",19,16,83,180,6,24100,29.83,NA,"SKC  ft","CYXT 060400Z 18006KT 15SM SKC 19/16 A2983 RMK FU SLP107 DENSITY ALT 1500FT",2025-09-06 04:41:56.68518,2025-09-06 00:41:56.68518
"CYQQ",2025-09-06 04:00:00,2025-09-06,"VFR",19,15,78,330,2,24100,29.82,NA,"SCT  ft; BKN  ft; BKN  ft","CYQQ 060400Z 33002KT 15SM SCT060 BKN190 BKN230 19/15 A2982 RMK FU3AC2CI2 DENSITY ALT 935FT CIG PDMTLY TRANSPARENT SLP096",2025-09-06 04:41:56.77916,2025-09-06 00:41:56.77916
"CYYC",2025-09-06 04:00:00,2025-09-06,"VFR",15,4,48,150,6,9999,30,NA,"SKC  ft","CYYC 060400Z 15006KT 10SM SKC 15/04 A3000 RMK SLP170 DENSITY ALT 4400FT",2025-09-06 04:41:56.87272,2025-09-06 00:41:56.87272
"CYEG",2025-09-06 04:00:00,2025-09-06,"VFR",10,3,62,120,8,32200,29.96,NA,"FEW  ft","CYEG 060400Z 12008KT 20SM FEW250 10/03 A2996 RMK CI1 CI TR SLP157",2025-09-06 04:41:57.007737,2025-09-06 00:41:57.007737
"CYMM",2025-09-06 04:00:00,2025-09-06,"VFR",12,6,67,120,8,14500,29.99,NA,"CLR  ft","CYMM 060400Z AUTO 12008KT 9SM CLR 12/06 A2999 RMK SLP168",2025-09-06 04:41:57.106435,2025-09-06 00:41:57.106435
"CYQF",2025-09-06 04:04:00,2025-09-06 00:04:00,"VFR",10,3,62,230,2,9700,29.98,NA,"CLR  ft","CYQF 060404Z AUTO 23002KT 6SM HZ CLR 10/03 A2998 RMK SLP173",2025-09-06 04:41:57.202545,2025-09-06 00:41:57.202545
"CYXE",2025-09-06 04:00:00,2025-09-06,"VFR",8,4,76,100,8,24100,30.07,NA,"SCT  ft","CYXE 060400Z 10008KT 15SM SCT250 08/04 A3007 RMK CI3 SLP201",2025-09-06 04:41:57.342755,2025-09-06 00:41:57.342755
"CYQR",2025-09-06 04:00:00,2025-09-06,"VFR",7,3,76,30,2,24100,30.09,NA,"SKC  ft","CYQR 060400Z 03002KT 15SM SKC 07/03 A3009 RMK SLP208",2025-09-06 04:41:57.47972,2025-09-06 00:41:57.47972
"CYWG",2025-09-06 04:00:00,2025-09-06,"VFR",7,6,93,290,5,24100,29.91,NA,"BKN  ft","CYWG 060400Z 29005KT 15SM BKN130 07/06 A2991 RMK AC6 SLP138",2025-09-06 04:41:57.578317,2025-09-06 00:41:57.578317
"CYBR",2025-09-06 04:00:00,2025-09-06,"VFR",8,7,93,260,7,14500,29.99,NA,"OVC  ft","CYBR 060400Z AUTO 26007KT 9SM OVC096 08/07 A2999 RMK SLP171",2025-09-06 04:41:57.673156,2025-09-06 00:41:57.673156
"CYUL",2025-09-06 04:00:00,2025-09-06,"VFR",19,14,73,280,11,24100,29.79,NA,"FEW  ft; BKN  ft","CYUL 060400Z 28011G18KT 15SM FEW060 BKN120 19/14 A2979 RMK SC2AC5 SLP091 DENSITY ALT 800FT",2025-09-06 04:41:57.768241,2025-09-06 00:41:57.768241
"CYHU",2025-09-06 04:25:00,2025-09-06 00:25:00,"VFR",18,15,83,250,14,14500,29.79,NA,"FEW  ft; BKN  ft; OVC  ft","CYHU 060425Z AUTO 25014G19KT 9SM FEW081 BKN100 OVC120 18/15 A2979 RMK SLP091 DENSITY ALT 700FT",2025-09-06 04:41:57.867872,2025-09-06 00:41:57.867872
"CYQB",2025-09-06 04:00:00,2025-09-06,"VFR",18,15,83,230,13,9999,29.73,NA,"FEW  ft; SCT  ft; SCT  ft","CYQB 060400Z 23013G20KT 10SM FEW030 SCT060 SCT120 18/15 A2973 RMK SC1SC3AC1 AC TR PRESFR SLP071 DENSITY ALT 900FT",2025-09-06 04:41:58.003678,2025-09-06 00:41:58.003678
"CYVO",2025-09-06 04:00:00,2025-09-06,"VFR",9,7,87,220,6,14500,29.63,NA,"BKN  ft; BKN  ft","CYVO 060400Z AUTO 22006KT 9SM BKN033 BKN045 09/07 A2963 RMK SLP045",2025-09-06 04:41:58.104115,2025-09-06 00:41:58.104115
"CYUY",2025-09-06 04:14:00,2025-09-06 00:14:00,"VFR",8,6,87,220,7,24100,29.62,NA,"FEW  ft; OVC  ft","CYUY 060414Z 22007KT 15SM -SHRA FEW033 OVC075 08/06 A2962 RMK SC2AS6 CVCTV CLD EMBD SLP039",2025-09-06 04:41:58.200933,2025-09-06 00:41:58.200933
"CYZV",2025-09-06 04:00:00,2025-09-06,"VFR",16,14,88,70,3,24100,29.8,NA,"BKN  ft; BKN  ft; BKN  ft","CYZV 060400Z 07003KT 020V100 15SM BKN040 BKN070 BKN090 16/14 A2980 RMK SC6AC1AC1 AC TR SLP093 DENSITY ALT 500FT",2025-09-06 04:41:58.298698,2025-09-06 00:41:58.298698
"CYBC",2025-09-06 04:00:00,2025-09-06,"MVFR",17,16,94,150,6,14500,29.73,NA,"BKN  ft; OVC  ft","CYBC 060400Z AUTO 15006KT 9SM BKN029 OVC040 17/16 A2973 RMK PCPN 4.3MM PAST HR SLP068 DENSITY ALT 600FT",2025-09-06 04:41:58.398495,2025-09-06 00:41:58.398495
"CYRJ",2025-09-06 04:35:00,2025-09-06 00:35:00,"VFR",13,12,94,200,6,40200,29.64,NA,"SCT  ft","CYRJ 060435Z 20006KT 25SM SCT100 13/12 A2964 RMK AC3 SLP042 DENSITY ALT 800FT",2025-09-06 04:41:58.539499,2025-09-06 00:41:58.539499
"CYHZ",2025-09-06 04:00:00,2025-09-06,"IFR",19,19,100,190,10,6400,30.09,NA,"BKN  ft; OVC  ft","CYHZ 060400Z 19010G15KT 4SM BR BKN005 OVC011 19/19 A3009 RMK ST7SC1 VIS NW.NE 10 SLP191 DENSITY ALT 900FT",2025-09-06 04:41:58.678977,2025-09-06 00:41:58.678977
"CYYG",2025-09-06 04:00:00,2025-09-06,"VFR",19,19,100,160,12,24100,30.02,NA,"SCT  ft","CYYG 060400Z 16012KT 15SM SCT017 19/19 A3002 RMK SC3 SLP167 DENSITY ALT 700FT",2025-09-06 04:41:58.777733,2025-09-06 00:41:58.777733
"CYQM",2025-09-06 04:00:00,2025-09-06,"VFR",18,16,88,170,10,24100,29.99,NA,"BKN  ft; BKN  ft; BKN  ft","CYQM 060400Z CCA 17010KT 15SM BKN048 BKN072 BKN260 18/16 A2999 RMK SC5AC1CI1 AC TR CI TR SLP159 DENSITY ALT 600FT",2025-09-06 04:41:58.878552,2025-09-06 00:41:58.878552
"CYFC",2025-09-06 04:20:00,2025-09-06 00:20:00,"IFR",18,16,88,180,7,14500,29.95,NA,"OVC  ft","CYFC 060420Z AUTO 18007KT 9SM OVC008 18/16 A2995 RMK SLP143 DENSITY ALT 400FT",2025-09-06 04:41:59.01491,2025-09-06 00:41:59.01491
"CYYT",2025-09-06 04:00:00,2025-09-06,"LIFR",11,11,100,210,6,NA,30.25,NA,"OVX  ft","CYYT 060400Z 21006KT 3/8SM R10/2600V4000FT/N R16/2600VP6000FT/U FG VV002 11/11 A3025 RMK FG8 SLP248",2025-09-06 04:41:59.11158,2025-09-06 00:41:59.11158
"CYQY",2025-09-06 04:06:00,2025-09-06 00:06:00,"LIFR",18,18,100,180,8,4800,30.11,NA,"OVC  ft","CYQY 060406Z 18008KT 3SM -DZ BR OVC004 18/18 A3011 RMK ST8 SLP199 DENSITY ALT 500FT",2025-09-06 04:41:59.21953,2025-09-06 00:41:59.21953
"CYXY",2025-09-06 04:00:00,2025-09-06,"VFR",20,9,49,0,2,64400,29.8,NA,"SCT  ft; BKN  ft; OVC  ft","CYXY 060400Z VRB02KT 40SM SCT072 BKN160 OVC220 20/09 A2980 RMK AC3AC4CI1 VIRGA SE-NW SLP100 DENSITY ALT 3600FT",2025-09-06 04:41:59.317629,2025-09-06 00:41:59.317629
"CYZF",2025-09-06 04:00:00,2025-09-06,"VFR",13,7,67,100,8,24100,29.94,NA,"FEW  ft","CYZF 060400Z 10008KT 15SM FEW240 13/07 A2994 RMK CI2 SLP149",2025-09-06 04:41:59.412594,2025-09-06 00:41:59.412594
"CYFB",2025-09-06 04:00:00,2025-09-06,"VFR",3,1,87,0,2,24100,29.92,NA,"BKN  ft; OVC  ft","CYFB 060400Z VRB02KT 15SM -RA BKN041 OVC078 03/01 A2992 RMK SC6AC2 SLP136",2025-09-06 04:41:59.508574,2025-09-06 00:41:59.508574
"CYRT",2025-09-06 04:00:00,2025-09-06,"VFR",6,4,87,20,16,24100,29.92,NA,"OVC  ft","CYRT 060400Z 02016G22KT 15SM OVC031 06/04 A2992 RMK SC8 SLP135",2025-09-06 04:41:59.604166,2025-09-06 00:41:59.604166
"CYBK",2025-09-06 04:00:00,2025-09-06,"VFR",5,2,81,340,9,24100,30.04,NA,"BKN  ft","CYBK 060400Z 34009KT 15SM BKN032 05/02 A3004 RMK SC8 SLP177",2025-09-06 04:41:59.702515,2025-09-06 00:41:59.702515
"CYRB",2025-09-06 04:00:00,2025-09-06,"VFR",-3,-4,93,130,15,48300,30.11,NA,"SCT  ft","CYRB 060400Z 13015KT 30SM SCT009 M03/M04 A3011 RMK ST3 SLP204",2025-09-06 04:41:59.811927,2025-09-06 00:41:59.811927
"CYCO",2025-09-06 04:00:00,2025-09-06,"VFR",11,6,72,190,6,9999,29.83,NA,"FEW  ft; FEW  ft","CYCO 060400Z 19006KT 10SM FEW120 FEW260 11/06 A2983 RMK AC1CI2 AC TR SLP103",2025-09-06 04:41:59.912351,2025-09-06 00:41:59.912351
"CYER",2025-09-06 05:00:00,2025-09-06 01:00:00,"IFR",7,7,100,350,7,14500,29.51,NA,"OVC  ft","CYER 060500Z AUTO 35007KT 9SM -RA OVC009 07/07 A2951 RMK SLP995",2025-09-06 05:19:54.507663,2025-09-06 01:19:54.507663
"CYAT",2025-09-06 05:15:00,2025-09-06 01:15:00,"LIFR",9,9,100,320,4,14500,29.26,NA,"OVC  ft","CYAT 060515Z AUTO 32004KT 9SM OVC004 09/09 A2926 RMK SLP909",2025-09-06 05:19:54.612578,2025-09-06 01:19:54.612578
"CYMO",2025-09-06 05:15:00,2025-09-06 01:15:00,"VFR",7,7,100,230,11,14500,29.37,NA,"SCT  ft; BKN  ft; BKN  ft; BKN  ft","CYMO 060515Z AUTO 23011G16KT 9SM SCT009 BKN170 BKN190 BKN210 07/07 A2937 RMK SLP947",2025-09-06 05:19:54.751551,2025-09-06 01:19:54.751551
"CYPL",2025-09-06 05:00:00,2025-09-06 01:00:00,"MVFR",5,3,87,310,9,14500,29.65,NA,"OVC  ft","CYPL 060500Z AUTO 31009G21KT 280V360 9SM OVC015 05/03 A2965 RMK SLP057",2025-09-06 05:19:54.852533,2025-09-06 01:19:54.852533
"CYQT",2025-09-06 05:00:00,2025-09-06 01:00:00,"VFR",8,5,82,290,6,24100,29.7,NA,"SCT  ft; OVC  ft","CYQT 060500Z 29006G20KT 15SM SCT025 OVC180 08/05 A2970 RMK SC3AC5 SLP066",2025-09-06 05:19:54.957666,2025-09-06 01:19:54.957666
"CYAM",2025-09-06 05:00:00,2025-09-06 01:00:00,"VFR",10,7,82,240,13,32200,29.71,NA,"FEW  ft; OVC  ft","CYAM 060500Z 24013KT 20SM FEW056 OVC088 10/07 A2971 RMK SC1AC7 SLP067",2025-09-06 05:19:55.057162,2025-09-06 01:19:55.057162
"CYTS",2025-09-06 05:00:00,2025-09-06 01:00:00,"VFR",7,5,87,210,8,24100,29.57,NA,"SCT  ft; OVC  ft","CYTS 060500Z 21008G15KT 15SM SCT023 OVC094 07/05 A2957 RMK SC3AC5 SLP025",2025-09-06 05:19:55.157086,2025-09-06 01:19:55.157086
"CYSB",2025-09-06 05:00:00,2025-09-06 01:00:00,"VFR",8,7,93,220,11,24100,29.72,NA,"FEW  ft; FEW  ft; BKN  ft","CYSB 060500Z 22011G16KT 15SM FEW013 FEW043 BKN110 08/07 A2972 RMK SC1SC1AC3 SLP071",2025-09-06 05:19:55.255929,2025-09-06 01:19:55.255929
"CYYB",2025-09-06 05:00:00,2025-09-06 01:00:00,NA,10,7,82,NA,NA,NA,29.75,NA,NA,"CYYB 060500Z AUTO /////KT 10/07 A2975 RMK WIND MISG CLD MISG WX MISG VIS MISG ICE MISG SLP081",2025-09-06 05:19:55.355899,2025-09-06 01:19:55.355899
"CYOW",2025-09-06 05:00:00,2025-09-06 01:00:00,"VFR",13,10,82,230,5,24100,29.84,NA,"SCT  ft; BKN  ft","CYOW 060500Z 23005KT 15SM SCT064 BKN077 13/10 A2984 RMK SC4AC1 SLP108",2025-09-06 05:19:55.455398,2025-09-06 01:19:55.455398
"CYGK",2025-09-06 03:00:00,2025-09-05 23:00:00,"VFR",17,11,68,300,7,24100,29.83,NA,"FEW  ft; SCT  ft","CYGK 060300Z 30007KT 15SM FEW080 SCT250 17/11 A2983 RMK AC2CI2 LAST STFD OBS/ NXT 061000Z PRESRR SLP105 DENSITY ALT 800FT",2025-09-06 05:19:55.557891,2025-09-06 01:19:55.557891
"CYQG",2025-09-06 05:00:00,2025-09-06 01:00:00,"VFR",14,8,67,280,2,14500,29.94,NA,"SCT  ft","CYQG 060500Z AUTO 28002KT 9SM SCT060 14/08 A2994 RMK SLP140",2025-09-06 05:19:55.658592,2025-09-06 01:19:55.658592
"CYVV",2025-09-06 05:00:00,2025-09-06 01:00:00,"VFR",14,6,59,250,10,9999,29.84,NA,"FEW  ft; OVC  ft","CYVV 060500Z 25010G22KT 10SM FEW040 OVC070 14/06 A2984 RMK CU2AC6 SLP107",2025-09-06 05:19:55.800631,2025-09-06 01:19:55.800631
"CYYZ",2025-09-06 05:00:00,2025-09-06 01:00:00,"VFR",13,7,67,290,12,24100,29.88,NA,"FEW  ft","CYYZ 060500Z 29012KT 15SM FEW250 13/07 A2988 RMK CI1 CI TR SLP120",2025-09-06 05:19:55.894288,2025-09-06 01:19:55.894288
"CYQA",2025-09-06 05:00:00,2025-09-06 01:00:00,"VFR",11,9,88,260,6,14500,29.83,NA,"OVC  ft","CYQA 060500Z AUTO 26006KT 220V280 9SM OVC040 11/09 A2983 RMK SLP107",2025-09-06 05:19:55.989954,2025-09-06 01:19:55.989954
"CYVR",2025-09-06 05:00:00,2025-09-06 01:00:00,"VFR",17,17,100,250,2,12900,29.81,NA,"BKN  ft; BKN  ft","CYVR 060500Z 25002KT 8SM BKN088 BKN220 17/17 A2981 RMK HZ3AC2CI1 SLP096 DENSITY ALT 500FT",2025-09-06 05:19:56.083021,2025-09-06 01:19:56.083021
"CYYJ",2025-09-06 05:00:00,2025-09-06 01:00:00,"VFR",15,13,88,0,0,48300,29.81,NA,"SCT  ft; BKN  ft","CYYJ 060500Z 00000KT 30SM SCT170 BKN200 15/13 A2981 RMK AC3CS4 SLP098 DENSITY ALT 300FT",2025-09-06 05:19:56.178247,2025-09-06 01:19:56.178247
"CYLW",2025-09-06 05:00:00,2025-09-06 01:00:00,"VFR",16,11,72,360,3,12900,29.81,NA,"BKN  ft","CYLW 060500Z AUTO 36003KT 8SM BKN140 16/11 A2981 RMK SLP096 DENSITY ALT 2000FT",2025-09-06 05:19:56.31444,2025-09-06 01:19:56.31444
"CYXS",2025-09-06 05:00:00,2025-09-06 01:00:00,"MVFR",12,11,94,0,2,8000,29.88,NA,"CLR  ft","CYXS 060500Z AUTO VRB02KT 5SM BR CLR 12/11 A2988 RMK SLP131 DENSITY ALT 2600FT",2025-09-06 05:19:56.44945,2025-09-06 01:19:56.44945
"CYXT",2025-09-06 05:00:00,2025-09-06 01:00:00,"VFR",18,15,83,180,6,24100,29.85,NA,"SKC  ft","CYXT 060500Z 18006KT 15SM SKC 18/15 A2985 RMK FU SLP111 DENSITY ALT 1400FT",2025-09-06 05:19:56.544618,2025-09-06 01:19:56.544618
"CYQQ",2025-09-06 05:00:00,2025-09-06 01:00:00,"VFR",19,15,78,0,0,24100,29.82,NA,"FEW  ft; BKN  ft; BKN  ft","CYQQ 060500Z 00000KT 15SM FEW050 BKN180 BKN220 19/15 A2982 RMK FU2AC3CI2 DENSITY ALT 861FT SLP099",2025-09-06 05:19:56.681641,2025-09-06 01:19:56.681641
"CYYC",2025-09-06 05:00:00,2025-09-06 01:00:00,"VFR",13,3,51,170,6,9999,30,NA,"SKC  ft","CYYC 060500Z 17006KT 10SM SKC 13/03 A3000 RMK SLP170 DENSITY ALT 4200FT",2025-09-06 05:19:56.778647,2025-09-06 01:19:56.778647
"CYEG",2025-09-06 05:00:00,2025-09-06 01:00:00,"VFR",10,2,58,130,9,32200,29.96,NA,"FEW  ft","CYEG 060500Z 13009KT 20SM FEW250 10/02 A2996 RMK CI1 CI TR SLP155",2025-09-06 05:19:56.913295,2025-09-06 01:19:56.913295
"CYMM",2025-09-06 05:00:00,2025-09-06 01:00:00,"VFR",11,5,67,140,7,14500,29.99,NA,"CLR  ft","CYMM 060500Z AUTO 14007KT 9SM CLR 11/05 A2999 RMK SLP167",2025-09-06 05:19:57.049767,2025-09-06 01:19:57.049767
"CYQF",2025-09-06 05:15:00,2025-09-06 01:15:00,"VFR",8,2,66,170,6,9700,29.98,NA,"CLR  ft","CYQF 060515Z AUTO 17006KT 6SM HZ CLR 08/02 A2998 RMK SLP178",2025-09-06 05:19:57.146911,2025-09-06 01:19:57.146911
"CYXE",2025-09-06 05:00:00,2025-09-06 01:00:00,"VFR",8,4,76,120,6,24100,30.08,NA,"SCT  ft","CYXE 060500Z 12006KT 15SM SCT250 08/04 A3008 RMK CI3 SLP205",2025-09-06 05:19:57.242523,2025-09-06 01:19:57.242523
"CYQR",2025-09-06 05:00:00,2025-09-06 01:00:00,"VFR",4,2,87,360,2,24100,30.09,NA,"SKC  ft","CYQR 060500Z 36002KT 15SM SKC 04/02 A3009 RMK SLP212",2025-09-06 05:19:57.337222,2025-09-06 01:19:57.337222
"CYWG",2025-09-06 05:00:00,2025-09-06 01:00:00,"VFR",6,5,93,280,7,24100,29.92,NA,"SCT  ft; BKN  ft","CYWG 060500Z 28007KT 15SM SCT066 BKN130 06/05 A2992 RMK AC3AC2 SLP139",2025-09-06 05:19:57.431939,2025-09-06 01:19:57.431939
"CYBR",2025-09-06 05:00:00,2025-09-06 01:00:00,"VFR",8,7,93,280,8,14500,30,NA,"OVC  ft","CYBR 060500Z AUTO 28008KT 9SM OVC091 08/07 A3000 RMK SLP172",2025-09-06 05:19:57.526733,2025-09-06 01:19:57.526733
"CYUL",2025-09-06 05:00:00,2025-09-06 01:00:00,"VFR",17,12,73,260,6,24100,29.82,NA,"SCT  ft; BKN  ft","CYUL 060500Z 26006KT 15SM SCT080 BKN110 17/12 A2982 RMK AC4AC2 SLP101 DENSITY ALT 600FT",2025-09-06 05:19:57.622443,2025-09-06 01:19:57.622443
"CYHU",2025-09-06 05:00:00,2025-09-06 01:00:00,"VFR",18,14,78,270,7,14500,29.81,NA,"FEW  ft","CYHU 060500Z AUTO 27007KT 9SM FEW086 18/14 A2981 RMK SLP097 DENSITY ALT 600FT",2025-09-06 05:19:57.760754,2025-09-06 01:19:57.760754
"CYQB",2025-09-06 05:00:00,2025-09-06 01:00:00,"VFR",17,15,88,240,8,24100,29.77,NA,"FEW  ft; BKN  ft","CYQB 060500Z 24008KT 240V300 15SM -SHRA FEW036 BKN090 17/15 A2977 RMK SC2AC5 CVCTV CLD EMBD SLP083 DENSITY ALT 700FT",2025-09-06 05:19:57.898012,2025-09-06 01:19:57.898012
"CYVO",2025-09-06 05:00:00,2025-09-06 01:00:00,"VFR",8,7,93,200,5,14500,29.65,NA,"FEW  ft; SCT  ft; SCT  ft","CYVO 060500Z AUTO 20005KT 9SM FEW027 SCT120 SCT160 08/07 A2965 RMK SLP052",2025-09-06 05:19:57.996345,2025-09-06 01:19:57.996345
"CYUY",2025-09-06 05:00:00,2025-09-06 01:00:00,"VFR",8,6,87,220,12,24100,29.62,NA,"BKN  ft","CYUY 060500Z 22012KT 15SM -SHRA BKN050 08/06 A2962 RMK SC7 CVCTV CLD EMBD SLP040",2025-09-06 05:19:58.095754,2025-09-06 01:19:58.095754
"CYZV",2025-09-06 05:00:00,2025-09-06 01:00:00,"VFR",16,14,88,90,6,24100,29.76,NA,"SCT  ft; BKN  ft; BKN  ft","CYZV 060500Z 09006KT 15SM SCT056 BKN066 BKN078 16/14 A2976 RMK SC4AC2AC1 SLP081 DENSITY ALT 600FT",2025-09-06 05:19:58.194778,2025-09-06 01:19:58.194778
"CYBC",2025-09-06 05:00:00,2025-09-06 01:00:00,"VFR",17,16,94,180,5,14500,29.72,NA,"OVC  ft","CYBC 060500Z AUTO 18005KT 9SM OVC031 17/16 A2972 RMK SLP065 DENSITY ALT 600FT",2025-09-06 05:19:58.289754,2025-09-06 01:19:58.289754
"CYRJ",2025-09-06 05:00:00,2025-09-06 01:00:00,"VFR",13,12,94,220,6,40200,29.66,NA,"SCT  ft","CYRJ 060500Z 22006KT 170V240 25SM SCT087 13/12 A2966 RMK AC3 SLP049 DENSITY ALT 800FT",2025-09-06 05:19:58.390495,2025-09-06 01:19:58.390495
"CYHZ",2025-09-06 05:00:00,2025-09-06 01:00:00,"IFR",19,19,100,190,11,12900,30.08,NA,"OVC  ft; OVC  ft","CYHZ 060500Z 19011KT 8SM OVC005 OVC011 19/19 A3008 RMK ST7SC1 SLP187 DENSITY ALT 900FT",2025-09-06 05:19:58.492315,2025-09-06 01:19:58.492315
"CYYG",2025-09-06 05:00:00,2025-09-06 01:00:00,"VFR",19,18,94,170,12,24100,30.02,NA,"FEW  ft; FEW  ft; FEW  ft","CYYG 060500Z 17012KT 15SM FEW010 FEW030 FEW075 19/18 A3002 RMK SF1SC1AC1 SF TR AC TR SLP166 DENSITY ALT 700FT",2025-09-06 05:19:58.63187,2025-09-06 01:19:58.63187
"CYQM",2025-09-06 05:00:00,2025-09-06 01:00:00,"VFR",17,16,94,150,10,24100,29.98,NA,"FEW  ft; FEW  ft; FEW  ft; SCT  ft","CYQM 060500Z 15010G15KT 15SM FEW045 FEW060 FEW082 SCT260 17/16 A2998 RMK SC2SC1AC1CI2 SC TR AC TR SLP155 DENSITY ALT 500FT",2025-09-06 05:19:58.729102,2025-09-06 01:19:58.729102
"CYFC",2025-09-06 05:00:00,2025-09-06 01:00:00,"IFR",18,16,88,180,8,14500,29.94,NA,"OVC  ft","CYFC 060500Z AUTO 18008G16KT 9SM OVC008 18/16 A2994 RMK SLP141 DENSITY ALT 400FT",2025-09-06 05:19:58.832721,2025-09-06 01:19:58.832721
"CYYT",2025-09-06 05:00:00,2025-09-06 01:00:00,"LIFR",11,11,100,180,5,NA,30.24,NA,"OVX  ft","CYYT 060500Z 18005KT 3/8SM R28/2000V2600FT/N R16/2600V3000FT/D FG VV002 11/11 A3024 RMK FG8 SLP245",2025-09-06 05:19:58.932344,2025-09-06 01:19:58.932344
"CYQY",2025-09-06 05:00:00,2025-09-06 01:00:00,"LIFR",18,18,100,180,8,8000,30.11,NA,"OVC  ft","CYQY 060500Z 18008KT 5SM -DZ BR OVC004 18/18 A3011 RMK ST8 SLP198 DENSITY ALT 500FT",2025-09-06 05:19:59.030177,2025-09-06 01:19:59.030177
"CYXY",2025-09-06 05:00:00,2025-09-06 01:00:00,"VFR",19,9,52,280,6,24100,29.82,NA,"BKN  ft; BKN  ft; BKN  ft","CYXY 060500Z 28006KT 270V030 15SM BKN066 BKN100 BKN170 19/09 A2982 RMK CU5AC1AC1 SLP109 DENSITY ALT 3400FT",2025-09-06 05:19:59.130518,2025-09-06 01:19:59.130518
"CYZF",2025-09-06 05:00:00,2025-09-06 01:00:00,"VFR",12,7,72,110,10,24100,29.93,NA,"FEW  ft","CYZF 060500Z 11010KT 15SM FEW200 12/07 A2993 RMK CI2 SLP145",2025-09-06 05:19:59.225638,2025-09-06 01:19:59.225638
"CYFB",2025-09-06 05:00:00,2025-09-06 01:00:00,"MVFR",3,1,87,150,10,24100,29.9,NA,"BKN  ft; OVC  ft","CYFB 060500Z 15010KT 15SM -RA BKN028 OVC078 03/01 A2990 RMK SC6AC2 SLP129",2025-09-06 05:19:59.319534,2025-09-06 01:19:59.319534
"CYRT",2025-09-06 05:00:00,2025-09-06 01:00:00,"MVFR",5,3,87,20,15,24100,29.92,NA,"FEW  ft; OVC  ft","CYRT 060500Z 02015G21KT 15SM FEW012 OVC026 05/03 A2992 RMK SC1SC8 SC TR SLP137",2025-09-06 05:19:59.413084,2025-09-06 01:19:59.413084
"CYBK",2025-09-06 05:00:00,2025-09-06 01:00:00,"MVFR",6,2,76,350,10,24100,30.04,NA,"OVC  ft","CYBK 060500Z 35010KT 15SM OVC030 06/02 A3004 RMK SC8 SLP177",2025-09-06 05:19:59.50741,2025-09-06 01:19:59.50741
"CYRB",2025-09-06 05:00:00,2025-09-06 01:00:00,"VFR",-3,-4,93,130,9,48300,30.12,NA,"SCT  ft","CYRB 060500Z 13009KT 30SM SCT011 M03/M04 A3012 RMK ST4 SLP208",2025-09-06 05:19:59.612052,2025-09-06 01:19:59.612052
"CYCO",2025-09-06 05:00:00,2025-09-06 01:00:00,"VFR",11,5,67,190,8,9999,29.82,NA,"FEW  ft; BKN  ft","CYCO 060500Z 19008KT 10SM FEW120 BKN260 11/05 A2982 RMK AC1CI5 AC TR SLP101",2025-09-06 05:19:59.710718,2025-09-06 01:19:59.710718
"CYER",2025-09-06 05:00:00,2025-09-06 01:00:00,"IFR",7,7,100,350,7,14500,29.51,NA,"OVC  ft","CYER 060500Z AUTO 35007KT 9SM -RA OVC009 07/07 A2951 RMK SLP995",2025-09-06 05:40:02.638042,2025-09-06 01:40:02.638042
"CYAT",2025-09-06 05:17:00,2025-09-06 01:17:00,"LIFR",9,9,100,330,4,14500,29.26,NA,"OVC  ft","CYAT 060517Z AUTO 33004KT 9SM -RA OVC004 09/09 A2926 RMK SLP909",2025-09-06 05:40:02.778381,2025-09-06 01:40:02.778381
"CYMO",2025-09-06 05:15:00,2025-09-06 01:15:00,"VFR",7,7,100,230,11,14500,29.37,NA,"SCT  ft; BKN  ft; BKN  ft; BKN  ft","CYMO 060515Z AUTO 23011G16KT 9SM SCT009 BKN170 BKN190 BKN210 07/07 A2937 RMK SLP947",2025-09-06 05:40:02.926465,2025-09-06 01:40:02.926465
"CYPL",2025-09-06 05:00:00,2025-09-06 01:00:00,"MVFR",5,3,87,310,9,14500,29.65,NA,"OVC  ft","CYPL 060500Z AUTO 31009G21KT 280V360 9SM OVC015 05/03 A2965 RMK SLP057",2025-09-06 05:40:03.05736,2025-09-06 01:40:03.05736
"CYQT",2025-09-06 05:00:00,2025-09-06 01:00:00,"VFR",8,5,82,290,6,24100,29.7,NA,"SCT  ft; OVC  ft","CYQT 060500Z 29006G20KT 15SM SCT025 OVC180 08/05 A2970 RMK SC3AC5 SLP066",2025-09-06 05:40:03.195769,2025-09-06 01:40:03.195769
"CYAM",2025-09-06 05:00:00,2025-09-06 01:00:00,"VFR",10,7,82,240,13,32200,29.71,NA,"FEW  ft; OVC  ft","CYAM 060500Z 24013KT 20SM FEW056 OVC088 10/07 A2971 RMK SC1AC7 SLP067",2025-09-06 05:40:03.32477,2025-09-06 01:40:03.32477
"CYTS",2025-09-06 05:00:00,2025-09-06 01:00:00,"VFR",7,5,87,210,8,24100,29.57,NA,"SCT  ft; OVC  ft","CYTS 060500Z 21008G15KT 15SM SCT023 OVC094 07/05 A2957 RMK SC3AC5 SLP025",2025-09-06 05:40:03.415552,2025-09-06 01:40:03.415552
"CYSB",2025-09-06 05:00:00,2025-09-06 01:00:00,"VFR",8,7,93,220,11,24100,29.72,NA,"FEW  ft; FEW  ft; BKN  ft","CYSB 060500Z 22011G16KT 15SM FEW013 FEW043 BKN110 08/07 A2972 RMK SC1SC1AC3 SLP071",2025-09-06 05:40:03.504458,2025-09-06 01:40:03.504458
"CYYB",2025-09-06 05:00:00,2025-09-06 01:00:00,NA,10,7,82,NA,NA,NA,29.75,NA,NA,"CYYB 060500Z AUTO /////KT 10/07 A2975 RMK WIND MISG CLD MISG WX MISG VIS MISG ICE MISG SLP081",2025-09-06 05:40:03.594227,2025-09-06 01:40:03.594227
"CYOW",2025-09-06 05:00:00,2025-09-06 01:00:00,"VFR",13,10,82,230,5,24100,29.84,NA,"SCT  ft; BKN  ft","CYOW 060500Z 23005KT 15SM SCT064 BKN077 13/10 A2984 RMK SC4AC1 SLP108",2025-09-06 05:40:03.684126,2025-09-06 01:40:03.684126
"CYGK",2025-09-06 03:00:00,2025-09-05 23:00:00,"VFR",17,11,68,300,7,24100,29.83,NA,"FEW  ft; SCT  ft","CYGK 060300Z 30007KT 15SM FEW080 SCT250 17/11 A2983 RMK AC2CI2 LAST STFD OBS/ NXT 061000Z PRESRR SLP105 DENSITY ALT 800FT",2025-09-06 05:40:03.77834,2025-09-06 01:40:03.77834
"CYQG",2025-09-06 05:00:00,2025-09-06 01:00:00,"VFR",14,8,67,280,2,14500,29.94,NA,"SCT  ft","CYQG 060500Z AUTO 28002KT 9SM SCT060 14/08 A2994 RMK SLP140",2025-09-06 05:40:03.869578,2025-09-06 01:40:03.869578
"CYVV",2025-09-06 05:00:00,2025-09-06 01:00:00,"VFR",14,6,59,250,10,9999,29.84,NA,"FEW  ft; OVC  ft","CYVV 060500Z 25010G22KT 10SM FEW040 OVC070 14/06 A2984 RMK CU2AC6 SLP107",2025-09-06 05:40:03.998681,2025-09-06 01:40:03.998681
"CYYZ",2025-09-06 05:00:00,2025-09-06 01:00:00,"VFR",13,7,67,290,12,24100,29.88,NA,"FEW  ft","CYYZ 060500Z 29012KT 15SM FEW250 13/07 A2988 RMK CI1 CI TR SLP120",2025-09-06 05:40:04.088304,2025-09-06 01:40:04.088304
"CYQA",2025-09-06 05:27:00,2025-09-06 01:27:00,"VFR",12,8,77,250,8,14500,29.84,NA,"BKN  ft; OVC  ft","CYQA 060527Z AUTO 25008G17KT 9SM BKN040 OVC050 12/08 A2984 RMK SLP110",2025-09-06 05:40:04.17941,2025-09-06 01:40:04.17941
"CYVR",2025-09-06 05:00:00,2025-09-06 01:00:00,"VFR",17,17,100,250,2,12900,29.81,NA,"BKN  ft; BKN  ft","CYVR 060500Z 25002KT 8SM BKN088 BKN220 17/17 A2981 RMK HZ3AC2CI1 SLP096 DENSITY ALT 500FT",2025-09-06 05:40:04.272609,2025-09-06 01:40:04.272609
"CYYJ",2025-09-06 05:00:00,2025-09-06 01:00:00,"VFR",15,13,88,0,0,48300,29.81,NA,"SCT  ft; BKN  ft","CYYJ 060500Z 00000KT 30SM SCT170 BKN200 15/13 A2981 RMK AC3CS4 SLP098 DENSITY ALT 300FT",2025-09-06 05:40:04.408157,2025-09-06 01:40:04.408157
"CYLW",2025-09-06 05:00:00,2025-09-06 01:00:00,"VFR",16,11,72,360,3,12900,29.81,NA,"BKN  ft","CYLW 060500Z AUTO 36003KT 8SM BKN140 16/11 A2981 RMK SLP096 DENSITY ALT 2000FT",2025-09-06 05:40:04.544977,2025-09-06 01:40:04.544977
"CYXS",2025-09-06 05:00:00,2025-09-06 01:00:00,"MVFR",12,11,94,0,2,8000,29.88,NA,"CLR  ft","CYXS 060500Z AUTO VRB02KT 5SM BR CLR 12/11 A2988 RMK SLP131 DENSITY ALT 2600FT",2025-09-06 05:40:04.635115,2025-09-06 01:40:04.635115
"CYXT",2025-09-06 05:00:00,2025-09-06 01:00:00,"VFR",18,15,83,180,6,24100,29.85,NA,"SKC  ft","CYXT 060500Z 18006KT 15SM SKC 18/15 A2985 RMK FU SLP111 DENSITY ALT 1400FT",2025-09-06 05:40:04.725811,2025-09-06 01:40:04.725811
"CYQQ",2025-09-06 05:00:00,2025-09-06 01:00:00,"VFR",19,15,78,0,0,24100,29.82,NA,"FEW  ft; BKN  ft; BKN  ft","CYQQ 060500Z 00000KT 15SM FEW050 BKN180 BKN220 19/15 A2982 RMK FU2AC3CI2 DENSITY ALT 861FT SLP099",2025-09-06 05:40:04.856347,2025-09-06 01:40:04.856347
"CYYC",2025-09-06 05:00:00,2025-09-06 01:00:00,"VFR",13,3,51,170,6,9999,30,NA,"SKC  ft","CYYC 060500Z 17006KT 10SM SKC 13/03 A3000 RMK SLP170 DENSITY ALT 4200FT",2025-09-06 05:40:04.987562,2025-09-06 01:40:04.987562
"CYEG",2025-09-06 05:00:00,2025-09-06 01:00:00,"VFR",10,2,58,130,9,32200,29.96,NA,"FEW  ft","CYEG 060500Z 13009KT 20SM FEW250 10/02 A2996 RMK CI1 CI TR SLP155",2025-09-06 05:40:05.07945,2025-09-06 01:40:05.07945
"CYMM",2025-09-06 05:00:00,2025-09-06 01:00:00,"VFR",11,5,67,140,7,14500,29.99,NA,"CLR  ft","CYMM 060500Z AUTO 14007KT 9SM CLR 11/05 A2999 RMK SLP167",2025-09-06 05:40:05.173754,2025-09-06 01:40:05.173754
"CYQF",2025-09-06 05:15:00,2025-09-06 01:15:00,"VFR",8,2,66,170,6,9700,29.98,NA,"CLR  ft","CYQF 060515Z AUTO 17006KT 6SM HZ CLR 08/02 A2998 RMK SLP178",2025-09-06 05:40:05.306374,2025-09-06 01:40:05.306374
"CYXE",2025-09-06 05:00:00,2025-09-06 01:00:00,"VFR",8,4,76,120,6,24100,30.08,NA,"SCT  ft","CYXE 060500Z 12006KT 15SM SCT250 08/04 A3008 RMK CI3 SLP205",2025-09-06 05:40:05.439254,2025-09-06 01:40:05.439254
"CYQR",2025-09-06 05:00:00,2025-09-06 01:00:00,"VFR",4,2,87,360,2,24100,30.09,NA,"SKC  ft","CYQR 060500Z 36002KT 15SM SKC 04/02 A3009 RMK SLP212",2025-09-06 05:40:05.52933,2025-09-06 01:40:05.52933
"CYWG",2025-09-06 05:00:00,2025-09-06 01:00:00,"VFR",6,5,93,280,7,24100,29.92,NA,"SCT  ft; BKN  ft","CYWG 060500Z 28007KT 15SM SCT066 BKN130 06/05 A2992 RMK AC3AC2 SLP139",2025-09-06 05:40:05.658272,2025-09-06 01:40:05.658272
"CYBR",2025-09-06 05:00:00,2025-09-06 01:00:00,"VFR",8,7,93,280,8,14500,30,NA,"OVC  ft","CYBR 060500Z AUTO 28008KT 9SM OVC091 08/07 A3000 RMK SLP172",2025-09-06 05:40:05.746893,2025-09-06 01:40:05.746893
"CYUL",2025-09-06 05:00:00,2025-09-06 01:00:00,"VFR",17,12,73,260,6,24100,29.82,NA,"SCT  ft; BKN  ft","CYUL 060500Z 26006KT 15SM SCT080 BKN110 17/12 A2982 RMK AC4AC2 SLP101 DENSITY ALT 600FT",2025-09-06 05:40:05.840213,2025-09-06 01:40:05.840213
"CYHU",2025-09-06 05:00:00,2025-09-06 01:00:00,"VFR",18,14,78,270,7,14500,29.81,NA,"FEW  ft","CYHU 060500Z AUTO 27007KT 9SM FEW086 18/14 A2981 RMK SLP097 DENSITY ALT 600FT",2025-09-06 05:40:05.972496,2025-09-06 01:40:05.972496
"CYQB",2025-09-06 05:00:00,2025-09-06 01:00:00,"VFR",17,15,88,240,8,24100,29.77,NA,"FEW  ft; BKN  ft","CYQB 060500Z 24008KT 240V300 15SM -SHRA FEW036 BKN090 17/15 A2977 RMK SC2AC5 CVCTV CLD EMBD SLP083 DENSITY ALT 700FT",2025-09-06 05:40:06.103734,2025-09-06 01:40:06.103734
"CYVO",2025-09-06 05:00:00,2025-09-06 01:00:00,"VFR",8,7,93,200,5,14500,29.65,NA,"FEW  ft; SCT  ft; SCT  ft","CYVO 060500Z AUTO 20005KT 9SM FEW027 SCT120 SCT160 08/07 A2965 RMK SLP052",2025-09-06 05:40:06.232442,2025-09-06 01:40:06.232442
"CYUY",2025-09-06 05:00:00,2025-09-06 01:00:00,"VFR",8,6,87,220,12,24100,29.62,NA,"BKN  ft","CYUY 060500Z 22012KT 15SM -SHRA BKN050 08/06 A2962 RMK SC7 CVCTV CLD EMBD SLP040",2025-09-06 05:40:06.327346,2025-09-06 01:40:06.327346
"CYZV",2025-09-06 05:00:00,2025-09-06 01:00:00,"VFR",16,14,88,90,6,24100,29.76,NA,"SCT  ft; BKN  ft; BKN  ft","CYZV 060500Z 09006KT 15SM SCT056 BKN066 BKN078 16/14 A2976 RMK SC4AC2AC1 SLP081 DENSITY ALT 600FT",2025-09-06 05:40:06.457463,2025-09-06 01:40:06.457463
"CYBC",2025-09-06 05:00:00,2025-09-06 01:00:00,"VFR",17,16,94,180,5,14500,29.72,NA,"OVC  ft","CYBC 060500Z AUTO 18005KT 9SM OVC031 17/16 A2972 RMK SLP065 DENSITY ALT 600FT",2025-09-06 05:40:06.545631,2025-09-06 01:40:06.545631
"CYRJ",2025-09-06 05:00:00,2025-09-06 01:00:00,"VFR",13,12,94,220,6,40200,29.66,NA,"SCT  ft","CYRJ 060500Z 22006KT 170V240 25SM SCT087 13/12 A2966 RMK AC3 SLP049 DENSITY ALT 800FT",2025-09-06 05:40:06.641634,2025-09-06 01:40:06.641634
"CYHZ",2025-09-06 05:00:00,2025-09-06 01:00:00,"IFR",19,19,100,190,11,12900,30.08,NA,"OVC  ft; OVC  ft","CYHZ 060500Z 19011KT 8SM OVC005 OVC011 19/19 A3008 RMK ST7SC1 SLP187 DENSITY ALT 900FT",2025-09-06 05:40:06.732421,2025-09-06 01:40:06.732421
"CYYG",2025-09-06 05:00:00,2025-09-06 01:00:00,"VFR",19,18,94,170,12,24100,30.02,NA,"FEW  ft; FEW  ft; FEW  ft","CYYG 060500Z 17012KT 15SM FEW010 FEW030 FEW075 19/18 A3002 RMK SF1SC1AC1 SF TR AC TR SLP166 DENSITY ALT 700FT",2025-09-06 05:40:06.821895,2025-09-06 01:40:06.821895
"CYQM",2025-09-06 05:00:00,2025-09-06 01:00:00,"VFR",17,16,94,150,10,24100,29.98,NA,"FEW  ft; FEW  ft; FEW  ft; SCT  ft","CYQM 060500Z 15010G15KT 15SM FEW045 FEW060 FEW082 SCT260 17/16 A2998 RMK SC2SC1AC1CI2 SC TR AC TR SLP155 DENSITY ALT 500FT",2025-09-06 05:40:06.91201,2025-09-06 01:40:06.91201
"CYFC",2025-09-06 05:00:00,2025-09-06 01:00:00,"IFR",18,16,88,180,8,14500,29.94,NA,"OVC  ft","CYFC 060500Z AUTO 18008G16KT 9SM OVC008 18/16 A2994 RMK SLP141 DENSITY ALT 400FT",2025-09-06 05:40:07.041605,2025-09-06 01:40:07.041605
"CYYT",2025-09-06 05:00:00,2025-09-06 01:00:00,"LIFR",11,11,100,180,5,NA,30.24,NA,"OVX  ft","CYYT 060500Z 18005KT 3/8SM R28/2000V2600FT/N R16/2600V3000FT/D FG VV002 11/11 A3024 RMK FG8 SLP245",2025-09-06 05:40:07.131183,2025-09-06 01:40:07.131183
"CYQY",2025-09-06 05:00:00,2025-09-06 01:00:00,"LIFR",18,18,100,180,8,8000,30.11,NA,"OVC  ft","CYQY 060500Z 18008KT 5SM -DZ BR OVC004 18/18 A3011 RMK ST8 SLP198 DENSITY ALT 500FT",2025-09-06 05:40:07.223861,2025-09-06 01:40:07.223861
"CYXY",2025-09-06 05:00:00,2025-09-06 01:00:00,"VFR",19,9,52,280,6,24100,29.82,NA,"BKN  ft; BKN  ft; BKN  ft","CYXY 060500Z 28006KT 270V030 15SM BKN066 BKN100 BKN170 19/09 A2982 RMK CU5AC1AC1 SLP109 DENSITY ALT 3400FT",2025-09-06 05:40:07.315614,2025-09-06 01:40:07.315614
"CYZF",2025-09-06 05:00:00,2025-09-06 01:00:00,"VFR",12,7,72,110,10,24100,29.93,NA,"FEW  ft","CYZF 060500Z 11010KT 15SM FEW200 12/07 A2993 RMK CI2 SLP145",2025-09-06 05:40:07.405466,2025-09-06 01:40:07.405466
"CYFB",2025-09-06 05:00:00,2025-09-06 01:00:00,"MVFR",3,1,87,150,10,24100,29.9,NA,"BKN  ft; OVC  ft","CYFB 060500Z 15010KT 15SM -RA BKN028 OVC078 03/01 A2990 RMK SC6AC2 SLP129",2025-09-06 05:40:07.494816,2025-09-06 01:40:07.494816
"CYRT",2025-09-06 05:00:00,2025-09-06 01:00:00,"MVFR",5,3,87,20,15,24100,29.92,NA,"FEW  ft; OVC  ft","CYRT 060500Z 02015G21KT 15SM FEW012 OVC026 05/03 A2992 RMK SC1SC8 SC TR SLP137",2025-09-06 05:40:07.584092,2025-09-06 01:40:07.584092
"CYBK",2025-09-06 05:00:00,2025-09-06 01:00:00,"MVFR",6,2,76,350,10,24100,30.04,NA,"OVC  ft","CYBK 060500Z 35010KT 15SM OVC030 06/02 A3004 RMK SC8 SLP177",2025-09-06 05:40:07.712135,2025-09-06 01:40:07.712135
"CYRB",2025-09-06 05:00:00,2025-09-06 01:00:00,"VFR",-3,-4,93,130,9,48300,30.12,NA,"SCT  ft","CYRB 060500Z 13009KT 30SM SCT011 M03/M04 A3012 RMK ST4 SLP208",2025-09-06 05:40:07.814409,2025-09-06 01:40:07.814409
"CYCO",2025-09-06 05:00:00,2025-09-06 01:00:00,"VFR",11,5,67,190,8,9999,29.82,NA,"FEW  ft; BKN  ft","CYCO 060500Z 19008KT 10SM FEW120 BKN260 11/05 A2982 RMK AC1CI5 AC TR SLP101",2025-09-06 05:40:07.906451,2025-09-06 01:40:07.906451
"CYER",2025-09-06 06:15:00,2025-09-06 02:15:00,"IFR",7,7,100,350,9,12900,29.52,NA,"OVC  ft","CYER 060615Z AUTO 35009G15KT 8SM OVC005 07/07 A2952 RMK SLP001",2025-09-06 06:29:48.67486,2025-09-06 02:29:48.67486
"CYAT",2025-09-06 06:10:00,2025-09-06 02:10:00,"LIFR",10,10,100,340,8,8000,29.26,NA,"OVC  ft","CYAT 060610Z AUTO 34008KT 5SM -RA BR OVC004 10/10 A2926 RMK SLP912",2025-09-06 06:29:48.757922,2025-09-06 02:29:48.757922
"CYMO",2025-09-06 06:04:00,2025-09-06 02:04:00,"IFR",7,6,93,230,11,14500,29.38,NA,"BKN  ft","CYMO 060604Z AUTO 23011G18KT 9SM BKN009 07/06 A2938 RMK SLP951",2025-09-06 06:29:48.824496,2025-09-06 02:29:48.824496
"CYPL",2025-09-06 06:00:00,2025-09-06 02:00:00,"MVFR",5,3,87,320,10,14500,29.66,NA,"OVC  ft","CYPL 060600Z AUTO 32010G19KT 290V360 9SM OVC015 05/03 A2966 RMK SLP062",2025-09-06 06:29:48.892505,2025-09-06 02:29:48.892505
"CYQT",2025-09-06 06:00:00,2025-09-06 02:00:00,"VFR",8,4,76,300,10,24100,29.73,NA,"SCT  ft; OVC  ft","CYQT 060600Z 30010KT 15SM SCT026 OVC180 08/04 A2973 RMK SC3AC5 SLP075",2025-09-06 06:29:48.966339,2025-09-06 02:29:48.966339
"CYAM",2025-09-06 06:00:00,2025-09-06 02:00:00,"VFR",9,7,87,240,11,32200,29.73,NA,"FEW  ft; BKN  ft; BKN  ft","CYAM 060600Z 24011G17KT 20SM FEW017 BKN044 BKN086 09/07 A2973 RMK SC1SC5AC2 SC TR SLP072",2025-09-06 06:29:49.03475,2025-09-06 02:29:49.03475
"CYTS",2025-09-06 06:00:00,2025-09-06 02:00:00,"MVFR",7,5,87,210,8,24100,29.59,NA,"BKN  ft; OVC  ft","CYTS 060600Z 21008G15KT 15SM BKN018 OVC048 07/05 A2959 RMK SC6SC2 SLP029",2025-09-06 06:29:49.106726,2025-09-06 02:29:49.106726
"CYSB",2025-09-06 06:13:00,2025-09-06 02:13:00,"VFR",8,8,100,190,10,24100,29.73,NA,"SCT  ft; BKN  ft; OVC  ft","CYSB 060613Z CCA 19010KT 15SM SCT008 BKN064 OVC100 08/08 A2973 RMK SF4SC1AC3 SLP076",2025-09-06 06:29:49.174508,2025-09-06 02:29:49.174508
"CYYB",2025-09-06 06:00:00,2025-09-06 02:00:00,NA,10,8,88,NA,NA,NA,29.76,NA,NA,"CYYB 060600Z AUTO /////KT 10/08 A2976 RMK WIND MISG CLD MISG WX MISG VIS MISG ICE MISG SLP083",2025-09-06 06:29:49.245717,2025-09-06 02:29:49.245717
"CYOW",2025-09-06 06:00:00,2025-09-06 02:00:00,"VFR",12,10,88,220,3,24100,29.86,NA,"SCT  ft; BKN  ft","CYOW 060600Z 22003KT 15SM SCT063 BKN069 12/10 A2986 RMK SC4AC1 SLP115",2025-09-06 06:29:49.314708,2025-09-06 02:29:49.314708
"CYGK",2025-09-06 03:00:00,2025-09-05 23:00:00,"VFR",17,11,68,300,7,24100,29.83,NA,"FEW  ft; SCT  ft","CYGK 060300Z 30007KT 15SM FEW080 SCT250 17/11 A2983 RMK AC2CI2 LAST STFD OBS/ NXT 061000Z PRESRR SLP105 DENSITY ALT 800FT",2025-09-06 06:29:49.388227,2025-09-06 02:29:49.388227
"CYQG",2025-09-06 06:00:00,2025-09-06 02:00:00,"VFR",13,8,72,250,3,14500,29.94,NA,"BKN  ft","CYQG 060600Z AUTO 25003KT 9SM BKN240 13/08 A2994 RMK SLP140",2025-09-06 06:29:49.459384,2025-09-06 02:29:49.459384
"CYVV",2025-09-06 06:00:00,2025-09-06 02:00:00,"VFR",14,7,63,250,8,9999,29.83,NA,"FEW  ft; BKN  ft; OVC  ft","CYVV 060600Z 25008G19KT 10SM FEW040 BKN060 OVC070 14/07 A2983 RMK CU2CU5AC1 SLP105",2025-09-06 06:29:49.528616,2025-09-06 02:29:49.528616
"CYYZ",2025-09-06 06:00:00,2025-09-06 02:00:00,"VFR",12,6,67,250,5,24100,29.89,NA,"FEW  ft","CYYZ 060600Z 25005KT 15SM FEW180 12/06 A2989 RMK AC1 AC TR SLP124",2025-09-06 06:29:49.598381,2025-09-06 02:29:49.598381
"CYQA",2025-09-06 06:00:00,2025-09-06 02:00:00,"VFR",12,8,77,250,4,14500,29.83,NA,"OVC  ft","CYQA 060600Z AUTO 25004KT 9SM OVC055 12/08 A2983 RMK SLP105",2025-09-06 06:29:49.670611,2025-09-06 02:29:49.670611
"CYVR",2025-09-06 06:00:00,2025-09-06 02:00:00,"VFR",19,17,88,130,2,12900,29.82,NA,"SCT  ft; BKN  ft","CYVR 060600Z 13002KT 8SM SCT092 BKN220 19/17 A2982 RMK HZ2AC2CI1 SLP101 DENSITY ALT 600FT",2025-09-06 06:29:49.745811,2025-09-06 02:29:49.745811
"CYYJ",2025-09-06 06:00:00,2025-09-06 02:00:00,"VFR",15,13,88,0,0,48300,29.81,NA,"FEW  ft; SCT  ft; OVC  ft","CYYJ 060600Z 00000KT 30SM FEW140 SCT160 OVC200 15/13 A2981 RMK AC2AC2CS4 SLP098",2025-09-06 06:29:49.816803,2025-09-06 02:29:49.816803
"CYLW",2025-09-06 06:00:00,2025-09-06 02:00:00,"VFR",16,10,68,0,0,11300,29.83,NA,"BKN  ft","CYLW 060600Z AUTO 00000KT 7SM BKN140 16/10 A2983 RMK SLP100 DENSITY ALT 2000FT",2025-09-06 06:29:49.890258,2025-09-06 02:29:49.890258
"CYXS",2025-09-06 06:10:00,2025-09-06 02:10:00,"VFR",10,10,100,0,0,9700,29.88,NA,"CLR  ft","CYXS 060610Z AUTO 00000KT 6SM BR CLR 10/10 A2988 RMK SLP130",2025-09-06 06:29:49.963427,2025-09-06 02:29:49.963427
"CYXT",2025-09-06 06:00:00,2025-09-06 02:00:00,"VFR",17,16,94,190,4,24100,29.86,NA,"SKC  ft","CYXT 060600Z 19004KT 15SM SKC 17/16 A2986 RMK FU SLP115 DENSITY ALT 1300FT",2025-09-06 06:29:50.037373,2025-09-06 02:29:50.037373
"CYQQ",2025-09-06 06:00:00,2025-09-06 02:00:00,"VFR",18,15,83,280,3,32200,29.84,NA,"SCT  ft","CYQQ 060600Z CCA 28003KT 20SM SCT180 18/15 A2984 RMK AC4 DENSITY ALT 716FT SLP104",2025-09-06 06:29:50.108887,2025-09-06 02:29:50.108887
"CYYC",2025-09-06 06:00:00,2025-09-06 02:00:00,"VFR",13,2,47,170,8,9999,30.01,NA,"SKC  ft","CYYC 060600Z 17008KT 10SM SKC 13/02 A3001 RMK SLP170 DENSITY ALT 4200FT",2025-09-06 06:29:50.180517,2025-09-06 02:29:50.180517
"CYEG",2025-09-06 06:00:00,2025-09-06 02:00:00,"VFR",9,2,62,140,8,32200,29.96,NA,"SKC  ft","CYEG 060600Z 14008KT 20SM SKC 09/02 A2996 RMK SLP155",2025-09-06 06:29:50.250764,2025-09-06 02:29:50.250764
"CYMM",2025-09-06 06:00:00,2025-09-06 02:00:00,"VFR",10,5,71,130,8,14500,29.99,NA,"CLR  ft","CYMM 060600Z AUTO 13008KT 9SM CLR 10/05 A2999 RMK SLP166",2025-09-06 06:29:50.323655,2025-09-06 02:29:50.323655
"CYQF",2025-09-06 06:00:00,2025-09-06 02:00:00,"VFR",8,2,66,180,5,14500,29.99,NA,"CLR  ft","CYQF 060600Z AUTO 18005KT 9SM CLR 08/02 A2999 RMK SLP168",2025-09-06 06:29:50.395779,2025-09-06 02:29:50.395779
"CYXE",2025-09-06 06:00:00,2025-09-06 02:00:00,"VFR",6,3,81,140,7,24100,30.09,NA,"FEW  ft","CYXE 060600Z 14007KT 15SM FEW250 06/03 A3009 RMK CI2 SLP206",2025-09-06 06:29:50.46832,2025-09-06 02:29:50.46832
"CYQR",2025-09-06 06:00:00,2025-09-06 02:00:00,"VFR",2,1,93,290,2,24100,30.1,NA,"SKC  ft","CYQR 060600Z 29002KT 15SM SKC 02/01 A3010 RMK SLP215",2025-09-06 06:29:50.499212,2025-09-06 02:29:50.499212
"CYWG",2025-09-06 06:00:00,2025-09-06 02:00:00,"VFR",8,8,100,270,6,24100,29.92,NA,"BKN  ft","CYWG 060600Z 27006KT 15SM BKN064 08/08 A2992 RMK SC6 SLP140",2025-09-06 06:29:50.535219,2025-09-06 02:29:50.535219
"CYBR",2025-09-06 06:00:00,2025-09-06 02:00:00,"VFR",8,6,87,270,9,14500,30,NA,"OVC  ft","CYBR 060600Z AUTO 27009KT 9SM OVC096 08/06 A3000 RMK SLP172",2025-09-06 06:29:50.607092,2025-09-06 02:29:50.607092
"CYUL",2025-09-06 06:00:00,2025-09-06 02:00:00,"VFR",16,11,72,250,6,24100,29.84,NA,"FEW  ft; BKN  ft","CYUL 060600Z 25006KT 15SM FEW120 BKN250 16/11 A2984 RMK AC1CI7 AC TR SLP108 DENSITY ALT 400FT",2025-09-06 06:29:50.679363,2025-09-06 02:29:50.679363
"CYHU",2025-09-06 06:00:00,2025-09-06 02:00:00,"VFR",17,11,68,270,10,14500,29.83,NA,"CLR  ft","CYHU 060600Z AUTO 27010G15KT 9SM CLR 17/11 A2983 RMK SLP105 DENSITY ALT 500FT",2025-09-06 06:29:50.75138,2025-09-06 02:29:50.75138
"CYQB",2025-09-06 06:00:00,2025-09-06 02:00:00,"VFR",17,14,83,230,7,24100,29.79,NA,"SCT  ft; BKN  ft; OVC  ft","CYQB 060600Z 23007KT 15SM -SHRA SCT042 BKN071 OVC100 17/14 A2979 RMK SC3AC4AC2 CVCTV CLD EMBD SLP091 DENSITY ALT 700FT",2025-09-06 06:29:50.822821,2025-09-06 02:29:50.822821
"CYVO",2025-09-06 06:00:00,2025-09-06 02:00:00,"VFR",8,7,93,190,6,14500,29.66,NA,"SCT  ft; SCT  ft; OVC  ft","CYVO 060600Z AUTO 19006KT 9SM SCT041 SCT066 OVC099 08/07 A2966 RMK SLP056",2025-09-06 06:29:50.893269,2025-09-06 02:29:50.893269
"CYUY",2025-09-06 06:00:00,2025-09-06 02:00:00,"VFR",8,6,87,210,8,24100,29.63,NA,"SCT  ft; BKN  ft; BKN  ft","CYUY 060600Z 21008KT 15SM -SHRA SCT030 BKN100 BKN130 08/06 A2963 RMK SC3AC2AS2 SLP044",2025-09-06 06:29:50.92135,2025-09-06 02:29:50.92135
"CYZV",2025-09-06 06:00:00,2025-09-06 02:00:00,"VFR",16,15,94,90,7,24100,29.73,NA,"BKN  ft","CYZV 060600Z 09007KT 15SM BKN037 16/15 A2973 RMK SC7 SLP069 DENSITY ALT 600FT",2025-09-06 06:29:50.99336,2025-09-06 02:29:50.99336
"CYBC",2025-09-06 06:10:00,2025-09-06 02:10:00,"VFR",17,15,88,220,5,14500,29.7,NA,"BKN  ft; BKN  ft","CYBC 060610Z AUTO 22005KT 9SM BKN034 BKN120 17/15 A2970 RMK LTNG DIST N SLP060 DENSITY ALT 600FT",2025-09-06 06:29:51.062726,2025-09-06 02:29:51.062726
"CYRJ",2025-09-06 06:00:00,2025-09-06 02:00:00,"VFR",11,11,100,180,5,40200,29.7,NA,"SKC  ft","CYRJ 060600Z 18005KT 25SM SKC 11/11 A2970 RMK SLP061",2025-09-06 06:29:51.138935,2025-09-06 02:29:51.138935
"CYHZ",2025-09-06 06:00:00,2025-09-06 02:00:00,"VFR",19,19,100,200,10,24100,30.07,NA,"SCT  ft","CYHZ 060600Z 20010G17KT 15SM SCT006 19/19 A3007 RMK SF3 SLP186 DENSITY ALT 900FT",2025-09-06 06:29:51.209808,2025-09-06 02:29:51.209808
"CYYG",2025-09-06 06:00:00,2025-09-06 02:00:00,"VFR",19,18,94,180,11,24100,30,NA,"FEW  ft; FEW  ft","CYYG 060600Z 18011KT 15SM FEW010 FEW070 19/18 A3000 RMK SF1AC2 SF TR SLP161 DENSITY ALT 700FT",2025-09-06 06:29:51.279605,2025-09-06 02:29:51.279605
"CYQM",2025-09-06 06:00:00,2025-09-06 02:00:00,"VFR",17,16,94,170,10,24100,29.97,NA,"FEW  ft; FEW  ft; FEW  ft; SCT  ft","CYQM 060600Z 17010KT 15SM FEW022 FEW036 FEW082 SCT260 17/16 A2997 RMK SC2SC1AC1CI2 SC TR AC TR SLP152 DENSITY ALT 500FT",2025-09-06 06:29:51.351555,2025-09-06 02:29:51.351555
"CYFC",2025-09-06 06:00:00,2025-09-06 02:00:00,"IFR",18,16,88,190,8,14500,29.93,NA,"OVC  ft","CYFC 060600Z AUTO 19008G17KT 9SM OVC006 18/16 A2993 RMK SLP139 DENSITY ALT 400FT",2025-09-06 06:29:51.42055,2025-09-06 02:29:51.42055
"CYYT",2025-09-06 06:00:00,2025-09-06 02:00:00,"LIFR",11,11,100,240,4,NA,30.25,NA,"OVX  ft","CYYT 060600Z 24004KT 3/8SM R28/1800V2600FT/N R16/2600V3000FT/N FG VV002 11/11 A3025 RMK FG8 SLP247",2025-09-06 06:29:51.489109,2025-09-06 02:29:51.489109
"CYQY",2025-09-06 06:00:00,2025-09-06 02:00:00,"LIFR",19,19,100,180,6,8000,30.1,NA,"OVC  ft","CYQY 060600Z 18006KT 5SM -DZ BR OVC003 19/19 A3010 RMK ST8 SLP195 DENSITY ALT 500FT",2025-09-06 06:29:51.559584,2025-09-06 02:29:51.559584
"CYXY",2025-09-06 06:00:00,2025-09-06 02:00:00,"VFR",18,9,56,10,5,24100,29.85,NA,"BKN  ft; BKN  ft","CYXY 060600Z 01005G17KT 300V060 15SM -SHRA BKN058 BKN082 18/09 A2985 RMK CU5AC2 FU SLP117 DENSITY ALT 3300FT",2025-09-06 06:29:51.627696,2025-09-06 02:29:51.627696
"CYZF",2025-09-06 06:00:00,2025-09-06 02:00:00,"VFR",12,7,72,120,10,24100,29.92,NA,"FEW  ft","CYZF 060600Z 12010KT 15SM FEW200 12/07 A2992 RMK CI2 SLP141",2025-09-06 06:29:51.695498,2025-09-06 02:29:51.695498
"CYFB",2025-09-06 06:00:00,2025-09-06 02:00:00,"MVFR",3,1,87,120,15,24100,29.87,NA,"BKN  ft; OVC  ft","CYFB 060600Z 12015KT 15SM -RA BKN027 OVC078 03/01 A2987 RMK SC6AC2 SLP119",2025-09-06 06:29:51.761295,2025-09-06 02:29:51.761295
"CYRT",2025-09-06 06:00:00,2025-09-06 02:00:00,"MVFR",5,2,81,20,18,24100,29.93,NA,"OVC  ft","CYRT 060600Z 02018KT 15SM OVC026 05/02 A2993 RMK SC8 SLP138",2025-09-06 06:29:51.830591,2025-09-06 02:29:51.830591
"CYBK",2025-09-06 06:00:00,2025-09-06 02:00:00,"MVFR",5,1,76,20,10,24100,30.04,NA,"OVC  ft","CYBK 060600Z 02010KT 15SM OVC025 05/01 A3004 RMK SC8 SLP177",2025-09-06 06:29:51.898599,2025-09-06 02:29:51.898599
"CYRB",2025-09-06 06:00:00,2025-09-06 02:00:00,"VFR",-2,-3,93,160,8,48300,30.12,NA,"SCT  ft","CYRB 060600Z 16008KT 30SM SCT010 M02/M03 A3012 RMK ST4 SLP207",2025-09-06 06:29:51.970652,2025-09-06 02:29:51.970652
"CYCO",2025-09-06 06:00:00,2025-09-06 02:00:00,"VFR",12,6,67,180,12,9999,29.8,NA,"BKN  ft","CYCO 060600Z 18012KT 10SM BKN120 12/06 A2980 RMK AC6 SLP094",2025-09-06 06:29:52.048464,2025-09-06 02:29:52.048464
"CYER",2025-09-06 06:39:00,2025-09-06 02:39:00,"IFR",6,6,100,350,7,9700,29.53,NA,"OVC  ft","CYER 060639Z AUTO 35007KT 6SM -RA BR OVC005 06/06 A2953 RMK SLP002",2025-09-06 06:46:47.139446,2025-09-06 02:46:47.139446
"CYAT",2025-09-06 06:10:00,2025-09-06 02:10:00,"LIFR",10,10,100,340,8,8000,29.26,NA,"OVC  ft","CYAT 060610Z AUTO 34008KT 5SM -RA BR OVC004 10/10 A2926 RMK SLP912",2025-09-06 06:46:47.218007,2025-09-06 02:46:47.218007
"CYMO",2025-09-06 06:43:00,2025-09-06 02:43:00,"MVFR",7,6,93,230,12,14500,29.39,NA,"BKN  ft","CYMO 060643Z AUTO 23012G18KT 9SM BKN011 07/06 A2939 RMK SLP955",2025-09-06 06:46:47.290551,2025-09-06 02:46:47.290551
"CYPL",2025-09-06 06:00:00,2025-09-06 02:00:00,"MVFR",5,3,87,320,10,14500,29.66,NA,"OVC  ft","CYPL 060600Z AUTO 32010G19KT 290V360 9SM OVC015 05/03 A2966 RMK SLP062",2025-09-06 06:46:47.360652,2025-09-06 02:46:47.360652
"CYQT",2025-09-06 06:00:00,2025-09-06 02:00:00,"VFR",8,4,76,300,10,24100,29.73,NA,"SCT  ft; OVC  ft","CYQT 060600Z 30010KT 15SM SCT026 OVC180 08/04 A2973 RMK SC3AC5 SLP075",2025-09-06 06:46:47.397012,2025-09-06 02:46:47.397012
"CYAM",2025-09-06 06:00:00,2025-09-06 02:00:00,"VFR",9,7,87,240,11,32200,29.73,NA,"FEW  ft; BKN  ft; BKN  ft","CYAM 060600Z 24011G17KT 20SM FEW017 BKN044 BKN086 09/07 A2973 RMK SC1SC5AC2 SC TR SLP072",2025-09-06 06:46:47.466844,2025-09-06 02:46:47.466844
"CYTS",2025-09-06 06:41:00,2025-09-06 02:41:00,"VFR",7,6,93,220,7,9999,29.6,NA,"FEW  ft; OVC  ft","CYTS 060641Z 22007KT 10SM -RA FEW018 OVC031 07/06 A2960 RMK SF2SC6 SLP031",2025-09-06 06:46:47.542339,2025-09-06 02:46:47.542339
"CYSB",2025-09-06 06:13:00,2025-09-06 02:13:00,"VFR",8,8,100,190,10,24100,29.73,NA,"SCT  ft; BKN  ft; OVC  ft","CYSB 060613Z CCA 19010KT 15SM SCT008 BKN064 OVC100 08/08 A2973 RMK SF4SC1AC3 SLP076",2025-09-06 06:46:47.612088,2025-09-06 02:46:47.612088
"CYYB",2025-09-06 06:00:00,2025-09-06 02:00:00,NA,10,8,88,NA,NA,NA,29.76,NA,NA,"CYYB 060600Z AUTO /////KT 10/08 A2976 RMK WIND MISG CLD MISG WX MISG VIS MISG ICE MISG SLP083",2025-09-06 06:46:47.680322,2025-09-06 02:46:47.680322
"CYOW",2025-09-06 06:00:00,2025-09-06 02:00:00,"VFR",12,10,88,220,3,24100,29.86,NA,"SCT  ft; BKN  ft","CYOW 060600Z 22003KT 15SM SCT063 BKN069 12/10 A2986 RMK SC4AC1 SLP115",2025-09-06 06:46:47.751614,2025-09-06 02:46:47.751614
"CYGK",2025-09-06 03:00:00,2025-09-05 23:00:00,"VFR",17,11,68,300,7,24100,29.83,NA,"FEW  ft; SCT  ft","CYGK 060300Z 30007KT 15SM FEW080 SCT250 17/11 A2983 RMK AC2CI2 LAST STFD OBS/ NXT 061000Z PRESRR SLP105 DENSITY ALT 800FT",2025-09-06 06:46:47.825462,2025-09-06 02:46:47.825462
"CYQG",2025-09-06 06:00:00,2025-09-06 02:00:00,"VFR",13,8,72,250,3,14500,29.94,NA,"BKN  ft","CYQG 060600Z AUTO 25003KT 9SM BKN240 13/08 A2994 RMK SLP140",2025-09-06 06:46:47.89861,2025-09-06 02:46:47.89861
"CYVV",2025-09-06 06:00:00,2025-09-06 02:00:00,"VFR",14,7,63,250,8,9999,29.83,NA,"FEW  ft; BKN  ft; OVC  ft","CYVV 060600Z 25008G19KT 10SM FEW040 BKN060 OVC070 14/07 A2983 RMK CU2CU5AC1 SLP105",2025-09-06 06:46:47.971929,2025-09-06 02:46:47.971929
"CYYZ",2025-09-06 06:00:00,2025-09-06 02:00:00,"VFR",12,6,67,250,5,24100,29.89,NA,"FEW  ft","CYYZ 060600Z 25005KT 15SM FEW180 12/06 A2989 RMK AC1 AC TR SLP124",2025-09-06 06:46:48.043962,2025-09-06 02:46:48.043962
"CYQA",2025-09-06 06:00:00,2025-09-06 02:00:00,"VFR",12,8,77,250,4,14500,29.83,NA,"OVC  ft","CYQA 060600Z AUTO 25004KT 9SM OVC055 12/08 A2983 RMK SLP105",2025-09-06 06:46:48.116569,2025-09-06 02:46:48.116569
"CYVR",2025-09-06 06:00:00,2025-09-06 02:00:00,"VFR",19,17,88,130,2,12900,29.82,NA,"SCT  ft; BKN  ft","CYVR 060600Z 13002KT 8SM SCT092 BKN220 19/17 A2982 RMK HZ2AC2CI1 SLP101 DENSITY ALT 600FT",2025-09-06 06:46:48.18787,2025-09-06 02:46:48.18787
"CYYJ",2025-09-06 06:00:00,2025-09-06 02:00:00,"VFR",15,13,88,0,0,48300,29.81,NA,"FEW  ft; SCT  ft; OVC  ft","CYYJ 060600Z 00000KT 30SM FEW140 SCT160 OVC200 15/13 A2981 RMK AC2AC2CS4 SLP098",2025-09-06 06:46:48.258838,2025-09-06 02:46:48.258838
"CYLW",2025-09-06 06:00:00,2025-09-06 02:00:00,"VFR",16,10,68,0,0,11300,29.83,NA,"BKN  ft","CYLW 060600Z AUTO 00000KT 7SM BKN140 16/10 A2983 RMK SLP100 DENSITY ALT 2000FT",2025-09-06 06:46:48.329778,2025-09-06 02:46:48.329778
"CYXS",2025-09-06 06:42:00,2025-09-06 02:42:00,"MVFR",9,9,100,250,2,4800,29.88,NA,"CLR  ft","CYXS 060642Z AUTO 25002KT 3SM BR CLR 09/09 A2988 RMK VIS VRB 1 1/4-3 SLP131",2025-09-06 06:46:48.359061,2025-09-06 02:46:48.359061
"CYXT",2025-09-06 06:00:00,2025-09-06 02:00:00,"VFR",17,16,94,190,4,24100,29.86,NA,"SKC  ft","CYXT 060600Z 19004KT 15SM SKC 17/16 A2986 RMK FU SLP115 DENSITY ALT 1300FT",2025-09-06 06:46:48.428772,2025-09-06 02:46:48.428772
"CYQQ",2025-09-06 06:00:00,2025-09-06 02:00:00,"VFR",18,15,83,280,3,32200,29.84,NA,"SCT  ft","CYQQ 060600Z CCA 28003KT 20SM SCT180 18/15 A2984 RMK AC4 DENSITY ALT 716FT SLP104",2025-09-06 06:46:48.498631,2025-09-06 02:46:48.498631
"CYYC",2025-09-06 06:00:00,2025-09-06 02:00:00,"VFR",13,2,47,170,8,9999,30.01,NA,"SKC  ft","CYYC 060600Z 17008KT 10SM SKC 13/02 A3001 RMK SLP170 DENSITY ALT 4200FT",2025-09-06 06:46:48.569499,2025-09-06 02:46:48.569499
"CYEG",2025-09-06 06:00:00,2025-09-06 02:00:00,"VFR",9,2,62,140,8,32200,29.96,NA,"SKC  ft","CYEG 060600Z 14008KT 20SM SKC 09/02 A2996 RMK SLP155",2025-09-06 06:46:48.639438,2025-09-06 02:46:48.639438
"CYMM",2025-09-06 06:00:00,2025-09-06 02:00:00,"VFR",10,5,71,130,8,14500,29.99,NA,"CLR  ft","CYMM 060600Z AUTO 13008KT 9SM CLR 10/05 A2999 RMK SLP166",2025-09-06 06:46:48.670988,2025-09-06 02:46:48.670988
"CYQF",2025-09-06 06:00:00,2025-09-06 02:00:00,"VFR",8,2,66,180,5,14500,29.99,NA,"CLR  ft","CYQF 060600Z AUTO 18005KT 9SM CLR 08/02 A2999 RMK SLP168",2025-09-06 06:46:48.741556,2025-09-06 02:46:48.741556
"CYXE",2025-09-06 06:00:00,2025-09-06 02:00:00,"VFR",6,3,81,140,7,24100,30.09,NA,"FEW  ft","CYXE 060600Z 14007KT 15SM FEW250 06/03 A3009 RMK CI2 SLP206",2025-09-06 06:46:48.812471,2025-09-06 02:46:48.812471
"CYQR",2025-09-06 06:00:00,2025-09-06 02:00:00,"VFR",2,1,93,290,2,24100,30.1,NA,"SKC  ft","CYQR 060600Z 29002KT 15SM SKC 02/01 A3010 RMK SLP215",2025-09-06 06:46:48.883497,2025-09-06 02:46:48.883497
"CYWG",2025-09-06 06:00:00,2025-09-06 02:00:00,"VFR",8,8,100,270,6,24100,29.92,NA,"BKN  ft","CYWG 060600Z 27006KT 15SM BKN064 08/08 A2992 RMK SC6 SLP140",2025-09-06 06:46:48.914972,2025-09-06 02:46:48.914972
"CYBR",2025-09-06 06:00:00,2025-09-06 02:00:00,"VFR",8,6,87,270,9,14500,30,NA,"OVC  ft","CYBR 060600Z AUTO 27009KT 9SM OVC096 08/06 A3000 RMK SLP172",2025-09-06 06:46:48.984632,2025-09-06 02:46:48.984632
"CYUL",2025-09-06 06:00:00,2025-09-06 02:00:00,"VFR",16,11,72,250,6,24100,29.84,NA,"FEW  ft; BKN  ft","CYUL 060600Z 25006KT 15SM FEW120 BKN250 16/11 A2984 RMK AC1CI7 AC TR SLP108 DENSITY ALT 400FT",2025-09-06 06:46:49.055505,2025-09-06 02:46:49.055505
"CYHU",2025-09-06 06:00:00,2025-09-06 02:00:00,"VFR",17,11,68,270,10,14500,29.83,NA,"CLR  ft","CYHU 060600Z AUTO 27010G15KT 9SM CLR 17/11 A2983 RMK SLP105 DENSITY ALT 500FT",2025-09-06 06:46:49.127841,2025-09-06 02:46:49.127841
"CYQB",2025-09-06 06:37:00,2025-09-06 02:37:00,"VFR",15,14,94,220,5,24100,29.8,NA,"SCT  ft; OVC  ft","CYQB 060637Z 22005KT 15SM SCT045 OVC120 15/14 A2980 RMK SC3AC5 SLP093 DENSITY ALT 500FT",2025-09-06 06:46:49.167347,2025-09-06 02:46:49.167347
"CYVO",2025-09-06 06:00:00,2025-09-06 02:00:00,"VFR",8,7,93,190,6,14500,29.66,NA,"SCT  ft; SCT  ft; OVC  ft","CYVO 060600Z AUTO 19006KT 9SM SCT041 SCT066 OVC099 08/07 A2966 RMK SLP056",2025-09-06 06:46:49.23745,2025-09-06 02:46:49.23745
"CYUY",2025-09-06 06:00:00,2025-09-06 02:00:00,"VFR",8,6,87,210,8,24100,29.63,NA,"SCT  ft; BKN  ft; BKN  ft","CYUY 060600Z 21008KT 15SM -SHRA SCT030 BKN100 BKN130 08/06 A2963 RMK SC3AC2AS2 SLP044",2025-09-06 06:46:49.309672,2025-09-06 02:46:49.309672
"CYZV",2025-09-06 06:00:00,2025-09-06 02:00:00,"VFR",16,15,94,90,7,24100,29.73,NA,"BKN  ft","CYZV 060600Z 09007KT 15SM BKN037 16/15 A2973 RMK SC7 SLP069 DENSITY ALT 600FT",2025-09-06 06:46:49.37946,2025-09-06 02:46:49.37946
"CYBC",2025-09-06 06:10:00,2025-09-06 02:10:00,"VFR",17,15,88,220,5,14500,29.7,NA,"BKN  ft; BKN  ft","CYBC 060610Z AUTO 22005KT 9SM BKN034 BKN120 17/15 A2970 RMK LTNG DIST N SLP060 DENSITY ALT 600FT",2025-09-06 06:46:49.449606,2025-09-06 02:46:49.449606
"CYRJ",2025-09-06 06:00:00,2025-09-06 02:00:00,"VFR",11,11,100,180,5,40200,29.7,NA,"SKC  ft","CYRJ 060600Z 18005KT 25SM SKC 11/11 A2970 RMK SLP061",2025-09-06 06:46:49.523783,2025-09-06 02:46:49.523783
"CYHZ",2025-09-06 06:00:00,2025-09-06 02:00:00,"VFR",19,19,100,200,10,24100,30.07,NA,"SCT  ft","CYHZ 060600Z 20010G17KT 15SM SCT006 19/19 A3007 RMK SF3 SLP186 DENSITY ALT 900FT",2025-09-06 06:46:49.595611,2025-09-06 02:46:49.595611
"CYYG",2025-09-06 06:00:00,2025-09-06 02:00:00,"VFR",19,18,94,180,11,24100,30,NA,"FEW  ft; FEW  ft","CYYG 060600Z 18011KT 15SM FEW010 FEW070 19/18 A3000 RMK SF1AC2 SF TR SLP161 DENSITY ALT 700FT",2025-09-06 06:46:49.667629,2025-09-06 02:46:49.667629
"CYQM",2025-09-06 06:36:00,2025-09-06 02:36:00,"MVFR",17,16,94,160,5,24100,29.97,NA,"BKN  ft; BKN  ft; BKN  ft; BKN  ft","CYQM 060636Z 16005KT 15SM BKN022 BKN032 BKN082 BKN260 17/16 A2997 RMK SC5SC1AC1CI1 SC TR AC TR CI TR SLP152 DENSITY ALT 500FT",2025-09-06 06:46:49.739839,2025-09-06 02:46:49.739839
"CYFC",2025-09-06 06:00:00,2025-09-06 02:00:00,"IFR",18,16,88,190,8,14500,29.93,NA,"OVC  ft","CYFC 060600Z AUTO 19008G17KT 9SM OVC006 18/16 A2993 RMK SLP139 DENSITY ALT 400FT",2025-09-06 06:46:49.810623,2025-09-06 02:46:49.810623
"CYYT",2025-09-06 06:00:00,2025-09-06 02:00:00,"LIFR",11,11,100,240,4,NA,30.25,NA,"OVX  ft","CYYT 060600Z 24004KT 3/8SM R28/1800V2600FT/N R16/2600V3000FT/N FG VV002 11/11 A3025 RMK FG8 SLP247",2025-09-06 06:46:49.881385,2025-09-06 02:46:49.881385
"CYQY",2025-09-06 06:00:00,2025-09-06 02:00:00,"LIFR",19,19,100,180,6,8000,30.1,NA,"OVC  ft","CYQY 060600Z 18006KT 5SM -DZ BR OVC003 19/19 A3010 RMK ST8 SLP195 DENSITY ALT 500FT",2025-09-06 06:46:49.953853,2025-09-06 02:46:49.953853
"CYXY",2025-09-06 06:36:00,2025-09-06 02:36:00,"VFR",16,9,63,350,6,24100,29.86,NA,"SCT  ft; BKN  ft; BKN  ft","CYXY 060636Z 35006KT 320V020 15SM SCT062 BKN083 BKN160 16/09 A2986 RMK CU3AC2AC2 SLP121 DENSITY ALT 3100FT",2025-09-06 06:46:50.028004,2025-09-06 02:46:50.028004
"CYZF",2025-09-06 06:00:00,2025-09-06 02:00:00,"VFR",12,7,72,120,10,24100,29.92,NA,"FEW  ft","CYZF 060600Z 12010KT 15SM FEW200 12/07 A2992 RMK CI2 SLP141",2025-09-06 06:46:50.099831,2025-09-06 02:46:50.099831
"CYFB",2025-09-06 06:00:00,2025-09-06 02:00:00,"MVFR",3,1,87,120,15,24100,29.87,NA,"BKN  ft; OVC  ft","CYFB 060600Z 12015KT 15SM -RA BKN027 OVC078 03/01 A2987 RMK SC6AC2 SLP119",2025-09-06 06:46:50.170718,2025-09-06 02:46:50.170718
"CYRT",2025-09-06 06:00:00,2025-09-06 02:00:00,"MVFR",5,2,81,20,18,24100,29.93,NA,"OVC  ft","CYRT 060600Z 02018KT 15SM OVC026 05/02 A2993 RMK SC8 SLP138",2025-09-06 06:46:50.244576,2025-09-06 02:46:50.244576
"CYBK",2025-09-06 06:00:00,2025-09-06 02:00:00,"MVFR",5,1,76,20,10,24100,30.04,NA,"OVC  ft","CYBK 060600Z 02010KT 15SM OVC025 05/01 A3004 RMK SC8 SLP177",2025-09-06 06:46:50.315528,2025-09-06 02:46:50.315528
"CYRB",2025-09-06 06:00:00,2025-09-06 02:00:00,"VFR",-2,-3,93,160,8,48300,30.12,NA,"SCT  ft","CYRB 060600Z 16008KT 30SM SCT010 M02/M03 A3012 RMK ST4 SLP207",2025-09-06 06:46:50.386641,2025-09-06 02:46:50.386641
"CYCO",2025-09-06 06:00:00,2025-09-06 02:00:00,"VFR",12,6,67,180,12,9999,29.8,NA,"BKN  ft","CYCO 060600Z 18012KT 10SM BKN120 12/06 A2980 RMK AC6 SLP094",2025-09-06 06:46:50.468643,2025-09-06 02:46:50.468643
"CYER",2025-09-06 07:09:00,2025-09-06 03:09:00,"IFR",6,6,100,350,10,8000,29.53,NA,"OVC  ft","CYER 060709Z AUTO 35010KT 5SM -RA BR OVC005 06/06 A2953 RMK SLP004",2025-09-06 07:18:40.553497,2025-09-06 03:18:40.553497
"CYAT",2025-09-06 07:00:00,2025-09-06 03:00:00,"LIFR",10,10,100,340,8,8000,29.28,NA,"OVC  ft","CYAT 060700Z AUTO 34008KT 5SM -RA BR OVC004 10/10 A2928 RMK PCPN 1.0MM PAST HR SLP916",2025-09-06 07:18:40.604365,2025-09-06 03:18:40.604365
"CYMO",2025-09-06 07:00:00,2025-09-06 03:00:00,"MVFR",7,6,93,230,14,14500,29.39,NA,"BKN  ft","CYMO 060700Z AUTO 23014KT 9SM BKN011 07/06 A2939 RMK SLP956",2025-09-06 07:18:40.648088,2025-09-06 03:18:40.648088
"CYPL",2025-09-06 07:08:00,2025-09-06 03:08:00,"MVFR",5,3,87,320,9,14500,29.67,NA,"SCT  ft; BKN  ft; OVC  ft","CYPL 060708Z AUTO 32009G15KT 280V010 9SM -RA SCT017 BKN024 OVC034 05/03 A2967 RMK SLP066",2025-09-06 07:18:40.734597,2025-09-06 03:18:40.734597
"CYQT",2025-09-06 07:00:00,2025-09-06 03:00:00,"VFR",7,4,81,290,7,24100,29.75,NA,"SCT  ft; BKN  ft","CYQT 060700Z 29007KT 15SM SCT035 BKN180 07/04 A2975 RMK SC3AC3 SLP082",2025-09-06 07:18:40.821235,2025-09-06 03:18:40.821235
"CYAM",2025-09-06 07:00:00,2025-09-06 03:00:00,"VFR",9,7,87,250,11,32200,29.73,NA,"SCT  ft; SCT  ft; BKN  ft","CYAM 060700Z 25011KT 20SM SCT051 SCT068 BKN220 09/07 A2973 RMK SC3AC1CI3 AC TR SLP073",2025-09-06 07:18:40.903639,2025-09-06 03:18:40.903639
"CYTS",2025-09-06 07:00:00,2025-09-06 03:00:00,"VFR",7,6,93,210,7,24100,29.6,NA,"FEW  ft; BKN  ft; OVC  ft","CYTS 060700Z 21007KT 180V240 15SM FEW017 BKN031 OVC100 07/06 A2960 RMK SF1SC6AC1 SLP032",2025-09-06 07:18:40.986234,2025-09-06 03:18:40.986234
"CYSB",2025-09-06 07:00:00,2025-09-06 03:00:00,"VFR",9,8,94,210,8,24100,29.73,NA,"SCT  ft; BKN  ft","CYSB 060700Z 21008KT 15SM SCT010 BKN032 09/08 A2973 RMK SC3SC4 SLP076",2025-09-06 07:18:41.068422,2025-09-06 03:18:41.068422
"CYYB",2025-09-06 07:00:00,2025-09-06 03:00:00,NA,11,7,77,NA,NA,NA,29.76,NA,NA,"CYYB 060700Z AUTO /////KT 11/07 A2976 RMK WIND MISG CLD MISG WX MISG VIS MISG ICE MISG SLP082",2025-09-06 07:18:41.151611,2025-09-06 03:18:41.151611
"CYOW",2025-09-06 07:00:00,2025-09-06 03:00:00,"VFR",11,9,88,190,2,24100,29.87,NA,"BKN  ft","CYOW 060700Z 19002KT 15SM BKN080 11/09 A2987 RMK AC5 SLP117",2025-09-06 07:18:41.235284,2025-09-06 03:18:41.235284
"CYGK",2025-09-06 03:00:00,2025-09-05 23:00:00,"VFR",17,11,68,300,7,24100,29.83,NA,"FEW  ft; SCT  ft","CYGK 060300Z 30007KT 15SM FEW080 SCT250 17/11 A2983 RMK AC2CI2 LAST STFD OBS/ NXT 061000Z PRESRR SLP105 DENSITY ALT 800FT",2025-09-06 07:18:41.320171,2025-09-06 03:18:41.320171
"CYQG",2025-09-06 07:00:00,2025-09-06 03:00:00,"VFR",13,9,77,290,3,14500,29.94,NA,"BKN  ft; OVC  ft","CYQG 060700Z AUTO 29003KT 9SM BKN170 OVC230 13/09 A2994 RMK SLP138",2025-09-06 07:18:41.402324,2025-09-06 03:18:41.402324
"CYVV",2025-09-06 07:00:00,2025-09-06 03:00:00,"VFR",14,7,63,250,10,9999,29.83,NA,"SCT  ft; BKN  ft; OVC  ft","CYVV 060700Z 25010G16KT 220V280 10SM SCT040 BKN060 OVC070 14/07 A2983 RMK CU3CU4AC1 SLP104",2025-09-06 07:18:41.486287,2025-09-06 03:18:41.486287
"CYYZ",2025-09-06 07:00:00,2025-09-06 03:00:00,"VFR",11,6,72,250,5,24100,29.9,NA,"FEW  ft","CYYZ 060700Z 25005KT 15SM FEW250 11/06 A2990 RMK CI1 CI TR SLP127",2025-09-06 07:18:41.569189,2025-09-06 03:18:41.569189
"CYQA",2025-09-06 07:00:00,2025-09-06 03:00:00,"VFR",12,7,72,230,5,14500,29.82,NA,"BKN  ft","CYQA 060700Z AUTO 23005KT 9SM BKN050 12/07 A2982 RMK SLP102",2025-09-06 07:18:41.65338,2025-09-06 03:18:41.65338
"CYVR",2025-09-06 07:00:00,2025-09-06 03:00:00,"VFR",19,17,88,60,4,9999,29.83,NA,"SCT  ft; SCT  ft","CYVR 060700Z 06004KT 10SM SCT098 SCT220 19/17 A2983 RMK HZ2AC1CI1 SLP103 DENSITY ALT 600FT",2025-09-06 07:18:41.699347,2025-09-06 03:18:41.699347
"CYYJ",2025-09-06 07:08:00,2025-09-06 03:08:00,"VFR",15,14,94,160,12,48300,29.83,NA,"FEW  ft; SCT  ft; OVC  ft","CYYJ 060708Z 16012KT 040V170 30SM -RA FEW110 SCT140 OVC200 15/14 A2983 RMK AC2AC2CS4 PRESRR SLP105 DENSITY ALT 300FT",2025-09-06 07:18:41.782487,2025-09-06 03:18:41.782487
"CYLW",2025-09-06 07:00:00,2025-09-06 03:00:00,"VFR",14,10,77,50,3,11300,29.84,NA,"OVC  ft","CYLW 060700Z AUTO 05003KT 7SM OVC140 14/10 A2984 RMK SLP105 DENSITY ALT 1800FT",2025-09-06 07:18:41.869327,2025-09-06 03:18:41.869327
"CYXS",2025-09-06 07:15:00,2025-09-06 03:15:00,"VFR",10,9,94,0,2,9700,29.89,NA,"CLR  ft","CYXS 060715Z AUTO VRB02KT 6SM BR CLR 10/09 A2989 RMK SLP134",2025-09-06 07:18:41.95147,2025-09-06 03:18:41.95147
"CYXT",2025-09-06 07:00:00,2025-09-06 03:00:00,"VFR",16,16,100,200,3,24100,29.87,NA,"SKC  ft","CYXT 060700Z 20003KT 15SM SKC 16/16 A2987 RMK FU SLP120 DENSITY ALT 1100FT",2025-09-06 07:18:42.037154,2025-09-06 03:18:42.037154
"CYQQ",2025-09-06 07:00:00,2025-09-06 03:00:00,"VFR",18,15,83,320,2,32200,29.85,NA,"SCT  ft","CYQQ 060700Z 32002KT 20SM SCT210 18/15 A2985 RMK CC4 DENSITY ALT 708FT SLP108",2025-09-06 07:18:42.121278,2025-09-06 03:18:42.121278
"CYYC",2025-09-06 07:00:00,2025-09-06 03:00:00,"VFR",12,2,51,180,5,9999,30,NA,"SKC  ft","CYYC 060700Z 18005KT 10SM SKC 12/02 A3000 RMK SLP167 DENSITY ALT 4000FT",2025-09-06 07:18:42.205233,2025-09-06 03:18:42.205233
"CYEG",2025-09-06 07:00:00,2025-09-06 03:00:00,"VFR",9,3,66,170,5,32200,29.96,NA,"FEW  ft","CYEG 060700Z 17005KT 20SM FEW250 09/03 A2996 RMK CI1 CI TR SLP155",2025-09-06 07:18:42.289217,2025-09-06 03:18:42.289217
"CYMM",2025-09-06 07:00:00,2025-09-06 03:00:00,"VFR",9,5,76,110,8,14500,29.99,NA,"CLR  ft","CYMM 060700Z AUTO 11008KT 9SM CLR 09/05 A2999 RMK SLP167",2025-09-06 07:18:42.375135,2025-09-06 03:18:42.375135
"CYQF",2025-09-06 07:00:00,2025-09-06 03:00:00,"VFR",10,2,58,180,9,14500,29.99,NA,"CLR  ft","CYQF 060700Z AUTO 18009KT 9SM CLR 10/02 A2999 RMK SLP165",2025-09-06 07:18:42.473413,2025-09-06 03:18:42.473413
"CYXE",2025-09-06 07:00:00,2025-09-06 03:00:00,"VFR",6,3,81,180,5,24100,30.09,NA,"SKC  ft","CYXE 060700Z 18005KT 15SM SKC 06/03 A3009 RMK SLP208",2025-09-06 07:18:42.565221,2025-09-06 03:18:42.565221
"CYQR",2025-09-06 07:00:00,2025-09-06 03:00:00,"VFR",0,0,100,250,7,24100,30.1,NA,"FEW  ft","CYQR 060700Z 25007KT 15SM FEW120 00/M00 A3010 RMK AC1 AC TR SLP216",2025-09-06 07:18:42.656505,2025-09-06 03:18:42.656505
"CYWG",2025-09-06 07:00:00,2025-09-06 03:00:00,"VFR",8,8,100,280,6,24100,29.92,NA,"FEW  ft; BKN  ft; BKN  ft","CYWG 060700Z 28006KT 15SM FEW027 BKN067 BKN130 08/08 A2992 RMK SC2AC4AC1 SLP141",2025-09-06 07:18:42.75064,2025-09-06 03:18:42.75064
"CYBR",2025-09-06 07:00:00,2025-09-06 03:00:00,"VFR",7,6,93,260,8,14500,30.01,NA,"OVC  ft","CYBR 060700Z AUTO 26008KT 9SM OVC091 07/06 A3001 RMK SLP176",2025-09-06 07:18:42.838721,2025-09-06 03:18:42.838721
"CYUL",2025-09-06 07:00:00,2025-09-06 03:00:00,"VFR",15,11,77,240,8,24100,29.87,NA,"BKN  ft","CYUL 060700Z 24008KT 15SM BKN050 15/11 A2987 RMK SC6 SLP117",2025-09-06 07:18:42.93238,2025-09-06 03:18:42.93238
"CYHU",2025-09-06 07:00:00,2025-09-06 03:00:00,"VFR",15,12,82,230,10,14500,29.86,NA,"FEW  ft","CYHU 060700Z AUTO 23010KT 9SM FEW050 15/12 A2986 RMK SLP113 DENSITY ALT 300FT",2025-09-06 07:18:43.022381,2025-09-06 03:18:43.022381
"CYQB",2025-09-06 07:00:00,2025-09-06 03:00:00,"VFR",15,13,88,240,6,24100,29.8,NA,"SCT  ft","CYQB 060700Z 24006KT 15SM SCT051 15/13 A2980 RMK SC4 SLP095 DENSITY ALT 500FT",2025-09-06 07:18:43.11358,2025-09-06 03:18:43.11358
"CYVO",2025-09-06 07:00:00,2025-09-06 03:00:00,"VFR",8,7,93,190,7,14500,29.67,NA,"OVC  ft","CYVO 060700Z AUTO 19007KT 9SM OVC043 08/07 A2967 RMK SLP059",2025-09-06 07:18:43.198284,2025-09-06 03:18:43.198284
"CYUY",2025-09-06 07:00:00,2025-09-06 03:00:00,"MVFR",8,6,87,220,10,24100,29.64,NA,"BKN  ft; BKN  ft","CYUY 060700Z 22010G17KT 15SM BKN030 BKN140 08/06 A2964 RMK SC6AC1 SLP047",2025-09-06 07:18:43.285442,2025-09-06 03:18:43.285442
"CYZV",2025-09-06 07:00:00,2025-09-06 03:00:00,"MVFR",16,15,94,0,2,24100,29.73,NA,"OVC  ft","CYZV 060700Z VRB02KT 15SM OVC028 16/15 A2973 RMK SC8 SLP070 DENSITY ALT 600FT",2025-09-06 07:18:43.370365,2025-09-06 03:18:43.370365
"CYBC",2025-09-06 07:00:00,2025-09-06 03:00:00,"VFR",16,15,94,240,6,14500,29.7,NA,"BKN  ft; BKN  ft; BKN  ft; OVC  ft","CYBC 060700Z AUTO 24006KT 9SM BKN035 BKN050 BKN066 OVC180 16/15 A2970 RMK SLP061 DENSITY ALT 500FT",2025-09-06 07:18:43.455596,2025-09-06 03:18:43.455596
"CYRJ",2025-09-06 07:00:00,2025-09-06 03:00:00,"VFR",11,11,100,200,3,40200,29.72,NA,"FEW  ft","CYRJ 060700Z 20003KT 25SM FEW025 11/11 A2972 RMK SC1 SLP068",2025-09-06 07:18:43.541191,2025-09-06 03:18:43.541191
"CYHZ",2025-09-06 07:00:00,2025-09-06 03:00:00,"VFR",18,18,100,190,9,24100,30.06,NA,"FEW  ft; FEW  ft; BKN  ft","CYHZ 060700Z 19009G15KT 15SM FEW005 FEW065 BKN350 18/18 A3006 RMK SF1SC1CI4 SLP182 DENSITY ALT 800FT",2025-09-06 07:18:43.628829,2025-09-06 03:18:43.628829
"CYYG",2025-09-06 07:00:00,2025-09-06 03:00:00,"VFR",20,18,88,180,12,24100,30,NA,"FEW  ft","CYYG 060700Z 18012G18KT 15SM FEW040 20/18 A3000 RMK SC1 SLP161 DENSITY ALT 700FT",2025-09-06 07:18:43.715369,2025-09-06 03:18:43.715369
"CYQM",2025-09-06 07:00:00,2025-09-06 03:00:00,"MVFR",17,16,94,150,8,24100,29.96,NA,"BKN  ft; BKN  ft; BKN  ft; BKN  ft","CYQM 060700Z 15008KT 15SM BKN025 BKN032 BKN082 BKN260 17/16 A2996 RMK SC6SC1AC1CI1 SC TR AC TR SLP149 DENSITY ALT 500FT",2025-09-06 07:18:43.801254,2025-09-06 03:18:43.801254
"CYFC",2025-09-06 07:00:00,2025-09-06 03:00:00,"IFR",18,17,94,180,9,14500,29.91,NA,"OVC  ft","CYFC 060700Z AUTO 18009KT 9SM OVC008 18/17 A2991 RMK SLP131 DENSITY ALT 500FT",2025-09-06 07:18:43.888423,2025-09-06 03:18:43.888423
"CYYT",2025-09-06 07:00:00,2025-09-06 03:00:00,"LIFR",11,11,100,210,7,NA,30.24,NA,"OVX  ft","CYYT 060700Z 21007KT 1/2SM R28/4500V6000FT/N R16/4500VP6000FT/U FG VV002 11/11 A3024 RMK FG8 SLP246",2025-09-06 07:18:43.97825,2025-09-06 03:18:43.97825
"CYQY",2025-09-06 07:09:00,2025-09-06 03:09:00,"LIFR",19,19,100,180,5,2400,30.09,NA,"OVC  ft","CYQY 060709Z 18005KT 1 1/2SM BR OVC002 19/19 A3009 RMK SC8 SLP192 DENSITY ALT 500FT",2025-09-06 07:18:44.067487,2025-09-06 03:18:44.067487
"CYXY",2025-09-06 07:00:00,2025-09-06 03:00:00,"VFR",16,9,63,340,7,24100,29.87,NA,"FEW  ft; BKN  ft","CYXY 060700Z 34007KT 15SM FEW074 BKN100 16/09 A2987 RMK AC2AC4 SLP124 DENSITY ALT 3100FT",2025-09-06 07:18:44.156465,2025-09-06 03:18:44.156465
"CYZF",2025-09-06 07:00:00,2025-09-06 03:00:00,"VFR",12,7,72,120,10,24100,29.91,NA,"SKC  ft","CYZF 060700Z 12010G15KT 15SM SKC 12/07 A2991 RMK SLP139",2025-09-06 07:18:44.241339,2025-09-06 03:18:44.241339
"CYFB",2025-09-06 07:00:00,2025-09-06 03:00:00,"VFR",2,1,93,120,12,24100,29.84,NA,"BKN  ft; OVC  ft","CYFB 060700Z 12012KT 15SM -RA BKN033 OVC078 02/01 A2984 RMK SC6AC2 SLP108",2025-09-06 07:18:44.327597,2025-09-06 03:18:44.327597
"CYRT",2025-09-06 07:00:00,2025-09-06 03:00:00,"MVFR",4,1,81,20,18,24100,29.92,NA,"OVC  ft","CYRT 060700Z 02018G24KT 15SM OVC017 04/01 A2992 RMK SC8 SLP137",2025-09-06 07:18:44.416403,2025-09-06 03:18:44.416403
"CYBK",2025-09-06 07:00:00,2025-09-06 03:00:00,"MVFR",5,1,76,360,5,24100,30.06,NA,"OVC  ft","CYBK 060700Z 36005KT 15SM OVC028 05/01 A3006 RMK SC8 SLP182",2025-09-06 07:18:44.501334,2025-09-06 03:18:44.501334
"CYRB",2025-09-06 07:00:00,2025-09-06 03:00:00,"VFR",-1,-2,93,170,10,48300,30.12,NA,"SCT  ft","CYRB 060700Z 17010KT 30SM SCT010 M01/M02 A3012 RMK ST4 SLP207",2025-09-06 07:18:44.585647,2025-09-06 03:18:44.585647
"CYCO",2025-09-06 07:00:00,2025-09-06 03:00:00,"VFR",12,6,67,180,11,24100,29.79,NA,"SCT  ft","CYCO 060700Z 18011KT 15SM SCT120 12/06 A2979 RMK AC4 AURBO SLP090",2025-09-06 07:18:44.641203,2025-09-06 03:18:44.641203
"CYER",2025-09-06 07:22:00,2025-09-06 03:22:00,"IFR",6,6,100,350,7,9700,29.54,NA,"OVC  ft","CYER 060722Z AUTO 35007KT 6SM BR OVC005 06/06 A2954 RMK SLP006",2025-09-06 07:39:07.493838,2025-09-06 03:39:07.493838
"CYAT",2025-09-06 07:27:00,2025-09-06 03:27:00,"IFR",10,10,100,330,7,11300,29.28,NA,"OVC  ft","CYAT 060727Z AUTO 33007KT 7SM OVC006 10/10 A2928 RMK SLP918",2025-09-06 07:39:07.57021,2025-09-06 03:39:07.57021
"CYMO",2025-09-06 07:00:00,2025-09-06 03:00:00,"MVFR",7,6,93,230,14,14500,29.39,NA,"BKN  ft","CYMO 060700Z AUTO 23014KT 9SM BKN011 07/06 A2939 RMK SLP956",2025-09-06 07:39:07.6371,2025-09-06 03:39:07.6371
"CYPL",2025-09-06 07:08:00,2025-09-06 03:08:00,"MVFR",5,3,87,320,9,14500,29.67,NA,"SCT  ft; BKN  ft; OVC  ft","CYPL 060708Z AUTO 32009G15KT 280V010 9SM -RA SCT017 BKN024 OVC034 05/03 A2967 RMK SLP066",2025-09-06 07:39:07.742906,2025-09-06 03:39:07.742906
"CYQT",2025-09-06 07:00:00,2025-09-06 03:00:00,"VFR",7,4,81,290,7,24100,29.75,NA,"SCT  ft; BKN  ft","CYQT 060700Z 29007KT 15SM SCT035 BKN180 07/04 A2975 RMK SC3AC3 SLP082",2025-09-06 07:39:07.812557,2025-09-06 03:39:07.812557
"CYAM",2025-09-06 07:00:00,2025-09-06 03:00:00,"VFR",9,7,87,250,11,32200,29.73,NA,"SCT  ft; SCT  ft; BKN  ft","CYAM 060700Z 25011KT 20SM SCT051 SCT068 BKN220 09/07 A2973 RMK SC3AC1CI3 AC TR SLP073",2025-09-06 07:39:07.87885,2025-09-06 03:39:07.87885
"CYTS",2025-09-06 07:00:00,2025-09-06 03:00:00,"VFR",7,6,93,210,7,24100,29.6,NA,"FEW  ft; BKN  ft; OVC  ft","CYTS 060700Z 21007KT 180V240 15SM FEW017 BKN031 OVC100 07/06 A2960 RMK SF1SC6AC1 SLP032",2025-09-06 07:39:07.944118,2025-09-06 03:39:07.944118
"CYSB",2025-09-06 07:00:00,2025-09-06 03:00:00,"VFR",9,8,94,210,8,24100,29.73,NA,"SCT  ft; BKN  ft","CYSB 060700Z 21008KT 15SM SCT010 BKN032 09/08 A2973 RMK SC3SC4 SLP076",2025-09-06 07:39:08.01054,2025-09-06 03:39:08.01054
"CYYB",2025-09-06 07:22:00,2025-09-06 03:22:00,"VFR",11,8,82,240,14,14500,29.76,NA,NA,"CYYB 060722Z AUTO 24014G24KT 220V360 9SM 11/08 A2976 RMK CLD MISG SLP085",2025-09-06 07:39:08.079653,2025-09-06 03:39:08.079653
"CYOW",2025-09-06 07:00:00,2025-09-06 03:00:00,"VFR",11,9,88,190,2,24100,29.87,NA,"BKN  ft","CYOW 060700Z 19002KT 15SM BKN080 11/09 A2987 RMK AC5 SLP117",2025-09-06 07:39:08.145052,2025-09-06 03:39:08.145052
"CYGK",2025-09-06 03:00:00,2025-09-05 23:00:00,"VFR",17,11,68,300,7,24100,29.83,NA,"FEW  ft; SCT  ft","CYGK 060300Z 30007KT 15SM FEW080 SCT250 17/11 A2983 RMK AC2CI2 LAST STFD OBS/ NXT 061000Z PRESRR SLP105 DENSITY ALT 800FT",2025-09-06 07:39:08.212723,2025-09-06 03:39:08.212723
"CYQG",2025-09-06 07:00:00,2025-09-06 03:00:00,"VFR",13,9,77,290,3,14500,29.94,NA,"BKN  ft; OVC  ft","CYQG 060700Z AUTO 29003KT 9SM BKN170 OVC230 13/09 A2994 RMK SLP138",2025-09-06 07:39:08.279124,2025-09-06 03:39:08.279124
"CYVV",2025-09-06 07:00:00,2025-09-06 03:00:00,"VFR",14,7,63,250,10,9999,29.83,NA,"SCT  ft; BKN  ft; OVC  ft","CYVV 060700Z 25010G16KT 220V280 10SM SCT040 BKN060 OVC070 14/07 A2983 RMK CU3CU4AC1 SLP104",2025-09-06 07:39:08.342842,2025-09-06 03:39:08.342842
"CYYZ",2025-09-06 07:00:00,2025-09-06 03:00:00,"VFR",11,6,72,250,5,24100,29.9,NA,"FEW  ft","CYYZ 060700Z 25005KT 15SM FEW250 11/06 A2990 RMK CI1 CI TR SLP127",2025-09-06 07:39:08.408109,2025-09-06 03:39:08.408109
"CYQA",2025-09-06 07:00:00,2025-09-06 03:00:00,"VFR",12,7,72,230,5,14500,29.82,NA,"BKN  ft","CYQA 060700Z AUTO 23005KT 9SM BKN050 12/07 A2982 RMK SLP102",2025-09-06 07:39:08.472822,2025-09-06 03:39:08.472822
"CYVR",2025-09-06 07:00:00,2025-09-06 03:00:00,"VFR",19,17,88,60,4,9999,29.83,NA,"SCT  ft; SCT  ft","CYVR 060700Z 06004KT 10SM SCT098 SCT220 19/17 A2983 RMK HZ2AC1CI1 SLP103 DENSITY ALT 600FT",2025-09-06 07:39:08.540814,2025-09-06 03:39:08.540814
"CYYJ",2025-09-06 07:24:00,2025-09-06 03:24:00,"VFR",15,13,88,140,7,48300,29.84,NA,"BKN  ft; OVC  ft","CYYJ 060724Z 14007KT 060V150 30SM BKN110 OVC200 15/13 A2984 RMK AC6CS4 INTMT -RA SLP107",2025-09-06 07:39:08.606742,2025-09-06 03:39:08.606742
"CYLW",2025-09-06 07:00:00,2025-09-06 03:00:00,"VFR",14,10,77,50,3,11300,29.84,NA,"OVC  ft","CYLW 060700Z AUTO 05003KT 7SM OVC140 14/10 A2984 RMK SLP105 DENSITY ALT 1800FT",2025-09-06 07:39:08.716527,2025-09-06 03:39:08.716527
"CYXS",2025-09-06 07:20:00,2025-09-06 03:20:00,"MVFR",9,9,100,90,4,8000,29.89,NA,"CLR  ft","CYXS 060720Z AUTO 09004KT 080V140 5SM BR CLR 09/09 A2989 RMK SLP133",2025-09-06 07:39:08.785051,2025-09-06 03:39:08.785051
"CYXT",2025-09-06 07:00:00,2025-09-06 03:00:00,"VFR",16,16,100,200,3,24100,29.87,NA,"SKC  ft","CYXT 060700Z 20003KT 15SM SKC 16/16 A2987 RMK FU SLP120 DENSITY ALT 1100FT",2025-09-06 07:39:08.852691,2025-09-06 03:39:08.852691
"CYQQ",2025-09-06 07:00:00,2025-09-06 03:00:00,"VFR",18,15,83,320,2,32200,29.85,NA,"SCT  ft","CYQQ 060700Z 32002KT 20SM SCT210 18/15 A2985 RMK CC4 DENSITY ALT 708FT SLP108",2025-09-06 07:39:08.922109,2025-09-06 03:39:08.922109
"CYYC",2025-09-06 07:00:00,2025-09-06 03:00:00,"VFR",12,2,51,180,5,9999,30,NA,"SKC  ft","CYYC 060700Z 18005KT 10SM SKC 12/02 A3000 RMK SLP167 DENSITY ALT 4000FT",2025-09-06 07:39:08.989748,2025-09-06 03:39:08.989748
"CYEG",2025-09-06 07:00:00,2025-09-06 03:00:00,"VFR",9,3,66,170,5,32200,29.96,NA,"FEW  ft","CYEG 060700Z 17005KT 20SM FEW250 09/03 A2996 RMK CI1 CI TR SLP155",2025-09-06 07:39:09.056728,2025-09-06 03:39:09.056728
"CYMM",2025-09-06 07:00:00,2025-09-06 03:00:00,"VFR",9,5,76,110,8,14500,29.99,NA,"CLR  ft","CYMM 060700Z AUTO 11008KT 9SM CLR 09/05 A2999 RMK SLP167",2025-09-06 07:39:09.126467,2025-09-06 03:39:09.126467
"CYQF",2025-09-06 07:00:00,2025-09-06 03:00:00,"VFR",10,2,58,180,9,14500,29.99,NA,"CLR  ft","CYQF 060700Z AUTO 18009KT 9SM CLR 10/02 A2999 RMK SLP165",2025-09-06 07:39:09.191531,2025-09-06 03:39:09.191531
"CYXE",2025-09-06 07:00:00,2025-09-06 03:00:00,"VFR",6,3,81,180,5,24100,30.09,NA,"SKC  ft","CYXE 060700Z 18005KT 15SM SKC 06/03 A3009 RMK SLP208",2025-09-06 07:39:09.260981,2025-09-06 03:39:09.260981
"CYQR",2025-09-06 07:00:00,2025-09-06 03:00:00,"VFR",0,0,100,250,7,24100,30.1,NA,"FEW  ft","CYQR 060700Z 25007KT 15SM FEW120 00/M00 A3010 RMK AC1 AC TR SLP216",2025-09-06 07:39:09.331941,2025-09-06 03:39:09.331941
"CYWG",2025-09-06 07:00:00,2025-09-06 03:00:00,"VFR",8,8,100,280,6,24100,29.92,NA,"FEW  ft; BKN  ft; BKN  ft","CYWG 060700Z 28006KT 15SM FEW027 BKN067 BKN130 08/08 A2992 RMK SC2AC4AC1 SLP141",2025-09-06 07:39:09.439351,2025-09-06 03:39:09.439351
"CYBR",2025-09-06 07:00:00,2025-09-06 03:00:00,"VFR",7,6,93,260,8,14500,30.01,NA,"OVC  ft","CYBR 060700Z AUTO 26008KT 9SM OVC091 07/06 A3001 RMK SLP176",2025-09-06 07:39:09.50765,2025-09-06 03:39:09.50765
"CYUL",2025-09-06 07:00:00,2025-09-06 03:00:00,"VFR",15,11,77,240,8,24100,29.87,NA,"BKN  ft","CYUL 060700Z 24008KT 15SM BKN050 15/11 A2987 RMK SC6 SLP117",2025-09-06 07:39:09.57409,2025-09-06 03:39:09.57409
"CYHU",2025-09-06 07:00:00,2025-09-06 03:00:00,"VFR",15,12,82,230,10,14500,29.86,NA,"FEW  ft","CYHU 060700Z AUTO 23010KT 9SM FEW050 15/12 A2986 RMK SLP113 DENSITY ALT 300FT",2025-09-06 07:39:09.641335,2025-09-06 03:39:09.641335
"CYQB",2025-09-06 07:00:00,2025-09-06 03:00:00,"VFR",15,13,88,240,6,24100,29.8,NA,"SCT  ft","CYQB 060700Z 24006KT 15SM SCT051 15/13 A2980 RMK SC4 SLP095 DENSITY ALT 500FT",2025-09-06 07:39:09.711473,2025-09-06 03:39:09.711473
"CYVO",2025-09-06 07:25:00,2025-09-06 03:25:00,"VFR",8,7,93,200,7,14500,29.67,NA,"FEW  ft; OVC  ft","CYVO 060725Z AUTO 20007KT 9SM -RA FEW034 OVC048 08/07 A2967 RMK SLP062",2025-09-06 07:39:09.778001,2025-09-06 03:39:09.778001
"CYUY",2025-09-06 07:00:00,2025-09-06 03:00:00,"MVFR",8,6,87,220,10,24100,29.64,NA,"BKN  ft; BKN  ft","CYUY 060700Z 22010G17KT 15SM BKN030 BKN140 08/06 A2964 RMK SC6AC1 SLP047",2025-09-06 07:39:09.843403,2025-09-06 03:39:09.843403
"CYZV",2025-09-06 07:00:00,2025-09-06 03:00:00,"MVFR",16,15,94,0,2,24100,29.73,NA,"OVC  ft","CYZV 060700Z VRB02KT 15SM OVC028 16/15 A2973 RMK SC8 SLP070 DENSITY ALT 600FT",2025-09-06 07:39:09.909875,2025-09-06 03:39:09.909875
"CYBC",2025-09-06 07:00:00,2025-09-06 03:00:00,"VFR",16,15,94,240,6,14500,29.7,NA,"BKN  ft; BKN  ft; BKN  ft; OVC  ft","CYBC 060700Z AUTO 24006KT 9SM BKN035 BKN050 BKN066 OVC180 16/15 A2970 RMK SLP061 DENSITY ALT 500FT",2025-09-06 07:39:09.976243,2025-09-06 03:39:09.976243
"CYRJ",2025-09-06 07:00:00,2025-09-06 03:00:00,"VFR",11,11,100,200,3,40200,29.72,NA,"FEW  ft","CYRJ 060700Z 20003KT 25SM FEW025 11/11 A2972 RMK SC1 SLP068",2025-09-06 07:39:10.047736,2025-09-06 03:39:10.047736
"CYHZ",2025-09-06 07:00:00,2025-09-06 03:00:00,"VFR",18,18,100,190,9,24100,30.06,NA,"FEW  ft; FEW  ft; BKN  ft","CYHZ 060700Z 19009G15KT 15SM FEW005 FEW065 BKN350 18/18 A3006 RMK SF1SC1CI4 SLP182 DENSITY ALT 800FT",2025-09-06 07:39:10.114751,2025-09-06 03:39:10.114751
"CYYG",2025-09-06 07:00:00,2025-09-06 03:00:00,"VFR",20,18,88,180,12,24100,30,NA,"FEW  ft","CYYG 060700Z 18012G18KT 15SM FEW040 20/18 A3000 RMK SC1 SLP161 DENSITY ALT 700FT",2025-09-06 07:39:10.181656,2025-09-06 03:39:10.181656
"CYQM",2025-09-06 07:00:00,2025-09-06 03:00:00,"MVFR",17,16,94,150,8,24100,29.96,NA,"BKN  ft; BKN  ft; BKN  ft; BKN  ft","CYQM 060700Z 15008KT 15SM BKN025 BKN032 BKN082 BKN260 17/16 A2996 RMK SC6SC1AC1CI1 SC TR AC TR SLP149 DENSITY ALT 500FT",2025-09-06 07:39:10.247703,2025-09-06 03:39:10.247703
"CYFC",2025-09-06 07:00:00,2025-09-06 03:00:00,"IFR",18,17,94,180,9,14500,29.91,NA,"OVC  ft","CYFC 060700Z AUTO 18009KT 9SM OVC008 18/17 A2991 RMK SLP131 DENSITY ALT 500FT",2025-09-06 07:39:10.312019,2025-09-06 03:39:10.312019
"CYYT",2025-09-06 07:00:00,2025-09-06 03:00:00,"LIFR",11,11,100,210,7,NA,30.24,NA,"OVX  ft","CYYT 060700Z 21007KT 1/2SM R28/4500V6000FT/N R16/4500VP6000FT/U FG VV002 11/11 A3024 RMK FG8 SLP246",2025-09-06 07:39:10.377972,2025-09-06 03:39:10.377972
"CYQY",2025-09-06 07:09:00,2025-09-06 03:09:00,"LIFR",19,19,100,180,5,2400,30.09,NA,"OVC  ft","CYQY 060709Z 18005KT 1 1/2SM BR OVC002 19/19 A3009 RMK SC8 SLP192 DENSITY ALT 500FT",2025-09-06 07:39:10.445648,2025-09-06 03:39:10.445648
"CYXY",2025-09-06 07:00:00,2025-09-06 03:00:00,"VFR",16,9,63,340,7,24100,29.87,NA,"FEW  ft; BKN  ft","CYXY 060700Z 34007KT 15SM FEW074 BKN100 16/09 A2987 RMK AC2AC4 SLP124 DENSITY ALT 3100FT",2025-09-06 07:39:10.512064,2025-09-06 03:39:10.512064
"CYZF",2025-09-06 07:00:00,2025-09-06 03:00:00,"VFR",12,7,72,120,10,24100,29.91,NA,"SKC  ft","CYZF 060700Z 12010G15KT 15SM SKC 12/07 A2991 RMK SLP139",2025-09-06 07:39:10.577907,2025-09-06 03:39:10.577907
"CYFB",2025-09-06 07:00:00,2025-09-06 03:00:00,"VFR",2,1,93,120,12,24100,29.84,NA,"BKN  ft; OVC  ft","CYFB 060700Z 12012KT 15SM -RA BKN033 OVC078 02/01 A2984 RMK SC6AC2 SLP108",2025-09-06 07:39:10.643797,2025-09-06 03:39:10.643797
"CYRT",2025-09-06 07:00:00,2025-09-06 03:00:00,"MVFR",4,1,81,20,18,24100,29.92,NA,"OVC  ft","CYRT 060700Z 02018G24KT 15SM OVC017 04/01 A2992 RMK SC8 SLP137",2025-09-06 07:39:10.708681,2025-09-06 03:39:10.708681
"CYBK",2025-09-06 07:00:00,2025-09-06 03:00:00,"MVFR",5,1,76,360,5,24100,30.06,NA,"OVC  ft","CYBK 060700Z 36005KT 15SM OVC028 05/01 A3006 RMK SC8 SLP182",2025-09-06 07:39:10.772947,2025-09-06 03:39:10.772947
"CYRB",2025-09-06 07:00:00,2025-09-06 03:00:00,"VFR",-1,-2,93,170,10,48300,30.12,NA,"SCT  ft","CYRB 060700Z 17010KT 30SM SCT010 M01/M02 A3012 RMK ST4 SLP207",2025-09-06 07:39:10.851144,2025-09-06 03:39:10.851144
"CYCO",2025-09-06 07:00:00,2025-09-06 03:00:00,"VFR",12,6,67,180,11,24100,29.79,NA,"SCT  ft","CYCO 060700Z 18011KT 15SM SCT120 12/06 A2979 RMK AC4 AURBO SLP090",2025-09-06 07:39:10.916317,2025-09-06 03:39:10.916317
"CYER",2025-09-06 08:07:00,2025-09-06 04:07:00,"IFR",6,6,100,360,7,14500,29.55,NA,"BKN  ft; OVC  ft","CYER 060807Z AUTO 36007KT 9SM BKN009 OVC013 06/06 A2955 RMK SLP009",2025-09-06 08:25:10.907806,2025-09-06 04:25:10.907806
"CYAT",2025-09-06 08:00:00,2025-09-06 04:00:00,"IFR",10,10,100,330,8,14500,29.3,NA,"OVC  ft","CYAT 060800Z AUTO 33008G17KT 9SM OVC006 10/10 A2930 RMK SLP923",2025-09-06 08:25:10.994394,2025-09-06 04:25:10.994394
"CYMO",2025-09-06 08:00:00,2025-09-06 04:00:00,"MVFR",7,6,93,230,11,14500,29.41,NA,"BKN  ft; OVC  ft","CYMO 060800Z AUTO 23011G19KT 9SM BKN013 OVC019 07/06 A2941 RMK SLP962",2025-09-06 08:25:11.06933,2025-09-06 04:25:11.06933
"CYPL",2025-09-06 08:00:00,2025-09-06 04:00:00,"MVFR",5,3,87,290,11,14500,29.69,NA,"BKN  ft; OVC  ft","CYPL 060800Z AUTO 29011G17KT 9SM BKN015 OVC022 05/03 A2969 RMK SLP070",2025-09-06 08:25:11.15237,2025-09-06 04:25:11.15237
"CYQT",2025-09-06 08:00:00,2025-09-06 04:00:00,"VFR",6,3,81,280,6,24100,29.76,NA,"FEW  ft; SCT  ft","CYQT 060800Z 28006KT 15SM FEW041 SCT180 06/03 A2976 RMK SC1AC3 SLP085",2025-09-06 08:25:11.235756,2025-09-06 04:25:11.235756
"CYAM",2025-09-06 08:00:00,2025-09-06 04:00:00,"VFR",9,7,87,240,10,32200,29.74,NA,"OVC  ft","CYAM 060800Z 24010KT 20SM OVC052 09/07 A2974 RMK SC8 SLP079",2025-09-06 08:25:11.324574,2025-09-06 04:25:11.324574
"CYTS",2025-09-06 08:00:00,2025-09-06 04:00:00,"MVFR",7,6,93,220,6,24100,29.61,NA,"OVC  ft","CYTS 060800Z 22006KT 190V270 15SM OVC028 07/06 A2961 RMK SC8 SLP039",2025-09-06 08:25:11.391788,2025-09-06 04:25:11.391788
"CYSB",2025-09-06 08:00:00,2025-09-06 04:00:00,"VFR",9,8,94,220,9,24100,29.73,NA,"FEW  ft; BKN  ft","CYSB 060800Z 22009G15KT 15SM FEW008 BKN035 09/08 A2973 RMK SF2SC5 SLP075",2025-09-06 08:25:11.474975,2025-09-06 04:25:11.474975
"CYYB",2025-09-06 08:00:00,2025-09-06 04:00:00,"VFR",10,8,88,230,9,14500,29.76,NA,"FEW  ft","CYYB 060800Z AUTO 23009G18KT 9SM FEW043 10/08 A2976 RMK SLP085",2025-09-06 08:25:11.558692,2025-09-06 04:25:11.558692
"CYOW",2025-09-06 08:00:00,2025-09-06 04:00:00,"VFR",11,10,94,190,3,24100,29.88,NA,"FEW  ft","CYOW 060800Z 19003KT 15SM FEW070 11/10 A2988 RMK AC2 SLP121",2025-09-06 08:25:11.634341,2025-09-06 04:25:11.634341
"CYGK",2025-09-06 03:00:00,2025-09-05 23:00:00,"VFR",17,11,68,300,7,24100,29.83,NA,"FEW  ft; SCT  ft","CYGK 060300Z 30007KT 15SM FEW080 SCT250 17/11 A2983 RMK AC2CI2 LAST STFD OBS/ NXT 061000Z PRESRR SLP105 DENSITY ALT 800FT",2025-09-06 08:25:11.714027,2025-09-06 04:25:11.714027
"CYQG",2025-09-06 08:00:00,2025-09-06 04:00:00,"VFR",11,10,94,170,5,14500,29.94,NA,"OVC  ft","CYQG 060800Z AUTO 17005KT 9SM OVC160 11/10 A2994 RMK SLP140",2025-09-06 08:25:11.792567,2025-09-06 04:25:11.792567
"CYVV",2025-09-06 08:00:00,2025-09-06 04:00:00,"VFR",14,8,67,250,11,9999,29.82,NA,"FEW  ft; BKN  ft; OVC  ft","CYVV 060800Z 25011KT 210V300 10SM FEW030 BKN060 OVC070 14/08 A2982 RMK CU2CU5AC1 SLP103",2025-09-06 08:25:11.873164,2025-09-06 04:25:11.873164
"CYYZ",2025-09-06 08:00:00,2025-09-06 04:00:00,"VFR",12,6,67,200,4,24100,29.9,NA,"SCT  ft","CYYZ 060800Z 20004KT 15SM SCT250 12/06 A2990 RMK CI4 SLP129",2025-09-06 08:25:11.949514,2025-09-06 04:25:11.949514
"CYQA",2025-09-06 08:00:00,2025-09-06 04:00:00,"VFR",11,6,72,230,4,14500,29.83,NA,"BKN  ft; BKN  ft","CYQA 060800Z AUTO 23004KT 190V250 9SM BKN055 BKN240 11/06 A2983 RMK SLP104",2025-09-06 08:25:12.02787,2025-09-06 04:25:12.02787
"CYVR",2025-09-06 08:00:00,2025-09-06 04:00:00,"VFR",18,16,88,90,4,9999,29.82,NA,"SCT  ft; SCT  ft","CYVR 060800Z 09004KT 10SM SCT097 SCT220 18/16 A2982 RMK HZ1AC3CI1 CI TR SLP100 DENSITY ALT 500FT",2025-09-06 08:25:12.104413,2025-09-06 04:25:12.104413
"CYYJ",2025-09-06 08:00:00,2025-09-06 04:00:00,"VFR",15,13,88,0,0,48300,29.84,NA,"FEW  ft; BKN  ft; OVC  ft","CYYJ 060800Z 00000KT 30SM FEW120 BKN150 OVC200 15/13 A2984 RMK AC2AC3CS3 SLP107",2025-09-06 08:25:12.181923,2025-09-06 04:25:12.181923
"CYLW",2025-09-06 08:00:00,2025-09-06 04:00:00,"VFR",13,10,82,0,0,12900,29.86,NA,"FEW  ft","CYLW 060800Z AUTO 00000KT 8SM FEW140 13/10 A2986 RMK SLP110",2025-09-06 08:25:12.26298,2025-09-06 04:25:12.26298
"CYXS",2025-09-06 08:03:00,2025-09-06 04:03:00,"VFR",10,10,100,180,4,9700,29.9,NA,"FEW  ft","CYXS 060803Z AUTO 18004KT 6SM BR FEW140 10/10 A2990 RMK SLP133",2025-09-06 08:25:12.299718,2025-09-06 04:25:12.299718
"CYXT",2025-09-06 08:00:00,2025-09-06 04:00:00,"VFR",16,16,100,0,0,24100,29.89,NA,"SKC  ft","CYXT 060800Z 00000KT 15SM SKC 16/16 A2989 RMK FU SLP124 DENSITY ALT 1100FT",2025-09-06 08:25:12.37684,2025-09-06 04:25:12.37684
"CYQQ",2025-09-06 08:00:00,2025-09-06 04:00:00,"VFR",17,15,88,320,3,32200,29.86,NA,"BKN  ft","CYQQ 060800Z 32003KT 20SM BKN210 17/15 A2986 RMK CC5 DENSITY ALT 673FT SLP110",2025-09-06 08:25:12.45397,2025-09-06 04:25:12.45397
"CYYC",2025-09-06 08:00:00,2025-09-06 04:00:00,"VFR",12,2,51,180,4,9999,30.01,NA,"SKC  ft","CYYC 060800Z 18004KT 10SM SKC 12/02 A3001 RMK SLP166 DENSITY ALT 4100FT",2025-09-06 08:25:12.533609,2025-09-06 04:25:12.533609
"CYEG",2025-09-06 08:00:00,2025-09-06 04:00:00,"VFR",11,2,54,160,7,32200,29.96,NA,"SKC  ft","CYEG 060800Z 16007KT 20SM SKC 11/02 A2996 RMK SLP152",2025-09-06 08:25:12.569142,2025-09-06 04:25:12.569142
"CYMM",2025-09-06 08:00:00,2025-09-06 04:00:00,"VFR",8,5,82,110,6,14500,29.99,NA,"CLR  ft","CYMM 060800Z AUTO 11006KT 9SM CLR 08/05 A2999 RMK SLP167",2025-09-06 08:25:12.646572,2025-09-06 04:25:12.646572
"CYQF",2025-09-06 08:00:00,2025-09-06 04:00:00,"VFR",8,1,62,150,5,14500,29.99,NA,"CLR  ft","CYQF 060800Z AUTO 15005KT 9SM CLR 08/01 A2999 RMK SLP168",2025-09-06 08:25:12.724735,2025-09-06 04:25:12.724735
"CYXE",2025-09-06 08:00:00,2025-09-06 04:00:00,"VFR",5,3,87,180,7,24100,30.1,NA,"SKC  ft","CYXE 060800Z 18007KT 15SM SKC 05/03 A3010 RMK SLP209",2025-09-06 08:25:12.75763,2025-09-06 04:25:12.75763
"CYQR",2025-09-06 08:00:00,2025-09-06 04:00:00,"VFR",2,0,87,320,2,24100,30.11,NA,"FEW  ft","CYQR 060800Z 32002KT 15SM FEW120 02/00 A3011 RMK AC1 AC TR SLP217",2025-09-06 08:25:12.833393,2025-09-06 04:25:12.833393
"CYWG",2025-09-06 08:00:00,2025-09-06 04:00:00,"VFR",9,8,94,280,8,24100,29.93,NA,"FEW  ft; SCT  ft; BKN  ft; BKN  ft","CYWG 060800Z 28008KT 15SM FEW018 SCT042 BKN070 BKN120 09/08 A2993 RMK SF1SC2AC3AC1 SLP143",2025-09-06 08:25:12.908779,2025-09-06 04:25:12.908779
"CYBR",2025-09-06 08:00:00,2025-09-06 04:00:00,"VFR",6,5,93,270,8,14500,30.01,NA,"OVC  ft","CYBR 060800Z AUTO 27008KT 9SM OVC091 06/05 A3001 RMK SLP178",2025-09-06 08:25:12.986806,2025-09-06 04:25:12.986806
"CYUL",2025-09-06 08:00:00,2025-09-06 04:00:00,"VFR",15,11,77,260,7,24100,29.89,NA,"SCT  ft; SCT  ft; BKN  ft","CYUL 060800Z 26007KT 15SM SCT060 SCT120 BKN250 15/11 A2989 RMK SC3AC1CI2 SLP123",2025-09-06 08:25:13.063933,2025-09-06 04:25:13.063933
"CYHU",2025-09-06 08:00:00,2025-09-06 04:00:00,"VFR",14,11,82,250,7,14500,29.88,NA,"CLR  ft","CYHU 060800Z AUTO 25007KT 9SM CLR 14/11 A2988 RMK SLP121",2025-09-06 08:25:13.142409,2025-09-06 04:25:13.142409
"CYQB",2025-09-06 08:00:00,2025-09-06 04:00:00,"VFR",13,12,94,260,4,24100,29.83,NA,"FEW  ft; SCT  ft","CYQB 060800Z 26004KT 15SM FEW056 SCT120 13/12 A2983 RMK SC1AC3 SC TR SLP105",2025-09-06 08:25:13.224615,2025-09-06 04:25:13.224615
"CYVO",2025-09-06 08:00:00,2025-09-06 04:00:00,"VFR",8,7,93,200,7,14500,29.68,NA,"FEW  ft; BKN  ft; OVC  ft","CYVO 060800Z AUTO 20007KT 9SM -RA FEW033 BKN040 OVC050 08/07 A2968 RMK SLP061",2025-09-06 08:25:13.300839,2025-09-06 04:25:13.300839
"CYUY",2025-09-06 08:00:00,2025-09-06 04:00:00,"MVFR",9,6,82,230,11,24100,29.66,NA,"BKN  ft; BKN  ft","CYUY 060800Z 23011KT 15SM BKN028 BKN110 09/06 A2966 RMK SC6AC1 SLP052",2025-09-06 08:25:13.377651,2025-09-06 04:25:13.377651
"CYZV",2025-09-06 08:00:00,2025-09-06 04:00:00,"MVFR",17,15,88,200,3,24100,29.73,NA,"OVC  ft","CYZV 060800Z 20003KT 140V220 15SM OVC027 17/15 A2973 RMK SC8 SLP069 DENSITY ALT 700FT",2025-09-06 08:25:13.454602,2025-09-06 04:25:13.454602
"CYBC",2025-09-06 08:00:00,2025-09-06 04:00:00,"VFR",15,15,100,230,6,14500,29.71,NA,"FEW  ft; BKN  ft","CYBC 060800Z AUTO 23006KT 9SM FEW120 BKN150 15/15 A2971 RMK SLP063 DENSITY ALT 400FT",2025-09-06 08:25:13.532161,2025-09-06 04:25:13.532161
"CYRJ",2025-09-06 08:00:00,2025-09-06 04:00:00,"VFR",11,10,94,210,4,40200,29.73,NA,"SKC  ft","CYRJ 060800Z 21004KT 25SM SKC 11/10 A2973 RMK SLP073",2025-09-06 08:25:13.615229,2025-09-06 04:25:13.615229
"CYHZ",2025-09-06 08:00:00,2025-09-06 04:00:00,"VFR",17,17,100,190,8,24100,30.07,NA,"FEW  ft; FEW  ft; BKN  ft","CYHZ 060800Z 19008KT 15SM FEW007 FEW054 BKN330 17/17 A3007 RMK SF1SC1CI3 SLP184 DENSITY ALT 700FT",2025-09-06 08:25:13.692654,2025-09-06 04:25:13.692654
"CYYG",2025-09-06 08:00:00,2025-09-06 04:00:00,"MVFR",20,18,88,200,12,24100,30,NA,"BKN  ft","CYYG 060800Z 20012KT 15SM BKN030 20/18 A3000 RMK SC6 SLP162 DENSITY ALT 700FT",2025-09-06 08:25:13.768112,2025-09-06 04:25:13.768112
"CYQM",2025-09-06 08:00:00,2025-09-06 04:00:00,"MVFR",17,16,94,160,10,24100,29.96,NA,"BKN  ft; BKN  ft; BKN  ft","CYQM 060800Z 16010KT 15SM BKN025 BKN082 BKN260 17/16 A2996 RMK SC7AC1CI1 AC TR CI TR SLP148 DENSITY ALT 600FT",2025-09-06 08:25:13.849502,2025-09-06 04:25:13.849502
"CYFC",2025-09-06 08:00:00,2025-09-06 04:00:00,"IFR",18,17,94,190,6,14500,29.93,NA,"OVC  ft","CYFC 060800Z AUTO 19006KT 9SM OVC008 18/17 A2993 RMK SLP137 DENSITY ALT 500FT",2025-09-06 08:25:13.924769,2025-09-06 04:25:13.924769
"CYYT",2025-09-06 08:00:00,2025-09-06 04:00:00,"LIFR",12,12,100,180,8,NA,30.23,NA,"OVX  ft","CYYT 060800Z 18008KT 1/2SM R28/6000FT/U R16/P6000FT/U FG VV002 12/12 A3023 RMK FG8 SLP242",2025-09-06 08:25:14.001844,2025-09-06 04:25:14.001844
"CYQY",2025-09-06 08:16:00,2025-09-06 04:16:00,"LIFR",19,19,100,210,5,2400,30.1,NA,"OVC  ft","CYQY 060816Z 21005KT 1 1/2SM -DZ BR OVC003 19/19 A3010 RMK ST8 SLP194 DENSITY ALT 500FT",2025-09-06 08:25:14.082454,2025-09-06 04:25:14.082454
"CYXY",2025-09-06 08:00:00,2025-09-06 04:00:00,"VFR",15,9,68,340,6,24100,29.88,NA,"FEW  ft; BKN  ft; BKN  ft","CYXY 060800Z 34006KT 15SM FEW072 BKN140 BKN170 15/09 A2988 RMK AC1AC4AC1 SLP129 DENSITY ALT 3000FT",2025-09-06 08:25:14.121267,2025-09-06 04:25:14.121267
"CYZF",2025-09-06 08:00:00,2025-09-06 04:00:00,"VFR",12,8,77,130,10,24100,29.9,NA,"FEW  ft","CYZF 060800Z 13010KT 15SM FEW180 12/08 A2990 RMK AC2 SLP135",2025-09-06 08:25:14.203694,2025-09-06 04:25:14.203694
"CYFB",2025-09-06 08:00:00,2025-09-06 04:00:00,"VFR",3,1,87,120,11,24100,29.8,NA,"OVC  ft","CYFB 060800Z 12011KT 15SM -RA OVC033 03/01 A2980 RMK SC8 SLP096",2025-09-06 08:25:14.278919,2025-09-06 04:25:14.278919
"CYRT",2025-09-06 08:00:00,2025-09-06 04:00:00,"MVFR",4,1,81,360,17,24100,29.92,NA,"OVC  ft","CYRT 060800Z 36017KT 15SM OVC018 04/01 A2992 RMK SC8 SLP136",2025-09-06 08:25:14.357652,2025-09-06 04:25:14.357652
"CYBK",2025-09-06 08:00:00,2025-09-06 04:00:00,"MVFR",5,3,87,330,7,24100,30.06,NA,"OVC  ft","CYBK 060800Z 33007KT 15SM OVC016 05/03 A3006 RMK SC8 SLP182",2025-09-06 08:25:14.433654,2025-09-06 04:25:14.433654
"CYRB",2025-09-06 08:00:00,2025-09-06 04:00:00,"VFR",-1,-2,93,180,10,48300,30.11,NA,"SCT  ft","CYRB 060800Z 18010KT 30SM SCT010 M01/M02 A3011 RMK ST4 SLP206",2025-09-06 08:25:14.509751,2025-09-06 04:25:14.509751
"CYCO",2025-09-06 08:00:00,2025-09-06 04:00:00,"VFR",13,6,63,180,14,24100,29.77,NA,"BKN  ft","CYCO 060800Z 18014KT 15SM BKN110 13/06 A2977 RMK AC7 SLP085",2025-09-06 08:25:14.602409,2025-09-06 04:25:14.602409
"CYER",2025-09-06 08:07:00,2025-09-06 04:07:00,"IFR",6,6,100,360,7,14500,29.55,NA,"BKN  ft; OVC  ft","CYER 060807Z AUTO 36007KT 9SM BKN009 OVC013 06/06 A2955 RMK SLP009",2025-09-06 08:41:56.003215,2025-09-06 04:41:56.003215
"CYAT",2025-09-06 08:00:00,2025-09-06 04:00:00,"IFR",10,10,100,330,8,14500,29.3,NA,"OVC  ft","CYAT 060800Z AUTO 33008G17KT 9SM OVC006 10/10 A2930 RMK SLP923",2025-09-06 08:41:56.060713,2025-09-06 04:41:56.060713
"CYMO",2025-09-06 08:00:00,2025-09-06 04:00:00,"MVFR",7,6,93,230,11,14500,29.41,NA,"BKN  ft; OVC  ft","CYMO 060800Z AUTO 23011G19KT 9SM BKN013 OVC019 07/06 A2941 RMK SLP962",2025-09-06 08:41:56.149926,2025-09-06 04:41:56.149926
"CYPL",2025-09-06 08:23:00,2025-09-06 04:23:00,"MVFR",5,3,87,290,12,14500,29.69,NA,"SCT  ft; BKN  ft; OVC  ft","CYPL 060823Z AUTO 29012G19KT 9SM -RA SCT015 BKN021 OVC027 05/03 A2969 RMK SLP073",2025-09-06 08:41:56.238467,2025-09-06 04:41:56.238467
"CYQT",2025-09-06 08:00:00,2025-09-06 04:00:00,"VFR",6,3,81,280,6,24100,29.76,NA,"FEW  ft; SCT  ft","CYQT 060800Z 28006KT 15SM FEW041 SCT180 06/03 A2976 RMK SC1AC3 SLP085",2025-09-06 08:41:56.328808,2025-09-06 04:41:56.328808
"CYAM",2025-09-06 08:00:00,2025-09-06 04:00:00,"VFR",9,7,87,240,10,32200,29.74,NA,"OVC  ft","CYAM 060800Z 24010KT 20SM OVC052 09/07 A2974 RMK SC8 SLP079",2025-09-06 08:41:56.378641,2025-09-06 04:41:56.378641
"CYTS",2025-09-06 08:00:00,2025-09-06 04:00:00,"MVFR",7,6,93,220,6,24100,29.61,NA,"OVC  ft","CYTS 060800Z 22006KT 190V270 15SM OVC028 07/06 A2961 RMK SC8 SLP039",2025-09-06 08:41:56.468311,2025-09-06 04:41:56.468311
"CYSB",2025-09-06 08:00:00,2025-09-06 04:00:00,"VFR",9,8,94,220,9,24100,29.73,NA,"FEW  ft; BKN  ft","CYSB 060800Z 22009G15KT 15SM FEW008 BKN035 09/08 A2973 RMK SF2SC5 SLP075",2025-09-06 08:41:56.523326,2025-09-06 04:41:56.523326
"CYYB",2025-09-06 08:00:00,2025-09-06 04:00:00,"VFR",10,8,88,230,9,14500,29.76,NA,"FEW  ft","CYYB 060800Z AUTO 23009G18KT 9SM FEW043 10/08 A2976 RMK SLP085",2025-09-06 08:41:56.615417,2025-09-06 04:41:56.615417
"CYOW",2025-09-06 08:00:00,2025-09-06 04:00:00,"VFR",11,10,94,190,3,24100,29.88,NA,"FEW  ft","CYOW 060800Z 19003KT 15SM FEW070 11/10 A2988 RMK AC2 SLP121",2025-09-06 08:41:56.701015,2025-09-06 04:41:56.701015
"CYGK",2025-09-06 03:00:00,2025-09-05 23:00:00,"VFR",17,11,68,300,7,24100,29.83,NA,"FEW  ft; SCT  ft","CYGK 060300Z 30007KT 15SM FEW080 SCT250 17/11 A2983 RMK AC2CI2 LAST STFD OBS/ NXT 061000Z PRESRR SLP105 DENSITY ALT 800FT",2025-09-06 08:41:56.790146,2025-09-06 04:41:56.790146
"CYQG",2025-09-06 08:00:00,2025-09-06 04:00:00,"VFR",11,10,94,170,5,14500,29.94,NA,"OVC  ft","CYQG 060800Z AUTO 17005KT 9SM OVC160 11/10 A2994 RMK SLP140",2025-09-06 08:41:56.878124,2025-09-06 04:41:56.878124
"CYVV",2025-09-06 08:00:00,2025-09-06 04:00:00,"VFR",14,8,67,250,11,9999,29.82,NA,"FEW  ft; BKN  ft; OVC  ft","CYVV 060800Z 25011KT 210V300 10SM FEW030 BKN060 OVC070 14/08 A2982 RMK CU2CU5AC1 SLP103",2025-09-06 08:41:56.966705,2025-09-06 04:41:56.966705
"CYYZ",2025-09-06 08:00:00,2025-09-06 04:00:00,"VFR",12,6,67,200,4,24100,29.9,NA,"SCT  ft","CYYZ 060800Z 20004KT 15SM SCT250 12/06 A2990 RMK CI4 SLP129",2025-09-06 08:41:57.058086,2025-09-06 04:41:57.058086
"CYQA",2025-09-06 08:00:00,2025-09-06 04:00:00,"VFR",11,6,72,230,4,14500,29.83,NA,"BKN  ft; BKN  ft","CYQA 060800Z AUTO 23004KT 190V250 9SM BKN055 BKN240 11/06 A2983 RMK SLP104",2025-09-06 08:41:57.105269,2025-09-06 04:41:57.105269
"CYVR",2025-09-06 08:00:00,2025-09-06 04:00:00,"VFR",18,16,88,90,4,9999,29.82,NA,"SCT  ft; SCT  ft","CYVR 060800Z 09004KT 10SM SCT097 SCT220 18/16 A2982 RMK HZ1AC3CI1 CI TR SLP100 DENSITY ALT 500FT",2025-09-06 08:41:57.193569,2025-09-06 04:41:57.193569
"CYYJ",2025-09-06 08:00:00,2025-09-06 04:00:00,"VFR",15,13,88,0,0,48300,29.84,NA,"FEW  ft; BKN  ft; OVC  ft","CYYJ 060800Z 00000KT 30SM FEW120 BKN150 OVC200 15/13 A2984 RMK AC2AC3CS3 SLP107",2025-09-06 08:41:57.281384,2025-09-06 04:41:57.281384
"CYLW",2025-09-06 08:00:00,2025-09-06 04:00:00,"VFR",13,10,82,0,0,12900,29.86,NA,"FEW  ft","CYLW 060800Z AUTO 00000KT 8SM FEW140 13/10 A2986 RMK SLP110",2025-09-06 08:41:57.371572,2025-09-06 04:41:57.371572
"CYXS",2025-09-06 08:03:00,2025-09-06 04:03:00,"VFR",10,10,100,180,4,9700,29.9,NA,"FEW  ft","CYXS 060803Z AUTO 18004KT 6SM BR FEW140 10/10 A2990 RMK SLP133",2025-09-06 08:41:57.429709,2025-09-06 04:41:57.429709
"CYXT",2025-09-06 08:00:00,2025-09-06 04:00:00,"VFR",16,16,100,0,0,24100,29.89,NA,"SKC  ft","CYXT 060800Z 00000KT 15SM SKC 16/16 A2989 RMK FU SLP124 DENSITY ALT 1100FT",2025-09-06 08:41:57.521575,2025-09-06 04:41:57.521575
"CYQQ",2025-09-06 08:00:00,2025-09-06 04:00:00,"VFR",17,15,88,320,3,32200,29.86,NA,"BKN  ft","CYQQ 060800Z 32003KT 20SM BKN210 17/15 A2986 RMK CC5 DENSITY ALT 673FT SLP110",2025-09-06 08:41:57.579175,2025-09-06 04:41:57.579175
"CYYC",2025-09-06 08:00:00,2025-09-06 04:00:00,"VFR",12,2,51,180,4,9999,30.01,NA,"SKC  ft","CYYC 060800Z 18004KT 10SM SKC 12/02 A3001 RMK SLP166 DENSITY ALT 4100FT",2025-09-06 08:41:57.66832,2025-09-06 04:41:57.66832
"CYEG",2025-09-06 08:00:00,2025-09-06 04:00:00,"VFR",11,2,54,160,7,32200,29.96,NA,"SKC  ft","CYEG 060800Z 16007KT 20SM SKC 11/02 A2996 RMK SLP152",2025-09-06 08:41:57.76023,2025-09-06 04:41:57.76023
"CYMM",2025-09-06 08:00:00,2025-09-06 04:00:00,"VFR",8,5,82,110,6,14500,29.99,NA,"CLR  ft","CYMM 060800Z AUTO 11006KT 9SM CLR 08/05 A2999 RMK SLP167",2025-09-06 08:41:57.854732,2025-09-06 04:41:57.854732
"CYQF",2025-09-06 08:00:00,2025-09-06 04:00:00,"VFR",8,1,62,150,5,14500,29.99,NA,"CLR  ft","CYQF 060800Z AUTO 15005KT 9SM CLR 08/01 A2999 RMK SLP168",2025-09-06 08:41:57.903252,2025-09-06 04:41:57.903252
"CYXE",2025-09-06 08:00:00,2025-09-06 04:00:00,"VFR",5,3,87,180,7,24100,30.1,NA,"SKC  ft","CYXE 060800Z 18007KT 15SM SKC 05/03 A3010 RMK SLP209",2025-09-06 08:41:57.95025,2025-09-06 04:41:57.95025
"CYQR",2025-09-06 08:00:00,2025-09-06 04:00:00,"VFR",2,0,87,320,2,24100,30.11,NA,"FEW  ft","CYQR 060800Z 32002KT 15SM FEW120 02/00 A3011 RMK AC1 AC TR SLP217",2025-09-06 08:41:58.034735,2025-09-06 04:41:58.034735
"CYWG",2025-09-06 08:00:00,2025-09-06 04:00:00,"VFR",9,8,94,280,8,24100,29.93,NA,"FEW  ft; SCT  ft; BKN  ft; BKN  ft","CYWG 060800Z 28008KT 15SM FEW018 SCT042 BKN070 BKN120 09/08 A2993 RMK SF1SC2AC3AC1 SLP143",2025-09-06 08:41:58.121686,2025-09-06 04:41:58.121686
"CYBR",2025-09-06 08:00:00,2025-09-06 04:00:00,"VFR",6,5,93,270,8,14500,30.01,NA,"OVC  ft","CYBR 060800Z AUTO 27008KT 9SM OVC091 06/05 A3001 RMK SLP178",2025-09-06 08:41:58.211786,2025-09-06 04:41:58.211786
"CYUL",2025-09-06 08:00:00,2025-09-06 04:00:00,"VFR",15,11,77,260,7,24100,29.89,NA,"SCT  ft; SCT  ft; BKN  ft","CYUL 060800Z 26007KT 15SM SCT060 SCT120 BKN250 15/11 A2989 RMK SC3AC1CI2 SLP123",2025-09-06 08:41:58.299745,2025-09-06 04:41:58.299745
"CYHU",2025-09-06 08:00:00,2025-09-06 04:00:00,"VFR",14,11,82,250,7,14500,29.88,NA,"CLR  ft","CYHU 060800Z AUTO 25007KT 9SM CLR 14/11 A2988 RMK SLP121",2025-09-06 08:41:58.349493,2025-09-06 04:41:58.349493
"CYQB",2025-09-06 08:00:00,2025-09-06 04:00:00,"VFR",13,12,94,260,4,24100,29.83,NA,"FEW  ft; SCT  ft","CYQB 060800Z 26004KT 15SM FEW056 SCT120 13/12 A2983 RMK SC1AC3 SC TR SLP105",2025-09-06 08:41:58.43853,2025-09-06 04:41:58.43853
"CYVO",2025-09-06 08:29:00,2025-09-06 04:29:00,"MVFR",8,7,93,210,9,11300,29.69,NA,"FEW  ft; SCT  ft; BKN  ft; OVC  ft","CYVO 060829Z AUTO 21009G17KT 7SM -RA FEW017 SCT023 BKN029 OVC046 08/07 A2969 RMK SLP068",2025-09-06 08:41:58.529838,2025-09-06 04:41:58.529838
"CYUY",2025-09-06 08:00:00,2025-09-06 04:00:00,"MVFR",9,6,82,230,11,24100,29.66,NA,"BKN  ft; BKN  ft","CYUY 060800Z 23011KT 15SM BKN028 BKN110 09/06 A2966 RMK SC6AC1 SLP052",2025-09-06 08:41:58.61821,2025-09-06 04:41:58.61821
"CYZV",2025-09-06 08:00:00,2025-09-06 04:00:00,"MVFR",17,15,88,200,3,24100,29.73,NA,"OVC  ft","CYZV 060800Z 20003KT 140V220 15SM OVC027 17/15 A2973 RMK SC8 SLP069 DENSITY ALT 700FT",2025-09-06 08:41:58.716884,2025-09-06 04:41:58.716884
"CYBC",2025-09-06 08:00:00,2025-09-06 04:00:00,"VFR",15,15,100,230,6,14500,29.71,NA,"FEW  ft; BKN  ft","CYBC 060800Z AUTO 23006KT 9SM FEW120 BKN150 15/15 A2971 RMK SLP063 DENSITY ALT 400FT",2025-09-06 08:41:58.772492,2025-09-06 04:41:58.772492
"CYRJ",2025-09-06 08:00:00,2025-09-06 04:00:00,"VFR",11,10,94,210,4,40200,29.73,NA,"SKC  ft","CYRJ 060800Z 21004KT 25SM SKC 11/10 A2973 RMK SLP073",2025-09-06 08:41:58.82656,2025-09-06 04:41:58.82656
"CYHZ",2025-09-06 08:27:00,2025-09-06 04:27:00,"IFR",18,18,100,190,12,24100,30.07,NA,"BKN  ft","CYHZ 060827Z 19012G18KT 15SM BKN007 18/18 A3007 RMK ST6 SLP186 DENSITY ALT 800FT",2025-09-06 08:41:58.919112,2025-09-06 04:41:58.919112
"CYYG",2025-09-06 08:00:00,2025-09-06 04:00:00,"MVFR",20,18,88,200,12,24100,30,NA,"BKN  ft","CYYG 060800Z 20012KT 15SM BKN030 20/18 A3000 RMK SC6 SLP162 DENSITY ALT 700FT",2025-09-06 08:41:59.015415,2025-09-06 04:41:59.015415
"CYQM",2025-09-06 08:26:00,2025-09-06 04:26:00,"MVFR",18,16,88,170,9,19300,29.97,NA,"BKN  ft; BKN  ft","CYQM 060826Z 17009KT 12SM BKN015 BKN260 18/16 A2997 RMK SC7CI1 CI TR SLP151 DENSITY ALT 600FT",2025-09-06 08:41:59.107645,2025-09-06 04:41:59.107645
"CYFC",2025-09-06 08:00:00,2025-09-06 04:00:00,"IFR",18,17,94,190,6,14500,29.93,NA,"OVC  ft","CYFC 060800Z AUTO 19006KT 9SM OVC008 18/17 A2993 RMK SLP137 DENSITY ALT 500FT",2025-09-06 08:41:59.205913,2025-09-06 04:41:59.205913
"CYYT",2025-09-06 08:27:00,2025-09-06 04:27:00,"LIFR",12,12,100,190,7,2000,30.23,NA,"OVC  ft","CYYT 060827Z 19007KT 1 1/4SM BR OVC002 12/12 A3023 RMK ST8 SLP242",2025-09-06 08:41:59.304075,2025-09-06 04:41:59.304075
"CYQY",2025-09-06 08:16:00,2025-09-06 04:16:00,"LIFR",19,19,100,210,5,2400,30.1,NA,"OVC  ft","CYQY 060816Z 21005KT 1 1/2SM -DZ BR OVC003 19/19 A3010 RMK ST8 SLP194 DENSITY ALT 500FT",2025-09-06 08:41:59.402962,2025-09-06 04:41:59.402962
"CYXY",2025-09-06 08:00:00,2025-09-06 04:00:00,"VFR",15,9,68,340,6,24100,29.88,NA,"FEW  ft; BKN  ft; BKN  ft","CYXY 060800Z 34006KT 15SM FEW072 BKN140 BKN170 15/09 A2988 RMK AC1AC4AC1 SLP129 DENSITY ALT 3000FT",2025-09-06 08:41:59.454067,2025-09-06 04:41:59.454067
"CYZF",2025-09-06 08:00:00,2025-09-06 04:00:00,"VFR",12,8,77,130,10,24100,29.9,NA,"FEW  ft","CYZF 060800Z 13010KT 15SM FEW180 12/08 A2990 RMK AC2 SLP135",2025-09-06 08:41:59.544783,2025-09-06 04:41:59.544783
"CYFB",2025-09-06 08:00:00,2025-09-06 04:00:00,"VFR",3,1,87,120,11,24100,29.8,NA,"OVC  ft","CYFB 060800Z 12011KT 15SM -RA OVC033 03/01 A2980 RMK SC8 SLP096",2025-09-06 08:41:59.640136,2025-09-06 04:41:59.640136
"CYRT",2025-09-06 08:00:00,2025-09-06 04:00:00,"MVFR",4,1,81,360,17,24100,29.92,NA,"OVC  ft","CYRT 060800Z 36017KT 15SM OVC018 04/01 A2992 RMK SC8 SLP136",2025-09-06 08:41:59.731081,2025-09-06 04:41:59.731081
"CYBK",2025-09-06 08:00:00,2025-09-06 04:00:00,"MVFR",5,3,87,330,7,24100,30.06,NA,"OVC  ft","CYBK 060800Z 33007KT 15SM OVC016 05/03 A3006 RMK SC8 SLP182",2025-09-06 08:41:59.825857,2025-09-06 04:41:59.825857
"CYRB",2025-09-06 08:29:00,2025-09-06 04:29:00,"IFR",-1,-2,93,190,12,48300,30.12,NA,"OVC  ft","CYRB 060829Z 19012KT 30SM OVC008 M01/M02 A3012 RMK ST8 SLP209",2025-09-06 08:41:59.918867,2025-09-06 04:41:59.918867
"CYCO",2025-09-06 08:00:00,2025-09-06 04:00:00,"VFR",13,6,63,180,14,24100,29.77,NA,"BKN  ft","CYCO 060800Z 18014KT 15SM BKN110 13/06 A2977 RMK AC7 SLP085",2025-09-06 08:41:59.984308,2025-09-06 04:41:59.984308
"CYER",2025-09-06 09:10:00,2025-09-06 05:10:00,"IFR",6,6,100,330,6,14500,29.56,NA,"OVC  ft","CYER 060910Z AUTO 33006KT 9SM OVC009 06/06 A2956 RMK SLP014",2025-09-06 09:19:45.149875,2025-09-06 05:19:45.149875
"CYAT",2025-09-06 09:00:00,2025-09-06 05:00:00,"IFR",10,10,100,330,8,14500,29.33,NA,"BKN  ft; OVC  ft","CYAT 060900Z AUTO 33008KT 9SM BKN008 OVC011 10/10 A2933 RMK SLP934",2025-09-06 09:19:45.25549,2025-09-06 05:19:45.25549
"CYMO",2025-09-06 09:04:00,2025-09-06 05:04:00,"IFR",7,6,93,230,14,8000,29.43,NA,"BKN  ft; OVC  ft","CYMO 060904Z AUTO 23014KT 5SM BR BKN009 OVC013 07/06 A2943 RMK SLP968",2025-09-06 09:19:45.391387,2025-09-06 05:19:45.391387
"CYPL",2025-09-06 09:00:00,2025-09-06 05:00:00,"MVFR",5,4,93,300,9,14500,29.7,NA,"FEW  ft; BKN  ft; OVC  ft","CYPL 060900Z AUTO 30009G16KT 9SM -RA FEW010 BKN016 OVC020 05/04 A2970 RMK SLP076",2025-09-06 09:19:45.487796,2025-09-06 05:19:45.487796
"CYQT",2025-09-06 09:00:00,2025-09-06 05:00:00,"VFR",6,3,81,280,8,24100,29.78,NA,"BKN  ft","CYQT 060900Z 28008KT 15SM BKN033 06/03 A2978 RMK SC5 SLP093",2025-09-06 09:19:45.590846,2025-09-06 05:19:45.590846
"CYAM",2025-09-06 09:00:00,2025-09-06 05:00:00,"VFR",9,7,87,250,10,32200,29.75,NA,"FEW  ft; BKN  ft; OVC  ft","CYAM 060900Z 25010G16KT 20SM FEW013 BKN045 OVC070 09/07 A2975 RMK SC1SC7AC1 SC TR SLP081",2025-09-06 09:19:45.725569,2025-09-06 05:19:45.725569
"CYTS",2025-09-06 09:00:00,2025-09-06 05:00:00,"MVFR",7,6,93,250,3,24100,29.64,NA,"OVC  ft","CYTS 060900Z 25003KT 190V290 15SM -RA OVC014 07/06 A2964 RMK SC8 SLP047",2025-09-06 09:19:45.86026,2025-09-06 05:19:45.86026
"CYSB",2025-09-06 09:00:00,2025-09-06 05:00:00,"VFR",9,7,87,240,8,24100,29.75,NA,"FEW  ft; SCT  ft; OVC  ft","CYSB 060900Z 24008KT 15SM FEW032 SCT057 OVC086 09/07 A2975 RMK SC1SC2AC5 SLP081",2025-09-06 09:19:45.956745,2025-09-06 05:19:45.956745
"CYYB",2025-09-06 09:00:00,2025-09-06 05:00:00,"VFR",10,8,88,240,10,14500,29.76,NA,"FEW  ft","CYYB 060900Z AUTO 24010G16KT 9SM FEW020 10/08 A2976 RMK SLP086",2025-09-06 09:19:46.051773,2025-09-06 05:19:46.051773
"CYOW",2025-09-06 09:00:00,2025-09-06 05:00:00,"VFR",10,9,94,190,5,24100,29.9,NA,"FEW  ft","CYOW 060900Z 19005KT 15SM FEW100 10/09 A2990 RMK AC1 SLP127",2025-09-06 09:19:46.147297,2025-09-06 05:19:46.147297
"CYGK",2025-09-06 03:00:00,2025-09-05 23:00:00,"VFR",17,11,68,300,7,24100,29.83,NA,"FEW  ft; SCT  ft","CYGK 060300Z 30007KT 15SM FEW080 SCT250 17/11 A2983 RMK AC2CI2 LAST STFD OBS/ NXT 061000Z PRESRR SLP105 DENSITY ALT 800FT",2025-09-06 09:19:46.245074,2025-09-06 05:19:46.245074
"CYQG",2025-09-06 09:00:00,2025-09-06 05:00:00,"VFR",12,10,88,190,5,14500,29.94,NA,"OVC  ft","CYQG 060900Z AUTO 19005KT 9SM OVC150 12/10 A2994 RMK SLP139",2025-09-06 09:19:46.342477,2025-09-06 05:19:46.342477
"CYVV",2025-09-06 09:00:00,2025-09-06 05:00:00,"VFR",14,7,63,250,9,9999,29.82,NA,"FEW  ft; BKN  ft; BKN  ft","CYVV 060900Z 25009G15KT 230V290 10SM FEW035 BKN055 BKN120 14/07 A2982 RMK CU2CU4AC1 SLP101",2025-09-06 09:19:46.438741,2025-09-06 05:19:46.438741
"CYYZ",2025-09-06 09:00:00,2025-09-06 05:00:00,"VFR",13,6,63,180,6,24100,29.91,NA,"FEW  ft; BKN  ft","CYYZ 060900Z 18006KT 15SM FEW140 BKN160 13/06 A2991 RMK AC1AC7 AC TR SLP129",2025-09-06 09:19:46.53478,2025-09-06 05:19:46.53478
"CYQA",2025-09-06 09:00:00,2025-09-06 05:00:00,"VFR",10,7,82,190,5,14500,29.83,NA,"BKN  ft; OVC  ft","CYQA 060900Z AUTO 19005KT 9SM BKN050 OVC200 10/07 A2983 RMK SLP106",2025-09-06 09:19:46.631127,2025-09-06 05:19:46.631127
"CYVR",2025-09-06 09:00:00,2025-09-06 05:00:00,"VFR",18,18,100,190,8,9999,29.84,NA,"SCT  ft; SCT  ft","CYVR 060900Z 19008KT 10SM SCT097 SCT220 18/18 A2984 RMK HZ1AC2CI1 CI TR SLP107 DENSITY ALT 500FT",2025-09-06 09:19:46.728218,2025-09-06 05:19:46.728218
"CYYJ",2025-09-06 09:00:00,2025-09-06 05:00:00,"VFR",15,13,88,0,0,48300,29.84,NA,"SCT  ft; BKN  ft; BKN  ft","CYYJ 060900Z 00000KT 30SM SCT130 BKN160 BKN200 15/13 A2984 RMK AC3AC2CS2 SLP107",2025-09-06 09:19:46.824722,2025-09-06 05:19:46.824722
"CYLW",2025-09-06 09:00:00,2025-09-06 05:00:00,"VFR",13,9,77,40,3,12900,29.86,NA,"CLR  ft","CYLW 060900Z AUTO 04003KT 8SM CLR 13/09 A2986 RMK SLP110",2025-09-06 09:19:46.924504,2025-09-06 05:19:46.924504
"CYXS",2025-09-06 09:07:00,2025-09-06 05:07:00,"MVFR",9,9,100,220,2,8000,29.9,NA,"CLR  ft","CYXS 060907Z AUTO 22002KT 5SM BR CLR 09/09 A2990 RMK SLP135",2025-09-06 09:19:47.020402,2025-09-06 05:19:47.020402
"CYXT",2025-09-06 09:00:00,2025-09-06 05:00:00,"VFR",15,15,100,230,2,24100,29.89,NA,"SKC  ft","CYXT 060900Z 23002KT 15SM SKC 15/15 A2989 RMK FU SLP124 DENSITY ALT 1000FT",2025-09-06 09:19:47.118443,2025-09-06 05:19:47.118443
"CYQQ",2025-09-06 09:00:00,2025-09-06 05:00:00,"VFR",18,15,83,330,5,32200,29.86,NA,"BKN  ft","CYQQ 060900Z 33005KT 20SM BKN160 18/15 A2986 RMK AC5 DENSITY ALT 717FT SLP110",2025-09-06 09:19:47.214553,2025-09-06 05:19:47.214553
"CYYC",2025-09-06 09:00:00,2025-09-06 05:00:00,"VFR",11,1,50,150,2,9999,30,NA,"SKC  ft","CYYC 060900Z 15002KT 10SM SKC 11/01 A3000 RMK SLP164 DENSITY ALT 3900FT",2025-09-06 09:19:47.310847,2025-09-06 05:19:47.310847
"CYEG",2025-09-06 09:00:00,2025-09-06 05:00:00,"VFR",9,2,62,170,7,32200,29.95,NA,"FEW  ft","CYEG 060900Z 17007KT 20SM FEW250 09/02 A2995 RMK CI1 CI TR SLP150",2025-09-06 09:19:47.408352,2025-09-06 05:19:47.408352
"CYMM",2025-09-06 09:00:00,2025-09-06 05:00:00,"VFR",8,4,76,120,6,14500,29.99,NA,"CLR  ft","CYMM 060900Z AUTO 12006KT 9SM CLR 08/04 A2999 RMK SLP167",2025-09-06 09:19:47.509366,2025-09-06 05:19:47.509366
"CYQF",2025-09-06 09:00:00,2025-09-06 05:00:00,"VFR",7,1,66,160,4,14500,29.98,NA,"CLR  ft","CYQF 060900Z AUTO 16004KT 9SM CLR 07/01 A2998 RMK SLP163",2025-09-06 09:19:47.60582,2025-09-06 05:19:47.60582
"CYXE",2025-09-06 09:00:00,2025-09-06 05:00:00,"VFR",5,3,87,180,7,24100,30.09,NA,"SKC  ft","CYXE 060900Z 18007KT 15SM SKC 05/03 A3009 RMK SLP207",2025-09-06 09:19:47.700134,2025-09-06 05:19:47.700134
"CYQR",2025-09-06 09:00:00,2025-09-06 05:00:00,"VFR",3,1,87,0,0,24100,30.11,NA,"SKC  ft","CYQR 060900Z 00000KT 15SM SKC 03/01 A3011 RMK SLP216",2025-09-06 09:19:47.796346,2025-09-06 05:19:47.796346
"CYWG",2025-09-06 09:00:00,2025-09-06 05:00:00,"VFR",9,8,94,280,7,24100,29.94,NA,"BKN  ft","CYWG 060900Z 28007KT 15SM BKN061 09/08 A2994 RMK SC6 SLP145",2025-09-06 09:19:47.892045,2025-09-06 05:19:47.892045
"CYBR",2025-09-06 09:00:00,2025-09-06 05:00:00,"VFR",4,3,93,250,6,14500,30.02,NA,"CLR  ft","CYBR 060900Z AUTO 25006KT 9SM CLR 04/03 A3002 RMK SLP182",2025-09-06 09:19:47.987832,2025-09-06 05:19:47.987832
"CYUL",2025-09-06 09:00:00,2025-09-06 05:00:00,"VFR",14,10,77,260,5,24100,29.9,NA,"FEW  ft; FEW  ft","CYUL 060900Z 26005KT 15SM FEW025 FEW250 14/10 A2990 RMK CF1CI1 CF TR SLP127",2025-09-06 09:19:48.126741,2025-09-06 05:19:48.126741
"CYHU",2025-09-06 09:00:00,2025-09-06 05:00:00,"VFR",14,12,88,220,7,14500,29.9,NA,"CLR  ft","CYHU 060900Z AUTO 22007KT 9SM CLR 14/12 A2990 RMK SLP127",2025-09-06 09:19:48.22321,2025-09-06 05:19:48.22321
"CYQB",2025-09-06 09:00:00,2025-09-06 05:00:00,"VFR",12,11,94,240,7,24100,29.86,NA,"FEW  ft; SCT  ft","CYQB 060900Z 24007KT 15SM FEW057 SCT120 12/11 A2986 RMK SC1AC3 SLP113",2025-09-06 09:19:48.319507,2025-09-06 05:19:48.319507
"CYVO",2025-09-06 09:00:00,2025-09-06 05:00:00,"VFR",8,7,93,210,6,14500,29.7,NA,"FEW  ft; SCT  ft; OVC  ft","CYVO 060900Z AUTO 21006KT 9SM FEW032 SCT043 OVC100 08/07 A2970 RMK PCPN 0.5MM PAST HR SLP068",2025-09-06 09:19:48.416015,2025-09-06 05:19:48.416015
"CYUY",2025-09-06 09:00:00,2025-09-06 05:00:00,"VFR",9,6,82,230,10,24100,29.68,NA,"OVC  ft","CYUY 060900Z 23010KT 15SM OVC031 09/06 A2968 RMK SC8 SLP058",2025-09-06 09:19:48.514882,2025-09-06 05:19:48.514882
"CYZV",2025-09-06 09:00:00,2025-09-06 05:00:00,"VFR",15,14,94,190,2,24100,29.72,NA,"SCT  ft; BKN  ft; BKN  ft","CYZV 060900Z 19002KT 15SM SCT034 BKN045 BKN160 15/14 A2972 RMK SC4SC1AC2 SLP068 DENSITY ALT 500FT",2025-09-06 09:19:48.611209,2025-09-06 05:19:48.611209
"CYBC",2025-09-06 09:00:00,2025-09-06 05:00:00,"VFR",16,14,88,230,9,14500,29.73,NA,"OVC  ft","CYBC 060900Z AUTO 23009KT 9SM OVC130 16/14 A2973 RMK SLP069 DENSITY ALT 500FT",2025-09-06 09:19:48.748034,2025-09-06 05:19:48.748034
"CYRJ",2025-09-06 09:00:00,2025-09-06 05:00:00,"VFR",10,10,100,190,6,40200,29.76,NA,"SKC  ft","CYRJ 060900Z 19006KT 25SM SKC 10/10 A2976 RMK SLP082",2025-09-06 09:19:48.845219,2025-09-06 05:19:48.845219
"CYHZ",2025-09-06 09:06:00,2025-09-06 05:06:00,"LIFR",18,18,100,200,10,6400,30.08,NA,"BKN  ft; OVC  ft","CYHZ 060906Z 20010KT 4SM -DZ BR BKN004 OVC012 18/18 A3008 RMK ST7SC1 SLP189 DENSITY ALT 800FT",2025-09-06 09:19:48.940102,2025-09-06 05:19:48.940102
"CYYG",2025-09-06 09:00:00,2025-09-06 05:00:00,"MVFR",20,17,83,200,12,24100,30.01,NA,"BKN  ft","CYYG 060900Z 20012G19KT 15SM BKN022 20/17 A3001 RMK SC7 SLP164 DENSITY ALT 700FT",2025-09-06 09:19:49.035777,2025-09-06 05:19:49.035777
"CYQM",2025-09-06 09:00:00,2025-09-06 05:00:00,"MVFR",19,17,88,190,5,19300,29.98,NA,"BKN  ft; BKN  ft","CYQM 060900Z 19005KT 12SM BKN013 BKN260 19/17 A2998 RMK SC7CI1 CI TR SLP154 DENSITY ALT 700FT",2025-09-06 09:19:49.134598,2025-09-06 05:19:49.134598
"CYFC",2025-09-06 09:00:00,2025-09-06 05:00:00,"IFR",18,17,94,190,7,14500,29.95,NA,"OVC  ft","CYFC 060900Z AUTO 19007KT 9SM OVC006 18/17 A2995 RMK SLP143 DENSITY ALT 500FT",2025-09-06 09:19:49.272052,2025-09-06 05:19:49.272052
"CYYT",2025-09-06 09:11:00,2025-09-06 05:11:00,"LIFR",12,12,100,200,8,12900,30.23,NA,"OVC  ft","CYYT 060911Z 20008KT 8SM OVC003 12/12 A3023 RMK SF8 SLP242",2025-09-06 09:19:49.36656,2025-09-06 05:19:49.36656
"CYQY",2025-09-06 09:12:00,2025-09-06 05:12:00,"LIFR",19,19,100,200,6,8000,30.09,NA,"OVC  ft","CYQY 060912Z 20006KT 5SM BR OVC004 19/19 A3009 RMK ST8 SLP192 DENSITY ALT 600FT",2025-09-06 09:19:49.464035,2025-09-06 05:19:49.464035
"CYXY",2025-09-06 09:00:00,2025-09-06 05:00:00,"VFR",15,9,68,350,8,24100,29.9,NA,"SCT  ft; BKN  ft; BKN  ft","CYXY 060900Z 35008KT 15SM SCT082 BKN120 BKN150 15/09 A2990 RMK AC3AC2AC2 SLP135 DENSITY ALT 2900FT",2025-09-06 09:19:49.560996,2025-09-06 05:19:49.560996
"CYZF",2025-09-06 09:00:00,2025-09-06 05:00:00,"VFR",12,8,77,130,10,24100,29.89,NA,"FEW  ft","CYZF 060900Z 13010KT 15SM FEW180 12/08 A2989 RMK AC2 SLP131",2025-09-06 09:19:49.662784,2025-09-06 05:19:49.662784
"CYFB",2025-09-06 09:00:00,2025-09-06 05:00:00,"MVFR",4,1,81,120,12,24100,29.77,NA,"BKN  ft; OVC  ft","CYFB 060900Z 12012G17KT 15SM -RA BKN030 OVC078 04/01 A2977 RMK SC7AC1 SLP086",2025-09-06 09:19:49.758156,2025-09-06 05:19:49.758156
"CYRT",2025-09-06 09:00:00,2025-09-06 05:00:00,"MVFR",4,1,81,20,19,24100,29.93,NA,"OVC  ft","CYRT 060900Z 02019KT 15SM OVC019 04/01 A2993 RMK SC8 SLP139",2025-09-06 09:19:49.852298,2025-09-06 05:19:49.852298
"CYBK",2025-09-06 09:00:00,2025-09-06 05:00:00,"VFR",2,1,93,310,9,24100,30.05,NA,"SCT  ft; BKN  ft","CYBK 060900Z 31009KT 15SM SCT028 BKN052 02/01 A3005 RMK SC4SC2 SLP179",2025-09-06 09:19:49.950363,2025-09-06 05:19:49.950363
"CYRB",2025-09-06 09:00:00,2025-09-06 05:00:00,"IFR",-2,-3,93,190,12,48300,30.12,NA,"OVC  ft","CYRB 060900Z 19012KT 30SM OVC008 M02/M03 A3012 RMK ST8 SLP209",2025-09-06 09:19:50.086976,2025-09-06 05:19:50.086976
"CYCO",2025-09-06 09:00:00,2025-09-06 05:00:00,"VFR",12,7,72,190,15,24100,29.75,NA,"SCT  ft; SCT  ft","CYCO 060900Z 19015KT 15SM SCT100 SCT190 12/07 A2975 RMK AC3AC1 SLP077",2025-09-06 09:19:50.194502,2025-09-06 05:19:50.194502
"CYER",2025-09-06 09:10:00,2025-09-06 05:10:00,"IFR",6,6,100,330,6,14500,29.56,NA,"OVC  ft","CYER 060910Z AUTO 33006KT 9SM OVC009 06/06 A2956 RMK SLP014",2025-09-06 09:38:39.004312,2025-09-06 05:38:39.004312
"CYAT",2025-09-06 09:00:00,2025-09-06 05:00:00,"IFR",10,10,100,330,8,14500,29.33,NA,"BKN  ft; OVC  ft","CYAT 060900Z AUTO 33008KT 9SM BKN008 OVC011 10/10 A2933 RMK SLP934",2025-09-06 09:38:39.104322,2025-09-06 05:38:39.104322
"CYMO",2025-09-06 09:17:00,2025-09-06 05:17:00,"IFR",7,6,93,230,12,9700,29.43,NA,"BKN  ft; OVC  ft","CYMO 060917Z AUTO 23012G20KT 6SM BR BKN009 OVC012 07/06 A2943 RMK SLP970",2025-09-06 09:38:39.202659,2025-09-06 05:38:39.202659
"CYPL",2025-09-06 09:31:00,2025-09-06 05:31:00,"MVFR",4,4,100,300,9,8000,29.71,NA,"BKN  ft; OVC  ft","CYPL 060931Z AUTO 30009G15KT 270V350 5SM -RA BR BKN014 OVC021 04/04 A2971 RMK SLP079",2025-09-06 09:38:39.297958,2025-09-06 05:38:39.297958
"CYQT",2025-09-06 09:00:00,2025-09-06 05:00:00,"VFR",6,3,81,280,8,24100,29.78,NA,"BKN  ft","CYQT 060900Z 28008KT 15SM BKN033 06/03 A2978 RMK SC5 SLP093",2025-09-06 09:38:39.394882,2025-09-06 05:38:39.394882
"CYAM",2025-09-06 09:00:00,2025-09-06 05:00:00,"VFR",9,7,87,250,10,32200,29.75,NA,"FEW  ft; BKN  ft; OVC  ft","CYAM 060900Z 25010G16KT 20SM FEW013 BKN045 OVC070 09/07 A2975 RMK SC1SC7AC1 SC TR SLP081",2025-09-06 09:38:39.488651,2025-09-06 05:38:39.488651
"CYTS",2025-09-06 09:00:00,2025-09-06 05:00:00,"MVFR",7,6,93,250,3,24100,29.64,NA,"OVC  ft","CYTS 060900Z 25003KT 190V290 15SM -RA OVC014 07/06 A2964 RMK SC8 SLP047",2025-09-06 09:38:39.583084,2025-09-06 05:38:39.583084
"CYSB",2025-09-06 09:00:00,2025-09-06 05:00:00,"VFR",9,7,87,240,8,24100,29.75,NA,"FEW  ft; SCT  ft; OVC  ft","CYSB 060900Z 24008KT 15SM FEW032 SCT057 OVC086 09/07 A2975 RMK SC1SC2AC5 SLP081",2025-09-06 09:38:39.677743,2025-09-06 05:38:39.677743
"CYYB",2025-09-06 09:18:00,2025-09-06 05:18:00,"MVFR",10,8,88,230,9,14500,29.77,NA,"BKN  ft","CYYB 060918Z AUTO 23009G19KT 9SM BKN020 10/08 A2977 RMK SLP090",2025-09-06 09:38:39.772485,2025-09-06 05:38:39.772485
"CYOW",2025-09-06 09:00:00,2025-09-06 05:00:00,"VFR",10,9,94,190,5,24100,29.9,NA,"FEW  ft","CYOW 060900Z 19005KT 15SM FEW100 10/09 A2990 RMK AC1 SLP127",2025-09-06 09:38:39.866599,2025-09-06 05:38:39.866599
"CYGK",2025-09-06 03:00:00,2025-09-05 23:00:00,"VFR",17,11,68,300,7,24100,29.83,NA,"FEW  ft; SCT  ft","CYGK 060300Z 30007KT 15SM FEW080 SCT250 17/11 A2983 RMK AC2CI2 LAST STFD OBS/ NXT 061000Z PRESRR SLP105 DENSITY ALT 800FT",2025-09-06 09:38:40.00332,2025-09-06 05:38:40.00332
"CYQG",2025-09-06 09:00:00,2025-09-06 05:00:00,"VFR",12,10,88,190,5,14500,29.94,NA,"OVC  ft","CYQG 060900Z AUTO 19005KT 9SM OVC150 12/10 A2994 RMK SLP139",2025-09-06 09:38:40.097461,2025-09-06 05:38:40.097461
"CYVV",2025-09-06 09:00:00,2025-09-06 05:00:00,"VFR",14,7,63,250,9,9999,29.82,NA,"FEW  ft; BKN  ft; BKN  ft","CYVV 060900Z 25009G15KT 230V290 10SM FEW035 BKN055 BKN120 14/07 A2982 RMK CU2CU4AC1 SLP101",2025-09-06 09:38:40.231715,2025-09-06 05:38:40.231715
"CYYZ",2025-09-06 09:00:00,2025-09-06 05:00:00,"VFR",13,6,63,180,6,24100,29.91,NA,"FEW  ft; BKN  ft","CYYZ 060900Z 18006KT 15SM FEW140 BKN160 13/06 A2991 RMK AC1AC7 AC TR SLP129",2025-09-06 09:38:40.325759,2025-09-06 05:38:40.325759
"CYQA",2025-09-06 09:00:00,2025-09-06 05:00:00,"VFR",10,7,82,190,5,14500,29.83,NA,"BKN  ft; OVC  ft","CYQA 060900Z AUTO 19005KT 9SM BKN050 OVC200 10/07 A2983 RMK SLP106",2025-09-06 09:38:40.458378,2025-09-06 05:38:40.458378
"CYVR",2025-09-06 09:00:00,2025-09-06 05:00:00,"VFR",18,18,100,190,8,9999,29.84,NA,"SCT  ft; SCT  ft","CYVR 060900Z 19008KT 10SM SCT097 SCT220 18/18 A2984 RMK HZ1AC2CI1 CI TR SLP107 DENSITY ALT 500FT",2025-09-06 09:38:40.552774,2025-09-06 05:38:40.552774
"CYYJ",2025-09-06 09:00:00,2025-09-06 05:00:00,"VFR",15,13,88,0,0,48300,29.84,NA,"SCT  ft; BKN  ft; BKN  ft","CYYJ 060900Z 00000KT 30SM SCT130 BKN160 BKN200 15/13 A2984 RMK AC3AC2CS2 SLP107",2025-09-06 09:38:40.687262,2025-09-06 05:38:40.687262
"CYLW",2025-09-06 09:00:00,2025-09-06 05:00:00,"VFR",13,9,77,40,3,12900,29.86,NA,"CLR  ft","CYLW 060900Z AUTO 04003KT 8SM CLR 13/09 A2986 RMK SLP110",2025-09-06 09:38:40.782643,2025-09-06 05:38:40.782643
"CYXS",2025-09-06 09:32:00,2025-09-06 05:32:00,"VFR",9,9,100,0,0,9700,29.91,NA,"CLR  ft","CYXS 060932Z AUTO 00000KT 6SM BR CLR 09/09 A2991 RMK SLP135",2025-09-06 09:38:40.875956,2025-09-06 05:38:40.875956
"CYXT",2025-09-06 09:00:00,2025-09-06 05:00:00,"VFR",15,15,100,230,2,24100,29.89,NA,"SKC  ft","CYXT 060900Z 23002KT 15SM SKC 15/15 A2989 RMK FU SLP124 DENSITY ALT 1000FT",2025-09-06 09:38:40.967578,2025-09-06 05:38:40.967578
"CYQQ",2025-09-06 09:00:00,2025-09-06 05:00:00,"VFR",18,15,83,330,5,32200,29.86,NA,"BKN  ft","CYQQ 060900Z 33005KT 20SM BKN160 18/15 A2986 RMK AC5 DENSITY ALT 717FT SLP110",2025-09-06 09:38:41.062253,2025-09-06 05:38:41.062253
"CYYC",2025-09-06 09:00:00,2025-09-06 05:00:00,"VFR",11,1,50,150,2,9999,30,NA,"SKC  ft","CYYC 060900Z 15002KT 10SM SKC 11/01 A3000 RMK SLP164 DENSITY ALT 3900FT",2025-09-06 09:38:41.157352,2025-09-06 05:38:41.157352
"CYEG",2025-09-06 09:00:00,2025-09-06 05:00:00,"VFR",9,2,62,170,7,32200,29.95,NA,"FEW  ft","CYEG 060900Z 17007KT 20SM FEW250 09/02 A2995 RMK CI1 CI TR SLP150",2025-09-06 09:38:41.254308,2025-09-06 05:38:41.254308
"CYMM",2025-09-06 09:00:00,2025-09-06 05:00:00,"VFR",8,4,76,120,6,14500,29.99,NA,"CLR  ft","CYMM 060900Z AUTO 12006KT 9SM CLR 08/04 A2999 RMK SLP167",2025-09-06 09:38:41.348662,2025-09-06 05:38:41.348662
"CYQF",2025-09-06 09:00:00,2025-09-06 05:00:00,"VFR",7,1,66,160,4,14500,29.98,NA,"CLR  ft","CYQF 060900Z AUTO 16004KT 9SM CLR 07/01 A2998 RMK SLP163",2025-09-06 09:38:41.48245,2025-09-06 05:38:41.48245
"CYXE",2025-09-06 09:00:00,2025-09-06 05:00:00,"VFR",5,3,87,180,7,24100,30.09,NA,"SKC  ft","CYXE 060900Z 18007KT 15SM SKC 05/03 A3009 RMK SLP207",2025-09-06 09:38:41.616574,2025-09-06 05:38:41.616574
"CYQR",2025-09-06 09:00:00,2025-09-06 05:00:00,"VFR",3,1,87,0,0,24100,30.11,NA,"SKC  ft","CYQR 060900Z 00000KT 15SM SKC 03/01 A3011 RMK SLP216",2025-09-06 09:38:41.713606,2025-09-06 05:38:41.713606
"CYWG",2025-09-06 09:00:00,2025-09-06 05:00:00,"VFR",9,8,94,280,7,24100,29.94,NA,"BKN  ft","CYWG 060900Z 28007KT 15SM BKN061 09/08 A2994 RMK SC6 SLP145",2025-09-06 09:38:41.803929,2025-09-06 05:38:41.803929
"CYBR",2025-09-06 09:00:00,2025-09-06 05:00:00,"VFR",4,3,93,250,6,14500,30.02,NA,"CLR  ft","CYBR 060900Z AUTO 25006KT 9SM CLR 04/03 A3002 RMK SLP182",2025-09-06 09:38:41.897163,2025-09-06 05:38:41.897163
"CYUL",2025-09-06 09:00:00,2025-09-06 05:00:00,"VFR",14,10,77,260,5,24100,29.9,NA,"FEW  ft; FEW  ft","CYUL 060900Z 26005KT 15SM FEW025 FEW250 14/10 A2990 RMK CF1CI1 CF TR SLP127",2025-09-06 09:38:41.989022,2025-09-06 05:38:41.989022
"CYHU",2025-09-06 09:00:00,2025-09-06 05:00:00,"VFR",14,12,88,220,7,14500,29.9,NA,"CLR  ft","CYHU 060900Z AUTO 22007KT 9SM CLR 14/12 A2990 RMK SLP127",2025-09-06 09:38:42.084684,2025-09-06 05:38:42.084684
"CYQB",2025-09-06 09:00:00,2025-09-06 05:00:00,"VFR",12,11,94,240,7,24100,29.86,NA,"FEW  ft; SCT  ft","CYQB 060900Z 24007KT 15SM FEW057 SCT120 12/11 A2986 RMK SC1AC3 SLP113",2025-09-06 09:38:42.178046,2025-09-06 05:38:42.178046
"CYVO",2025-09-06 09:00:00,2025-09-06 05:00:00,"VFR",8,7,93,210,6,14500,29.7,NA,"FEW  ft; SCT  ft; OVC  ft","CYVO 060900Z AUTO 21006KT 9SM FEW032 SCT043 OVC100 08/07 A2970 RMK PCPN 0.5MM PAST HR SLP068",2025-09-06 09:38:42.272251,2025-09-06 05:38:42.272251
"CYUY",2025-09-06 09:20:00,2025-09-06 05:20:00,"MVFR",9,6,82,230,11,24100,29.68,NA,"OVC  ft","CYUY 060920Z 23011KT 15SM -SHRA OVC025 09/06 A2968 RMK SC8 CVCTV CLD EMBD SLP058",2025-09-06 09:38:42.365392,2025-09-06 05:38:42.365392
"CYZV",2025-09-06 09:00:00,2025-09-06 05:00:00,"VFR",15,14,94,190,2,24100,29.72,NA,"SCT  ft; BKN  ft; BKN  ft","CYZV 060900Z 19002KT 15SM SCT034 BKN045 BKN160 15/14 A2972 RMK SC4SC1AC2 SLP068 DENSITY ALT 500FT",2025-09-06 09:38:42.457714,2025-09-06 05:38:42.457714
"CYBC",2025-09-06 09:00:00,2025-09-06 05:00:00,"VFR",16,14,88,230,9,14500,29.73,NA,"OVC  ft","CYBC 060900Z AUTO 23009KT 9SM OVC130 16/14 A2973 RMK SLP069 DENSITY ALT 500FT",2025-09-06 09:38:42.553376,2025-09-06 05:38:42.553376
"CYRJ",2025-09-06 09:00:00,2025-09-06 05:00:00,"VFR",10,10,100,190,6,40200,29.76,NA,"SKC  ft","CYRJ 060900Z 19006KT 25SM SKC 10/10 A2976 RMK SLP082",2025-09-06 09:38:42.652601,2025-09-06 05:38:42.652601
"CYHZ",2025-09-06 09:21:00,2025-09-06 05:21:00,"IFR",18,18,100,210,11,9999,30.09,NA,"BKN  ft; OVC  ft","CYHZ 060921Z 21011KT 10SM BKN006 OVC012 18/18 A3009 RMK SF5SC3 SLP190 DENSITY ALT 800FT",2025-09-06 09:38:42.74683,2025-09-06 05:38:42.74683
"CYYG",2025-09-06 09:00:00,2025-09-06 05:00:00,"MVFR",20,17,83,200,12,24100,30.01,NA,"BKN  ft","CYYG 060900Z 20012G19KT 15SM BKN022 20/17 A3001 RMK SC7 SLP164 DENSITY ALT 700FT",2025-09-06 09:38:42.881499,2025-09-06 05:38:42.881499
"CYQM",2025-09-06 09:00:00,2025-09-06 05:00:00,"MVFR",19,17,88,190,5,19300,29.98,NA,"BKN  ft; BKN  ft","CYQM 060900Z 19005KT 12SM BKN013 BKN260 19/17 A2998 RMK SC7CI1 CI TR SLP154 DENSITY ALT 700FT",2025-09-06 09:38:42.974871,2025-09-06 05:38:42.974871
"CYFC",2025-09-06 09:00:00,2025-09-06 05:00:00,"IFR",18,17,94,190,7,14500,29.95,NA,"OVC  ft","CYFC 060900Z AUTO 19007KT 9SM OVC006 18/17 A2995 RMK SLP143 DENSITY ALT 500FT",2025-09-06 09:38:43.06732,2025-09-06 05:38:43.06732
"CYYT",2025-09-06 09:34:00,2025-09-06 05:34:00,"LIFR",12,12,100,190,7,24100,30.23,NA,"OVC  ft","CYYT 060934Z 19007KT 15SM OVC004 12/12 A3023 RMK SF8 SLP244",2025-09-06 09:38:43.16155,2025-09-06 05:38:43.16155
"CYQY",2025-09-06 09:26:00,2025-09-06 05:26:00,"LIFR",19,19,100,180,8,11300,30.09,NA,"BKN  ft; OVC  ft","CYQY 060926Z 18008KT 7SM BKN003 OVC014 19/19 A3009 RMK ST6SC2 SLP191 DENSITY ALT 600FT",2025-09-06 09:38:43.25471,2025-09-06 05:38:43.25471
"CYXY",2025-09-06 09:00:00,2025-09-06 05:00:00,"VFR",15,9,68,350,8,24100,29.9,NA,"SCT  ft; BKN  ft; BKN  ft","CYXY 060900Z 35008KT 15SM SCT082 BKN120 BKN150 15/09 A2990 RMK AC3AC2AC2 SLP135 DENSITY ALT 2900FT",2025-09-06 09:38:43.34711,2025-09-06 05:38:43.34711
"CYZF",2025-09-06 09:00:00,2025-09-06 05:00:00,"VFR",12,8,77,130,10,24100,29.89,NA,"FEW  ft","CYZF 060900Z 13010KT 15SM FEW180 12/08 A2989 RMK AC2 SLP131",2025-09-06 09:38:43.445244,2025-09-06 05:38:43.445244
"CYFB",2025-09-06 09:00:00,2025-09-06 05:00:00,"MVFR",4,1,81,120,12,24100,29.77,NA,"BKN  ft; OVC  ft","CYFB 060900Z 12012G17KT 15SM -RA BKN030 OVC078 04/01 A2977 RMK SC7AC1 SLP086",2025-09-06 09:38:43.537852,2025-09-06 05:38:43.537852
"CYRT",2025-09-06 09:00:00,2025-09-06 05:00:00,"MVFR",4,1,81,20,19,24100,29.93,NA,"OVC  ft","CYRT 060900Z 02019KT 15SM OVC019 04/01 A2993 RMK SC8 SLP139",2025-09-06 09:38:43.631652,2025-09-06 05:38:43.631652
"CYBK",2025-09-06 09:00:00,2025-09-06 05:00:00,"VFR",2,1,93,310,9,24100,30.05,NA,"SCT  ft; BKN  ft","CYBK 060900Z 31009KT 15SM SCT028 BKN052 02/01 A3005 RMK SC4SC2 SLP179",2025-09-06 09:38:43.765612,2025-09-06 05:38:43.765612
"CYRB",2025-09-06 09:00:00,2025-09-06 05:00:00,"IFR",-2,-3,93,190,12,48300,30.12,NA,"OVC  ft","CYRB 060900Z 19012KT 30SM OVC008 M02/M03 A3012 RMK ST8 SLP209",2025-09-06 09:38:43.896214,2025-09-06 05:38:43.896214
"CYCO",2025-09-06 09:00:00,2025-09-06 05:00:00,"VFR",12,7,72,190,15,24100,29.75,NA,"SCT  ft; SCT  ft","CYCO 060900Z 19015KT 15SM SCT100 SCT190 12/07 A2975 RMK AC3AC1 SLP077",2025-09-06 09:38:44.002528,2025-09-06 05:38:44.002528
"CYER",2025-09-06 10:00:00,2025-09-06 06:00:00,"MVFR",6,6,100,330,7,14500,29.57,NA,"OVC  ft","CYER 061000Z AUTO 33007KT 9SM OVC011 06/06 A2957 RMK SLP018",2025-09-06 10:20:29.984352,2025-09-06 06:20:29.984352
"CYAT",2025-09-06 10:00:00,2025-09-06 06:00:00,"IFR",10,10,100,320,8,14500,29.36,NA,"BKN  ft; OVC  ft","CYAT 061000Z AUTO 32008G15KT 9SM BKN008 OVC016 10/10 A2936 RMK SLP945",2025-09-06 10:20:30.057786,2025-09-06 06:20:30.057786
"CYMO",2025-09-06 10:07:00,2025-09-06 06:07:00,"MVFR",7,6,93,230,13,14500,29.45,NA,"BKN  ft; OVC  ft","CYMO 061007Z AUTO 23013G21KT 9SM BKN011 OVC014 07/06 A2945 RMK SLP975",2025-09-06 10:20:30.12246,2025-09-06 06:20:30.12246
"CYPL",2025-09-06 10:17:00,2025-09-06 06:17:00,"MVFR",4,4,100,300,8,9700,29.72,NA,"SCT  ft; BKN  ft; BKN  ft; BKN  ft","CYPL 061017Z AUTO 30008G15KT 250V350 6SM -RA BR SCT007 BKN028 BKN045 BKN050 04/04 A2972 RMK SLP082",2025-09-06 10:20:30.18673,2025-09-06 06:20:30.18673
"CYQT",2025-09-06 10:00:00,2025-09-06 06:00:00,"VFR",5,3,87,260,6,24100,29.81,NA,"FEW  ft; SCT  ft","CYQT 061000Z 26006KT 15SM FEW031 SCT220 05/03 A2981 RMK SC2CI2 SLP102",2025-09-06 10:20:30.253985,2025-09-06 06:20:30.253985
"CYAM",2025-09-06 10:00:00,2025-09-06 06:00:00,"VFR",9,7,87,250,8,32200,29.78,NA,"FEW  ft; SCT  ft; OVC  ft","CYAM 061000Z 25008KT 20SM FEW011 SCT044 OVC076 09/07 A2978 RMK SC1SC4AC4 SC TR SLP090",2025-09-06 10:20:30.31509,2025-09-06 06:20:30.31509
"CYTS",2025-09-06 10:13:00,2025-09-06 06:13:00,"MVFR",7,5,87,260,6,24100,29.67,NA,"BKN  ft","CYTS 061013Z 26006KT 210V300 15SM BKN026 07/05 A2967 RMK SC7 SLP058",2025-09-06 10:20:30.378065,2025-09-06 06:20:30.378065
"CYSB",2025-09-06 10:00:00,2025-09-06 06:00:00,"VFR",9,7,87,230,6,24100,29.76,NA,"OVC  ft","CYSB 061000Z 23006KT 15SM OVC077 09/07 A2976 RMK AC8 SLP086",2025-09-06 10:20:30.43868,2025-09-06 06:20:30.43868
"CYYB",2025-09-06 10:00:00,2025-09-06 06:00:00,"VFR",10,9,94,240,10,14500,29.78,NA,"SCT  ft","CYYB 061000Z AUTO 24010G16KT 9SM SCT018 10/09 A2978 RMK SLP091",2025-09-06 10:20:30.53892,2025-09-06 06:20:30.53892
"CYOW",2025-09-06 10:00:00,2025-09-06 06:00:00,"VFR",10,9,94,170,5,24100,29.89,NA,"SCT  ft; BKN  ft; BKN  ft","CYOW 061000Z 17005KT 15SM SCT190 BKN210 BKN230 10/09 A2989 RMK AC4CC1CI1 SLP124",2025-09-06 10:20:30.597476,2025-09-06 06:20:30.597476
"CYGK",2025-09-06 10:00:00,2025-09-06 06:00:00,"VFR",16,6,52,260,9,24100,29.91,NA,"BKN  ft","CYGK 061000Z 26009KT 15SM BKN120 16/06 A2991 RMK AC7 SLP132",2025-09-06 10:20:30.660029,2025-09-06 06:20:30.660029
"CYQG",2025-09-06 10:00:00,2025-09-06 06:00:00,"VFR",12,11,94,220,3,14500,29.96,NA,"BKN  ft; OVC  ft","CYQG 061000Z AUTO 22003KT 9SM BKN055 OVC150 12/11 A2996 RMK SLP146",2025-09-06 10:20:30.720321,2025-09-06 06:20:30.720321
"CYVV",2025-09-06 10:00:00,2025-09-06 06:00:00,"VFR",13,7,67,260,9,9999,29.83,NA,"FEW  ft; SCT  ft; BKN  ft","CYVV 061000Z 26009G21KT 10SM FEW040 SCT120 BKN270 13/07 A2983 RMK CU1AC2CC2 SLP105",2025-09-06 10:20:30.817262,2025-09-06 06:20:30.817262
"CYYZ",2025-09-06 10:00:00,2025-09-06 06:00:00,"VFR",12,7,72,210,5,24100,29.9,NA,"BKN  ft","CYYZ 061000Z 21005KT 15SM BKN150 12/07 A2990 RMK AC7 SLP129",2025-09-06 10:20:30.876015,2025-09-06 06:20:30.876015
"CYQA",2025-09-06 10:00:00,2025-09-06 06:00:00,"VFR",10,7,82,200,6,14500,29.83,NA,"OVC  ft","CYQA 061000Z AUTO 20006KT 9SM OVC048 10/07 A2983 RMK SLP108",2025-09-06 10:20:30.93907,2025-09-06 06:20:30.93907
"CYVR",2025-09-06 10:00:00,2025-09-06 06:00:00,"VFR",17,16,94,90,3,19300,29.85,NA,"FEW  ft; SCT  ft","CYVR 061000Z 09003KT 12SM FEW089 SCT120 17/16 A2985 RMK HZ1AC1AC1 SLP109 DENSITY ALT 400FT",2025-09-06 10:20:30.995517,2025-09-06 06:20:30.995517
"CYYJ",2025-09-06 10:00:00,2025-09-06 06:00:00,"VFR",15,13,88,0,0,48300,29.84,NA,"FEW  ft; SCT  ft","CYYJ 061000Z 00000KT 30SM FEW130 SCT250 15/13 A2984 RMK AC1CI3 SLP108",2025-09-06 10:20:31.05355,2025-09-06 06:20:31.05355
"CYLW",2025-09-06 10:00:00,2025-09-06 06:00:00,"VFR",12,9,82,50,3,12900,29.87,NA,"CLR  ft","CYLW 061000Z AUTO 05003KT 330V060 8SM CLR 12/09 A2987 RMK SLP112",2025-09-06 10:20:31.113874,2025-09-06 06:20:31.113874
"CYXS",2025-09-06 10:00:00,2025-09-06 06:00:00,"VFR",8,7,93,180,2,9700,29.91,NA,"CLR  ft","CYXS 061000Z AUTO 18002KT 6SM BR CLR 08/07 A2991 RMK SLP137",2025-09-06 10:20:31.212213,2025-09-06 06:20:31.212213
"CYXT",2025-09-06 10:00:00,2025-09-06 06:00:00,"VFR",14,14,100,0,2,24100,29.89,NA,"SKC  ft","CYXT 061000Z VRB02KT 15SM SKC 14/14 A2989 RMK FU SLP126",2025-09-06 10:20:31.270911,2025-09-06 06:20:31.270911
"CYQQ",2025-09-06 10:00:00,2025-09-06 06:00:00,"VFR",18,14,78,310,5,24100,29.86,NA,"OVC  ft","CYQQ 061000Z 31005KT 15SM OVC140 18/14 A2986 RMK AC8 DENSITY ALT 749FT SLP112",2025-09-06 10:20:31.332438,2025-09-06 06:20:31.332438
"CYYC",2025-09-06 09:00:00,2025-09-06 05:00:00,"VFR",11,1,50,150,2,9999,30,NA,"SKC  ft","CYYC 060900Z 15002KT 10SM SKC 11/01 A3000 RMK SLP164 DENSITY ALT 3900FT",2025-09-06 10:20:31.393564,2025-09-06 06:20:31.393564
"CYEG",2025-09-06 10:00:00,2025-09-06 06:00:00,"VFR",7,1,66,160,4,32200,29.95,NA,"FEW  ft","CYEG 061000Z 16004KT 20SM FEW250 07/01 A2995 RMK CI2 SLP150",2025-09-06 10:20:31.494138,2025-09-06 06:20:31.494138
"CYMM",2025-09-06 10:00:00,2025-09-06 06:00:00,"VFR",6,4,87,100,5,14500,29.99,NA,"CLR  ft","CYMM 061000Z AUTO 10005KT 9SM CLR 06/04 A2999 RMK SLP166",2025-09-06 10:20:31.563573,2025-09-06 06:20:31.563573
"CYQF",2025-09-06 10:00:00,2025-09-06 06:00:00,"VFR",6,1,71,160,3,14500,29.97,NA,"CLR  ft","CYQF 061000Z AUTO 16003KT 9SM CLR 06/01 A2997 RMK SLP161",2025-09-06 10:20:31.622182,2025-09-06 06:20:31.622182
"CYXE",2025-09-06 10:00:00,2025-09-06 06:00:00,"VFR",5,3,87,180,7,24100,30.09,NA,"SKC  ft","CYXE 061000Z 18007KT 15SM SKC 05/03 A3009 RMK SLP206",2025-09-06 10:20:31.679961,2025-09-06 06:20:31.679961
"CYQR",2025-09-06 10:00:00,2025-09-06 06:00:00,"VFR",-1,-1,100,250,4,24100,30.11,NA,"SKC  ft","CYQR 061000Z 25004KT 15SM SKC M01/M01 A3011 RMK SLP219",2025-09-06 10:20:31.737048,2025-09-06 06:20:31.737048
"CYWG",2025-09-06 10:00:00,2025-09-06 06:00:00,"VFR",8,7,93,290,7,24100,29.95,NA,"BKN  ft; BKN  ft","CYWG 061000Z 29007KT 15SM BKN062 BKN130 08/07 A2995 RMK SC5AC1 SLP150",2025-09-06 10:20:31.795537,2025-09-06 06:20:31.795537
"CYBR",2025-09-06 10:00:00,2025-09-06 06:00:00,"VFR",3,3,100,270,7,14500,30.03,NA,"CLR  ft","CYBR 061000Z AUTO 27007KT 9SM CLR 03/03 A3003 RMK SLP186",2025-09-06 10:20:31.853049,2025-09-06 06:20:31.853049
"CYUL",2025-09-06 10:00:00,2025-09-06 06:00:00,"VFR",14,9,72,290,2,24100,29.91,NA,"SCT  ft; SCT  ft","CYUL 061000Z 29002KT 15SM SCT060 SCT120 14/09 A2991 RMK SC3AC1 SLP131",2025-09-06 10:20:31.910786,2025-09-06 06:20:31.910786
"CYHU",2025-09-06 10:00:00,2025-09-06 06:00:00,"VFR",13,11,88,200,3,14500,29.92,NA,"FEW  ft","CYHU 061000Z AUTO 20003KT 190V260 9SM FEW210 13/11 A2992 RMK SLP134",2025-09-06 10:20:31.972167,2025-09-06 06:20:31.972167
"CYQB",2025-09-06 10:00:00,2025-09-06 06:00:00,"VFR",12,10,88,240,8,48300,29.88,NA,"FEW  ft; FEW  ft; SCT  ft","CYQB 061000Z 24008KT 30SM FEW020 FEW057 SCT120 12/10 A2988 RMK SC1SC1AC2 SC TR SLP120",2025-09-06 10:20:32.029202,2025-09-06 06:20:32.029202
"CYVO",2025-09-06 10:00:00,2025-09-06 06:00:00,"VFR",8,7,93,200,6,24100,29.72,NA,"SCT  ft; BKN  ft","CYVO 061000Z 20006KT 15SM SCT041 BKN080 08/07 A2972 RMK SC4AC3 SLP074",2025-09-06 10:20:32.086522,2025-09-06 06:20:32.086522
"CYUY",2025-09-06 10:00:00,2025-09-06 06:00:00,"VFR",9,6,82,220,12,24100,29.68,NA,"OVC  ft","CYUY 061000Z 22012G19KT 15SM OVC035 09/06 A2968 RMK SC8 SLP060",2025-09-06 10:20:32.146036,2025-09-06 06:20:32.146036
"CYZV",2025-09-06 10:00:00,2025-09-06 06:00:00,"VFR",16,15,94,220,2,48300,29.73,NA,"FEW  ft; SCT  ft; BKN  ft","CYZV 061000Z 22002KT 30SM MIFG FEW021 SCT060TCU BKN120 16/15 A2973 RMK SC2TCU1AC2 TCU DIST E, MIFG FINAL RWY 27 SLP070 DENSITY ALT 600FT",2025-09-06 10:20:32.204937,2025-09-06 06:20:32.204937
"CYBC",2025-09-06 10:00:00,2025-09-06 06:00:00,"VFR",15,14,94,240,9,14500,29.74,NA,"CLR  ft","CYBC 061000Z AUTO 24009KT 9SM CLR 15/14 A2974 RMK SLP073 DENSITY ALT 300FT",2025-09-06 10:20:32.265389,2025-09-06 06:20:32.265389
"CYRJ",2025-09-06 10:00:00,2025-09-06 06:00:00,"VFR",10,10,100,200,6,40200,29.78,NA,"SCT  ft","CYRJ 061000Z 20006KT 25SM SCT050 10/10 A2978 RMK SC3 SLP090",2025-09-06 10:20:32.327684,2025-09-06 06:20:32.327684
"CYHZ",2025-09-06 10:00:00,2025-09-06 06:00:00,"MVFR",18,18,100,210,12,19300,30.09,NA,"SCT  ft; BKN  ft; BKN  ft","CYHZ 061000Z 21012KT 12SM SCT008 BKN014 BKN330 18/18 A3009 RMK SF3SC3CI1 SLP190 DENSITY ALT 800FT",2025-09-06 10:20:32.386134,2025-09-06 06:20:32.386134
"CYYG",2025-09-06 10:00:00,2025-09-06 06:00:00,"MVFR",19,16,83,190,15,24100,30.01,NA,"BKN  ft","CYYG 061000Z 19015G20KT 15SM BKN019 19/16 A3001 RMK SC7 SLP166 DENSITY ALT 700FT",2025-09-06 10:20:32.443909,2025-09-06 06:20:32.443909
"CYQM",2025-09-06 10:00:00,2025-09-06 06:00:00,"MVFR",19,17,88,200,5,24100,29.99,NA,"FEW  ft; BKN  ft; OVC  ft","CYQM 061000Z 20005KT 15SM FEW007 BKN011 OVC240 19/17 A2999 RMK CF1SC7CI1 CF TR SLP157 DENSITY ALT 700FT",2025-09-06 10:20:32.502748,2025-09-06 06:20:32.502748
"CYFC",2025-09-06 10:00:00,2025-09-06 06:00:00,"IFR",18,17,94,180,12,14500,29.94,NA,"OVC  ft","CYFC 061000Z AUTO 18012KT 9SM OVC008 18/17 A2994 RMK SLP142 DENSITY ALT 500FT",2025-09-06 10:20:32.561673,2025-09-06 06:20:32.561673
"CYYT",2025-09-06 10:00:00,2025-09-06 06:00:00,"LIFR",12,12,100,210,11,24100,30.23,NA,"BKN  ft; BKN  ft; BKN  ft","CYYT 061000Z 21011KT 15SM BKN004 BKN130 BKN150 12/12 A3023 RMK SF5AC1AC1 SLP243",2025-09-06 10:20:32.659356,2025-09-06 06:20:32.659356
"CYQY",2025-09-06 10:16:00,2025-09-06 06:16:00,"MVFR",19,19,100,200,6,11300,30.09,NA,"SCT  ft; BKN  ft; BKN  ft","CYQY 061016Z 20006KT 7SM SCT004 BKN011 BKN017 19/19 A3009 RMK SC3SC2SC2 SLP193 DENSITY ALT 600FT",2025-09-06 10:20:32.718173,2025-09-06 06:20:32.718173
"CYXY",2025-09-06 10:00:00,2025-09-06 06:00:00,"VFR",14,10,77,350,6,24100,29.92,NA,"BKN  ft; BKN  ft","CYXY 061000Z 35006KT 15SM BKN045 BKN072 14/10 A2992 RMK SC5AC2 FU SLP138 DENSITY ALT 2800FT",2025-09-06 10:20:32.819317,2025-09-06 06:20:32.819317
"CYZF",2025-09-06 10:00:00,2025-09-06 06:00:00,"VFR",12,9,82,140,14,24100,29.87,NA,"SCT  ft","CYZF 061000Z 14014KT 15SM SCT180 12/09 A2987 RMK AC3 SLP125",2025-09-06 10:20:32.878823,2025-09-06 06:20:32.878823
"CYFB",2025-09-06 10:00:00,2025-09-06 06:00:00,"MVFR",3,2,93,140,8,40200,29.76,NA,"OVC  ft","CYFB 061000Z 14008KT 25SM -RA OVC030 03/02 A2976 RMK SC8 SLP081",2025-09-06 10:20:32.938258,2025-09-06 06:20:32.938258
"CYRT",2025-09-06 10:00:00,2025-09-06 06:00:00,"MVFR",4,1,81,10,17,24100,29.93,NA,"OVC  ft","CYRT 061000Z 01017G26KT 15SM OVC020 04/01 A2993 RMK SC8 SLP139",2025-09-06 10:20:32.997791,2025-09-06 06:20:32.997791
"CYBK",2025-09-06 10:00:00,2025-09-06 06:00:00,"VFR",4,3,93,320,9,24100,30.04,NA,"SCT  ft; BKN  ft","CYBK 061000Z 32009KT 15SM SCT028 BKN052 04/03 A3004 RMK SC3SC4 SLP177",2025-09-06 10:20:33.058856,2025-09-06 06:20:33.058856
"CYRB",2025-09-06 10:00:00,2025-09-06 06:00:00,"IFR",-2,-2,100,170,13,24100,30.12,NA,"OVC  ft","CYRB 061000Z 17013KT 15SM OVC006 M02/M02 A3012 RMK ST8 SLP210",2025-09-06 10:20:33.117902,2025-09-06 06:20:33.117902
"CYCO",2025-09-06 10:00:00,2025-09-06 06:00:00,"VFR",12,7,72,190,9,9999,29.74,NA,"BKN  ft; OVC  ft","CYCO 061000Z 19009G16KT 10SM -RA BKN110 OVC150 12/07 A2974 RMK AC7AC1 SLP073",2025-09-06 10:20:33.190985,2025-09-06 06:20:33.190985
"CYER",2025-09-06 10:00:00,2025-09-06 06:00:00,"MVFR",6,6,100,330,7,14500,29.57,NA,"OVC  ft","CYER 061000Z AUTO 33007KT 9SM OVC011 06/06 A2957 RMK SLP018",2025-09-06 10:39:44.709102,2025-09-06 06:39:44.709102
"CYAT",2025-09-06 10:00:00,2025-09-06 06:00:00,"IFR",10,10,100,320,8,14500,29.36,NA,"BKN  ft; OVC  ft","CYAT 061000Z AUTO 32008G15KT 9SM BKN008 OVC016 10/10 A2936 RMK SLP945",2025-09-06 10:39:44.812312,2025-09-06 06:39:44.812312
"CYMO",2025-09-06 10:35:00,2025-09-06 06:35:00,"MVFR",7,6,93,230,14,14500,29.46,NA,"SCT  ft; BKN  ft; OVC  ft","CYMO 061035Z AUTO 23014G20KT 9SM SCT009 BKN014 OVC027 07/06 A2946 RMK SLP978",2025-09-06 10:39:44.907428,2025-09-06 06:39:44.907428
"CYPL",2025-09-06 10:35:00,2025-09-06 06:35:00,"MVFR",5,4,93,310,8,14500,29.72,NA,"FEW  ft; SCT  ft; BKN  ft; BKN  ft","CYPL 061035Z AUTO 31008G16KT 280V340 9SM -RA FEW007 SCT018 BKN024 BKN047 05/04 A2972 RMK SLP083",2025-09-06 10:39:45.003468,2025-09-06 06:39:45.003468
"CYQT",2025-09-06 10:00:00,2025-09-06 06:00:00,"VFR",5,3,87,260,6,24100,29.81,NA,"FEW  ft; SCT  ft","CYQT 061000Z 26006KT 15SM FEW031 SCT220 05/03 A2981 RMK SC2CI2 SLP102",2025-09-06 10:39:45.107958,2025-09-06 06:39:45.107958
"CYAM",2025-09-06 10:00:00,2025-09-06 06:00:00,"VFR",9,7,87,250,8,32200,29.78,NA,"FEW  ft; SCT  ft; OVC  ft","CYAM 061000Z 25008KT 20SM FEW011 SCT044 OVC076 09/07 A2978 RMK SC1SC4AC4 SC TR SLP090",2025-09-06 10:39:45.204895,2025-09-06 06:39:45.204895
"CYTS",2025-09-06 10:13:00,2025-09-06 06:13:00,"MVFR",7,5,87,260,6,24100,29.67,NA,"BKN  ft","CYTS 061013Z 26006KT 210V300 15SM BKN026 07/05 A2967 RMK SC7 SLP058",2025-09-06 10:39:45.299203,2025-09-06 06:39:45.299203
"CYSB",2025-09-06 10:00:00,2025-09-06 06:00:00,"VFR",9,7,87,230,6,24100,29.76,NA,"OVC  ft","CYSB 061000Z 23006KT 15SM OVC077 09/07 A2976 RMK AC8 SLP086",2025-09-06 10:39:45.396109,2025-09-06 06:39:45.396109
"CYYB",2025-09-06 10:20:00,2025-09-06 06:20:00,"MVFR",10,9,94,230,7,14500,29.78,NA,"SCT  ft; BKN  ft; BKN  ft; BKN  ft","CYYB 061020Z AUTO 23007G17KT 9SM SCT016 BKN023 BKN049 BKN060 10/09 A2978 RMK SLP092",2025-09-06 10:39:45.490044,2025-09-06 06:39:45.490044
"CYOW",2025-09-06 10:00:00,2025-09-06 06:00:00,"VFR",10,9,94,170,5,24100,29.89,NA,"SCT  ft; BKN  ft; BKN  ft","CYOW 061000Z 17005KT 15SM SCT190 BKN210 BKN230 10/09 A2989 RMK AC4CC1CI1 SLP124",2025-09-06 10:39:45.628652,2025-09-06 06:39:45.628652
"CYGK",2025-09-06 10:00:00,2025-09-06 06:00:00,"VFR",16,6,52,260,9,24100,29.91,NA,"BKN  ft","CYGK 061000Z 26009KT 15SM BKN120 16/06 A2991 RMK AC7 SLP132",2025-09-06 10:39:45.730013,2025-09-06 06:39:45.730013
"CYQG",2025-09-06 10:00:00,2025-09-06 06:00:00,"VFR",12,11,94,220,3,14500,29.96,NA,"BKN  ft; OVC  ft","CYQG 061000Z AUTO 22003KT 9SM BKN055 OVC150 12/11 A2996 RMK SLP146",2025-09-06 10:39:45.826001,2025-09-06 06:39:45.826001
"CYVV",2025-09-06 10:00:00,2025-09-06 06:00:00,"VFR",13,7,67,260,9,9999,29.83,NA,"FEW  ft; SCT  ft; BKN  ft","CYVV 061000Z 26009G21KT 10SM FEW040 SCT120 BKN270 13/07 A2983 RMK CU1AC2CC2 SLP105",2025-09-06 10:39:45.965009,2025-09-06 06:39:45.965009
"CYYZ",2025-09-06 10:00:00,2025-09-06 06:00:00,"VFR",12,7,72,210,5,24100,29.9,NA,"BKN  ft","CYYZ 061000Z 21005KT 15SM BKN150 12/07 A2990 RMK AC7 SLP129",2025-09-06 10:39:46.09951,2025-09-06 06:39:46.09951
"CYQA",2025-09-06 10:00:00,2025-09-06 06:00:00,"VFR",10,7,82,200,6,14500,29.83,NA,"OVC  ft","CYQA 061000Z AUTO 20006KT 9SM OVC048 10/07 A2983 RMK SLP108",2025-09-06 10:39:46.196941,2025-09-06 06:39:46.196941
"CYVR",2025-09-06 10:00:00,2025-09-06 06:00:00,"VFR",17,16,94,90,3,19300,29.85,NA,"FEW  ft; SCT  ft","CYVR 061000Z 09003KT 12SM FEW089 SCT120 17/16 A2985 RMK HZ1AC1AC1 SLP109 DENSITY ALT 400FT",2025-09-06 10:39:46.295814,2025-09-06 06:39:46.295814
"CYYJ",2025-09-06 10:00:00,2025-09-06 06:00:00,"VFR",15,13,88,0,0,48300,29.84,NA,"FEW  ft; SCT  ft","CYYJ 061000Z 00000KT 30SM FEW130 SCT250 15/13 A2984 RMK AC1CI3 SLP108",2025-09-06 10:39:46.429577,2025-09-06 06:39:46.429577
"CYLW",2025-09-06 10:00:00,2025-09-06 06:00:00,"VFR",12,9,82,50,3,12900,29.87,NA,"CLR  ft","CYLW 061000Z AUTO 05003KT 330V060 8SM CLR 12/09 A2987 RMK SLP112",2025-09-06 10:39:46.52862,2025-09-06 06:39:46.52862
"CYXS",2025-09-06 10:00:00,2025-09-06 06:00:00,"VFR",8,7,93,180,2,9700,29.91,NA,"CLR  ft","CYXS 061000Z AUTO 18002KT 6SM BR CLR 08/07 A2991 RMK SLP137",2025-09-06 10:39:46.623246,2025-09-06 06:39:46.623246
"CYXT",2025-09-06 10:00:00,2025-09-06 06:00:00,"VFR",14,14,100,0,2,24100,29.89,NA,"SKC  ft","CYXT 061000Z VRB02KT 15SM SKC 14/14 A2989 RMK FU SLP126",2025-09-06 10:39:46.76217,2025-09-06 06:39:46.76217
"CYQQ",2025-09-06 10:00:00,2025-09-06 06:00:00,"VFR",18,14,78,310,5,24100,29.86,NA,"OVC  ft","CYQQ 061000Z 31005KT 15SM OVC140 18/14 A2986 RMK AC8 DENSITY ALT 749FT SLP112",2025-09-06 10:39:46.858196,2025-09-06 06:39:46.858196
"CYYC",2025-09-06 09:00:00,2025-09-06 05:00:00,"VFR",11,1,50,150,2,9999,30,NA,"SKC  ft","CYYC 060900Z 15002KT 10SM SKC 11/01 A3000 RMK SLP164 DENSITY ALT 3900FT",2025-09-06 10:39:46.953453,2025-09-06 06:39:46.953453
"CYEG",2025-09-06 10:00:00,2025-09-06 06:00:00,"VFR",7,1,66,160,4,32200,29.95,NA,"FEW  ft","CYEG 061000Z 16004KT 20SM FEW250 07/01 A2995 RMK CI2 SLP150",2025-09-06 10:39:47.050752,2025-09-06 06:39:47.050752
"CYMM",2025-09-06 10:00:00,2025-09-06 06:00:00,"VFR",6,4,87,100,5,14500,29.99,NA,"CLR  ft","CYMM 061000Z AUTO 10005KT 9SM CLR 06/04 A2999 RMK SLP166",2025-09-06 10:39:47.149402,2025-09-06 06:39:47.149402
"CYQF",2025-09-06 10:00:00,2025-09-06 06:00:00,"VFR",6,1,71,160,3,14500,29.97,NA,"CLR  ft","CYQF 061000Z AUTO 16003KT 9SM CLR 06/01 A2997 RMK SLP161",2025-09-06 10:39:47.247976,2025-09-06 06:39:47.247976
"CYXE",2025-09-06 10:00:00,2025-09-06 06:00:00,"VFR",5,3,87,180,7,24100,30.09,NA,"SKC  ft","CYXE 061000Z 18007KT 15SM SKC 05/03 A3009 RMK SLP206",2025-09-06 10:39:47.343884,2025-09-06 06:39:47.343884
"CYQR",2025-09-06 10:00:00,2025-09-06 06:00:00,"VFR",-1,-1,100,250,4,24100,30.11,NA,"SKC  ft","CYQR 061000Z 25004KT 15SM SKC M01/M01 A3011 RMK SLP219",2025-09-06 10:39:47.441674,2025-09-06 06:39:47.441674
"CYWG",2025-09-06 10:00:00,2025-09-06 06:00:00,"VFR",8,7,93,290,7,24100,29.95,NA,"BKN  ft; BKN  ft","CYWG 061000Z 29007KT 15SM BKN062 BKN130 08/07 A2995 RMK SC5AC1 SLP150",2025-09-06 10:39:47.536762,2025-09-06 06:39:47.536762
"CYBR",2025-09-06 10:00:00,2025-09-06 06:00:00,"VFR",3,3,100,270,7,14500,30.03,NA,"CLR  ft","CYBR 061000Z AUTO 27007KT 9SM CLR 03/03 A3003 RMK SLP186",2025-09-06 10:39:47.631998,2025-09-06 06:39:47.631998
"CYUL",2025-09-06 10:00:00,2025-09-06 06:00:00,"VFR",14,9,72,290,2,24100,29.91,NA,"SCT  ft; SCT  ft","CYUL 061000Z 29002KT 15SM SCT060 SCT120 14/09 A2991 RMK SC3AC1 SLP131",2025-09-06 10:39:47.727456,2025-09-06 06:39:47.727456
"CYHU",2025-09-06 10:00:00,2025-09-06 06:00:00,"VFR",13,11,88,200,3,14500,29.92,NA,"FEW  ft","CYHU 061000Z AUTO 20003KT 190V260 9SM FEW210 13/11 A2992 RMK SLP134",2025-09-06 10:39:47.832045,2025-09-06 06:39:47.832045
"CYQB",2025-09-06 10:00:00,2025-09-06 06:00:00,"VFR",12,10,88,240,8,48300,29.88,NA,"FEW  ft; FEW  ft; SCT  ft","CYQB 061000Z 24008KT 30SM FEW020 FEW057 SCT120 12/10 A2988 RMK SC1SC1AC2 SC TR SLP120",2025-09-06 10:39:47.930548,2025-09-06 06:39:47.930548
"CYVO",2025-09-06 10:00:00,2025-09-06 06:00:00,"VFR",8,7,93,200,6,24100,29.72,NA,"SCT  ft; BKN  ft","CYVO 061000Z 20006KT 15SM SCT041 BKN080 08/07 A2972 RMK SC4AC3 SLP074",2025-09-06 10:39:48.02671,2025-09-06 06:39:48.02671
"CYUY",2025-09-06 10:00:00,2025-09-06 06:00:00,"VFR",9,6,82,220,12,24100,29.68,NA,"OVC  ft","CYUY 061000Z 22012G19KT 15SM OVC035 09/06 A2968 RMK SC8 SLP060",2025-09-06 10:39:48.121914,2025-09-06 06:39:48.121914
"CYZV",2025-09-06 10:00:00,2025-09-06 06:00:00,"VFR",16,15,94,220,2,48300,29.73,NA,"FEW  ft; SCT  ft; BKN  ft","CYZV 061000Z 22002KT 30SM MIFG FEW021 SCT060TCU BKN120 16/15 A2973 RMK SC2TCU1AC2 TCU DIST E, MIFG FINAL RWY 27 SLP070 DENSITY ALT 600FT",2025-09-06 10:39:48.258743,2025-09-06 06:39:48.258743
"CYBC",2025-09-06 10:00:00,2025-09-06 06:00:00,"VFR",15,14,94,240,9,14500,29.74,NA,"CLR  ft","CYBC 061000Z AUTO 24009KT 9SM CLR 15/14 A2974 RMK SLP073 DENSITY ALT 300FT",2025-09-06 10:39:48.35341,2025-09-06 06:39:48.35341
"CYRJ",2025-09-06 10:00:00,2025-09-06 06:00:00,"VFR",10,10,100,200,6,40200,29.78,NA,"SCT  ft","CYRJ 061000Z 20006KT 25SM SCT050 10/10 A2978 RMK SC3 SLP090",2025-09-06 10:39:48.450495,2025-09-06 06:39:48.450495
"CYHZ",2025-09-06 10:00:00,2025-09-06 06:00:00,"MVFR",18,18,100,210,12,19300,30.09,NA,"SCT  ft; BKN  ft; BKN  ft","CYHZ 061000Z 21012KT 12SM SCT008 BKN014 BKN330 18/18 A3009 RMK SF3SC3CI1 SLP190 DENSITY ALT 800FT",2025-09-06 10:39:48.545173,2025-09-06 06:39:48.545173
"CYYG",2025-09-06 10:00:00,2025-09-06 06:00:00,"MVFR",19,16,83,190,15,24100,30.01,NA,"BKN  ft","CYYG 061000Z 19015G20KT 15SM BKN019 19/16 A3001 RMK SC7 SLP166 DENSITY ALT 700FT",2025-09-06 10:39:48.643042,2025-09-06 06:39:48.643042
"CYQM",2025-09-06 10:00:00,2025-09-06 06:00:00,"MVFR",19,17,88,200,5,24100,29.99,NA,"FEW  ft; BKN  ft; OVC  ft","CYQM 061000Z 20005KT 15SM FEW007 BKN011 OVC240 19/17 A2999 RMK CF1SC7CI1 CF TR SLP157 DENSITY ALT 700FT",2025-09-06 10:39:48.741341,2025-09-06 06:39:48.741341
"CYFC",2025-09-06 10:00:00,2025-09-06 06:00:00,"IFR",18,17,94,180,12,14500,29.94,NA,"OVC  ft","CYFC 061000Z AUTO 18012KT 9SM OVC008 18/17 A2994 RMK SLP142 DENSITY ALT 500FT",2025-09-06 10:39:48.837609,2025-09-06 06:39:48.837609
"CYYT",2025-09-06 10:00:00,2025-09-06 06:00:00,"LIFR",12,12,100,210,11,24100,30.23,NA,"BKN  ft; BKN  ft; BKN  ft","CYYT 061000Z 21011KT 15SM BKN004 BKN130 BKN150 12/12 A3023 RMK SF5AC1AC1 SLP243",2025-09-06 10:39:48.934489,2025-09-06 06:39:48.934489
"CYQY",2025-09-06 10:16:00,2025-09-06 06:16:00,"MVFR",19,19,100,200,6,11300,30.09,NA,"SCT  ft; BKN  ft; BKN  ft","CYQY 061016Z 20006KT 7SM SCT004 BKN011 BKN017 19/19 A3009 RMK SC3SC2SC2 SLP193 DENSITY ALT 600FT",2025-09-06 10:39:49.033442,2025-09-06 06:39:49.033442
"CYXY",2025-09-06 10:00:00,2025-09-06 06:00:00,"VFR",14,10,77,350,6,24100,29.92,NA,"BKN  ft; BKN  ft","CYXY 061000Z 35006KT 15SM BKN045 BKN072 14/10 A2992 RMK SC5AC2 FU SLP138 DENSITY ALT 2800FT",2025-09-06 10:39:49.130255,2025-09-06 06:39:49.130255
"CYZF",2025-09-06 10:00:00,2025-09-06 06:00:00,"VFR",12,9,82,140,14,24100,29.87,NA,"SCT  ft","CYZF 061000Z 14014KT 15SM SCT180 12/09 A2987 RMK AC3 SLP125",2025-09-06 10:39:49.225988,2025-09-06 06:39:49.225988
"CYFB",2025-09-06 10:00:00,2025-09-06 06:00:00,"MVFR",3,2,93,140,8,40200,29.76,NA,"OVC  ft","CYFB 061000Z 14008KT 25SM -RA OVC030 03/02 A2976 RMK SC8 SLP081",2025-09-06 10:39:49.321953,2025-09-06 06:39:49.321953
"CYRT",2025-09-06 10:00:00,2025-09-06 06:00:00,"MVFR",4,1,81,10,17,24100,29.93,NA,"OVC  ft","CYRT 061000Z 01017G26KT 15SM OVC020 04/01 A2993 RMK SC8 SLP139",2025-09-06 10:39:49.418495,2025-09-06 06:39:49.418495
"CYBK",2025-09-06 10:00:00,2025-09-06 06:00:00,"VFR",4,3,93,320,9,24100,30.04,NA,"SCT  ft; BKN  ft","CYBK 061000Z 32009KT 15SM SCT028 BKN052 04/03 A3004 RMK SC3SC4 SLP177",2025-09-06 10:39:49.513932,2025-09-06 06:39:49.513932
"CYRB",2025-09-06 10:00:00,2025-09-06 06:00:00,"IFR",-2,-2,100,170,13,24100,30.12,NA,"OVC  ft","CYRB 061000Z 17013KT 15SM OVC006 M02/M02 A3012 RMK ST8 SLP210",2025-09-06 10:39:49.608895,2025-09-06 06:39:49.608895
"CYCO",2025-09-06 10:00:00,2025-09-06 06:00:00,"VFR",12,7,72,190,9,9999,29.74,NA,"BKN  ft; OVC  ft","CYCO 061000Z 19009G16KT 10SM -RA BKN110 OVC150 12/07 A2974 RMK AC7AC1 SLP073",2025-09-06 10:39:49.718308,2025-09-06 06:39:49.718308
"CYER",2025-09-06 11:00:00,2025-09-06 07:00:00,"MVFR",6,6,100,310,4,14500,29.59,NA,"OVC  ft","CYER 061100Z AUTO 31004KT 9SM OVC013 06/06 A2959 RMK SLP023",2025-09-06 11:15:59.85189,2025-09-06 07:15:59.85189
"CYAT",2025-09-06 11:00:00,2025-09-06 07:00:00,"IFR",10,9,94,310,9,14500,29.4,NA,"OVC  ft","CYAT 061100Z AUTO 31009G16KT 9SM OVC008 10/09 A2940 RMK SLP959",2025-09-06 11:15:59.902653,2025-09-06 07:15:59.902653
"CYMO",2025-09-06 11:00:00,2025-09-06 07:00:00,"MVFR",7,6,93,230,16,14500,29.47,NA,"BKN  ft; BKN  ft; OVC  ft","CYMO 061100Z AUTO 23016G24KT 9SM -RA BKN013 BKN020 OVC028 07/06 A2947 RMK SLP981",2025-09-06 11:15:59.9866,2025-09-06 07:15:59.9866
"CYPL",2025-09-06 11:00:00,2025-09-06 07:00:00,"MVFR",4,3,93,310,9,14500,29.73,NA,"BKN  ft; OVC  ft","CYPL 061100Z AUTO 31009G24KT 260V360 9SM -RA BKN014 OVC023 04/03 A2973 RMK SLP085",2025-09-06 11:16:00.070759,2025-09-06 07:16:00.070759
"CYQT",2025-09-06 11:00:00,2025-09-06 07:00:00,"VFR",4,3,93,260,7,24100,29.82,NA,"FEW  ft; FEW  ft; BKN  ft","CYQT 061100Z 26007KT 15SM FEW020 FEW050 BKN220 04/03 A2982 RMK SC1SC1CI4 SLP108",2025-09-06 11:16:00.158802,2025-09-06 07:16:00.158802
"CYAM",2025-09-06 11:00:00,2025-09-06 07:00:00,"VFR",9,7,87,250,11,32200,29.79,NA,"FEW  ft; SCT  ft; BKN  ft; OVC  ft","CYAM 061100Z 25011KT 20SM FEW038 SCT044 BKN088 OVC180 09/07 A2979 RMK SC2CU2AC1AC3 SLP095",2025-09-06 11:16:00.245909,2025-09-06 07:16:00.245909
"CYTS",2025-09-06 11:00:00,2025-09-06 07:00:00,"MVFR",7,5,87,230,4,24100,29.69,NA,"OVC  ft","CYTS 061100Z 23004KT 190V270 15SM OVC025 07/05 A2969 RMK SC8 SLP067",2025-09-06 11:16:00.330693,2025-09-06 07:16:00.330693
"CYSB",2025-09-06 11:00:00,2025-09-06 07:00:00,"VFR",8,7,93,240,6,32200,29.78,NA,"BKN  ft","CYSB 061100Z 24006KT 20SM BKN084 08/07 A2978 RMK AC7 SLP092",2025-09-06 11:16:00.375011,2025-09-06 07:16:00.375011
"CYYB",2025-09-06 11:00:00,2025-09-06 07:00:00,"MVFR",10,9,94,240,10,48300,29.79,NA,"BKN  ft; BKN  ft","CYYB 061100Z 24010G18KT 30SM BKN018 BKN100 10/09 A2979 RMK SC5AC2 SLP094",2025-09-06 11:16:00.45862,2025-09-06 07:16:00.45862
"CYOW",2025-09-06 11:00:00,2025-09-06 07:00:00,"VFR",10,9,94,190,3,24100,29.89,NA,"FEW  ft; OVC  ft","CYOW 061100Z 19003KT 15SM FEW100 OVC180 10/09 A2989 RMK AC1AC7 SLP126",2025-09-06 11:16:00.5448,2025-09-06 07:16:00.5448
"CYGK",2025-09-06 11:00:00,2025-09-06 07:00:00,"VFR",16,8,59,230,9,24100,29.94,NA,"OVC  ft","CYGK 061100Z 23009KT 15SM -SHRA OVC100 16/08 A2994 RMK AC8 CVCTV CLD EMBD SLP141",2025-09-06 11:16:00.593409,2025-09-06 07:16:00.593409
"CYQG",2025-09-06 11:00:00,2025-09-06 07:00:00,"VFR",13,11,88,270,4,14500,29.96,NA,"OVC  ft","CYQG 061100Z AUTO 27004KT 9SM OVC060 13/11 A2996 RMK SLP148",2025-09-06 11:16:00.680052,2025-09-06 07:16:00.680052
"CYVV",2025-09-06 11:00:00,2025-09-06 07:00:00,"VFR",14,7,63,260,8,24100,29.85,NA,"FEW  ft; BKN  ft; BKN  ft; BKN  ft","CYVV 061100Z 26008G19KT 15SM FEW020 BKN039 BKN120 BKN250 14/07 A2985 RMK SF1CU6AC1CC1 SF TR CC TR SLP113",2025-09-06 11:16:00.76857,2025-09-06 07:16:00.76857
"CYYZ",2025-09-06 11:00:00,2025-09-06 07:00:00,"VFR",13,7,67,220,7,24100,29.93,NA,"BKN  ft; BKN  ft","CYYZ 061100Z 22007KT 15SM BKN064 BKN150 13/07 A2993 RMK SC5AC2 SLP138",2025-09-06 11:16:00.855827,2025-09-06 07:16:00.855827
"CYQA",2025-09-06 11:00:00,2025-09-06 07:00:00,"VFR",11,7,77,210,5,14500,29.86,NA,"OVC  ft","CYQA 061100Z AUTO 21005KT 9SM OVC048 11/07 A2986 RMK SLP116",2025-09-06 11:16:00.945134,2025-09-06 07:16:00.945134
"CYVR",2025-09-06 11:00:00,2025-09-06 07:00:00,"VFR",17,16,94,90,2,19300,29.85,NA,"SCT  ft","CYVR 061100Z 09002KT 12SM SCT092 17/16 A2985 RMK HZ1AC2 SLP110 DENSITY ALT 300FT",2025-09-06 11:16:01.031008,2025-09-06 07:16:01.031008
"CYYJ",2025-09-06 11:00:00,2025-09-06 07:00:00,"VFR",14,13,94,140,3,48300,29.85,NA,"FEW  ft; SCT  ft","CYYJ 061100Z 14003KT 30SM FEW130 SCT250 14/13 A2985 RMK AC1CI2 SLP110",2025-09-06 11:16:01.117093,2025-09-06 07:16:01.117093
"CYLW",2025-09-06 11:00:00,2025-09-06 07:00:00,"VFR",13,9,77,30,2,12900,29.88,NA,"CLR  ft","CYLW 061100Z AUTO 03002KT 8SM CLR 13/09 A2988 RMK SLP114",2025-09-06 11:16:01.206776,2025-09-06 07:16:01.206776
"CYXS",2025-09-06 11:00:00,2025-09-06 07:00:00,"VFR",8,7,93,0,0,14500,29.91,NA,"CLR  ft","CYXS 061100Z AUTO 00000KT 9SM CLR 08/07 A2991 RMK SLP136",2025-09-06 11:16:01.25541,2025-09-06 07:16:01.25541
"CYXT",2025-09-06 11:00:00,2025-09-06 07:00:00,"VFR",14,14,100,340,2,24100,29.9,NA,"SKC  ft","CYXT 061100Z 34002KT 15SM SKC 14/14 A2990 RMK FU SLP129",2025-09-06 11:16:01.341928,2025-09-06 07:16:01.341928
"CYQQ",2025-09-06 11:00:00,2025-09-06 07:00:00,"VFR",18,14,78,0,0,32200,29.86,NA,"SCT  ft; BKN  ft","CYQQ 061100Z 00000KT 20SM SCT140 BKN190 18/14 A2986 RMK AC4AC3 DENSITY ALT 726FT SLP112",2025-09-06 11:16:01.429718,2025-09-06 07:16:01.429718
"CYYC",2025-09-06 11:00:00,2025-09-06 07:00:00,"VFR",9,4,71,190,4,9999,29.98,NA,"SKC  ft","CYYC 061100Z 19004KT 10SM SKC 09/04 A2998 RMK FU SLP158",2025-09-06 11:16:01.518288,2025-09-06 07:16:01.518288
"CYEG",2025-09-06 11:00:00,2025-09-06 07:00:00,"VFR",6,1,71,150,7,32200,29.95,NA,"SCT  ft","CYEG 061100Z 15007KT 20SM SCT250 06/01 A2995 RMK CI3 SLP150",2025-09-06 11:16:01.571522,2025-09-06 07:16:01.571522
"CYMM",2025-09-06 11:00:00,2025-09-06 07:00:00,"VFR",6,4,87,120,6,9700,29.99,NA,"CLR  ft","CYMM 061100Z AUTO 12006KT 6SM BR CLR 06/04 A2999 RMK SLP166",2025-09-06 11:16:01.666066,2025-09-06 07:16:01.666066
"CYQF",2025-09-06 11:00:00,2025-09-06 07:00:00,"VFR",6,0,66,0,0,14500,29.97,NA,"CLR  ft","CYQF 061100Z AUTO 00000KT 9SM CLR 06/00 A2997 RMK ICE MISG SLP160",2025-09-06 11:16:01.718832,2025-09-06 07:16:01.718832
"CYXE",2025-09-06 11:00:00,2025-09-06 07:00:00,"VFR",4,2,87,180,6,24100,30.09,NA,"SKC  ft","CYXE 061100Z 18006KT 15SM SKC 04/02 A3009 RMK SLP207",2025-09-06 11:16:01.811515,2025-09-06 07:16:01.811515
"CYQR",2025-09-06 11:00:00,2025-09-06 07:00:00,"VFR",1,0,93,0,0,24100,30.12,NA,"SKC  ft","CYQR 061100Z 00000KT 15SM SKC 01/M00 A3012 RMK SLP220",2025-09-06 11:16:01.90071,2025-09-06 07:16:01.90071
"CYWG",2025-09-06 11:00:00,2025-09-06 07:00:00,"VFR",7,7,100,280,6,24100,29.96,NA,"SCT  ft; BKN  ft","CYWG 061100Z 28006KT 15SM SCT052 BKN100 07/07 A2996 RMK SC3AC4 SLP155",2025-09-06 11:16:01.988409,2025-09-06 07:16:01.988409
"CYBR",2025-09-06 11:00:00,2025-09-06 07:00:00,"VFR",4,3,93,260,10,14500,30.04,NA,"CLR  ft","CYBR 061100Z AUTO 26010KT 9SM CLR 04/03 A3004 RMK SLP191",2025-09-06 11:16:02.079532,2025-09-06 07:16:02.079532
"CYUL",2025-09-06 11:00:00,2025-09-06 07:00:00,"VFR",15,10,72,260,2,48300,29.91,NA,"FEW  ft; FEW  ft; OVC  ft","CYUL 061100Z 26002KT 30SM FEW030 FEW050 OVC150 15/10 A2991 RMK CF1SC1AC7 CF TR SLP131",2025-09-06 11:16:02.145708,2025-09-06 07:16:02.145708
"CYHU",2025-09-06 11:00:00,2025-09-06 07:00:00,"VFR",13,11,88,170,3,14500,29.91,NA,"FEW  ft; BKN  ft; BKN  ft; BKN  ft","CYHU 061100Z AUTO 17003KT 9SM FEW160 BKN180 BKN200 BKN220 13/11 A2991 RMK SLP132",2025-09-06 11:16:02.236495,2025-09-06 07:16:02.236495
"CYQB",2025-09-06 11:00:00,2025-09-06 07:00:00,"VFR",11,10,94,250,6,48300,29.9,NA,"FEW  ft; FEW  ft; SCT  ft; BKN  ft","CYQB 061100Z 25006KT 30SM FEW030 FEW060 SCT120 BKN210 11/10 A2990 RMK SC1SC1AC2CI3 SC TR SLP130",2025-09-06 11:16:02.327124,2025-09-06 07:16:02.327124
"CYVO",2025-09-06 11:00:00,2025-09-06 07:00:00,"VFR",8,7,93,200,6,24100,29.72,NA,"FEW  ft; BKN  ft; BKN  ft","CYVO 061100Z 20006KT 15SM FEW022 BKN044 BKN100 08/07 A2972 RMK SF1SC5AC1 SLP077",2025-09-06 11:16:02.417326,2025-09-06 07:16:02.417326
"CYUY",2025-09-06 11:00:00,2025-09-06 07:00:00,"MVFR",9,6,82,230,13,24100,29.7,NA,"BKN  ft; OVC  ft","CYUY 061100Z 23013KT 15SM BKN021 OVC035 09/06 A2970 RMK SF5SC3 SLP068",2025-09-06 11:16:02.508132,2025-09-06 07:16:02.508132
"CYZV",2025-09-06 11:00:00,2025-09-06 07:00:00,"VFR",16,15,94,210,5,48300,29.73,NA,"FEW  ft; FEW  ft; SCT  ft","CYZV 061100Z 21005KT 150V250 30SM FEW024 FEW060TCU SCT140 16/15 A2973 RMK CU1TCU1AC2 TCU TR SLP071 DENSITY ALT 600FT",2025-09-06 11:16:02.594247,2025-09-06 07:16:02.594247
"CYBC",2025-09-06 11:13:00,2025-09-06 07:13:00,"VFR",15,14,94,250,20,14500,29.77,NA,"FEW  ft","CYBC 061113Z AUTO 25020G26KT 9SM FEW009 15/14 A2977 RMK SLP084 DENSITY ALT 300FT",2025-09-06 11:16:02.6913,2025-09-06 07:16:02.6913
"CYRJ",2025-09-06 11:00:00,2025-09-06 07:00:00,"VFR",11,9,88,200,6,64400,29.8,NA,"SCT  ft; SCT  ft","CYRJ 061100Z 20006KT 170V240 40SM SCT031 SCT090 11/09 A2980 RMK SC3AC1 SLP098",2025-09-06 11:16:02.789899,2025-09-06 07:16:02.789899
"CYHZ",2025-09-06 11:00:00,2025-09-06 07:00:00,"IFR",19,18,94,200,11,19300,30.09,NA,"BKN  ft","CYHZ 061100Z 20011KT 12SM BKN009 19/18 A3009 RMK SC7 SLP191 DENSITY ALT 900FT",2025-09-06 11:16:02.849038,2025-09-06 07:16:02.849038
"CYYG",2025-09-06 11:00:00,2025-09-06 07:00:00,"MVFR",19,16,83,200,12,24100,30.02,NA,"BKN  ft","CYYG 061100Z 20012G18KT 15SM BKN016 19/16 A3002 RMK SC7 SLP169 DENSITY ALT 600FT",2025-09-06 11:16:02.94178,2025-09-06 07:16:02.94178
"CYQM",2025-09-06 11:00:00,2025-09-06 07:00:00,"MVFR",19,17,88,200,7,24100,29.99,NA,"FEW  ft; OVC  ft","CYQM 061100Z 20007KT 15SM FEW007 OVC011 19/17 A2999 RMK CF1SC8 CF TR SLP159 DENSITY ALT 800FT",2025-09-06 11:16:03.049439,2025-09-06 07:16:03.049439
"CYFC",2025-09-06 11:00:00,2025-09-06 07:00:00,"IFR",18,17,94,180,5,14500,29.96,NA,"OVC  ft","CYFC 061100Z AUTO 18005KT 9SM OVC008 18/17 A2996 RMK SLP147 DENSITY ALT 500FT",2025-09-06 11:16:03.100145,2025-09-06 07:16:03.100145
"CYYT",2025-09-06 11:00:00,2025-09-06 07:00:00,"IFR",13,13,100,230,7,24100,30.24,NA,"BKN  ft; BKN  ft; BKN  ft","CYYT 061100Z 23007KT 15SM BKN005 BKN048 BKN120 13/13 A3024 RMK SF5SC1AC1 SLP245",2025-09-06 11:16:03.191315,2025-09-06 07:16:03.191315
"CYQY",2025-09-06 11:00:00,2025-09-06 07:00:00,"IFR",20,20,100,210,11,11300,30.09,NA,"BKN  ft; BKN  ft; OVC  ft","CYQY 061100Z 21011G16KT 7SM BKN007 BKN013 OVC017 20/20 A3009 RMK SC5SC2SC1 SLP191 DENSITY ALT 700FT",2025-09-06 11:16:03.282091,2025-09-06 07:16:03.282091
"CYXY",2025-09-06 11:00:00,2025-09-06 07:00:00,"VFR",14,10,77,350,4,24100,29.94,NA,"FEW  ft; OVC  ft","CYXY 061100Z 35004KT 15SM -SHRA FEW032 OVC043 14/10 A2994 RMK SC2SC6 CVCTV CLD EMBD SLP146 DENSITY ALT 2800FT",2025-09-06 11:16:03.373907,2025-09-06 07:16:03.373907
"CYZF",2025-09-06 11:00:00,2025-09-06 07:00:00,"VFR",12,9,82,150,13,24100,29.87,NA,"SCT  ft","CYZF 061100Z 15013G19KT 15SM SCT180 12/09 A2987 RMK AC3 SLP123",2025-09-06 11:16:03.461008,2025-09-06 07:16:03.461008
"CYFB",2025-09-06 11:00:00,2025-09-06 07:00:00,"MVFR",2,1,93,150,9,19300,29.73,NA,"BKN  ft; OVC  ft","CYFB 061100Z 15009KT 12SM -RA BKN026 OVC078 02/01 A2973 RMK SC7AC1 SLP073",2025-09-06 11:16:03.550426,2025-09-06 07:16:03.550426
"CYRT",2025-09-06 11:00:00,2025-09-06 07:00:00,"MVFR",4,1,81,20,17,24100,29.93,NA,"OVC  ft","CYRT 061100Z 02017KT 15SM OVC021 04/01 A2993 RMK SC8 SLP140",2025-09-06 11:16:03.642302,2025-09-06 07:16:03.642302
"CYBK",2025-09-06 11:00:00,2025-09-06 07:00:00,"VFR",4,2,87,310,10,32200,30.05,NA,"FEW  ft; BKN  ft","CYBK 061100Z 31010KT 20SM FEW025 BKN051 04/02 A3005 RMK SC1SC6 SLP179",2025-09-06 11:16:03.695347,2025-09-06 07:16:03.695347
"CYRB",2025-09-06 11:00:00,2025-09-06 07:00:00,"LIFR",-2,-3,93,170,11,24100,30.12,NA,"OVC  ft","CYRB 061100Z 17011KT 15SM OVC003 M02/M03 A3012 RMK ST8 SLP210",2025-09-06 11:16:03.793287,2025-09-06 07:16:03.793287
"CYCO",2025-09-06 11:00:00,2025-09-06 07:00:00,"VFR",12,7,72,190,7,9999,29.72,NA,"FEW  ft","CYCO 061100Z 19007KT 10SM FEW180 12/07 A2972 RMK AC2 SLP068",2025-09-06 11:16:03.844745,2025-09-06 07:16:03.844745
"CYER",2025-09-06 11:30:00,2025-09-06 07:30:00,"IFR",6,6,100,310,5,3600,29.6,NA,"BKN  ft; OVC  ft","CYER 061130Z AUTO 31005KT 2 1/4SM BR BKN007 OVC013 06/06 A2960 RMK SLP025",2025-09-06 11:38:56.936244,2025-09-06 07:38:56.936244
"CYAT",2025-09-06 11:14:00,2025-09-06 07:14:00,"MVFR",9,9,100,310,10,14500,29.41,NA,"OVC  ft","CYAT 061114Z AUTO 31010G17KT 9SM OVC010 09/09 A2941 RMK SLP962",2025-09-06 11:38:57.037359,2025-09-06 07:38:57.037359
"CYMO",2025-09-06 11:00:00,2025-09-06 07:00:00,"MVFR",7,6,93,230,16,14500,29.47,NA,"BKN  ft; BKN  ft; OVC  ft","CYMO 061100Z AUTO 23016G24KT 9SM -RA BKN013 BKN020 OVC028 07/06 A2947 RMK SLP981",2025-09-06 11:38:57.132931,2025-09-06 07:38:57.132931
"CYPL",2025-09-06 11:24:00,2025-09-06 07:24:00,"VFR",4,3,93,310,9,14500,29.74,NA,"SCT  ft; BKN  ft; BKN  ft; OVC  ft","CYPL 061124Z AUTO 31009G21KT 270V360 9SM -RA SCT014 BKN038 BKN048 OVC088 04/03 A2974 RMK SLP088",2025-09-06 11:38:57.227674,2025-09-06 07:38:57.227674
"CYQT",2025-09-06 11:00:00,2025-09-06 07:00:00,"VFR",4,3,93,260,7,24100,29.82,NA,"FEW  ft; FEW  ft; BKN  ft","CYQT 061100Z 26007KT 15SM FEW020 FEW050 BKN220 04/03 A2982 RMK SC1SC1CI4 SLP108",2025-09-06 11:38:57.325697,2025-09-06 07:38:57.325697
"CYAM",2025-09-06 11:00:00,2025-09-06 07:00:00,"VFR",9,7,87,250,11,32200,29.79,NA,"FEW  ft; SCT  ft; BKN  ft; OVC  ft","CYAM 061100Z 25011KT 20SM FEW038 SCT044 BKN088 OVC180 09/07 A2979 RMK SC2CU2AC1AC3 SLP095",2025-09-06 11:38:57.419748,2025-09-06 07:38:57.419748
"CYTS",2025-09-06 11:00:00,2025-09-06 07:00:00,"MVFR",7,5,87,230,4,24100,29.69,NA,"OVC  ft","CYTS 061100Z 23004KT 190V270 15SM OVC025 07/05 A2969 RMK SC8 SLP067",2025-09-06 11:38:57.515183,2025-09-06 07:38:57.515183
"CYSB",2025-09-06 11:00:00,2025-09-06 07:00:00,"VFR",8,7,93,240,6,32200,29.78,NA,"BKN  ft","CYSB 061100Z 24006KT 20SM BKN084 08/07 A2978 RMK AC7 SLP092",2025-09-06 11:38:57.649725,2025-09-06 07:38:57.649725
"CYYB",2025-09-06 11:00:00,2025-09-06 07:00:00,"MVFR",10,9,94,240,10,48300,29.79,NA,"BKN  ft; BKN  ft","CYYB 061100Z 24010G18KT 30SM BKN018 BKN100 10/09 A2979 RMK SC5AC2 SLP094",2025-09-06 11:38:57.783491,2025-09-06 07:38:57.783491
"CYOW",2025-09-06 11:00:00,2025-09-06 07:00:00,"VFR",10,9,94,190,3,24100,29.89,NA,"FEW  ft; OVC  ft","CYOW 061100Z 19003KT 15SM FEW100 OVC180 10/09 A2989 RMK AC1AC7 SLP126",2025-09-06 11:38:57.874918,2025-09-06 07:38:57.874918
"CYGK",2025-09-06 11:00:00,2025-09-06 07:00:00,"VFR",16,8,59,230,9,24100,29.94,NA,"OVC  ft","CYGK 061100Z 23009KT 15SM -SHRA OVC100 16/08 A2994 RMK AC8 CVCTV CLD EMBD SLP141",2025-09-06 11:38:57.971182,2025-09-06 07:38:57.971182
"CYQG",2025-09-06 11:00:00,2025-09-06 07:00:00,"VFR",13,11,88,270,4,14500,29.96,NA,"OVC  ft","CYQG 061100Z AUTO 27004KT 9SM OVC060 13/11 A2996 RMK SLP148",2025-09-06 11:38:58.108069,2025-09-06 07:38:58.108069
"CYVV",2025-09-06 11:34:00,2025-09-06 07:34:00,"VFR",14,6,59,260,10,24100,29.86,NA,"FEW  ft; BKN  ft; BKN  ft","CYVV 061134Z 26010G20KT 15SM TS FEW015 BKN038 BKN250 14/06 A2986 RMK CU1SC7CC1 CU TR CC TR CB EMBD SLP117",2025-09-06 11:38:58.204979,2025-09-06 07:38:58.204979
"CYYZ",2025-09-06 11:00:00,2025-09-06 07:00:00,"VFR",13,7,67,220,7,24100,29.93,NA,"BKN  ft; BKN  ft","CYYZ 061100Z 22007KT 15SM BKN064 BKN150 13/07 A2993 RMK SC5AC2 SLP138",2025-09-06 11:38:58.297015,2025-09-06 07:38:58.297015
"CYQA",2025-09-06 11:00:00,2025-09-06 07:00:00,"VFR",11,7,77,210,5,14500,29.86,NA,"OVC  ft","CYQA 061100Z AUTO 21005KT 9SM OVC048 11/07 A2986 RMK SLP116",2025-09-06 11:38:58.388674,2025-09-06 07:38:58.388674
"CYVR",2025-09-06 11:00:00,2025-09-06 07:00:00,"VFR",17,16,94,90,2,19300,29.85,NA,"SCT  ft","CYVR 061100Z 09002KT 12SM SCT092 17/16 A2985 RMK HZ1AC2 SLP110 DENSITY ALT 300FT",2025-09-06 11:38:58.52044,2025-09-06 07:38:58.52044
"CYYJ",2025-09-06 11:00:00,2025-09-06 07:00:00,"VFR",14,13,94,140,3,48300,29.85,NA,"FEW  ft; SCT  ft","CYYJ 061100Z 14003KT 30SM FEW130 SCT250 14/13 A2985 RMK AC1CI2 SLP110",2025-09-06 11:38:58.652667,2025-09-06 07:38:58.652667
"CYLW",2025-09-06 11:00:00,2025-09-06 07:00:00,"VFR",13,9,77,30,2,12900,29.88,NA,"CLR  ft","CYLW 061100Z AUTO 03002KT 8SM CLR 13/09 A2988 RMK SLP114",2025-09-06 11:38:58.748104,2025-09-06 07:38:58.748104
"CYXS",2025-09-06 11:29:00,2025-09-06 07:29:00,"MVFR",7,6,93,0,0,4800,29.92,NA,"CLR  ft","CYXS 061129Z AUTO 00000KT 3SM BR CLR 07/06 A2992 RMK SLP139",2025-09-06 11:38:58.841144,2025-09-06 07:38:58.841144
"CYXT",2025-09-06 11:00:00,2025-09-06 07:00:00,"VFR",14,14,100,340,2,24100,29.9,NA,"SKC  ft","CYXT 061100Z 34002KT 15SM SKC 14/14 A2990 RMK FU SLP129",2025-09-06 11:38:58.933482,2025-09-06 07:38:58.933482
"CYQQ",2025-09-06 11:00:00,2025-09-06 07:00:00,"VFR",18,14,78,0,0,32200,29.86,NA,"SCT  ft; BKN  ft","CYQQ 061100Z 00000KT 20SM SCT140 BKN190 18/14 A2986 RMK AC4AC3 DENSITY ALT 726FT SLP112",2025-09-06 11:38:59.026166,2025-09-06 07:38:59.026166
"CYYC",2025-09-06 11:00:00,2025-09-06 07:00:00,"VFR",9,4,71,190,4,9999,29.98,NA,"SKC  ft","CYYC 061100Z 19004KT 10SM SKC 09/04 A2998 RMK FU SLP158",2025-09-06 11:38:59.118474,2025-09-06 07:38:59.118474
"CYEG",2025-09-06 11:00:00,2025-09-06 07:00:00,"VFR",6,1,71,150,7,32200,29.95,NA,"SCT  ft","CYEG 061100Z 15007KT 20SM SCT250 06/01 A2995 RMK CI3 SLP150",2025-09-06 11:38:59.216166,2025-09-06 07:38:59.216166
"CYMM",2025-09-06 11:17:00,2025-09-06 07:17:00,"MVFR",5,3,87,110,5,8000,29.99,NA,"CLR  ft","CYMM 061117Z AUTO 11005KT 5SM BR CLR 05/03 A2999 RMK SLP167",2025-09-06 11:38:59.312595,2025-09-06 07:38:59.312595
"CYQF",2025-09-06 11:00:00,2025-09-06 07:00:00,"VFR",6,0,66,0,0,14500,29.97,NA,"CLR  ft","CYQF 061100Z AUTO 00000KT 9SM CLR 06/00 A2997 RMK ICE MISG SLP160",2025-09-06 11:38:59.452678,2025-09-06 07:38:59.452678
"CYXE",2025-09-06 11:00:00,2025-09-06 07:00:00,"VFR",4,2,87,180,6,24100,30.09,NA,"SKC  ft","CYXE 061100Z 18006KT 15SM SKC 04/02 A3009 RMK SLP207",2025-09-06 11:38:59.546911,2025-09-06 07:38:59.546911
"CYQR",2025-09-06 11:00:00,2025-09-06 07:00:00,"VFR",1,0,93,0,0,24100,30.12,NA,"SKC  ft","CYQR 061100Z 00000KT 15SM SKC 01/M00 A3012 RMK SLP220",2025-09-06 11:38:59.645698,2025-09-06 07:38:59.645698
"CYWG",2025-09-06 11:00:00,2025-09-06 07:00:00,"VFR",7,7,100,280,6,24100,29.96,NA,"SCT  ft; BKN  ft","CYWG 061100Z 28006KT 15SM SCT052 BKN100 07/07 A2996 RMK SC3AC4 SLP155",2025-09-06 11:38:59.737685,2025-09-06 07:38:59.737685
"CYBR",2025-09-06 11:00:00,2025-09-06 07:00:00,"VFR",4,3,93,260,10,14500,30.04,NA,"CLR  ft","CYBR 061100Z AUTO 26010KT 9SM CLR 04/03 A3004 RMK SLP191",2025-09-06 11:38:59.831124,2025-09-06 07:38:59.831124
"CYUL",2025-09-06 11:00:00,2025-09-06 07:00:00,"VFR",15,10,72,260,2,48300,29.91,NA,"FEW  ft; FEW  ft; OVC  ft","CYUL 061100Z 26002KT 30SM FEW030 FEW050 OVC150 15/10 A2991 RMK CF1SC1AC7 CF TR SLP131",2025-09-06 11:38:59.92642,2025-09-06 07:38:59.92642
"CYHU",2025-09-06 11:00:00,2025-09-06 07:00:00,"VFR",13,11,88,170,3,14500,29.91,NA,"FEW  ft; BKN  ft; BKN  ft; BKN  ft","CYHU 061100Z AUTO 17003KT 9SM FEW160 BKN180 BKN200 BKN220 13/11 A2991 RMK SLP132",2025-09-06 11:39:00.022913,2025-09-06 07:39:00.022913
"CYQB",2025-09-06 11:00:00,2025-09-06 07:00:00,"VFR",11,10,94,250,6,48300,29.9,NA,"FEW  ft; FEW  ft; SCT  ft; BKN  ft","CYQB 061100Z 25006KT 30SM FEW030 FEW060 SCT120 BKN210 11/10 A2990 RMK SC1SC1AC2CI3 SC TR SLP130",2025-09-06 11:39:00.116349,2025-09-06 07:39:00.116349
"CYVO",2025-09-06 11:00:00,2025-09-06 07:00:00,"VFR",8,7,93,200,6,24100,29.72,NA,"FEW  ft; BKN  ft; BKN  ft","CYVO 061100Z 20006KT 15SM FEW022 BKN044 BKN100 08/07 A2972 RMK SF1SC5AC1 SLP077",2025-09-06 11:39:00.209327,2025-09-06 07:39:00.209327
"CYUY",2025-09-06 11:00:00,2025-09-06 07:00:00,"MVFR",9,6,82,230,13,24100,29.7,NA,"BKN  ft; OVC  ft","CYUY 061100Z 23013KT 15SM BKN021 OVC035 09/06 A2970 RMK SF5SC3 SLP068",2025-09-06 11:39:00.301804,2025-09-06 07:39:00.301804
"CYZV",2025-09-06 11:00:00,2025-09-06 07:00:00,"VFR",16,15,94,210,5,48300,29.73,NA,"FEW  ft; FEW  ft; SCT  ft","CYZV 061100Z 21005KT 150V250 30SM FEW024 FEW060TCU SCT140 16/15 A2973 RMK CU1TCU1AC2 TCU TR SLP071 DENSITY ALT 600FT",2025-09-06 11:39:00.394136,2025-09-06 07:39:00.394136
"CYBC",2025-09-06 11:13:00,2025-09-06 07:13:00,"VFR",15,14,94,250,20,14500,29.77,NA,"FEW  ft","CYBC 061113Z AUTO 25020G26KT 9SM FEW009 15/14 A2977 RMK SLP084 DENSITY ALT 300FT",2025-09-06 11:39:00.527915,2025-09-06 07:39:00.527915
"CYRJ",2025-09-06 11:00:00,2025-09-06 07:00:00,"VFR",11,9,88,200,6,64400,29.8,NA,"SCT  ft; SCT  ft","CYRJ 061100Z 20006KT 170V240 40SM SCT031 SCT090 11/09 A2980 RMK SC3AC1 SLP098",2025-09-06 11:39:00.625524,2025-09-06 07:39:00.625524
"CYHZ",2025-09-06 11:00:00,2025-09-06 07:00:00,"IFR",19,18,94,200,11,19300,30.09,NA,"BKN  ft","CYHZ 061100Z 20011KT 12SM BKN009 19/18 A3009 RMK SC7 SLP191 DENSITY ALT 900FT",2025-09-06 11:39:00.760662,2025-09-06 07:39:00.760662
"CYYG",2025-09-06 11:00:00,2025-09-06 07:00:00,"MVFR",19,16,83,200,12,24100,30.02,NA,"BKN  ft","CYYG 061100Z 20012G18KT 15SM BKN016 19/16 A3002 RMK SC7 SLP169 DENSITY ALT 600FT",2025-09-06 11:39:00.855798,2025-09-06 07:39:00.855798
"CYQM",2025-09-06 11:00:00,2025-09-06 07:00:00,"MVFR",19,17,88,200,7,24100,29.99,NA,"FEW  ft; OVC  ft","CYQM 061100Z 20007KT 15SM FEW007 OVC011 19/17 A2999 RMK CF1SC8 CF TR SLP159 DENSITY ALT 800FT",2025-09-06 11:39:00.94759,2025-09-06 07:39:00.94759
"CYFC",2025-09-06 11:00:00,2025-09-06 07:00:00,"IFR",18,17,94,180,5,14500,29.96,NA,"OVC  ft","CYFC 061100Z AUTO 18005KT 9SM OVC008 18/17 A2996 RMK SLP147 DENSITY ALT 500FT",2025-09-06 11:39:01.039367,2025-09-06 07:39:01.039367
"CYYT",2025-09-06 11:00:00,2025-09-06 07:00:00,"IFR",13,13,100,230,7,24100,30.24,NA,"BKN  ft; BKN  ft; BKN  ft","CYYT 061100Z 23007KT 15SM BKN005 BKN048 BKN120 13/13 A3024 RMK SF5SC1AC1 SLP245",2025-09-06 11:39:01.13321,2025-09-06 07:39:01.13321
"CYQY",2025-09-06 11:24:00,2025-09-06 07:24:00,"IFR",20,20,100,210,12,6400,30.09,NA,"OVC  ft","CYQY 061124Z 21012G18KT 4SM BR OVC005 20/20 A3009 RMK ST8 SLP192 DENSITY ALT 700FT",2025-09-06 11:39:01.267209,2025-09-06 07:39:01.267209
"CYXY",2025-09-06 11:00:00,2025-09-06 07:00:00,"VFR",14,10,77,350,4,24100,29.94,NA,"FEW  ft; OVC  ft","CYXY 061100Z 35004KT 15SM -SHRA FEW032 OVC043 14/10 A2994 RMK SC2SC6 CVCTV CLD EMBD SLP146 DENSITY ALT 2800FT",2025-09-06 11:39:01.399756,2025-09-06 07:39:01.399756
"CYZF",2025-09-06 11:00:00,2025-09-06 07:00:00,"VFR",12,9,82,150,13,24100,29.87,NA,"SCT  ft","CYZF 061100Z 15013G19KT 15SM SCT180 12/09 A2987 RMK AC3 SLP123",2025-09-06 11:39:01.493299,2025-09-06 07:39:01.493299
"CYFB",2025-09-06 11:00:00,2025-09-06 07:00:00,"MVFR",2,1,93,150,9,19300,29.73,NA,"BKN  ft; OVC  ft","CYFB 061100Z 15009KT 12SM -RA BKN026 OVC078 02/01 A2973 RMK SC7AC1 SLP073",2025-09-06 11:39:01.6259,2025-09-06 07:39:01.6259
"CYRT",2025-09-06 11:00:00,2025-09-06 07:00:00,"MVFR",4,1,81,20,17,24100,29.93,NA,"OVC  ft","CYRT 061100Z 02017KT 15SM OVC021 04/01 A2993 RMK SC8 SLP140",2025-09-06 11:39:01.718244,2025-09-06 07:39:01.718244
"CYBK",2025-09-06 11:00:00,2025-09-06 07:00:00,"VFR",4,2,87,310,10,32200,30.05,NA,"FEW  ft; BKN  ft","CYBK 061100Z 31010KT 20SM FEW025 BKN051 04/02 A3005 RMK SC1SC6 SLP179",2025-09-06 11:39:01.810329,2025-09-06 07:39:01.810329
"CYRB",2025-09-06 11:00:00,2025-09-06 07:00:00,"LIFR",-2,-3,93,170,11,24100,30.12,NA,"OVC  ft","CYRB 061100Z 17011KT 15SM OVC003 M02/M03 A3012 RMK ST8 SLP210",2025-09-06 11:39:01.953829,2025-09-06 07:39:01.953829
"CYCO",2025-09-06 11:00:00,2025-09-06 07:00:00,"VFR",12,7,72,190,7,9999,29.72,NA,"FEW  ft","CYCO 061100Z 19007KT 10SM FEW180 12/07 A2972 RMK AC2 SLP068",2025-09-06 11:39:02.047438,2025-09-06 07:39:02.047438
"CYER",2025-09-06 12:30:00,2025-09-06 08:30:00,"IFR",7,7,100,320,7,4000,29.61,NA,"OVC  ft","CYER 061230Z AUTO 32007KT 2 1/2SM BR OVC007 07/07 A2961 RMK SLP029",2025-09-06 12:39:59.704329,2025-09-06 08:39:59.704329
"CYAT",2025-09-06 12:24:00,2025-09-06 08:24:00,"IFR",9,9,100,290,10,3600,29.46,NA,"OVC  ft","CYAT 061224Z AUTO 29010KT 2 1/4SM -RA BR OVC006 09/09 A2946 RMK SLP977",2025-09-06 12:39:59.786527,2025-09-06 08:39:59.786527
"CYMO",2025-09-06 12:01:00,2025-09-06 08:01:00,"MVFR",7,6,93,240,13,14500,29.5,NA,"SCT  ft; BKN  ft; BKN  ft; OVC  ft","CYMO 061201Z AUTO 24013G20KT 9SM -RA SCT012 BKN017 BKN035 OVC043 07/06 A2950 RMK SLP991",2025-09-06 12:39:59.862,2025-09-06 08:39:59.862
"CYPL",2025-09-06 12:10:00,2025-09-06 08:10:00,"MVFR",4,3,93,310,9,14500,29.75,NA,"BKN  ft; OVC  ft","CYPL 061210Z AUTO 31009G17KT 9SM BKN017 OVC028 04/03 A2975 RMK SLP093",2025-09-06 12:39:59.934106,2025-09-06 08:39:59.934106
"CYQT",2025-09-06 12:00:00,2025-09-06 08:00:00,"VFR",5,3,87,260,6,32200,29.84,NA,"FEW  ft; SCT  ft; BKN  ft","CYQT 061200Z 26006KT 20SM FEW020 SCT120 BKN230 05/03 A2984 RMK SC1AC4CI2 SC TR SLP112",2025-09-06 12:40:00.009558,2025-09-06 08:40:00.009558
"CYAM",2025-09-06 12:00:00,2025-09-06 08:00:00,"VFR",9,8,94,240,8,24100,29.81,NA,"FEW  ft; OVC  ft","CYAM 061200Z 24008KT 15SM FEW010 OVC051 09/08 A2981 RMK SC1SC7 SLP100",2025-09-06 12:40:00.081341,2025-09-06 08:40:00.081341
"CYTS",2025-09-06 12:00:00,2025-09-06 08:00:00,"MVFR",7,4,81,260,6,24100,29.73,NA,"OVC  ft","CYTS 061200Z 26006G16KT 200V310 15SM OVC026 07/04 A2973 RMK SC8 SLP079",2025-09-06 12:40:00.152413,2025-09-06 08:40:00.152413
"CYSB",2025-09-06 12:00:00,2025-09-06 08:00:00,"VFR",9,7,87,230,7,32200,29.79,NA,"BKN  ft","CYSB 061200Z 23007KT 210V270 20SM BKN072 09/07 A2979 RMK AC7 SLP098",2025-09-06 12:40:00.265427,2025-09-06 08:40:00.265427
"CYYB",2025-09-06 12:00:00,2025-09-06 08:00:00,"VFR",11,9,88,250,9,48300,29.81,NA,"SCT  ft; BKN  ft","CYYB 061200Z 25009G15KT 30SM SCT016 BKN055 11/09 A2981 RMK SC3SC4 SLP102",2025-09-06 12:40:00.350428,2025-09-06 08:40:00.350428
"CYOW",2025-09-06 12:00:00,2025-09-06 08:00:00,"VFR",12,10,88,200,5,24100,29.92,NA,"FEW  ft; OVC  ft","CYOW 061200Z 20005KT 15SM FEW100 OVC150 12/10 A2992 RMK AC1AC7 SLP136",2025-09-06 12:40:00.465404,2025-09-06 08:40:00.465404
"CYGK",2025-09-06 12:00:00,2025-09-06 08:00:00,"VFR",15,10,72,210,9,24100,29.95,NA,"BKN  ft; OVC  ft","CYGK 061200Z 21009KT 15SM BKN055 OVC100 15/10 A2995 RMK SC6AC2 SLP145",2025-09-06 12:40:00.545072,2025-09-06 08:40:00.545072
"CYQG",2025-09-06 12:00:00,2025-09-06 08:00:00,"VFR",14,11,82,280,6,14500,29.98,NA,"OVC  ft","CYQG 061200Z AUTO 28006KT 9SM OVC066 14/11 A2998 RMK SLP153",2025-09-06 12:40:00.657409,2025-09-06 08:40:00.657409
"CYVV",2025-09-06 12:00:00,2025-09-06 08:00:00,"VFR",14,8,67,250,12,24100,29.87,NA,"SCT  ft; OVC  ft","CYVV 061200Z 25012G17KT 15SM SCT035 OVC060 14/08 A2987 RMK CU4SC4 SLP120",2025-09-06 12:40:00.732328,2025-09-06 08:40:00.732328
"CYYZ",2025-09-06 12:00:00,2025-09-06 08:00:00,"VFR",13,7,67,220,6,24100,29.96,NA,"BKN  ft; BKN  ft","CYYZ 061200Z 22006KT 15SM BKN065 BKN140 13/07 A2996 RMK SC6AC1 SLP147",2025-09-06 12:40:00.804342,2025-09-06 08:40:00.804342
"CYQA",2025-09-06 12:00:00,2025-09-06 08:00:00,"VFR",11,7,77,200,9,14500,29.88,NA,"BKN  ft; OVC  ft","CYQA 061200Z AUTO 20009G16KT 9SM BKN044 OVC055 11/07 A2988 RMK SLP124",2025-09-06 12:40:00.918675,2025-09-06 08:40:00.918675
"CYVR",2025-09-06 12:00:00,2025-09-06 08:00:00,"VFR",16,15,94,100,6,19300,29.85,NA,"FEW  ft; SCT  ft","CYVR 061200Z 10006KT 12SM FEW093 SCT220 16/15 A2985 RMK HZ1AC1CI1 SLP110 DENSITY ALT 300FT",2025-09-06 12:40:00.991567,2025-09-06 08:40:00.991567
"CYYJ",2025-09-06 12:00:00,2025-09-06 08:00:00,"VFR",13,13,100,0,2,48300,29.85,NA,"FEW  ft; FEW  ft","CYYJ 061200Z VRB02KT 30SM FEW130 FEW200 13/13 A2985 RMK AC1CI1 SLP110",2025-09-06 12:40:01.064675,2025-09-06 08:40:01.064675
"CYLW",2025-09-06 12:00:00,2025-09-06 08:00:00,"VFR",12,9,82,40,3,14500,29.88,NA,"CLR  ft","CYLW 061200Z AUTO 04003KT 9SM CLR 12/09 A2988 RMK SLP118",2025-09-06 12:40:01.181204,2025-09-06 08:40:01.181204
"CYXS",2025-09-06 12:36:00,2025-09-06 08:36:00,"MVFR",6,6,100,0,0,8000,29.92,NA,"FEW  ft","CYXS 061236Z AUTO 00000KT 5SM BR FEW066 06/06 A2992 RMK SLP141",2025-09-06 12:40:01.255564,2025-09-06 08:40:01.255564
"CYXT",2025-09-06 12:00:00,2025-09-06 08:00:00,"VFR",14,14,100,320,3,24100,29.91,NA,"SKC  ft","CYXT 061200Z 32003KT 15SM SKC 14/14 A2991 RMK FU SLP130",2025-09-06 12:40:01.337347,2025-09-06 08:40:01.337347
"CYQQ",2025-09-06 12:00:00,2025-09-06 08:00:00,"VFR",17,14,83,340,3,32200,29.86,NA,"SCT  ft","CYQQ 061200Z 34003KT 20SM SCT150 17/14 A2986 RMK AC4 DENSITY ALT 556FT SLP111",2025-09-06 12:40:01.415032,2025-09-06 08:40:01.415032
"CYYC",2025-09-06 12:00:00,2025-09-06 08:00:00,"VFR",9,5,76,220,5,9999,29.97,NA,"SKC  ft","CYYC 061200Z 22005KT 10SM SKC 09/05 A2997 RMK SLP157",2025-09-06 12:40:01.506366,2025-09-06 08:40:01.506366
"CYEG",2025-09-06 12:00:00,2025-09-06 08:00:00,"VFR",6,1,71,150,6,32200,29.95,NA,"BKN  ft","CYEG 061200Z 15006KT 20SM BKN250 06/01 A2995 RMK CI5 SLP150",2025-09-06 12:40:01.591798,2025-09-06 08:40:01.591798
"CYMM",2025-09-06 12:00:00,2025-09-06 08:00:00,"MVFR",6,4,87,110,8,6400,29.98,NA,"CLR  ft","CYMM 061200Z AUTO 11008KT 4SM BR CLR 06/04 A2998 RMK SLP165",2025-09-06 12:40:01.704489,2025-09-06 08:40:01.704489
"CYQF",2025-09-06 12:00:00,2025-09-06 08:00:00,"VFR",5,0,70,150,4,14500,29.97,NA,"CLR  ft","CYQF 061200Z AUTO 15004KT 9SM CLR 05/00 A2997 RMK SLP160",2025-09-06 12:40:01.817717,2025-09-06 08:40:01.817717
"CYXE",2025-09-06 12:00:00,2025-09-06 08:00:00,"VFR",4,2,87,170,3,24100,30.1,NA,"FEW  ft","CYXE 061200Z 17003KT 15SM FEW300 04/02 A3010 RMK CI2 SLP211",2025-09-06 12:40:01.89136,2025-09-06 08:40:01.89136
"CYQR",2025-09-06 12:00:00,2025-09-06 08:00:00,"VFR",1,-1,87,60,4,24100,30.12,NA,"FEW  ft","CYQR 061200Z 06004KT 15SM FEW120 01/M01 A3012 RMK AC1 AC TR SLP220",2025-09-06 12:40:01.975726,2025-09-06 08:40:01.975726
"CYWG",2025-09-06 12:00:00,2025-09-06 08:00:00,"VFR",6,6,100,280,8,24100,29.98,NA,"FEW  ft; BKN  ft","CYWG 061200Z 28008KT 15SM FEW052 BKN100 06/06 A2998 RMK SC1AC6 SLP160",2025-09-06 12:40:02.100145,2025-09-06 08:40:02.100145
"CYBR",2025-09-06 12:00:00,2025-09-06 08:00:00,"VFR",3,3,100,270,6,24100,30.06,NA,"FEW  ft","CYBR 061200Z 27006KT 15SM FEW030 03/03 A3006 RMK SC2 SLP197",2025-09-06 12:40:02.223785,2025-09-06 08:40:02.223785
"CYUL",2025-09-06 12:00:00,2025-09-06 08:00:00,"VFR",15,12,82,190,10,24100,29.94,NA,"FEW  ft; OVC  ft","CYUL 061200Z CCA 19010KT 15SM -RA FEW030 OVC100 15/12 A2994 RMK CF1AC8 CF TR SLP140",2025-09-06 12:40:02.338338,2025-09-06 08:40:02.338338
"CYHU",2025-09-06 12:07:00,2025-09-06 08:07:00,"VFR",14,12,88,190,5,14500,29.94,NA,"BKN  ft; OVC  ft","CYHU 061207Z AUTO 19005KT 9SM -RA BKN110 OVC130 14/12 A2994 RMK SLP142",2025-09-06 12:40:02.422513,2025-09-06 08:40:02.422513
"CYQB",2025-09-06 12:00:00,2025-09-06 08:00:00,"VFR",13,12,94,250,7,48300,29.91,NA,"FEW  ft; FEW  ft; BKN  ft; BKN  ft","CYQB 061200Z 25007KT 30SM FEW060 FEW120 BKN200 BKN230 13/12 A2991 RMK SC1AC1CS3CI1 CI TR SLP132",2025-09-06 12:40:02.537699,2025-09-06 08:40:02.537699
"CYVO",2025-09-06 12:00:00,2025-09-06 08:00:00,"VFR",9,7,87,200,7,24100,29.74,NA,"FEW  ft; BKN  ft","CYVO 061200Z 20007KT 15SM FEW015 BKN040 09/07 A2974 RMK SF1SC6 SLP083",2025-09-06 12:40:02.648921,2025-09-06 08:40:02.648921
"CYUY",2025-09-06 12:00:00,2025-09-06 08:00:00,"MVFR",9,6,82,250,14,24100,29.72,NA,"FEW  ft; BKN  ft; BKN  ft; BKN  ft","CYUY 061200Z 25014G19KT 15SM FEW020 BKN025 BKN120 BKN240 09/06 A2972 RMK ST2SC3AC2CI1 CI TR SLP075",2025-09-06 12:40:02.75919,2025-09-06 08:40:02.75919
"CYZV",2025-09-06 12:00:00,2025-09-06 08:00:00,"VFR",18,14,78,230,15,48300,29.75,NA,"FEW  ft; FEW  ft","CYZV 061200Z 23015G21KT 30SM FEW050 FEW140 18/14 A2975 RMK CU1AC1 CU TR SLP077 DENSITY ALT 800FT",2025-09-06 12:40:02.874226,2025-09-06 08:40:02.874226
"CYBC",2025-09-06 12:00:00,2025-09-06 08:00:00,"VFR",16,14,88,250,11,14500,29.8,NA,"CLR  ft","CYBC 061200Z AUTO 25011KT 9SM CLR 16/14 A2980 RMK SLP092 DENSITY ALT 400FT",2025-09-06 12:40:02.947838,2025-09-06 08:40:02.947838
"CYRJ",2025-09-06 12:00:00,2025-09-06 08:00:00,"VFR",12,9,82,220,10,64400,29.81,NA,"FEW  ft; SCT  ft; BKN  ft","CYRJ 061200Z 22010G16KT 40SM FEW017 SCT090 BKN240 12/09 A2981 RMK CF2AC1CI3 SLP099",2025-09-06 12:40:03.024423,2025-09-06 08:40:03.024423
"CYHZ",2025-09-06 12:00:00,2025-09-06 08:00:00,"IFR",20,19,94,200,14,24100,30.09,NA,"BKN  ft","CYHZ 061200Z 20014G21KT 15SM BKN009 20/19 A3009 RMK SF7 SLP191 DENSITY ALT 1000FT",2025-09-06 12:40:03.135361,2025-09-06 08:40:03.135361
"CYYG",2025-09-06 12:00:00,2025-09-06 08:00:00,"MVFR",20,16,78,200,15,24100,30.03,NA,"OVC  ft","CYYG 061200Z 20015G21KT 15SM OVC016 20/16 A3003 RMK SC8 SLP171 DENSITY ALT 700FT",2025-09-06 12:40:03.256625,2025-09-06 08:40:03.256625
"CYQM",2025-09-06 12:00:00,2025-09-06 08:00:00,"MVFR",21,17,78,180,8,24100,29.99,NA,"BKN  ft; BKN  ft; BKN  ft","CYQM 061200Z 18008KT 15SM BKN015 BKN150 BKN220 21/17 A2999 RMK CU6AC1CI1 CI TR SLP157 DENSITY ALT 900FT",2025-09-06 12:40:03.332116,2025-09-06 08:40:03.332116
"CYFC",2025-09-06 12:00:00,2025-09-06 08:00:00,"IFR",19,17,88,170,4,14500,29.99,NA,"OVC  ft","CYFC 061200Z AUTO 17004KT 9SM OVC008 19/17 A2999 RMK SLP157 DENSITY ALT 500FT",2025-09-06 12:40:03.406618,2025-09-06 08:40:03.406618
"CYYT",2025-09-06 12:00:00,2025-09-06 08:00:00,"IFR",14,13,94,200,9,24100,30.23,NA,"BKN  ft; BKN  ft","CYYT 061200Z 20009G15KT 15SM BKN008 BKN087 14/13 A3023 RMK SF5AC1 AC TR SLP242",2025-09-06 12:40:03.480213,2025-09-06 08:40:03.480213
"CYQY",2025-09-06 12:00:00,2025-09-06 08:00:00,"MVFR",21,21,100,220,8,11300,30.09,NA,"SCT  ft; BKN  ft","CYQY 061200Z 22008G18KT 7SM SCT007 BKN014 21/21 A3009 RMK SC4SC3 SLP192 DENSITY ALT 800FT",2025-09-06 12:40:03.594819,2025-09-06 08:40:03.594819
"CYXY",2025-09-06 12:00:00,2025-09-06 08:00:00,"VFR",13,12,94,350,5,9700,29.94,NA,"SCT  ft; OVC  ft","CYXY 061200Z 35005KT 320V020 6SM -SHRA SCT007 OVC035 13/12 A2994 RMK SF3SC5 CVCTV CLD EMBD SLP149 DENSITY ALT 2600FT",2025-09-06 12:40:03.667022,2025-09-06 08:40:03.667022
"CYZF",2025-09-06 12:00:00,2025-09-06 08:00:00,"VFR",12,8,77,150,12,24100,29.86,NA,"SCT  ft; SCT  ft","CYZF 061200Z 15012G20KT 15SM SCT180 SCT240 12/08 A2986 RMK AC3CI1 CI TR SLP121",2025-09-06 12:40:03.781076,2025-09-06 08:40:03.781076
"CYFB",2025-09-06 12:00:00,2025-09-06 08:00:00,"MVFR",3,1,87,120,17,9700,29.71,NA,"OVC  ft","CYFB 061200Z 12017KT 6SM -RA BR OVC025 03/01 A2971 RMK SC8 SLP066",2025-09-06 12:40:03.854699,2025-09-06 08:40:03.854699
"CYRT",2025-09-06 12:00:00,2025-09-06 08:00:00,"MVFR",4,1,81,10,15,24100,29.93,NA,"OVC  ft","CYRT 061200Z 01015G23KT 15SM OVC022 04/01 A2993 RMK SC8 SLP140",2025-09-06 12:40:03.925922,2025-09-06 08:40:03.925922
"CYBK",2025-09-06 12:00:00,2025-09-06 08:00:00,"VFR",5,3,87,320,11,32200,30.04,NA,"FEW  ft; BKN  ft","CYBK 061200Z 32011KT 20SM FEW019 BKN050 05/03 A3004 RMK SC4SC3 SLP178",2025-09-06 12:40:04.039247,2025-09-06 08:40:04.039247
"CYRB",2025-09-06 12:00:00,2025-09-06 08:00:00,"LIFR",-2,-3,93,170,11,32200,30.12,NA,"OVC  ft","CYRB 061200Z 17011KT 20SM OVC003 M02/M03 A3012 RMK ST8 SLP207",2025-09-06 12:40:04.120752,2025-09-06 08:40:04.120752
"CYCO",2025-09-06 12:00:00,2025-09-06 08:00:00,"MVFR",12,7,72,180,8,8000,29.7,NA,"BKN  ft","CYCO 061200Z 18008KT 5SM FU BKN160 12/07 A2970 RMK FU2AC3 SLP062",2025-09-06 12:40:04.194705,2025-09-06 08:40:04.194705
"CYER",2025-09-06 13:00:00,2025-09-06 09:00:00,"IFR",7,7,100,320,8,14500,29.61,NA,"OVC  ft","CYER 061300Z AUTO 32008G15KT 270V010 9SM OVC007 07/07 A2961 RMK SLP030",2025-09-06 13:22:39.241495,2025-09-06 09:22:39.241495
"CYAT",2025-09-06 13:14:00,2025-09-06 09:14:00,"IFR",9,9,100,300,11,9700,29.49,NA,"OVC  ft","CYAT 061314Z AUTO 30011G16KT 260V320 6SM BR OVC006 09/09 A2949 RMK SLP987",2025-09-06 13:22:39.29367,2025-09-06 09:22:39.29367
"CYMO",2025-09-06 13:00:00,2025-09-06 09:00:00,"MVFR",7,7,100,250,13,9700,29.53,NA,"BKN  ft; OVC  ft","CYMO 061300Z AUTO 25013G24KT 6SM -RA BR BKN012 OVC018 07/07 A2953 RMK PCPN 1.2MM PAST HR SLP002",2025-09-06 13:22:39.381353,2025-09-06 09:22:39.381353
"CYPL",2025-09-06 13:00:00,2025-09-06 09:00:00,"MVFR",5,3,87,320,9,14500,29.77,NA,"OVC  ft","CYPL 061300Z AUTO 32009G18KT 280V340 9SM OVC013 05/03 A2977 RMK SLP098",2025-09-06 13:22:39.465989,2025-09-06 09:22:39.465989
"CYQT",2025-09-06 13:00:00,2025-09-06 09:00:00,"VFR",7,4,81,260,9,32200,29.85,NA,"FEW  ft; BKN  ft; BKN  ft","CYQT 061300Z 26009KT 20SM FEW020 BKN130 BKN230 07/04 A2985 RMK SC1AC5CI1 SC TR SLP116",2025-09-06 13:22:39.554595,2025-09-06 09:22:39.554595
"CYAM",2025-09-06 13:00:00,2025-09-06 09:00:00,"VFR",10,8,88,260,10,22500,29.82,NA,"FEW  ft; OVC  ft","CYAM 061300Z 26010KT 14SM -SHRA FEW010 OVC033 10/08 A2982 RMK CU2SC6 SLP104",2025-09-06 13:22:39.602734,2025-09-06 09:22:39.602734
"CYTS",2025-09-06 13:00:00,2025-09-06 09:00:00,"MVFR",7,5,87,250,5,24100,29.75,NA,"BKN  ft","CYTS 061300Z 25005KT 220V290 15SM BKN018 07/05 A2975 RMK SC7 SLP085",2025-09-06 13:22:39.689184,2025-09-06 09:22:39.689184
"CYSB",2025-09-06 13:00:00,2025-09-06 09:00:00,"VFR",10,7,82,240,8,32200,29.81,NA,"SCT  ft; BKN  ft","CYSB 061300Z 24008KT 20SM SCT015 BKN077 10/07 A2981 RMK SC3AC4 SLP103",2025-09-06 13:22:39.775427,2025-09-06 09:22:39.775427
"CYYB",2025-09-06 13:00:00,2025-09-06 09:00:00,"MVFR",11,8,82,260,12,48300,29.83,NA,"BKN  ft; OVC  ft","CYYB 061300Z 26012G21KT 30SM BKN022 OVC055 11/08 A2983 RMK SC5SC3 SLP108",2025-09-06 13:22:39.861382,2025-09-06 09:22:39.861382
"CYOW",2025-09-06 13:00:00,2025-09-06 09:00:00,"VFR",12,9,82,210,7,24100,29.93,NA,"FEW  ft; OVC  ft","CYOW 061300Z 21007KT 15SM FEW080 OVC120 12/09 A2993 RMK AC1AC7 SLP140",2025-09-06 13:22:39.949202,2025-09-06 09:22:39.949202
"CYGK",2025-09-06 13:00:00,2025-09-06 09:00:00,"VFR",16,9,63,230,8,24100,29.94,NA,"FEW  ft; BKN  ft; OVC  ft","CYGK 061300Z 23008KT 15SM FEW030 BKN054 OVC130 16/09 A2994 RMK CU1SC4AC3 SLP142",2025-09-06 13:22:40.036886,2025-09-06 09:22:40.036886
"CYQG",2025-09-06 13:00:00,2025-09-06 09:00:00,"VFR",15,10,72,250,6,14500,29.99,NA,"BKN  ft","CYQG 061300Z AUTO 25006KT 9SM BKN055 15/10 A2999 RMK SLP156",2025-09-06 13:22:40.123273,2025-09-06 09:22:40.123273
"CYVV",2025-09-06 13:00:00,2025-09-06 09:00:00,"VFR",14,8,67,260,9,24100,29.88,NA,"FEW  ft; BKN  ft; BKN  ft","CYVV 061300Z 26009KT 15SM FEW015 BKN035 BKN060 14/08 A2988 RMK CF1CU5SC2 CF TR SLP124",2025-09-06 13:22:40.213952,2025-09-06 09:22:40.213952
"CYYZ",2025-09-06 13:00:00,2025-09-06 09:00:00,"VFR",13,8,72,230,6,24100,29.95,NA,"BKN  ft; BKN  ft","CYYZ 061300Z 23006KT 15SM BKN072 BKN160 13/08 A2995 RMK AC7AC1 AC TR SLP146",2025-09-06 13:22:40.264612,2025-09-06 09:22:40.264612
"CYQA",2025-09-06 13:00:00,2025-09-06 09:00:00,"VFR",12,7,72,220,9,14500,29.89,NA,"OVC  ft","CYQA 061300Z AUTO 22009G16KT 9SM OVC060 12/07 A2989 RMK SLP128",2025-09-06 13:22:40.350814,2025-09-06 09:22:40.350814
"CYVR",2025-09-06 13:00:00,2025-09-06 09:00:00,"VFR",16,16,100,90,5,19300,29.85,NA,"SCT  ft; BKN  ft","CYVR 061300Z 09005KT 12SM SCT089 BKN220 16/16 A2985 RMK HZ2AC2CI1 SLP112 DENSITY ALT 300FT",2025-09-06 13:22:40.438508,2025-09-06 09:22:40.438508
"CYYJ",2025-09-06 13:00:00,2025-09-06 09:00:00,"VFR",13,12,94,90,2,48300,29.86,NA,"FEW  ft; FEW  ft","CYYJ 061300Z 09002KT 30SM FEW050 FEW130 13/12 A2986 RMK SC1AC1 SC TR SLP112",2025-09-06 13:22:40.5255,2025-09-06 09:22:40.5255
"CYLW",2025-09-06 13:00:00,2025-09-06 09:00:00,"VFR",11,8,82,20,3,12900,29.89,NA,"CLR  ft","CYLW 061300Z AUTO 02003KT 8SM CLR 11/08 A2989 RMK SLP121",2025-09-06 13:22:40.613962,2025-09-06 09:22:40.613962
"CYXS",2025-09-06 13:16:00,2025-09-06 09:16:00,"LIFR",7,7,100,0,0,800,29.92,NA,"BKN  ft","CYXS 061316Z AUTO 00000KT 1/2SM -RA FG BKN007 07/07 A2992 RMK SLP142",2025-09-06 13:22:40.699421,2025-09-06 09:22:40.699421
"CYXT",2025-09-06 13:14:00,2025-09-06 09:14:00,"LIFR",13,13,100,290,3,1200,29.91,NA,"FEW  ft","CYXT 061314Z 29003KT 3/4SM PRFG BR FEW210 13/13 A2991 RMK FG3CI1 CI TR SLP130",2025-09-06 13:22:40.78725,2025-09-06 09:22:40.78725
"CYQQ",2025-09-06 13:00:00,2025-09-06 09:00:00,"VFR",16,14,88,310,2,32200,29.87,NA,"SCT  ft; BKN  ft","CYQQ 061300Z 31002KT 20SM SCT150 BKN250 16/14 A2987 RMK AC4CI2 DENSITY ALT 459FT SLP114",2025-09-06 13:22:40.87229,2025-09-06 09:22:40.87229
"CYYC",2025-09-06 13:00:00,2025-09-06 09:00:00,"VFR",8,4,76,0,0,12900,29.98,NA,"FEW  ft","CYYC 061300Z 00000KT 8SM FEW140 08/04 A2998 RMK FU2AC1 AC TR FU SLP161",2025-09-06 13:22:40.958314,2025-09-06 09:22:40.958314
"CYEG",2025-09-06 13:00:00,2025-09-06 09:00:00,"VFR",5,1,76,170,4,32200,29.94,NA,"SCT  ft","CYEG 061300Z 17004KT 20SM SCT220 05/01 A2994 RMK CI3 SLP151",2025-09-06 13:22:41.04464,2025-09-06 09:22:41.04464
"CYMM",2025-09-06 13:00:00,2025-09-06 09:00:00,"MVFR",6,4,87,100,6,4800,29.98,NA,"CLR  ft","CYMM 061300Z AUTO 10006KT 3SM BR CLR 06/04 A2998 RMK SLP165",2025-09-06 13:22:41.131729,2025-09-06 09:22:41.131729
"CYQF",2025-09-06 13:00:00,2025-09-06 09:00:00,"VFR",4,0,75,190,3,14500,29.97,NA,"CLR  ft","CYQF 061300Z AUTO 19003KT 9SM CLR 04/00 A2997 RMK SLP163",2025-09-06 13:22:41.176223,2025-09-06 09:22:41.176223
"CYXE",2025-09-06 13:00:00,2025-09-06 09:00:00,"VFR",4,2,87,170,4,24100,30.11,NA,"SCT  ft","CYXE 061300Z 17004KT 15SM SCT300 04/02 A3011 RMK CI3 SLP214",2025-09-06 13:22:41.261247,2025-09-06 09:22:41.261247
"CYQR",2025-09-06 13:00:00,2025-09-06 09:00:00,"VFR",2,1,93,60,5,24100,30.13,NA,"FEW  ft","CYQR 061300Z 06005KT 15SM FEW250 02/01 A3013 RMK CI1 SLP225",2025-09-06 13:22:41.309407,2025-09-06 09:22:41.309407
"CYWG",2025-09-06 13:00:00,2025-09-06 09:00:00,"VFR",8,8,100,290,6,24100,29.99,NA,"BKN  ft; BKN  ft","CYWG 061300Z 29006KT 15SM BKN062 BKN095 08/08 A2999 RMK SC5AC1 SLP166",2025-09-06 13:22:41.393487,2025-09-06 09:22:41.393487
"CYBR",2025-09-06 13:00:00,2025-09-06 09:00:00,"VFR",4,4,100,270,5,24100,30.08,NA,"FEW  ft; FEW  ft","CYBR 061300Z 27005KT 15SM FEW008 FEW030 04/04 A3008 RMK ST1SC1 ST TR SLP203",2025-09-06 13:22:41.477923,2025-09-06 09:22:41.477923
"CYUL",2025-09-06 13:05:00,2025-09-06 09:05:00,"VFR",16,12,77,210,9,24100,29.95,NA,"OVC  ft","CYUL 061305Z 21009KT 15SM -RA OVC110 16/12 A2995 RMK AC8 -RA INTMT SLP145",2025-09-06 13:22:41.563694,2025-09-06 09:22:41.563694
"CYHU",2025-09-06 13:00:00,2025-09-06 09:00:00,"VFR",14,12,88,190,7,14500,29.96,NA,"BKN  ft; OVC  ft","CYHU 061300Z AUTO 19007KT 9SM -RA BKN100 OVC120 14/12 A2996 RMK SLP147",2025-09-06 13:22:41.611016,2025-09-06 09:22:41.611016
"CYQB",2025-09-06 13:00:00,2025-09-06 09:00:00,"VFR",15,12,82,230,9,48300,29.93,NA,"FEW  ft; FEW  ft; BKN  ft","CYQB 061300Z 23009G15KT 30SM FEW030 FEW120 BKN220 15/12 A2993 RMK SC1AC2CS5 SC TR SLP138",2025-09-06 13:22:41.654703,2025-09-06 09:22:41.654703
"CYVO",2025-09-06 13:00:00,2025-09-06 09:00:00,"VFR",10,7,82,210,9,24100,29.76,NA,"FEW  ft; BKN  ft","CYVO 061300Z 21009KT 15SM FEW023 BKN037 10/07 A2976 RMK CF1SC6 SLP089",2025-09-06 13:22:41.739559,2025-09-06 09:22:41.739559
"CYUY",2025-09-06 13:00:00,2025-09-06 09:00:00,"MVFR",10,6,76,250,12,24100,29.75,NA,"BKN  ft; BKN  ft; BKN  ft; BKN  ft","CYUY 061300Z 25012G19KT 15SM BKN023 BKN034 BKN180 BKN220 10/06 A2975 RMK SC5SC1AC1CI1 CI TR SLP083",2025-09-06 13:22:41.825167,2025-09-06 09:22:41.825167
"CYZV",2025-09-06 13:00:00,2025-09-06 09:00:00,"VFR",18,14,78,250,8,48300,29.78,NA,"FEW  ft; FEW  ft; SCT  ft","CYZV 061300Z 25008KT 30SM FEW060 FEW120 SCT240 18/14 A2978 RMK CU1AC1CI4 CU TR AC TR SLP087 DENSITY ALT 800FT",2025-09-06 13:22:41.910434,2025-09-06 09:22:41.910434
"CYBC",2025-09-06 13:00:00,2025-09-06 09:00:00,"VFR",17,14,83,250,8,14500,29.8,NA,"CLR  ft","CYBC 061300Z AUTO 25008KT 9SM CLR 17/14 A2980 RMK SLP093 DENSITY ALT 500FT",2025-09-06 13:22:41.993022,2025-09-06 09:22:41.993022
"CYRJ",2025-09-06 13:00:00,2025-09-06 09:00:00,"VFR",13,9,77,220,9,64400,29.82,NA,"SCT  ft; BKN  ft","CYRJ 061300Z 22009G16KT 40SM SCT034 BKN040 13/09 A2982 RMK CF4SC3 SLP104",2025-09-06 13:22:42.080532,2025-09-06 09:22:42.080532
"CYHZ",2025-09-06 13:00:00,2025-09-06 09:00:00,"IFR",20,19,94,210,14,24100,30.11,NA,"BKN  ft","CYHZ 061300Z 21014KT 15SM BKN009 20/19 A3011 RMK SF7 SLP197 DENSITY ALT 1000FT",2025-09-06 13:22:42.165336,2025-09-06 09:22:42.165336
"CYYG",2025-09-06 13:00:00,2025-09-06 09:00:00,"MVFR",21,17,78,210,12,24100,30.04,NA,"OVC  ft","CYYG 061300Z 21012G18KT 15SM OVC016 21/17 A3004 RMK SC8 SLP175 DENSITY ALT 800FT",2025-09-06 13:22:42.251913,2025-09-06 09:22:42.251913
"CYQM",2025-09-06 13:00:00,2025-09-06 09:00:00,"MVFR",23,17,69,200,13,24100,30,NA,"BKN  ft; BKN  ft","CYQM 061300Z 20013G18KT 15SM BKN020 BKN250 23/17 A3000 RMK CU6CI1 SLP160 DENSITY ALT 1100FT",2025-09-06 13:22:42.335906,2025-09-06 09:22:42.335906
"CYFC",2025-09-06 13:00:00,2025-09-06 09:00:00,"MVFR",20,18,88,180,7,14500,29.98,NA,"OVC  ft","CYFC 061300Z AUTO 18007KT 9SM OVC010 20/18 A2998 RMK SLP156 DENSITY ALT 600FT",2025-09-06 13:22:42.419605,2025-09-06 09:22:42.419605
"CYYT",2025-09-06 13:00:00,2025-09-06 09:00:00,"VFR",18,14,78,190,9,24100,30.21,NA,"FEW  ft; SCT  ft","CYYT 061300Z 19009G16KT 15SM FEW018 SCT220 18/14 A3021 RMK SC1CI3 SC TR SLP236",2025-09-06 13:22:42.503365,2025-09-06 09:22:42.503365
"CYQY",2025-09-06 13:00:00,2025-09-06 09:00:00,"MVFR",22,20,88,210,15,24100,30.08,NA,"BKN  ft","CYQY 061300Z 21015G21KT 15SM BKN013 22/20 A3008 RMK SC5 SLP189 DENSITY ALT 1000FT",2025-09-06 13:22:42.589509,2025-09-06 09:22:42.589509
"CYXY",2025-09-06 13:00:00,2025-09-06 09:00:00,"MVFR",12,12,100,340,3,24100,29.95,NA,"FEW  ft; BKN  ft; OVC  ft","CYXY 061300Z 34003KT 15SM -SHRA FEW007 BKN017 OVC038 12/12 A2995 RMK SF2SC5SC1 CVCTV CLD EMBD SLP151 DENSITY ALT 2600FT",2025-09-06 13:22:42.674352,2025-09-06 09:22:42.674352
"CYZF",2025-09-06 13:00:00,2025-09-06 09:00:00,"VFR",11,8,82,150,12,24100,29.85,NA,"SCT  ft; BKN  ft","CYZF 061300Z 15012G19KT 15SM SCT110 BKN240 11/08 A2985 RMK AC3CI3 FU SLP118",2025-09-06 13:22:42.758817,2025-09-06 09:22:42.758817
"CYFB",2025-09-06 13:00:00,2025-09-06 09:00:00,"VFR",4,0,75,120,16,40200,29.69,NA,"OVC  ft","CYFB 061300Z 12016G22KT 25SM -RA OVC034 04/00 A2969 RMK SC8 SLP059",2025-09-06 13:22:42.80545,2025-09-06 09:22:42.80545
"CYRT",2025-09-06 13:00:00,2025-09-06 09:00:00,"MVFR",4,1,81,10,14,24100,29.93,NA,"OVC  ft","CYRT 061300Z 01014G20KT 15SM OVC022 04/01 A2993 RMK SC8 SLP140",2025-09-06 13:22:42.891081,2025-09-06 09:22:42.891081
"CYBK",2025-09-06 13:00:00,2025-09-06 09:00:00,"VFR",5,3,87,320,9,32200,30.04,NA,"SCT  ft; OVC  ft","CYBK 061300Z 32009KT 20SM SCT016 OVC048 05/03 A3004 RMK SC3SC5 SLP175",2025-09-06 13:22:42.976708,2025-09-06 09:22:42.976708
"CYRB",2025-09-06 13:00:00,2025-09-06 09:00:00,"LIFR",-2,-3,93,160,13,32200,30.11,NA,"OVC  ft","CYRB 061300Z 16013KT 20SM OVC003 M02/M03 A3011 RMK ST8 SLP205",2025-09-06 13:22:43.076995,2025-09-06 09:22:43.076995
"CYCO",2025-09-06 13:00:00,2025-09-06 09:00:00,"VFR",12,7,72,180,11,12900,29.67,NA,"SCT  ft; BKN  ft","CYCO 061300Z 18011KT 8SM SCT110 BKN150 12/07 A2967 RMK FU2AC2AC3 FU SLP052",2025-09-06 13:22:43.122398,2025-09-06 09:22:43.122398
"CYER",2025-09-06 13:33:00,2025-09-06 09:33:00,"IFR",7,7,100,350,10,4800,29.62,NA,"OVC  ft","CYER 061333Z AUTO 35010KT 3SM BR OVC007 07/07 A2962 RMK SLP033",2025-09-06 13:38:40.643532,2025-09-06 09:38:40.643532
"CYAT",2025-09-06 13:14:00,2025-09-06 09:14:00,"IFR",9,9,100,300,11,9700,29.49,NA,"OVC  ft","CYAT 061314Z AUTO 30011G16KT 260V320 6SM BR OVC006 09/09 A2949 RMK SLP987",2025-09-06 13:38:40.714985,2025-09-06 09:38:40.714985
"CYMO",2025-09-06 13:22:00,2025-09-06 09:22:00,"MVFR",7,7,100,240,16,8000,29.54,NA,"OVC  ft","CYMO 061322Z AUTO 24016G21KT 5SM -RA BR OVC012 07/07 A2954 RMK SLP007",2025-09-06 13:38:40.783817,2025-09-06 09:38:40.783817
"CYPL",2025-09-06 13:25:00,2025-09-06 09:25:00,"MVFR",4,3,93,320,10,14500,29.78,NA,"BKN  ft; OVC  ft","CYPL 061325Z AUTO 32010G19KT 280V360 9SM -RA BKN013 OVC030 04/03 A2978 RMK SLP101",2025-09-06 13:38:40.856837,2025-09-06 09:38:40.856837
"CYQT",2025-09-06 13:00:00,2025-09-06 09:00:00,"VFR",7,4,81,260,9,32200,29.85,NA,"FEW  ft; BKN  ft; BKN  ft","CYQT 061300Z 26009KT 20SM FEW020 BKN130 BKN230 07/04 A2985 RMK SC1AC5CI1 SC TR SLP116",2025-09-06 13:38:40.92883,2025-09-06 09:38:40.92883
"CYAM",2025-09-06 13:00:00,2025-09-06 09:00:00,"VFR",10,8,88,260,10,22500,29.82,NA,"FEW  ft; OVC  ft","CYAM 061300Z 26010KT 14SM -SHRA FEW010 OVC033 10/08 A2982 RMK CU2SC6 SLP104",2025-09-06 13:38:40.995923,2025-09-06 09:38:40.995923
"CYTS",2025-09-06 13:00:00,2025-09-06 09:00:00,"MVFR",7,5,87,250,5,24100,29.75,NA,"BKN  ft","CYTS 061300Z 25005KT 220V290 15SM BKN018 07/05 A2975 RMK SC7 SLP085",2025-09-06 13:38:41.063931,2025-09-06 09:38:41.063931
"CYSB",2025-09-06 13:00:00,2025-09-06 09:00:00,"VFR",10,7,82,240,8,32200,29.81,NA,"SCT  ft; BKN  ft","CYSB 061300Z 24008KT 20SM SCT015 BKN077 10/07 A2981 RMK SC3AC4 SLP103",2025-09-06 13:38:41.132687,2025-09-06 09:38:41.132687
"CYYB",2025-09-06 13:00:00,2025-09-06 09:00:00,"MVFR",11,8,82,260,12,48300,29.83,NA,"BKN  ft; OVC  ft","CYYB 061300Z 26012G21KT 30SM BKN022 OVC055 11/08 A2983 RMK SC5SC3 SLP108",2025-09-06 13:38:41.203358,2025-09-06 09:38:41.203358
"CYOW",2025-09-06 13:00:00,2025-09-06 09:00:00,"VFR",12,9,82,210,7,24100,29.93,NA,"FEW  ft; OVC  ft","CYOW 061300Z 21007KT 15SM FEW080 OVC120 12/09 A2993 RMK AC1AC7 SLP140",2025-09-06 13:38:41.270428,2025-09-06 09:38:41.270428
"CYGK",2025-09-06 13:00:00,2025-09-06 09:00:00,"VFR",16,9,63,230,8,24100,29.94,NA,"FEW  ft; BKN  ft; OVC  ft","CYGK 061300Z 23008KT 15SM FEW030 BKN054 OVC130 16/09 A2994 RMK CU1SC4AC3 SLP142",2025-09-06 13:38:41.340408,2025-09-06 09:38:41.340408
"CYQG",2025-09-06 13:00:00,2025-09-06 09:00:00,"VFR",15,10,72,250,6,14500,29.99,NA,"BKN  ft","CYQG 061300Z AUTO 25006KT 9SM BKN055 15/10 A2999 RMK SLP156",2025-09-06 13:38:41.407342,2025-09-06 09:38:41.407342
"CYVV",2025-09-06 13:23:00,2025-09-06 09:23:00,"MVFR",12,10,88,230,14,8000,29.89,NA,"SCT  ft; OVC  ft","CYVV 061323Z 23014G22KT 210V270 5SM -SHRA SCT036 OVC060 12/10 A2989 RMK CU3SC5 SLP127",2025-09-06 13:38:41.473658,2025-09-06 09:38:41.473658
"CYYZ",2025-09-06 13:00:00,2025-09-06 09:00:00,"VFR",13,8,72,230,6,24100,29.95,NA,"BKN  ft; BKN  ft","CYYZ 061300Z 23006KT 15SM BKN072 BKN160 13/08 A2995 RMK AC7AC1 AC TR SLP146",2025-09-06 13:38:41.54176,2025-09-06 09:38:41.54176
"CYQA",2025-09-06 13:00:00,2025-09-06 09:00:00,"VFR",12,7,72,220,9,14500,29.89,NA,"OVC  ft","CYQA 061300Z AUTO 22009G16KT 9SM OVC060 12/07 A2989 RMK SLP128",2025-09-06 13:38:41.610594,2025-09-06 09:38:41.610594
"CYVR",2025-09-06 13:00:00,2025-09-06 09:00:00,"VFR",16,16,100,90,5,19300,29.85,NA,"SCT  ft; BKN  ft","CYVR 061300Z 09005KT 12SM SCT089 BKN220 16/16 A2985 RMK HZ2AC2CI1 SLP112 DENSITY ALT 300FT",2025-09-06 13:38:41.679411,2025-09-06 09:38:41.679411
"CYYJ",2025-09-06 13:00:00,2025-09-06 09:00:00,"VFR",13,12,94,90,2,48300,29.86,NA,"FEW  ft; FEW  ft","CYYJ 061300Z 09002KT 30SM FEW050 FEW130 13/12 A2986 RMK SC1AC1 SC TR SLP112",2025-09-06 13:38:41.786442,2025-09-06 09:38:41.786442
"CYLW",2025-09-06 13:00:00,2025-09-06 09:00:00,"VFR",11,8,82,20,3,12900,29.89,NA,"CLR  ft","CYLW 061300Z AUTO 02003KT 8SM CLR 11/08 A2989 RMK SLP121",2025-09-06 13:38:41.851538,2025-09-06 09:38:41.851538
"CYXS",2025-09-06 13:34:00,2025-09-06 09:34:00,"LIFR",6,6,100,0,0,1200,29.93,NA,"FEW  ft","CYXS 061334Z AUTO 00000KT 3/4SM -RA BR FEW007 06/06 A2993 RMK VIS VRB 1/4-3 SLP145",2025-09-06 13:38:41.963109,2025-09-06 09:38:41.963109
"CYXT",2025-09-06 13:19:00,2025-09-06 09:19:00,"LIFR",13,13,100,280,2,NA,29.91,NA,"OVX  ft","CYXT 061319Z 28002KT 3/8SM FG VV001 13/13 A2991 RMK FG8 SLP130",2025-09-06 13:38:42.030461,2025-09-06 09:38:42.030461
"CYQQ",2025-09-06 13:00:00,2025-09-06 09:00:00,"VFR",16,14,88,310,2,32200,29.87,NA,"SCT  ft; BKN  ft","CYQQ 061300Z 31002KT 20SM SCT150 BKN250 16/14 A2987 RMK AC4CI2 DENSITY ALT 459FT SLP114",2025-09-06 13:38:42.099215,2025-09-06 09:38:42.099215
"CYYC",2025-09-06 13:00:00,2025-09-06 09:00:00,"VFR",8,4,76,0,0,12900,29.98,NA,"FEW  ft","CYYC 061300Z 00000KT 8SM FEW140 08/04 A2998 RMK FU2AC1 AC TR FU SLP161",2025-09-06 13:38:42.165524,2025-09-06 09:38:42.165524
"CYEG",2025-09-06 13:00:00,2025-09-06 09:00:00,"VFR",5,1,76,170,4,32200,29.94,NA,"SCT  ft","CYEG 061300Z 17004KT 20SM SCT220 05/01 A2994 RMK CI3 SLP151",2025-09-06 13:38:42.235556,2025-09-06 09:38:42.235556
"CYMM",2025-09-06 13:00:00,2025-09-06 09:00:00,"MVFR",6,4,87,100,6,4800,29.98,NA,"CLR  ft","CYMM 061300Z AUTO 10006KT 3SM BR CLR 06/04 A2998 RMK SLP165",2025-09-06 13:38:42.305521,2025-09-06 09:38:42.305521
"CYQF",2025-09-06 13:00:00,2025-09-06 09:00:00,"VFR",4,0,75,190,3,14500,29.97,NA,"CLR  ft","CYQF 061300Z AUTO 19003KT 9SM CLR 04/00 A2997 RMK SLP163",2025-09-06 13:38:42.372771,2025-09-06 09:38:42.372771
"CYXE",2025-09-06 13:00:00,2025-09-06 09:00:00,"VFR",4,2,87,170,4,24100,30.11,NA,"SCT  ft","CYXE 061300Z 17004KT 15SM SCT300 04/02 A3011 RMK CI3 SLP214",2025-09-06 13:38:42.479004,2025-09-06 09:38:42.479004
"CYQR",2025-09-06 13:00:00,2025-09-06 09:00:00,"VFR",2,1,93,60,5,24100,30.13,NA,"FEW  ft","CYQR 061300Z 06005KT 15SM FEW250 02/01 A3013 RMK CI1 SLP225",2025-09-06 13:38:42.542517,2025-09-06 09:38:42.542517
"CYWG",2025-09-06 13:00:00,2025-09-06 09:00:00,"VFR",8,8,100,290,6,24100,29.99,NA,"BKN  ft; BKN  ft","CYWG 061300Z 29006KT 15SM BKN062 BKN095 08/08 A2999 RMK SC5AC1 SLP166",2025-09-06 13:38:42.616189,2025-09-06 09:38:42.616189
"CYBR",2025-09-06 13:00:00,2025-09-06 09:00:00,"VFR",4,4,100,270,5,24100,30.08,NA,"FEW  ft; FEW  ft","CYBR 061300Z 27005KT 15SM FEW008 FEW030 04/04 A3008 RMK ST1SC1 ST TR SLP203",2025-09-06 13:38:42.686331,2025-09-06 09:38:42.686331
"CYUL",2025-09-06 13:05:00,2025-09-06 09:05:00,"VFR",16,12,77,210,9,24100,29.95,NA,"OVC  ft","CYUL 061305Z 21009KT 15SM -RA OVC110 16/12 A2995 RMK AC8 -RA INTMT SLP145",2025-09-06 13:38:42.755499,2025-09-06 09:38:42.755499
"CYHU",2025-09-06 13:00:00,2025-09-06 09:00:00,"VFR",14,12,88,190,7,14500,29.96,NA,"BKN  ft; OVC  ft","CYHU 061300Z AUTO 19007KT 9SM -RA BKN100 OVC120 14/12 A2996 RMK SLP147",2025-09-06 13:38:42.822713,2025-09-06 09:38:42.822713
"CYQB",2025-09-06 13:00:00,2025-09-06 09:00:00,"VFR",15,12,82,230,9,48300,29.93,NA,"FEW  ft; FEW  ft; BKN  ft","CYQB 061300Z 23009G15KT 30SM FEW030 FEW120 BKN220 15/12 A2993 RMK SC1AC2CS5 SC TR SLP138",2025-09-06 13:38:42.889686,2025-09-06 09:38:42.889686
"CYVO",2025-09-06 13:00:00,2025-09-06 09:00:00,"VFR",10,7,82,210,9,24100,29.76,NA,"FEW  ft; BKN  ft","CYVO 061300Z 21009KT 15SM FEW023 BKN037 10/07 A2976 RMK CF1SC6 SLP089",2025-09-06 13:38:42.95523,2025-09-06 09:38:42.95523
"CYUY",2025-09-06 13:00:00,2025-09-06 09:00:00,"MVFR",10,6,76,250,12,24100,29.75,NA,"BKN  ft; BKN  ft; BKN  ft; BKN  ft","CYUY 061300Z 25012G19KT 15SM BKN023 BKN034 BKN180 BKN220 10/06 A2975 RMK SC5SC1AC1CI1 CI TR SLP083",2025-09-06 13:38:43.023957,2025-09-06 09:38:43.023957
"CYZV",2025-09-06 13:00:00,2025-09-06 09:00:00,"VFR",18,14,78,250,8,48300,29.78,NA,"FEW  ft; FEW  ft; SCT  ft","CYZV 061300Z 25008KT 30SM FEW060 FEW120 SCT240 18/14 A2978 RMK CU1AC1CI4 CU TR AC TR SLP087 DENSITY ALT 800FT",2025-09-06 13:38:43.088792,2025-09-06 09:38:43.088792
"CYBC",2025-09-06 13:00:00,2025-09-06 09:00:00,"VFR",17,14,83,250,8,14500,29.8,NA,"CLR  ft","CYBC 061300Z AUTO 25008KT 9SM CLR 17/14 A2980 RMK SLP093 DENSITY ALT 500FT",2025-09-06 13:38:43.153804,2025-09-06 09:38:43.153804
"CYRJ",2025-09-06 13:00:00,2025-09-06 09:00:00,"VFR",13,9,77,220,9,64400,29.82,NA,"SCT  ft; BKN  ft","CYRJ 061300Z 22009G16KT 40SM SCT034 BKN040 13/09 A2982 RMK CF4SC3 SLP104",2025-09-06 13:38:43.22114,2025-09-06 09:38:43.22114
"CYHZ",2025-09-06 13:00:00,2025-09-06 09:00:00,"IFR",20,19,94,210,14,24100,30.11,NA,"BKN  ft","CYHZ 061300Z 21014KT 15SM BKN009 20/19 A3011 RMK SF7 SLP197 DENSITY ALT 1000FT",2025-09-06 13:38:43.287105,2025-09-06 09:38:43.287105
"CYYG",2025-09-06 13:00:00,2025-09-06 09:00:00,"MVFR",21,17,78,210,12,24100,30.04,NA,"OVC  ft","CYYG 061300Z 21012G18KT 15SM OVC016 21/17 A3004 RMK SC8 SLP175 DENSITY ALT 800FT",2025-09-06 13:38:43.350633,2025-09-06 09:38:43.350633
"CYQM",2025-09-06 13:00:00,2025-09-06 09:00:00,"MVFR",23,17,69,200,13,24100,30,NA,"BKN  ft; BKN  ft","CYQM 061300Z 20013G18KT 15SM BKN020 BKN250 23/17 A3000 RMK CU6CI1 SLP160 DENSITY ALT 1100FT",2025-09-06 13:38:43.418706,2025-09-06 09:38:43.418706
"CYFC",2025-09-06 13:00:00,2025-09-06 09:00:00,"MVFR",20,18,88,180,7,14500,29.98,NA,"OVC  ft","CYFC 061300Z AUTO 18007KT 9SM OVC010 20/18 A2998 RMK SLP156 DENSITY ALT 600FT",2025-09-06 13:38:43.487306,2025-09-06 09:38:43.487306
"CYYT",2025-09-06 13:00:00,2025-09-06 09:00:00,"VFR",18,14,78,190,9,24100,30.21,NA,"FEW  ft; SCT  ft","CYYT 061300Z 19009G16KT 15SM FEW018 SCT220 18/14 A3021 RMK SC1CI3 SC TR SLP236",2025-09-06 13:38:43.554055,2025-09-06 09:38:43.554055
"CYQY",2025-09-06 13:00:00,2025-09-06 09:00:00,"MVFR",22,20,88,210,15,24100,30.08,NA,"BKN  ft","CYQY 061300Z 21015G21KT 15SM BKN013 22/20 A3008 RMK SC5 SLP189 DENSITY ALT 1000FT",2025-09-06 13:38:43.622855,2025-09-06 09:38:43.622855
"CYXY",2025-09-06 13:00:00,2025-09-06 09:00:00,"MVFR",12,12,100,340,3,24100,29.95,NA,"FEW  ft; BKN  ft; OVC  ft","CYXY 061300Z 34003KT 15SM -SHRA FEW007 BKN017 OVC038 12/12 A2995 RMK SF2SC5SC1 CVCTV CLD EMBD SLP151 DENSITY ALT 2600FT",2025-09-06 13:38:43.688439,2025-09-06 09:38:43.688439
"CYZF",2025-09-06 13:00:00,2025-09-06 09:00:00,"VFR",11,8,82,150,12,24100,29.85,NA,"SCT  ft; BKN  ft","CYZF 061300Z 15012G19KT 15SM SCT110 BKN240 11/08 A2985 RMK AC3CI3 FU SLP118",2025-09-06 13:38:43.759188,2025-09-06 09:38:43.759188
"CYFB",2025-09-06 13:00:00,2025-09-06 09:00:00,"VFR",4,0,75,120,16,40200,29.69,NA,"OVC  ft","CYFB 061300Z 12016G22KT 25SM -RA OVC034 04/00 A2969 RMK SC8 SLP059",2025-09-06 13:38:43.828404,2025-09-06 09:38:43.828404
"CYRT",2025-09-06 13:00:00,2025-09-06 09:00:00,"MVFR",4,1,81,10,14,24100,29.93,NA,"OVC  ft","CYRT 061300Z 01014G20KT 15SM OVC022 04/01 A2993 RMK SC8 SLP140",2025-09-06 13:38:43.89713,2025-09-06 09:38:43.89713
"CYBK",2025-09-06 13:00:00,2025-09-06 09:00:00,"VFR",5,3,87,320,9,32200,30.04,NA,"SCT  ft; OVC  ft","CYBK 061300Z 32009KT 20SM SCT016 OVC048 05/03 A3004 RMK SC3SC5 SLP175",2025-09-06 13:38:43.972871,2025-09-06 09:38:43.972871
"CYRB",2025-09-06 13:00:00,2025-09-06 09:00:00,"LIFR",-2,-3,93,160,13,32200,30.11,NA,"OVC  ft","CYRB 061300Z 16013KT 20SM OVC003 M02/M03 A3011 RMK ST8 SLP205",2025-09-06 13:38:44.05431,2025-09-06 09:38:44.05431
"CYCO",2025-09-06 13:00:00,2025-09-06 09:00:00,"VFR",12,7,72,180,11,12900,29.67,NA,"SCT  ft; BKN  ft","CYCO 061300Z 18011KT 8SM SCT110 BKN150 12/07 A2967 RMK FU2AC2AC3 FU SLP052",2025-09-06 13:38:44.119611,2025-09-06 09:38:44.119611
"CYER",2025-09-06 14:09:00,2025-09-06 10:09:00,"IFR",7,7,100,330,10,11300,29.64,NA,"BKN  ft; BKN  ft; OVC  ft","CYER 061409Z AUTO 33010G15KT 7SM BKN007 BKN014 OVC026 07/07 A2964 RMK SLP039",2025-09-06 14:18:38.081953,2025-09-06 10:18:38.081953
"CYAT",2025-09-06 14:06:00,2025-09-06 10:06:00,"IFR",9,9,100,300,10,9700,29.52,NA,"OVC  ft","CYAT 061406Z AUTO 30010G15KT 6SM BR OVC006 09/09 A2952 RMK SLP998",2025-09-06 14:18:38.135918,2025-09-06 10:18:38.135918
"CYMO",2025-09-06 14:15:00,2025-09-06 10:15:00,"IFR",7,7,100,250,13,3200,29.58,NA,"BKN  ft; OVC  ft","CYMO 061415Z AUTO 25013G20KT 2SM -RA BR BKN009 OVC013 07/07 A2958 RMK PRESRR SLP020",2025-09-06 14:18:38.222484,2025-09-06 10:18:38.222484
"CYPL",2025-09-06 14:00:00,2025-09-06 10:00:00,"MVFR",5,3,87,310,8,14500,29.78,NA,"OVC  ft","CYPL 061400Z AUTO 31008G18KT 270V350 9SM OVC017 05/03 A2978 RMK SLP104",2025-09-06 14:18:38.309882,2025-09-06 10:18:38.309882
"CYQT",2025-09-06 14:00:00,2025-09-06 10:00:00,"VFR",9,4,71,270,9,32200,29.85,NA,"FEW  ft; SCT  ft; BKN  ft","CYQT 061400Z 27009KT 20SM FEW020 SCT140 BKN230 09/04 A2985 RMK SC1AC3CI2 SC TR SLP118",2025-09-06 14:18:38.403208,2025-09-06 10:18:38.403208
"CYAM",2025-09-06 14:00:00,2025-09-06 10:00:00,"VFR",10,8,88,260,9,24100,29.83,NA,"SCT  ft; BKN  ft; BKN  ft","CYAM 061400Z 26009KT 15SM SCT012 BKN031 BKN059 10/08 A2983 RMK CF3SC2SC2 SLP107",2025-09-06 14:18:38.448699,2025-09-06 10:18:38.448699
"CYTS",2025-09-06 14:00:00,2025-09-06 10:00:00,"MVFR",8,4,76,270,5,24100,29.76,NA,"BKN  ft","CYTS 061400Z 27005KT 210V310 15SM BKN021 08/04 A2976 RMK SC7 SLP090",2025-09-06 14:18:38.536356,2025-09-06 10:18:38.536356
"CYSB",2025-09-06 14:00:00,2025-09-06 10:00:00,"MVFR",11,7,77,220,8,32200,29.82,NA,"BKN  ft; OVC  ft","CYSB 061400Z 22008KT 200V260 20SM BKN017 OVC085 11/07 A2982 RMK SC5AC3 SLP109",2025-09-06 14:18:38.621366,2025-09-06 10:18:38.621366
"CYYB",2025-09-06 14:00:00,2025-09-06 10:00:00,"MVFR",11,8,82,240,8,48300,29.84,NA,"BKN  ft; OVC  ft","CYYB 061400Z 24008G19KT 30SM BKN018 OVC050 11/08 A2984 RMK SC5SC3 SLP112",2025-09-06 14:18:38.706229,2025-09-06 10:18:38.706229
"CYOW",2025-09-06 14:00:00,2025-09-06 10:00:00,"VFR",13,9,77,240,7,24100,29.94,NA,"FEW  ft; OVC  ft","CYOW 061400Z 24007KT 15SM FEW080 OVC120 13/09 A2994 RMK AC1AC7 SLP141",2025-09-06 14:18:38.791528,2025-09-06 10:18:38.791528
"CYGK",2025-09-06 14:00:00,2025-09-06 10:00:00,"VFR",16,9,63,260,5,24100,29.96,NA,"SCT  ft; OVC  ft","CYGK 061400Z 26005KT 15SM SCT028 OVC060 16/09 A2996 RMK CU3SC5 SLP147",2025-09-06 14:18:38.880353,2025-09-06 10:18:38.880353
"CYQG",2025-09-06 14:00:00,2025-09-06 10:00:00,"VFR",17,7,52,260,10,14500,29.99,NA,"CLR  ft","CYQG 061400Z AUTO 26010G15KT 230V290 9SM CLR 17/07 A2999 RMK SLP156 DENSITY ALT 1000FT",2025-09-06 14:18:38.927895,2025-09-06 10:18:38.927895
"CYVV",2025-09-06 14:00:00,2025-09-06 10:00:00,"MVFR",12,10,88,230,9,12900,29.89,NA,"BKN  ft; OVC  ft","CYVV 061400Z 23009KT 8SM -SHRA BKN030 OVC066 12/10 A2989 RMK CU5AC3 SLP128",2025-09-06 14:18:39.013785,2025-09-06 10:18:39.013785
"CYYZ",2025-09-06 14:00:00,2025-09-06 10:00:00,"VFR",15,7,59,250,12,24100,29.96,NA,"BKN  ft","CYYZ 061400Z 25012KT 15SM BKN077 15/07 A2996 RMK AC7 SLP147",2025-09-06 14:18:39.062954,2025-09-06 10:18:39.062954
"CYQA",2025-09-06 14:00:00,2025-09-06 10:00:00,"VFR",13,7,67,210,11,14500,29.89,NA,"OVC  ft","CYQA 061400Z AUTO 21011G17KT 9SM OVC060 13/07 A2989 RMK SLP129",2025-09-06 14:18:39.149245,2025-09-06 10:18:39.149245
"CYVR",2025-09-06 14:00:00,2025-09-06 10:00:00,"VFR",16,16,100,130,5,19300,29.87,NA,"FEW  ft; BKN  ft","CYVR 061400Z 13005KT 12SM FEW090 BKN220 16/16 A2987 RMK AC2CI3 HZ SLP116 DENSITY ALT 300FT",2025-09-06 14:18:39.235794,2025-09-06 10:18:39.235794
"CYYJ",2025-09-06 14:00:00,2025-09-06 10:00:00,"VFR",13,13,100,100,3,48300,29.87,NA,"FEW  ft; BKN  ft","CYYJ 061400Z 10003KT 070V130 30SM FEW130 BKN250 13/13 A2987 RMK AC2CI3 SLP118",2025-09-06 14:18:39.322418,2025-09-06 10:18:39.322418
"CYLW",2025-09-06 14:00:00,2025-09-06 10:00:00,"VFR",10,8,88,0,0,12900,29.9,NA,"CLR  ft","CYLW 061400Z AUTO 00000KT 8SM CLR 10/08 A2990 RMK SLP128",2025-09-06 14:18:39.371313,2025-09-06 10:18:39.371313
"CYXS",2025-09-06 14:16:00,2025-09-06 10:16:00,"LIFR",6,6,100,0,0,2800,29.93,NA,"BKN  ft; BKN  ft","CYXS 061416Z AUTO 00000KT 1 3/4SM BR BKN001 BKN007 06/06 A2993 RMK SLP152",2025-09-06 14:18:39.457395,2025-09-06 10:18:39.457395
"CYXT",2025-09-06 14:00:00,2025-09-06 10:00:00,"LIFR",12,12,100,300,2,NA,29.91,NA,"OVX  ft","CYXT 061400Z 30002KT 1/8SM FG VV001 12/12 A2991 RMK FG8 SLP133",2025-09-06 14:18:39.545833,2025-09-06 10:18:39.545833
"CYQQ",2025-09-06 14:00:00,2025-09-06 10:00:00,"VFR",16,14,88,310,3,19300,29.87,NA,"FEW  ft; FEW  ft","CYQQ 061400Z 31003KT 12SM FEW180 FEW250 16/14 A2987 RMK AC1CI2 DENSITY ALT 434FT HZ SLP117",2025-09-06 14:18:39.639449,2025-09-06 10:18:39.639449
"CYYC",2025-09-06 14:00:00,2025-09-06 10:00:00,"VFR",9,5,76,0,2,19300,29.98,NA,"FEW  ft","CYYC 061400Z VRB02KT 12SM FEW250 09/05 A2998 RMK FU1CI1 CI TR FU SLP161",2025-09-06 14:18:39.728271,2025-09-06 10:18:39.728271
"CYEG",2025-09-06 14:00:00,2025-09-06 10:00:00,"VFR",4,2,87,220,3,32200,29.96,NA,"BKN  ft","CYEG 061400Z 22003KT 20SM BKN220 04/02 A2996 RMK CI5 SLP160",2025-09-06 14:18:39.814716,2025-09-06 10:18:39.814716
"CYMM",2025-09-06 14:00:00,2025-09-06 10:00:00,"MVFR",7,4,81,110,8,4800,29.97,NA,"CLR  ft","CYMM 061400Z AUTO 11008KT 3SM HZ CLR 07/04 A2997 RMK SLP164",2025-09-06 14:18:39.906146,2025-09-06 10:18:39.906146
"CYQF",2025-09-06 14:00:00,2025-09-06 10:00:00,"VFR",6,1,71,200,3,14500,29.98,NA,"CLR  ft","CYQF 061400Z AUTO 20003KT 9SM CLR 06/01 A2998 RMK SLP169",2025-09-06 14:18:39.951835,2025-09-06 10:18:39.951835
"CYXE",2025-09-06 14:00:00,2025-09-06 10:00:00,"VFR",7,4,81,160,3,24100,30.11,NA,"FEW  ft","CYXE 061400Z 16003KT 15SM FEW300 07/04 A3011 RMK CI2 SLP216",2025-09-06 14:18:40.044461,2025-09-06 10:18:40.044461
"CYQR",2025-09-06 14:00:00,2025-09-06 10:00:00,"VFR",4,2,87,0,0,24100,30.14,NA,"FEW  ft","CYQR 061400Z 00000KT 15SM FEW250 04/02 A3014 RMK CI1 SLP230",2025-09-06 14:18:40.13662,2025-09-06 10:18:40.13662
"CYWG",2025-09-06 14:00:00,2025-09-06 10:00:00,"VFR",10,8,88,300,10,24100,30.01,NA,"FEW  ft; SCT  ft; BKN  ft","CYWG 061400Z CCA 30010KT 15SM FEW008 SCT066 BKN082 10/08 A3001 RMK CU1AC3AC3 CU TR TCU ASOCTD N-NE SLP172",2025-09-06 14:18:40.223779,2025-09-06 10:18:40.223779
"CYBR",2025-09-06 14:00:00,2025-09-06 10:00:00,"VFR",7,6,93,320,7,24100,30.09,NA,"FEW  ft; BKN  ft; BKN  ft","CYBR 061400Z 32007KT 15SM FEW004 BKN050 BKN250 07/06 A3009 RMK SF1SC6CI1 CI TR SLP206",2025-09-06 14:18:40.309495,2025-09-06 10:18:40.309495
"CYUL",2025-09-06 14:00:00,2025-09-06 10:00:00,"VFR",15,11,77,210,13,24100,29.95,NA,"FEW  ft; OVC  ft","CYUL 061400Z 21013KT 15SM -RA FEW020 OVC120 15/11 A2995 RMK CF1AC8 CF TR SLP144",2025-09-06 14:18:40.400465,2025-09-06 10:18:40.400465
"CYHU",2025-09-06 14:00:00,2025-09-06 10:00:00,"VFR",14,12,88,190,10,14500,29.95,NA,"OVC  ft","CYHU 061400Z AUTO 19010KT 9SM -RA OVC100 14/12 A2995 RMK SLP144",2025-09-06 14:18:40.448551,2025-09-06 10:18:40.448551
"CYQB",2025-09-06 14:00:00,2025-09-06 10:00:00,"VFR",15,12,82,260,9,48300,29.94,NA,"FEW  ft; SCT  ft; BKN  ft; OVC  ft","CYQB 061400Z 26009KT 30SM FEW019 SCT110 BKN160 OVC230 15/12 A2994 RMK SC1AC4AC1CI3 SC TR SLP141",2025-09-06 14:18:40.53626,2025-09-06 10:18:40.53626
"CYVO",2025-09-06 14:00:00,2025-09-06 10:00:00,"MVFR",10,7,82,210,9,24100,29.77,NA,"BKN  ft","CYVO 061400Z 21009G15KT 160V260 15SM BKN022 10/07 A2977 RMK SC7 SLP093",2025-09-06 14:18:40.622296,2025-09-06 10:18:40.622296
"CYUY",2025-09-06 14:00:00,2025-09-06 10:00:00,"MVFR",10,5,71,290,12,24100,29.77,NA,"BKN  ft","CYUY 061400Z 29012G18KT 15SM BKN021 10/05 A2977 RMK SC7 SLP090",2025-09-06 14:18:40.708354,2025-09-06 10:18:40.708354
"CYZV",2025-09-06 14:00:00,2025-09-06 10:00:00,"VFR",19,13,68,240,11,48300,29.78,NA,"FEW  ft; FEW  ft; FEW  ft","CYZV 061400Z 24011KT 30SM FEW051 FEW120 FEW240 19/13 A2978 RMK CU1AC1CI1 CU TR AC TR SLP086 DENSITY ALT 900FT",2025-09-06 14:18:40.79481,2025-09-06 10:18:40.79481
"CYBC",2025-09-06 14:00:00,2025-09-06 10:00:00,"VFR",17,14,83,230,13,14500,29.81,NA,"CLR  ft","CYBC 061400Z AUTO 23013G18KT 9SM CLR 17/14 A2981 RMK SLP098 DENSITY ALT 500FT",2025-09-06 14:18:40.880458,2025-09-06 10:18:40.880458
"CYRJ",2025-09-06 14:00:00,2025-09-06 10:00:00,"VFR",14,9,72,210,8,64400,29.85,NA,"FEW  ft; BKN  ft","CYRJ 061400Z 21008KT 200V280 40SM FEW029 BKN046 14/09 A2985 RMK SC2SC5 SLP113",2025-09-06 14:18:40.930172,2025-09-06 10:18:40.930172
"CYHZ",2025-09-06 14:00:00,2025-09-06 10:00:00,"IFR",21,19,88,210,14,24100,30.1,NA,"BKN  ft","CYHZ 061400Z 21014G20KT 15SM BKN009 21/19 A3010 RMK SC7 SLP196 DENSITY ALT 1100FT",2025-09-06 14:18:41.019533,2025-09-06 10:18:41.019533
"CYYG",2025-09-06 14:00:00,2025-09-06 10:00:00,"VFR",23,18,74,190,14,24100,30.03,NA,"SCT  ft; BKN  ft","CYYG 061400Z 19014G20KT 15SM SCT016 BKN250 23/18 A3003 RMK SC3CI3 SLP170 DENSITY ALT 1000FT",2025-09-06 14:18:41.10636,2025-09-06 10:18:41.10636
"CYQM",2025-09-06 14:00:00,2025-09-06 10:00:00,"MVFR",23,17,69,220,15,24100,30.01,NA,"BKN  ft; BKN  ft","CYQM 061400Z 22015G20KT 15SM BKN020 BKN250 23/17 A3001 RMK CU6CI1 CONTRAILS SLP163 DENSITY ALT 1200FT",2025-09-06 14:18:41.193673,2025-09-06 10:18:41.193673
"CYFC",2025-09-06 14:00:00,2025-09-06 10:00:00,"MVFR",21,18,83,210,5,14500,29.99,NA,"OVC  ft","CYFC 061400Z AUTO 21005KT 9SM OVC012 21/18 A2999 RMK SLP158 DENSITY ALT 700FT",2025-09-06 14:18:41.281488,2025-09-06 10:18:41.281488
"CYYT",2025-09-06 14:00:00,2025-09-06 10:00:00,"VFR",20,13,64,210,11,24100,30.21,NA,"FEW  ft; FEW  ft; FEW  ft; BKN  ft","CYYT 061400Z 21011KT 170V230 15SM FEW010 FEW140 FEW210 BKN220 BKN240 20/13 A3021 RMK SC1AC1CC2CI3CI1 SC TR AC TR SLP232 DENSITY ALT 900FT",2025-09-06 14:18:41.36843,2025-09-06 10:18:41.36843
"CYQY",2025-09-06 14:00:00,2025-09-06 10:00:00,"VFR",24,19,74,210,13,24100,30.07,NA,"FEW  ft; SCT  ft","CYQY 061400Z 21013G19KT 15SM FEW013 SCT240 24/19 A3007 RMK SC1CI3 SLP185 DENSITY ALT 1200FT",2025-09-06 14:18:41.418196,2025-09-06 10:18:41.418196
"CYXY",2025-09-06 14:00:00,2025-09-06 10:00:00,"IFR",12,12,100,0,0,24100,29.95,NA,"BKN  ft; BKN  ft; OVC  ft","CYXY 061400Z 00000KT 15SM -SHRA BKN006 BKN020 OVC079 12/12 A2995 RMK SF6SC1AC1 VIS HGR N SLP152 DENSITY ALT 2600FT",2025-09-06 14:18:41.504854,2025-09-06 10:18:41.504854
"CYZF",2025-09-06 14:00:00,2025-09-06 10:00:00,"VFR",12,8,77,150,13,24100,29.84,NA,"FEW  ft; FEW  ft; BKN  ft","CYZF 061400Z 15013KT 15SM FEW110 FEW180 BKN240 12/08 A2984 RMK AC2AC1CI5 AC TR FU SLP113",2025-09-06 14:18:41.593077,2025-09-06 10:18:41.593077
"CYFB",2025-09-06 14:00:00,2025-09-06 10:00:00,"VFR",4,-1,70,120,19,19300,29.68,NA,"OVC  ft","CYFB 061400Z 12019G28KT 12SM -RA OVC032 04/M01 A2968 RMK SC8 SLP054",2025-09-06 14:18:41.680982,2025-09-06 10:18:41.680982
"CYRT",2025-09-06 14:00:00,2025-09-06 10:00:00,"MVFR",4,1,81,10,18,24100,29.93,NA,"OVC  ft","CYRT 061400Z 01018KT 15SM OVC019 04/01 A2993 RMK SC8 SLP139",2025-09-06 14:18:41.771681,2025-09-06 10:18:41.771681
"CYBK",2025-09-06 14:00:00,2025-09-06 10:00:00,"VFR",6,4,87,320,9,40200,30.04,NA,"FEW  ft; OVC  ft","CYBK 061400Z 32009KT 25SM FEW016 OVC045 06/04 A3004 RMK SC2SC6 SLP175",2025-09-06 14:18:41.859408,2025-09-06 10:18:41.859408
"CYRB",2025-09-06 14:00:00,2025-09-06 10:00:00,"LIFR",-3,-3,100,170,14,1000,30.1,NA,"OVC  ft","CYRB 061400Z 17014KT 5/8SM R35/P6000FT/N BR OVC003 M03/M03 A3010 RMK FG6ST2 VIS CHNGD RPDLY SLP202",2025-09-06 14:18:41.959038,2025-09-06 10:18:41.959038
"CYCO",2025-09-06 14:00:00,2025-09-06 10:00:00,"VFR",13,7,67,190,13,9999,29.65,NA,"SCT  ft; BKN  ft","CYCO 061400Z 19013KT 10SM SCT120 BKN170 13/07 A2965 RMK FU2AC3AC2 FU SLP044",2025-09-06 14:18:42.006492,2025-09-06 10:18:42.006492
"CYER",2025-09-06 14:25:00,2025-09-06 10:25:00,"MVFR",7,7,100,340,8,9700,29.64,NA,"SCT  ft; BKN  ft; BKN  ft; OVC  ft","CYER 061425Z AUTO 34008KT 6SM BR SCT007 BKN011 BKN016 OVC024 07/07 A2964 RMK SLP041",2025-09-06 14:38:50.823793,2025-09-06 10:38:50.823793
"CYAT",2025-09-06 14:06:00,2025-09-06 10:06:00,"IFR",9,9,100,300,10,9700,29.52,NA,"OVC  ft","CYAT 061406Z AUTO 30010G15KT 6SM BR OVC006 09/09 A2952 RMK SLP998",2025-09-06 14:38:50.965548,2025-09-06 10:38:50.965548
"CYMO",2025-09-06 14:34:00,2025-09-06 10:34:00,"IFR",8,7,93,250,12,2800,29.59,NA,"SCT  ft; OVC  ft","CYMO 061434Z AUTO 25012G19KT 1 3/4SM -RA BR SCT009 OVC015 08/07 A2959 RMK SLP023",2025-09-06 14:38:51.055084,2025-09-06 10:38:51.055084
"CYPL",2025-09-06 14:00:00,2025-09-06 10:00:00,"MVFR",5,3,87,310,8,14500,29.78,NA,"OVC  ft","CYPL 061400Z AUTO 31008G18KT 270V350 9SM OVC017 05/03 A2978 RMK SLP104",2025-09-06 14:38:51.144921,2025-09-06 10:38:51.144921
"CYQT",2025-09-06 14:00:00,2025-09-06 10:00:00,"VFR",9,4,71,270,9,32200,29.85,NA,"FEW  ft; SCT  ft; BKN  ft","CYQT 061400Z 27009KT 20SM FEW020 SCT140 BKN230 09/04 A2985 RMK SC1AC3CI2 SC TR SLP118",2025-09-06 14:38:51.238603,2025-09-06 10:38:51.238603
"CYAM",2025-09-06 14:00:00,2025-09-06 10:00:00,"VFR",10,8,88,260,9,24100,29.83,NA,"SCT  ft; BKN  ft; BKN  ft","CYAM 061400Z 26009KT 15SM SCT012 BKN031 BKN059 10/08 A2983 RMK CF3SC2SC2 SLP107",2025-09-06 14:38:51.328455,2025-09-06 10:38:51.328455
"CYTS",2025-09-06 14:00:00,2025-09-06 10:00:00,"MVFR",8,4,76,270,5,24100,29.76,NA,"BKN  ft","CYTS 061400Z 27005KT 210V310 15SM BKN021 08/04 A2976 RMK SC7 SLP090",2025-09-06 14:38:51.419598,2025-09-06 10:38:51.419598
"CYSB",2025-09-06 14:00:00,2025-09-06 10:00:00,"MVFR",11,7,77,220,8,32200,29.82,NA,"BKN  ft; OVC  ft","CYSB 061400Z 22008KT 200V260 20SM BKN017 OVC085 11/07 A2982 RMK SC5AC3 SLP109",2025-09-06 14:38:51.509729,2025-09-06 10:38:51.509729
"CYYB",2025-09-06 14:00:00,2025-09-06 10:00:00,"MVFR",11,8,82,240,8,48300,29.84,NA,"BKN  ft; OVC  ft","CYYB 061400Z 24008G19KT 30SM BKN018 OVC050 11/08 A2984 RMK SC5SC3 SLP112",2025-09-06 14:38:51.640375,2025-09-06 10:38:51.640375
"CYOW",2025-09-06 14:00:00,2025-09-06 10:00:00,"VFR",13,9,77,240,7,24100,29.94,NA,"FEW  ft; OVC  ft","CYOW 061400Z 24007KT 15SM FEW080 OVC120 13/09 A2994 RMK AC1AC7 SLP141",2025-09-06 14:38:51.729224,2025-09-06 10:38:51.729224
"CYGK",2025-09-06 14:21:00,2025-09-06 10:21:00,"VFR",16,10,68,210,9,24100,29.96,NA,"SCT  ft; OVC  ft","CYGK 061421Z 21009KT 15SM -SHRA SCT030 OVC062 16/10 A2996 RMK CU3SC5 SLP148",2025-09-06 14:38:51.859609,2025-09-06 10:38:51.859609
"CYQG",2025-09-06 14:00:00,2025-09-06 10:00:00,"VFR",17,7,52,260,10,14500,29.99,NA,"CLR  ft","CYQG 061400Z AUTO 26010G15KT 230V290 9SM CLR 17/07 A2999 RMK SLP156 DENSITY ALT 1000FT",2025-09-06 14:38:51.94572,2025-09-06 10:38:51.94572
"CYVV",2025-09-06 14:00:00,2025-09-06 10:00:00,"MVFR",12,10,88,230,9,12900,29.89,NA,"BKN  ft; OVC  ft","CYVV 061400Z 23009KT 8SM -SHRA BKN030 OVC066 12/10 A2989 RMK CU5AC3 SLP128",2025-09-06 14:38:52.034003,2025-09-06 10:38:52.034003
"CYYZ",2025-09-06 14:00:00,2025-09-06 10:00:00,"VFR",15,7,59,250,12,24100,29.96,NA,"BKN  ft","CYYZ 061400Z 25012KT 15SM BKN077 15/07 A2996 RMK AC7 SLP147",2025-09-06 14:38:52.121535,2025-09-06 10:38:52.121535
"CYQA",2025-09-06 14:00:00,2025-09-06 10:00:00,"VFR",13,7,67,210,11,14500,29.89,NA,"OVC  ft","CYQA 061400Z AUTO 21011G17KT 9SM OVC060 13/07 A2989 RMK SLP129",2025-09-06 14:38:52.211252,2025-09-06 10:38:52.211252
"CYVR",2025-09-06 14:00:00,2025-09-06 10:00:00,"VFR",16,16,100,130,5,19300,29.87,NA,"FEW  ft; BKN  ft","CYVR 061400Z 13005KT 12SM FEW090 BKN220 16/16 A2987 RMK AC2CI3 HZ SLP116 DENSITY ALT 300FT",2025-09-06 14:38:52.299522,2025-09-06 10:38:52.299522
"CYYJ",2025-09-06 14:00:00,2025-09-06 10:00:00,"VFR",13,13,100,100,3,48300,29.87,NA,"FEW  ft; BKN  ft","CYYJ 061400Z 10003KT 070V130 30SM FEW130 BKN250 13/13 A2987 RMK AC2CI3 SLP118",2025-09-06 14:38:52.426942,2025-09-06 10:38:52.426942
"CYLW",2025-09-06 14:00:00,2025-09-06 10:00:00,"VFR",10,8,88,0,0,12900,29.9,NA,"CLR  ft","CYLW 061400Z AUTO 00000KT 8SM CLR 10/08 A2990 RMK SLP128",2025-09-06 14:38:52.516922,2025-09-06 10:38:52.516922
"CYXS",2025-09-06 14:35:00,2025-09-06 10:35:00,"LIFR",7,7,100,0,0,2400,29.94,NA,"OVC  ft","CYXS 061435Z AUTO 00000KT 1 1/2SM BR OVC001 07/07 A2994 RMK SLP152",2025-09-06 14:38:52.605789,2025-09-06 10:38:52.605789
"CYXT",2025-09-06 14:00:00,2025-09-06 10:00:00,"LIFR",12,12,100,300,2,NA,29.91,NA,"OVX  ft","CYXT 061400Z 30002KT 1/8SM FG VV001 12/12 A2991 RMK FG8 SLP133",2025-09-06 14:38:52.693972,2025-09-06 10:38:52.693972
"CYQQ",2025-09-06 14:00:00,2025-09-06 10:00:00,"VFR",16,14,88,310,3,19300,29.87,NA,"FEW  ft; FEW  ft","CYQQ 061400Z 31003KT 12SM FEW180 FEW250 16/14 A2987 RMK AC1CI2 DENSITY ALT 434FT HZ SLP117",2025-09-06 14:38:52.782182,2025-09-06 10:38:52.782182
"CYYC",2025-09-06 14:00:00,2025-09-06 10:00:00,"VFR",9,5,76,0,2,19300,29.98,NA,"FEW  ft","CYYC 061400Z VRB02KT 12SM FEW250 09/05 A2998 RMK FU1CI1 CI TR FU SLP161",2025-09-06 14:38:52.871256,2025-09-06 10:38:52.871256
"CYEG",2025-09-06 14:00:00,2025-09-06 10:00:00,"VFR",4,2,87,220,3,32200,29.96,NA,"BKN  ft","CYEG 061400Z 22003KT 20SM BKN220 04/02 A2996 RMK CI5 SLP160",2025-09-06 14:38:52.960615,2025-09-06 10:38:52.960615
"CYMM",2025-09-06 14:00:00,2025-09-06 10:00:00,"MVFR",7,4,81,110,8,4800,29.97,NA,"CLR  ft","CYMM 061400Z AUTO 11008KT 3SM HZ CLR 07/04 A2997 RMK SLP164",2025-09-06 14:38:53.052282,2025-09-06 10:38:53.052282
"CYQF",2025-09-06 14:00:00,2025-09-06 10:00:00,"VFR",6,1,71,200,3,14500,29.98,NA,"CLR  ft","CYQF 061400Z AUTO 20003KT 9SM CLR 06/01 A2998 RMK SLP169",2025-09-06 14:38:53.143428,2025-09-06 10:38:53.143428
"CYXE",2025-09-06 14:00:00,2025-09-06 10:00:00,"VFR",7,4,81,160,3,24100,30.11,NA,"FEW  ft","CYXE 061400Z 16003KT 15SM FEW300 07/04 A3011 RMK CI2 SLP216",2025-09-06 14:38:53.277043,2025-09-06 10:38:53.277043
"CYQR",2025-09-06 14:00:00,2025-09-06 10:00:00,"VFR",4,2,87,0,0,24100,30.14,NA,"FEW  ft","CYQR 061400Z 00000KT 15SM FEW250 04/02 A3014 RMK CI1 SLP230",2025-09-06 14:38:53.369159,2025-09-06 10:38:53.369159
"CYWG",2025-09-06 14:00:00,2025-09-06 10:00:00,"VFR",10,8,88,300,10,24100,30.01,NA,"FEW  ft; SCT  ft; BKN  ft","CYWG 061400Z CCA 30010KT 15SM FEW008 SCT066 BKN082 10/08 A3001 RMK CU1AC3AC3 CU TR TCU ASOCTD N-NE SLP172",2025-09-06 14:38:53.462591,2025-09-06 10:38:53.462591
"CYBR",2025-09-06 14:00:00,2025-09-06 10:00:00,"VFR",7,6,93,320,7,24100,30.09,NA,"FEW  ft; BKN  ft; BKN  ft","CYBR 061400Z 32007KT 15SM FEW004 BKN050 BKN250 07/06 A3009 RMK SF1SC6CI1 CI TR SLP206",2025-09-06 14:38:53.554519,2025-09-06 10:38:53.554519
"CYUL",2025-09-06 14:19:00,2025-09-06 10:19:00,"VFR",15,10,72,220,13,24100,29.94,NA,"FEW  ft; OVC  ft","CYUL 061419Z 22013KT 15SM FEW020 OVC120 15/10 A2994 RMK CF1AC8 CF TR SLP142",2025-09-06 14:38:53.643727,2025-09-06 10:38:53.643727
"CYHU",2025-09-06 14:24:00,2025-09-06 10:24:00,"VFR",15,12,82,190,8,14500,29.95,NA,"BKN  ft","CYHU 061424Z AUTO 19008KT 9SM BKN110 15/12 A2995 RMK SLP144",2025-09-06 14:38:53.733547,2025-09-06 10:38:53.733547
"CYQB",2025-09-06 14:00:00,2025-09-06 10:00:00,"VFR",15,12,82,260,9,48300,29.94,NA,"FEW  ft; SCT  ft; BKN  ft; OVC  ft","CYQB 061400Z 26009KT 30SM FEW019 SCT110 BKN160 OVC230 15/12 A2994 RMK SC1AC4AC1CI3 SC TR SLP141",2025-09-06 14:38:53.820267,2025-09-06 10:38:53.820267
"CYVO",2025-09-06 14:00:00,2025-09-06 10:00:00,"MVFR",10,7,82,210,9,24100,29.77,NA,"BKN  ft","CYVO 061400Z 21009G15KT 160V260 15SM BKN022 10/07 A2977 RMK SC7 SLP093",2025-09-06 14:38:53.952886,2025-09-06 10:38:53.952886
"CYUY",2025-09-06 14:00:00,2025-09-06 10:00:00,"MVFR",10,5,71,290,12,24100,29.77,NA,"BKN  ft","CYUY 061400Z 29012G18KT 15SM BKN021 10/05 A2977 RMK SC7 SLP090",2025-09-06 14:38:54.042486,2025-09-06 10:38:54.042486
"CYZV",2025-09-06 14:00:00,2025-09-06 10:00:00,"VFR",19,13,68,240,11,48300,29.78,NA,"FEW  ft; FEW  ft; FEW  ft","CYZV 061400Z 24011KT 30SM FEW051 FEW120 FEW240 19/13 A2978 RMK CU1AC1CI1 CU TR AC TR SLP086 DENSITY ALT 900FT",2025-09-06 14:38:54.132101,2025-09-06 10:38:54.132101
"CYBC",2025-09-06 14:00:00,2025-09-06 10:00:00,"VFR",17,14,83,230,13,14500,29.81,NA,"CLR  ft","CYBC 061400Z AUTO 23013G18KT 9SM CLR 17/14 A2981 RMK SLP098 DENSITY ALT 500FT",2025-09-06 14:38:54.221843,2025-09-06 10:38:54.221843
"CYRJ",2025-09-06 14:00:00,2025-09-06 10:00:00,"VFR",14,9,72,210,8,64400,29.85,NA,"FEW  ft; BKN  ft","CYRJ 061400Z 21008KT 200V280 40SM FEW029 BKN046 14/09 A2985 RMK SC2SC5 SLP113",2025-09-06 14:38:54.31206,2025-09-06 10:38:54.31206
"CYHZ",2025-09-06 14:00:00,2025-09-06 10:00:00,"IFR",21,19,88,210,14,24100,30.1,NA,"BKN  ft","CYHZ 061400Z 21014G20KT 15SM BKN009 21/19 A3010 RMK SC7 SLP196 DENSITY ALT 1100FT",2025-09-06 14:38:54.40095,2025-09-06 10:38:54.40095
"CYYG",2025-09-06 14:00:00,2025-09-06 10:00:00,"VFR",23,18,74,190,14,24100,30.03,NA,"SCT  ft; BKN  ft","CYYG 061400Z 19014G20KT 15SM SCT016 BKN250 23/18 A3003 RMK SC3CI3 SLP170 DENSITY ALT 1000FT",2025-09-06 14:38:54.490286,2025-09-06 10:38:54.490286
"CYQM",2025-09-06 14:00:00,2025-09-06 10:00:00,"MVFR",23,17,69,220,15,24100,30.01,NA,"BKN  ft; BKN  ft","CYQM 061400Z 22015G20KT 15SM BKN020 BKN250 23/17 A3001 RMK CU6CI1 CONTRAILS SLP163 DENSITY ALT 1200FT",2025-09-06 14:38:54.579344,2025-09-06 10:38:54.579344
"CYFC",2025-09-06 14:00:00,2025-09-06 10:00:00,"MVFR",21,18,83,210,5,14500,29.99,NA,"OVC  ft","CYFC 061400Z AUTO 21005KT 9SM OVC012 21/18 A2999 RMK SLP158 DENSITY ALT 700FT",2025-09-06 14:38:54.667975,2025-09-06 10:38:54.667975
"CYYT",2025-09-06 14:00:00,2025-09-06 10:00:00,"VFR",20,13,64,210,11,24100,30.21,NA,"FEW  ft; FEW  ft; FEW  ft; BKN  ft","CYYT 061400Z 21011KT 170V230 15SM FEW010 FEW140 FEW210 BKN220 BKN240 20/13 A3021 RMK SC1AC1CC2CI3CI1 SC TR AC TR SLP232 DENSITY ALT 900FT",2025-09-06 14:38:54.755891,2025-09-06 10:38:54.755891
"CYQY",2025-09-06 14:00:00,2025-09-06 10:00:00,"VFR",24,19,74,210,13,24100,30.07,NA,"FEW  ft; SCT  ft","CYQY 061400Z 21013G19KT 15SM FEW013 SCT240 24/19 A3007 RMK SC1CI3 SLP185 DENSITY ALT 1200FT",2025-09-06 14:38:54.848171,2025-09-06 10:38:54.848171
"CYXY",2025-09-06 14:28:00,2025-09-06 10:28:00,"VFR",13,11,88,0,0,64400,29.95,NA,"SCT  ft; BKN  ft; BKN  ft","CYXY 061428Z 00000KT 40SM -SHRA SCT006 BKN065 BKN160 13/11 A2995 RMK SF3SC3AC1 CVCTV CLD EMBD SLP153 DENSITY ALT 2600FT",2025-09-06 14:38:54.944063,2025-09-06 10:38:54.944063
"CYZF",2025-09-06 14:00:00,2025-09-06 10:00:00,"VFR",12,8,77,150,13,24100,29.84,NA,"FEW  ft; FEW  ft; BKN  ft","CYZF 061400Z 15013KT 15SM FEW110 FEW180 BKN240 12/08 A2984 RMK AC2AC1CI5 AC TR FU SLP113",2025-09-06 14:38:55.079149,2025-09-06 10:38:55.079149
"CYFB",2025-09-06 14:00:00,2025-09-06 10:00:00,"VFR",4,-1,70,120,19,19300,29.68,NA,"OVC  ft","CYFB 061400Z 12019G28KT 12SM -RA OVC032 04/M01 A2968 RMK SC8 SLP054",2025-09-06 14:38:55.171088,2025-09-06 10:38:55.171088
"CYRT",2025-09-06 14:00:00,2025-09-06 10:00:00,"MVFR",4,1,81,10,18,24100,29.93,NA,"OVC  ft","CYRT 061400Z 01018KT 15SM OVC019 04/01 A2993 RMK SC8 SLP139",2025-09-06 14:38:55.26148,2025-09-06 10:38:55.26148
"CYBK",2025-09-06 14:00:00,2025-09-06 10:00:00,"VFR",6,4,87,320,9,40200,30.04,NA,"FEW  ft; OVC  ft","CYBK 061400Z 32009KT 25SM FEW016 OVC045 06/04 A3004 RMK SC2SC6 SLP175",2025-09-06 14:38:55.353347,2025-09-06 10:38:55.353347
"CYRB",2025-09-06 14:00:00,2025-09-06 10:00:00,"LIFR",-3,-3,100,170,14,1000,30.1,NA,"OVC  ft","CYRB 061400Z 17014KT 5/8SM R35/P6000FT/N BR OVC003 M03/M03 A3010 RMK FG6ST2 VIS CHNGD RPDLY SLP202",2025-09-06 14:38:55.455258,2025-09-06 10:38:55.455258
"CYCO",2025-09-06 14:00:00,2025-09-06 10:00:00,"VFR",13,7,67,190,13,9999,29.65,NA,"SCT  ft; BKN  ft","CYCO 061400Z 19013KT 10SM SCT120 BKN170 13/07 A2965 RMK FU2AC3AC2 FU SLP044",2025-09-06 14:38:55.546932,2025-09-06 10:38:55.546932
"CYER",2025-09-06 15:00:00,2025-09-06 11:00:00,"MVFR",8,7,93,350,12,14500,29.66,NA,"BKN  ft; BKN  ft; OVC  ft","CYER 061500Z AUTO 35012G20KT 9SM BKN012 BKN018 OVC025 08/07 A2966 RMK SLP046",2025-09-06 15:19:23.19926,2025-09-06 11:19:23.19926
"CYAT",2025-09-06 15:11:00,2025-09-06 11:11:00,"MVFR",9,8,94,290,9,14500,29.56,NA,"OVC  ft","CYAT 061511Z AUTO 29009G17KT 9SM OVC010 09/08 A2956 RMK SLP012",2025-09-06 15:19:23.269375,2025-09-06 11:19:23.269375
"CYMO",2025-09-06 15:14:00,2025-09-06 11:14:00,"IFR",8,7,93,250,12,4000,29.62,NA,"BKN  ft; OVC  ft","CYMO 061514Z AUTO 25012G19KT 2 1/2SM BR BKN009 OVC014 08/07 A2962 RMK SLP031",2025-09-06 15:19:23.338363,2025-09-06 11:19:23.338363
"CYPL",2025-09-06 15:00:00,2025-09-06 11:00:00,"MVFR",6,4,87,310,10,14500,29.8,NA,"OVC  ft","CYPL 061500Z AUTO 31010G17KT 260V350 9SM OVC015 06/04 A2980 RMK SLP109",2025-09-06 15:19:23.409311,2025-09-06 11:19:23.409311
"CYQT",2025-09-06 15:00:00,2025-09-06 11:00:00,"VFR",12,3,54,310,11,32200,29.85,NA,"FEW  ft; SCT  ft; BKN  ft","CYQT 061500Z 31011G19KT 270V330 20SM FEW020 SCT140 BKN230 12/03 A2985 RMK SC1AC1CI3 SLP116",2025-09-06 15:19:23.478611,2025-09-06 11:19:23.478611
"CYAM",2025-09-06 15:00:00,2025-09-06 11:00:00,"VFR",11,7,77,290,9,24100,29.83,NA,"SCT  ft; SCT  ft; SCT  ft; BKN  ft","CYAM 061500Z 29009KT 15SM SCT014 SCT048 SCT090 BKN180 11/07 A2983 RMK CU3SC1AC2AC1 SLP108",2025-09-06 15:19:23.544581,2025-09-06 11:19:23.544581
"CYTS",2025-09-06 15:00:00,2025-09-06 11:00:00,"MVFR",8,4,76,260,5,24100,29.78,NA,"OVC  ft","CYTS 061500Z 26005KT 220V290 15SM OVC021 08/04 A2978 RMK SC8 SLP094",2025-09-06 15:19:23.613229,2025-09-06 11:19:23.613229
"CYSB",2025-09-06 15:00:00,2025-09-06 11:00:00,"MVFR",12,6,67,260,8,32200,29.83,NA,"BKN  ft; OVC  ft","CYSB 061500Z 26008KT 210V290 20SM BKN020 OVC084 12/06 A2983 RMK SC6AC2 SLP110",2025-09-06 15:19:23.682189,2025-09-06 11:19:23.682189
"CYYB",2025-09-06 15:00:00,2025-09-06 11:00:00,"MVFR",11,8,82,250,9,48300,29.84,NA,"BKN  ft; OVC  ft","CYYB 061500Z 25009G18KT 30SM BKN022 OVC040 11/08 A2984 RMK SC7SC1 SLP114",2025-09-06 15:19:23.748641,2025-09-06 11:19:23.748641
"CYOW",2025-09-06 15:00:00,2025-09-06 11:00:00,"VFR",13,9,77,220,5,24100,29.93,NA,"OVC  ft","CYOW 061500Z 22005KT 15SM -RA OVC083 13/09 A2993 RMK AC8 SLP140",2025-09-06 15:19:23.814082,2025-09-06 11:19:23.814082
"CYGK",2025-09-06 15:00:00,2025-09-06 11:00:00,"VFR",16,9,63,250,9,19300,29.96,NA,"SCT  ft; OVC  ft","CYGK 061500Z 25009G15KT 12SM -SHRA SCT030 OVC070 16/09 A2996 RMK CU3AC5 SLP149",2025-09-06 15:19:23.881076,2025-09-06 11:19:23.881076
"CYQG",2025-09-06 15:00:00,2025-09-06 11:00:00,"VFR",17,6,49,270,17,14500,30,NA,"FEW  ft; BKN  ft","CYQG 061500Z AUTO 27017G24KT 210V280 9SM FEW047 BKN066 17/06 A3000 RMK SLP159 DENSITY ALT 1000FT",2025-09-06 15:19:23.945206,2025-09-06 11:19:23.945206
"CYVV",2025-09-06 15:00:00,2025-09-06 11:00:00,"VFR",12,10,88,230,11,24100,29.89,NA,"BKN  ft; OVC  ft","CYVV 061500Z 23011G20KT 15SM BKN031 OVC060 12/10 A2989 RMK CU5SC3 SLP127",2025-09-06 15:19:24.009472,2025-09-06 11:19:24.009472
"CYYZ",2025-09-06 15:00:00,2025-09-06 11:00:00,"VFR",16,8,59,270,7,24100,29.94,NA,"FEW  ft; BKN  ft","CYYZ 061500Z 27007G15KT 250V310 15SM FEW032 BKN084 16/08 A2994 RMK CU1AC7 CU TR SLP142 DENSITY ALT 900FT",2025-09-06 15:19:24.074423,2025-09-06 11:19:24.074423
"CYQA",2025-09-06 15:00:00,2025-09-06 11:00:00,"VFR",14,8,67,230,14,14500,29.89,NA,"OVC  ft","CYQA 061500Z AUTO 23014G22KT 200V270 9SM OVC081 14/08 A2989 RMK SLP128",2025-09-06 15:19:24.141403,2025-09-06 11:19:24.141403
"CYVR",2025-09-06 15:00:00,2025-09-06 11:00:00,"VFR",17,16,94,130,6,19300,29.88,NA,"FEW  ft; BKN  ft","CYVR 061500Z 13006KT 12SM FEW080 BKN220 17/16 A2988 RMK AC2CI4 HZ SLP121 DENSITY ALT 300FT",2025-09-06 15:19:24.207095,2025-09-06 11:19:24.207095
"CYYJ",2025-09-06 15:00:00,2025-09-06 11:00:00,"VFR",14,13,94,100,3,48300,29.88,NA,"FEW  ft; FEW  ft; BKN  ft","CYYJ 061500Z 10003KT 30SM FEW120 FEW210 BKN250 14/13 A2988 RMK AC1CC1CI6 AC TR SLP121",2025-09-06 15:19:24.273472,2025-09-06 11:19:24.273472
"CYLW",2025-09-06 15:00:00,2025-09-06 11:00:00,"VFR",13,10,82,50,2,12900,29.92,NA,"CLR  ft","CYLW 061500Z AUTO 05002KT 8SM CLR 13/10 A2992 RMK SLP132",2025-09-06 15:19:24.3384,2025-09-06 11:19:24.3384
"CYXS",2025-09-06 15:00:00,2025-09-06 11:00:00,"LIFR",8,8,100,180,2,NA,29.94,NA,"OVX  ft","CYXS 061500Z AUTO 18002KT 0SM -RA FG VV001 08/08 A2994 RMK SLP152",2025-09-06 15:19:24.402992,2025-09-06 11:19:24.402992
"CYXT",2025-09-06 15:00:00,2025-09-06 11:00:00,"LIFR",13,13,100,310,4,NA,29.92,NA,"OVX  ft","CYXT 061500Z 31004KT 1/8SM FG VV001 13/13 A2992 RMK FG8 SLP137",2025-09-06 15:19:24.507419,2025-09-06 11:19:24.507419
"CYQQ",2025-09-06 15:00:00,2025-09-06 11:00:00,"VFR",17,14,83,290,3,19300,29.89,NA,"SCT  ft","CYQQ 061500Z 29003KT 12SM SCT250 17/14 A2989 RMK CI3 DENSITY ALT 524FT CONTRAILS HZ SLP121",2025-09-06 15:19:24.570729,2025-09-06 11:19:24.570729
"CYYC",2025-09-06 15:00:00,2025-09-06 11:00:00,"VFR",12,7,72,0,0,19300,29.98,NA,"SKC  ft","CYYC 061500Z 00000KT 12SM SKC 12/07 A2998 RMK FU SLP162 DENSITY ALT 4100FT",2025-09-06 15:19:24.636216,2025-09-06 11:19:24.636216
"CYEG",2025-09-06 15:00:00,2025-09-06 11:00:00,"VFR",9,3,66,180,5,32200,29.95,NA,"BKN  ft","CYEG 061500Z 18005KT 20SM BKN220 09/03 A2995 RMK CI5 SLP160",2025-09-06 15:19:24.699677,2025-09-06 11:19:24.699677
"CYMM",2025-09-06 15:00:00,2025-09-06 11:00:00,"MVFR",10,6,76,90,5,6400,29.97,NA,"CLR  ft","CYMM 061500Z AUTO 09005KT 4SM HZ CLR 10/06 A2997 RMK SLP162",2025-09-06 15:19:24.765866,2025-09-06 11:19:24.765866
"CYQF",2025-09-06 15:00:00,2025-09-06 11:00:00,"VFR",9,2,62,170,4,14500,29.98,NA,"CLR  ft","CYQF 061500Z AUTO 17004KT 9SM CLR 09/02 A2998 RMK SLP170",2025-09-06 15:19:24.829065,2025-09-06 11:19:24.829065
"CYXE",2025-09-06 15:00:00,2025-09-06 11:00:00,"VFR",10,4,67,180,8,24100,30.11,NA,"FEW  ft","CYXE 061500Z 18008KT 15SM FEW300 10/04 A3011 RMK CI2 SLP215",2025-09-06 15:19:24.900835,2025-09-06 11:19:24.900835
"CYQR",2025-09-06 15:00:00,2025-09-06 11:00:00,"VFR",9,3,66,0,2,24100,30.15,NA,"FEW  ft","CYQR 061500Z VRB02KT 15SM FEW250 09/03 A3015 RMK CI1 CI TR SLP229",2025-09-06 15:19:24.964488,2025-09-06 11:19:24.964488
"CYWG",2025-09-06 15:00:00,2025-09-06 11:00:00,"VFR",12,6,67,350,15,24100,30.02,NA,"SCT  ft; BKN  ft; BKN  ft; BKN  ft","CYWG 061500Z 35015KT 15SM SCT020 BKN040 BKN068 BKN080 12/06 A3002 RMK CU3SC2AC1AC1 AC TR AC TR TCU ASOCTD SLP177",2025-09-06 15:19:25.028728,2025-09-06 11:19:25.028728
"CYBR",2025-09-06 15:00:00,2025-09-06 11:00:00,"VFR",9,7,87,310,8,24100,30.11,NA,"FEW  ft; OVC  ft","CYBR 061500Z 31008KT 15SM FEW010 OVC055 09/07 A3011 RMK CU1SC8 CU TR SLP211",2025-09-06 15:19:25.131034,2025-09-06 11:19:25.131034
"CYUL",2025-09-06 15:00:00,2025-09-06 11:00:00,"VFR",16,10,68,250,10,24100,29.95,NA,"FEW  ft; FEW  ft; OVC  ft","CYUL 061500Z 25010G16KT 15SM FEW030 FEW095 OVC110 16/10 A2995 RMK CF1AC2AC6 CF TR PRESRR SLP145",2025-09-06 15:19:25.196748,2025-09-06 11:19:25.196748
"CYHU",2025-09-06 15:00:00,2025-09-06 11:00:00,"VFR",15,11,77,210,8,14500,29.95,NA,"FEW  ft; SCT  ft","CYHU 061500Z AUTO 21008KT 9SM FEW100 SCT120 15/11 A2995 RMK SLP143",2025-09-06 15:19:25.260791,2025-09-06 11:19:25.260791
"CYQB",2025-09-06 15:00:00,2025-09-06 11:00:00,"VFR",16,10,68,240,7,48300,29.95,NA,"FEW  ft; FEW  ft; BKN  ft; OVC  ft","CYQB 061500Z 24007KT 30SM FEW020 FEW051 BKN120 OVC230 16/10 A2995 RMK SC1SC2AC3CI3 SC TR SLP144",2025-09-06 15:19:25.365761,2025-09-06 11:19:25.365761
"CYVO",2025-09-06 15:00:00,2025-09-06 11:00:00,"MVFR",12,8,77,260,6,24100,29.78,NA,"BKN  ft","CYVO 061500Z 26006KT 190V290 15SM BKN025 12/08 A2978 RMK SC7 SLP095",2025-09-06 15:19:25.468903,2025-09-06 11:19:25.468903
"CYUY",2025-09-06 15:00:00,2025-09-06 11:00:00,"MVFR",10,5,71,260,9,24100,29.78,NA,"BKN  ft","CYUY 061500Z 26009KT 15SM BKN024 10/05 A2978 RMK SC7 SLP096",2025-09-06 15:19:25.53226,2025-09-06 11:19:25.53226
"CYZV",2025-09-06 15:00:00,2025-09-06 11:00:00,"VFR",20,11,56,230,11,48300,29.78,NA,"FEW  ft; FEW  ft; SCT  ft","CYZV 061500Z 23011G16KT 200V270 30SM FEW050 FEW120 SCT240 20/11 A2978 RMK CU1AC1CI4 CU TR AC TR SLP087 DENSITY ALT 1000FT",2025-09-06 15:19:25.595765,2025-09-06 11:19:25.595765
"CYBC",2025-09-06 15:00:00,2025-09-06 11:00:00,"VFR",18,11,64,240,17,14500,29.82,NA,"CLR  ft","CYBC 061500Z AUTO 24017G22KT 9SM CLR 18/11 A2982 RMK SLP099 DENSITY ALT 600FT",2025-09-06 15:19:25.660226,2025-09-06 11:19:25.660226
"CYRJ",2025-09-06 15:00:00,2025-09-06 11:00:00,"VFR",13,8,72,220,10,64400,29.86,NA,"BKN  ft; BKN  ft","CYRJ 061500Z 22010G15KT 40SM BKN036 BKN230 13/08 A2986 RMK SC6CI1 SLP115",2025-09-06 15:19:25.729894,2025-09-06 11:19:25.729894
"CYHZ",2025-09-06 15:00:00,2025-09-06 11:00:00,"MVFR",23,19,78,200,14,24100,30.09,NA,"BKN  ft","CYHZ 061500Z 20014KT 15SM BKN014 23/19 A3009 RMK SF5 SLP193 DENSITY ALT 1400FT",2025-09-06 15:19:25.792093,2025-09-06 11:19:25.792093
"CYYG",2025-09-06 15:00:00,2025-09-06 11:00:00,"VFR",24,18,69,200,15,24100,30.02,NA,"FEW  ft; BKN  ft","CYYG 061500Z 20015G20KT 15SM FEW022 BKN250 24/18 A3002 RMK CF1CI6 SLP169 DENSITY ALT 1200FT",2025-09-06 15:19:25.896937,2025-09-06 11:19:25.896937
"CYQM",2025-09-06 15:00:00,2025-09-06 11:00:00,"VFR",25,18,65,190,15,24100,30.01,NA,"SCT  ft; SCT  ft","CYQM 061500Z 19015KT 15SM SCT025 SCT250 25/18 A3001 RMK CU3CI1 SLP163 DENSITY ALT 1300FT",2025-09-06 15:19:25.962579,2025-09-06 11:19:25.962579
"CYFC",2025-09-06 15:00:00,2025-09-06 11:00:00,"MVFR",22,18,78,170,8,14500,29.98,NA,"OVC  ft","CYFC 061500Z AUTO 17008G15KT 9SM OVC016 22/18 A2998 RMK SLP155 DENSITY ALT 900FT",2025-09-06 15:19:26.030385,2025-09-06 11:19:26.030385
"CYYT",2025-09-06 15:00:00,2025-09-06 11:00:00,"VFR",22,14,61,180,9,24100,30.18,NA,"SCT  ft; SCT  ft","CYYT 061500Z 18009KT 15SM SCT100 SCT230 22/14 A3018 RMK AC3CI1 CI TR SLP225 DENSITY ALT 1100FT",2025-09-06 15:19:26.094226,2025-09-06 11:19:26.094226
"CYQY",2025-09-06 15:00:00,2025-09-06 11:00:00,"VFR",25,18,65,230,10,24100,30.07,NA,"FEW  ft; BKN  ft","CYQY 061500Z 23010G19KT 15SM FEW014 BKN240 25/18 A3007 RMK SC1CI4 SLP185 DENSITY ALT 1300FT",2025-09-06 15:19:26.163321,2025-09-06 11:19:26.163321
"CYXY",2025-09-06 15:00:00,2025-09-06 11:00:00,"VFR",12,11,94,360,2,64400,29.95,NA,"FEW  ft; BKN  ft; BKN  ft","CYXY 061500Z 36002KT 40SM FEW006 BKN065 BKN160 12/11 A2995 RMK SF1SC7AC1 SF TR AC TR SLP155 DENSITY ALT 2600FT",2025-09-06 15:19:26.227735,2025-09-06 11:19:26.227735
"CYZF",2025-09-06 15:00:00,2025-09-06 11:00:00,"VFR",13,8,72,150,14,24100,29.83,NA,"FEW  ft; FEW  ft; BKN  ft","CYZF 061500Z 15014G23KT 15SM FEW110 FEW160 BKN240 13/08 A2983 RMK AC1AC1CI6 AC TR SLP113",2025-09-06 15:19:26.332071,2025-09-06 11:19:26.332071
"CYFB",2025-09-06 15:00:00,2025-09-06 11:00:00,"MVFR",4,0,75,130,15,11300,29.67,NA,"OVC  ft","CYFB 061500Z 13015G26KT 7SM -RA OVC025 04/00 A2967 RMK SC8 SLP051",2025-09-06 15:19:26.398441,2025-09-06 11:19:26.398441
"CYRT",2025-09-06 15:00:00,2025-09-06 11:00:00,"VFR",6,1,71,10,17,24100,29.92,NA,"OVC  ft","CYRT 061500Z 01017KT 15SM OVC034 06/01 A2992 RMK SC8 SLP135",2025-09-06 15:19:26.466282,2025-09-06 11:19:26.466282
"CYBK",2025-09-06 15:00:00,2025-09-06 11:00:00,"VFR",7,4,81,340,8,40200,30.02,NA,"SCT  ft; BKN  ft","CYBK 061500Z 34008KT 25SM SCT017 BKN047 07/04 A3002 RMK SC4SC3 SLP170",2025-09-06 15:19:26.573409,2025-09-06 11:19:26.573409
"CYRB",2025-09-06 15:00:00,2025-09-06 11:00:00,"IFR",-2,-3,93,160,12,9999,30.08,NA,"OVC  ft","CYRB 061500Z 16012KT 10SM -SN OVC005 M02/M03 A3008 RMK ST8 SLP196",2025-09-06 15:19:26.651228,2025-09-06 11:19:26.651228
"CYCO",2025-09-06 15:00:00,2025-09-06 11:00:00,"VFR",13,7,67,190,18,9999,29.63,NA,"BKN  ft; BKN  ft; OVC  ft","CYCO 061500Z 19018KT 10SM BKN120 BKN160 OVC210 13/07 A2963 RMK FU4AC1AC2CI1 FU SLP036 DENSITY ALT 300FT",2025-09-06 15:19:26.714318,2025-09-06 11:19:26.714318
"CYER",2025-09-06 15:29:00,2025-09-06 11:29:00,"MVFR",8,7,93,340,9,9700,29.66,NA,"BKN  ft; OVC  ft","CYER 061529Z AUTO 34009G15KT 6SM BR BKN012 OVC021 08/07 A2966 RMK SLP048",2025-09-06 15:38:45.661844,2025-09-06 11:38:45.661844
"CYAT",2025-09-06 15:11:00,2025-09-06 11:11:00,"MVFR",9,8,94,290,9,14500,29.56,NA,"OVC  ft","CYAT 061511Z AUTO 29009G17KT 9SM OVC010 09/08 A2956 RMK SLP012",2025-09-06 15:38:45.716821,2025-09-06 11:38:45.716821
"CYMO",2025-09-06 15:27:00,2025-09-06 11:27:00,"IFR",8,7,93,250,12,4800,29.62,NA,"OVC  ft","CYMO 061527Z AUTO 25012G22KT 3SM BR OVC009 08/07 A2962 RMK SLP032",2025-09-06 15:38:45.760248,2025-09-06 11:38:45.760248
"CYPL",2025-09-06 15:00:00,2025-09-06 11:00:00,"MVFR",6,4,87,310,10,14500,29.8,NA,"OVC  ft","CYPL 061500Z AUTO 31010G17KT 260V350 9SM OVC015 06/04 A2980 RMK SLP109",2025-09-06 15:38:45.844996,2025-09-06 11:38:45.844996
"CYQT",2025-09-06 15:00:00,2025-09-06 11:00:00,"VFR",12,3,54,310,11,32200,29.85,NA,"FEW  ft; SCT  ft; BKN  ft","CYQT 061500Z 31011G19KT 270V330 20SM FEW020 SCT140 BKN230 12/03 A2985 RMK SC1AC1CI3 SLP116",2025-09-06 15:38:45.93598,2025-09-06 11:38:45.93598
"CYAM",2025-09-06 15:00:00,2025-09-06 11:00:00,"VFR",11,7,77,290,9,24100,29.83,NA,"SCT  ft; SCT  ft; SCT  ft; BKN  ft","CYAM 061500Z 29009KT 15SM SCT014 SCT048 SCT090 BKN180 11/07 A2983 RMK CU3SC1AC2AC1 SLP108",2025-09-06 15:38:45.986001,2025-09-06 11:38:45.986001
"CYTS",2025-09-06 15:00:00,2025-09-06 11:00:00,"MVFR",8,4,76,260,5,24100,29.78,NA,"OVC  ft","CYTS 061500Z 26005KT 220V290 15SM OVC021 08/04 A2978 RMK SC8 SLP094",2025-09-06 15:38:46.072366,2025-09-06 11:38:46.072366
"CYSB",2025-09-06 15:00:00,2025-09-06 11:00:00,"MVFR",12,6,67,260,8,32200,29.83,NA,"BKN  ft; OVC  ft","CYSB 061500Z 26008KT 210V290 20SM BKN020 OVC084 12/06 A2983 RMK SC6AC2 SLP110",2025-09-06 15:38:46.160095,2025-09-06 11:38:46.160095
"CYYB",2025-09-06 15:00:00,2025-09-06 11:00:00,"MVFR",11,8,82,250,9,48300,29.84,NA,"BKN  ft; OVC  ft","CYYB 061500Z 25009G18KT 30SM BKN022 OVC040 11/08 A2984 RMK SC7SC1 SLP114",2025-09-06 15:38:46.246098,2025-09-06 11:38:46.246098
"CYOW",2025-09-06 15:00:00,2025-09-06 11:00:00,"VFR",13,9,77,220,5,24100,29.93,NA,"OVC  ft","CYOW 061500Z 22005KT 15SM -RA OVC083 13/09 A2993 RMK AC8 SLP140",2025-09-06 15:38:46.289518,2025-09-06 11:38:46.289518
"CYGK",2025-09-06 15:22:00,2025-09-06 11:22:00,"VFR",16,9,63,230,8,24100,29.96,NA,"SCT  ft; BKN  ft; OVC  ft","CYGK 061522Z 23008KT 15SM VCSH SCT030 BKN060 OVC100 16/09 A2996 RMK CU3SC2AC3 SLP148",2025-09-06 15:38:46.376673,2025-09-06 11:38:46.376673
"CYQG",2025-09-06 15:00:00,2025-09-06 11:00:00,"VFR",17,6,49,270,17,14500,30,NA,"FEW  ft; BKN  ft","CYQG 061500Z AUTO 27017G24KT 210V280 9SM FEW047 BKN066 17/06 A3000 RMK SLP159 DENSITY ALT 1000FT",2025-09-06 15:38:46.423925,2025-09-06 11:38:46.423925
"CYVV",2025-09-06 15:00:00,2025-09-06 11:00:00,"VFR",12,10,88,230,11,24100,29.89,NA,"BKN  ft; OVC  ft","CYVV 061500Z 23011G20KT 15SM BKN031 OVC060 12/10 A2989 RMK CU5SC3 SLP127",2025-09-06 15:38:46.506677,2025-09-06 11:38:46.506677
"CYYZ",2025-09-06 15:00:00,2025-09-06 11:00:00,"VFR",16,8,59,270,7,24100,29.94,NA,"FEW  ft; BKN  ft","CYYZ 061500Z 27007G15KT 250V310 15SM FEW032 BKN084 16/08 A2994 RMK CU1AC7 CU TR SLP142 DENSITY ALT 900FT",2025-09-06 15:38:46.552537,2025-09-06 11:38:46.552537
"CYQA",2025-09-06 15:00:00,2025-09-06 11:00:00,"VFR",14,8,67,230,14,14500,29.89,NA,"OVC  ft","CYQA 061500Z AUTO 23014G22KT 200V270 9SM OVC081 14/08 A2989 RMK SLP128",2025-09-06 15:38:46.635836,2025-09-06 11:38:46.635836
"CYVR",2025-09-06 15:00:00,2025-09-06 11:00:00,"VFR",17,16,94,130,6,19300,29.88,NA,"FEW  ft; BKN  ft","CYVR 061500Z 13006KT 12SM FEW080 BKN220 17/16 A2988 RMK AC2CI4 HZ SLP121 DENSITY ALT 300FT",2025-09-06 15:38:46.725857,2025-09-06 11:38:46.725857
"CYYJ",2025-09-06 15:00:00,2025-09-06 11:00:00,"VFR",14,13,94,100,3,48300,29.88,NA,"FEW  ft; FEW  ft; BKN  ft","CYYJ 061500Z 10003KT 30SM FEW120 FEW210 BKN250 14/13 A2988 RMK AC1CC1CI6 AC TR SLP121",2025-09-06 15:38:46.809744,2025-09-06 11:38:46.809744
"CYLW",2025-09-06 15:00:00,2025-09-06 11:00:00,"VFR",13,10,82,50,2,12900,29.92,NA,"CLR  ft","CYLW 061500Z AUTO 05002KT 8SM CLR 13/10 A2992 RMK SLP132",2025-09-06 15:38:46.856454,2025-09-06 11:38:46.856454
"CYXS",2025-09-06 15:32:00,2025-09-06 11:32:00,"MVFR",9,9,100,0,0,4800,29.94,NA,"SCT  ft","CYXS 061532Z AUTO 00000KT 3SM BR SCT002 09/09 A2994 RMK SLP154",2025-09-06 15:38:46.942992,2025-09-06 11:38:46.942992
"CYXT",2025-09-06 15:00:00,2025-09-06 11:00:00,"LIFR",13,13,100,310,4,NA,29.92,NA,"OVX  ft","CYXT 061500Z 31004KT 1/8SM FG VV001 13/13 A2992 RMK FG8 SLP137",2025-09-06 15:38:47.02782,2025-09-06 11:38:47.02782
"CYQQ",2025-09-06 15:00:00,2025-09-06 11:00:00,"VFR",17,14,83,290,3,19300,29.89,NA,"SCT  ft","CYQQ 061500Z 29003KT 12SM SCT250 17/14 A2989 RMK CI3 DENSITY ALT 524FT CONTRAILS HZ SLP121",2025-09-06 15:38:47.11283,2025-09-06 11:38:47.11283
"CYYC",2025-09-06 15:00:00,2025-09-06 11:00:00,"VFR",12,7,72,0,0,19300,29.98,NA,"SKC  ft","CYYC 061500Z 00000KT 12SM SKC 12/07 A2998 RMK FU SLP162 DENSITY ALT 4100FT",2025-09-06 15:38:47.200256,2025-09-06 11:38:47.200256
"CYEG",2025-09-06 15:00:00,2025-09-06 11:00:00,"VFR",9,3,66,180,5,32200,29.95,NA,"BKN  ft","CYEG 061500Z 18005KT 20SM BKN220 09/03 A2995 RMK CI5 SLP160",2025-09-06 15:38:47.248814,2025-09-06 11:38:47.248814
"CYMM",2025-09-06 15:29:00,2025-09-06 11:29:00,"VFR",11,6,72,110,7,9700,29.97,NA,"CLR  ft","CYMM 061529Z AUTO 11007KT 6SM HZ CLR 11/06 A2997 RMK SLP160",2025-09-06 15:38:47.332915,2025-09-06 11:38:47.332915
"CYQF",2025-09-06 15:00:00,2025-09-06 11:00:00,"VFR",9,2,62,170,4,14500,29.98,NA,"CLR  ft","CYQF 061500Z AUTO 17004KT 9SM CLR 09/02 A2998 RMK SLP170",2025-09-06 15:38:47.419395,2025-09-06 11:38:47.419395
"CYXE",2025-09-06 15:00:00,2025-09-06 11:00:00,"VFR",10,4,67,180,8,24100,30.11,NA,"FEW  ft","CYXE 061500Z 18008KT 15SM FEW300 10/04 A3011 RMK CI2 SLP215",2025-09-06 15:38:47.505702,2025-09-06 11:38:47.505702
"CYQR",2025-09-06 15:00:00,2025-09-06 11:00:00,"VFR",9,3,66,0,2,24100,30.15,NA,"FEW  ft","CYQR 061500Z VRB02KT 15SM FEW250 09/03 A3015 RMK CI1 CI TR SLP229",2025-09-06 15:38:47.592075,2025-09-06 11:38:47.592075
"CYWG",2025-09-06 15:00:00,2025-09-06 11:00:00,"VFR",12,6,67,350,15,24100,30.02,NA,"SCT  ft; BKN  ft; BKN  ft; BKN  ft","CYWG 061500Z 35015KT 15SM SCT020 BKN040 BKN068 BKN080 12/06 A3002 RMK CU3SC2AC1AC1 AC TR AC TR TCU ASOCTD SLP177",2025-09-06 15:38:47.636659,2025-09-06 11:38:47.636659
"CYBR",2025-09-06 15:00:00,2025-09-06 11:00:00,"VFR",9,7,87,310,8,24100,30.11,NA,"FEW  ft; OVC  ft","CYBR 061500Z 31008KT 15SM FEW010 OVC055 09/07 A3011 RMK CU1SC8 CU TR SLP211",2025-09-06 15:38:47.723096,2025-09-06 11:38:47.723096
"CYUL",2025-09-06 15:00:00,2025-09-06 11:00:00,"VFR",16,10,68,250,10,24100,29.95,NA,"FEW  ft; FEW  ft; OVC  ft","CYUL 061500Z 25010G16KT 15SM FEW030 FEW095 OVC110 16/10 A2995 RMK CF1AC2AC6 CF TR PRESRR SLP145",2025-09-06 15:38:47.80913,2025-09-06 11:38:47.80913
"CYHU",2025-09-06 15:00:00,2025-09-06 11:00:00,"VFR",15,11,77,210,8,14500,29.95,NA,"FEW  ft; SCT  ft","CYHU 061500Z AUTO 21008KT 9SM FEW100 SCT120 15/11 A2995 RMK SLP143",2025-09-06 15:38:47.896895,2025-09-06 11:38:47.896895
"CYQB",2025-09-06 15:00:00,2025-09-06 11:00:00,"VFR",16,10,68,240,7,48300,29.95,NA,"FEW  ft; FEW  ft; BKN  ft; OVC  ft","CYQB 061500Z 24007KT 30SM FEW020 FEW051 BKN120 OVC230 16/10 A2995 RMK SC1SC2AC3CI3 SC TR SLP144",2025-09-06 15:38:47.984984,2025-09-06 11:38:47.984984
"CYVO",2025-09-06 15:00:00,2025-09-06 11:00:00,"MVFR",12,8,77,260,6,24100,29.78,NA,"BKN  ft","CYVO 061500Z 26006KT 190V290 15SM BKN025 12/08 A2978 RMK SC7 SLP095",2025-09-06 15:38:48.072435,2025-09-06 11:38:48.072435
"CYUY",2025-09-06 15:00:00,2025-09-06 11:00:00,"MVFR",10,5,71,260,9,24100,29.78,NA,"BKN  ft","CYUY 061500Z 26009KT 15SM BKN024 10/05 A2978 RMK SC7 SLP096",2025-09-06 15:38:48.158872,2025-09-06 11:38:48.158872
"CYZV",2025-09-06 15:00:00,2025-09-06 11:00:00,"VFR",20,11,56,230,11,48300,29.78,NA,"FEW  ft; FEW  ft; SCT  ft","CYZV 061500Z 23011G16KT 200V270 30SM FEW050 FEW120 SCT240 20/11 A2978 RMK CU1AC1CI4 CU TR AC TR SLP087 DENSITY ALT 1000FT",2025-09-06 15:38:48.243572,2025-09-06 11:38:48.243572
"CYBC",2025-09-06 15:00:00,2025-09-06 11:00:00,"VFR",18,11,64,240,17,14500,29.82,NA,"CLR  ft","CYBC 061500Z AUTO 24017G22KT 9SM CLR 18/11 A2982 RMK SLP099 DENSITY ALT 600FT",2025-09-06 15:38:48.328033,2025-09-06 11:38:48.328033
"CYRJ",2025-09-06 15:30:00,2025-09-06 11:30:00,"VFR",12,9,82,230,9,40200,29.86,NA,"FEW  ft; BKN  ft","CYRJ 061530Z 23009G16KT 25SM -SHRA FEW007 BKN042 12/09 A2986 RMK SF2SC5 CVCTV CLD EMBD SLP119",2025-09-06 15:38:48.37487,2025-09-06 11:38:48.37487
"CYHZ",2025-09-06 15:00:00,2025-09-06 11:00:00,"MVFR",23,19,78,200,14,24100,30.09,NA,"BKN  ft","CYHZ 061500Z 20014KT 15SM BKN014 23/19 A3009 RMK SF5 SLP193 DENSITY ALT 1400FT",2025-09-06 15:38:48.461842,2025-09-06 11:38:48.461842
"CYYG",2025-09-06 15:00:00,2025-09-06 11:00:00,"VFR",24,18,69,200,15,24100,30.02,NA,"FEW  ft; BKN  ft","CYYG 061500Z 20015G20KT 15SM FEW022 BKN250 24/18 A3002 RMK CF1CI6 SLP169 DENSITY ALT 1200FT",2025-09-06 15:38:48.549051,2025-09-06 11:38:48.549051
"CYQM",2025-09-06 15:00:00,2025-09-06 11:00:00,"VFR",25,18,65,190,15,24100,30.01,NA,"SCT  ft; SCT  ft","CYQM 061500Z 19015KT 15SM SCT025 SCT250 25/18 A3001 RMK CU3CI1 SLP163 DENSITY ALT 1300FT",2025-09-06 15:38:48.592225,2025-09-06 11:38:48.592225
"CYFC",2025-09-06 15:00:00,2025-09-06 11:00:00,"MVFR",22,18,78,170,8,14500,29.98,NA,"OVC  ft","CYFC 061500Z AUTO 17008G15KT 9SM OVC016 22/18 A2998 RMK SLP155 DENSITY ALT 900FT",2025-09-06 15:38:48.675949,2025-09-06 11:38:48.675949
"CYYT",2025-09-06 15:00:00,2025-09-06 11:00:00,"VFR",22,14,61,180,9,24100,30.18,NA,"SCT  ft; SCT  ft","CYYT 061500Z 18009KT 15SM SCT100 SCT230 22/14 A3018 RMK AC3CI1 CI TR SLP225 DENSITY ALT 1100FT",2025-09-06 15:38:48.76225,2025-09-06 11:38:48.76225
"CYQY",2025-09-06 15:00:00,2025-09-06 11:00:00,"VFR",25,18,65,230,10,24100,30.07,NA,"FEW  ft; BKN  ft","CYQY 061500Z 23010G19KT 15SM FEW014 BKN240 25/18 A3007 RMK SC1CI4 SLP185 DENSITY ALT 1300FT",2025-09-06 15:38:48.808816,2025-09-06 11:38:48.808816
"CYXY",2025-09-06 15:00:00,2025-09-06 11:00:00,"VFR",12,11,94,360,2,64400,29.95,NA,"FEW  ft; BKN  ft; BKN  ft","CYXY 061500Z 36002KT 40SM FEW006 BKN065 BKN160 12/11 A2995 RMK SF1SC7AC1 SF TR AC TR SLP155 DENSITY ALT 2600FT",2025-09-06 15:38:48.894941,2025-09-06 11:38:48.894941
"CYZF",2025-09-06 15:00:00,2025-09-06 11:00:00,"VFR",13,8,72,150,14,24100,29.83,NA,"FEW  ft; FEW  ft; BKN  ft","CYZF 061500Z 15014G23KT 15SM FEW110 FEW160 BKN240 13/08 A2983 RMK AC1AC1CI6 AC TR SLP113",2025-09-06 15:38:48.983142,2025-09-06 11:38:48.983142
"CYFB",2025-09-06 15:00:00,2025-09-06 11:00:00,"MVFR",4,0,75,130,15,11300,29.67,NA,"OVC  ft","CYFB 061500Z 13015G26KT 7SM -RA OVC025 04/00 A2967 RMK SC8 SLP051",2025-09-06 15:38:49.071721,2025-09-06 11:38:49.071721
"CYRT",2025-09-06 15:00:00,2025-09-06 11:00:00,"VFR",6,1,71,10,17,24100,29.92,NA,"OVC  ft","CYRT 061500Z 01017KT 15SM OVC034 06/01 A2992 RMK SC8 SLP135",2025-09-06 15:38:49.157379,2025-09-06 11:38:49.157379
"CYBK",2025-09-06 15:00:00,2025-09-06 11:00:00,"VFR",7,4,81,340,8,40200,30.02,NA,"SCT  ft; BKN  ft","CYBK 061500Z 34008KT 25SM SCT017 BKN047 07/04 A3002 RMK SC4SC3 SLP170",2025-09-06 15:38:49.242656,2025-09-06 11:38:49.242656
"CYRB",2025-09-06 15:00:00,2025-09-06 11:00:00,"IFR",-2,-3,93,160,12,9999,30.08,NA,"OVC  ft","CYRB 061500Z 16012KT 10SM -SN OVC005 M02/M03 A3008 RMK ST8 SLP196",2025-09-06 15:38:49.340155,2025-09-06 11:38:49.340155
"CYCO",2025-09-06 15:00:00,2025-09-06 11:00:00,"VFR",13,7,67,190,18,9999,29.63,NA,"BKN  ft; BKN  ft; OVC  ft","CYCO 061500Z 19018KT 10SM BKN120 BKN160 OVC210 13/07 A2963 RMK FU4AC1AC2CI1 FU SLP036 DENSITY ALT 300FT",2025-09-06 15:38:49.386761,2025-09-06 11:38:49.386761
"CYER",2025-09-06 16:14:00,2025-09-06 12:14:00,"IFR",8,8,100,340,11,4800,29.68,NA,"BKN  ft; OVC  ft","CYER 061614Z AUTO 34011G19KT 3SM -RA BR BKN007 OVC015 08/08 A2968 RMK SLP052",2025-09-06 16:24:51.987108,2025-09-06 12:24:51.987108
"CYAT",2025-09-06 16:00:00,2025-09-06 12:00:00,"MVFR",9,8,94,290,10,14500,29.58,NA,"OVC  ft","CYAT 061600Z AUTO 29010G15KT 9SM OVC010 09/08 A2958 RMK SLP019",2025-09-06 16:24:52.068044,2025-09-06 12:24:52.068044
"CYMO",2025-09-06 16:20:00,2025-09-06 12:20:00,"MVFR",8,8,100,250,10,9700,29.66,NA,"BKN  ft; OVC  ft","CYMO 061620Z AUTO 25010G15KT 6SM BR BKN010 OVC013 08/08 A2966 RMK SLP045",2025-09-06 16:24:52.145517,2025-09-06 12:24:52.145517
"CYPL",2025-09-06 16:00:00,2025-09-06 12:00:00,"MVFR",6,4,87,320,9,14500,29.82,NA,"FEW  ft; BKN  ft; BKN  ft; OVC  ft","CYPL 061600Z AUTO 32009G15KT 270V020 9SM FEW010 BKN017 BKN022 OVC029 06/04 A2982 RMK SLP114",2025-09-06 16:24:52.220438,2025-09-06 12:24:52.220438
"CYQT",2025-09-06 16:00:00,2025-09-06 12:00:00,"VFR",12,4,58,280,11,32200,29.85,NA,"BKN  ft; BKN  ft; BKN  ft","CYQT 061600Z 28011G19KT 260V330 20SM BKN043 BKN140 BKN230 12/04 A2985 RMK SC5AC1CI1 CU ASOCTD SLP116",2025-09-06 16:24:52.306007,2025-09-06 12:24:52.306007
"CYAM",2025-09-06 16:00:00,2025-09-06 12:00:00,"VFR",11,8,82,260,10,24100,29.85,NA,"FEW  ft; SCT  ft; OVC  ft","CYAM 061600Z 26010KT 15SM VCSH FEW012 SCT033 OVC049 11/08 A2985 RMK CU2SC1SC5 VCSH W SLP115",2025-09-06 16:24:52.387558,2025-09-06 12:24:52.387558
"CYTS",2025-09-06 16:00:00,2025-09-06 12:00:00,"MVFR",9,4,71,290,3,24100,29.78,NA,"OVC  ft","CYTS 061600Z 29003KT 210V330 15SM OVC025 09/04 A2978 RMK SC8 SLP097",2025-09-06 16:24:52.465759,2025-09-06 12:24:52.465759
"CYSB",2025-09-06 16:00:00,2025-09-06 12:00:00,"MVFR",12,6,67,230,8,32200,29.83,NA,"BKN  ft; OVC  ft","CYSB 061600Z 23008KT 20SM BKN028 OVC084 12/06 A2983 RMK CU6AC2 SLP111",2025-09-06 16:24:52.541328,2025-09-06 12:24:52.541328
"CYYB",2025-09-06 16:00:00,2025-09-06 12:00:00,"VFR",11,8,82,260,9,48300,29.85,NA,"FEW  ft; OVC  ft","CYYB 061600Z 26009G18KT 30SM FEW020 OVC044 11/08 A2985 RMK SC2SC6 SLP116",2025-09-06 16:24:52.617115,2025-09-06 12:24:52.617115
"CYOW",2025-09-06 16:00:00,2025-09-06 12:00:00,"VFR",14,10,77,190,7,24100,29.93,NA,"FEW  ft; BKN  ft","CYOW 061600Z 19007KT 15SM FEW070 BKN100 14/10 A2993 RMK AC1AC5 SLP139",2025-09-06 16:24:52.697481,2025-09-06 12:24:52.697481
"CYGK",2025-09-06 16:00:00,2025-09-06 12:00:00,"VFR",17,9,59,230,9,24100,29.96,NA,"FEW  ft; SCT  ft; BKN  ft","CYGK 061600Z 23009KT 15SM VCSH FEW020 SCT060 BKN100 17/09 A2996 RMK CU2SC2AC3 SLP149 DENSITY ALT 700FT",2025-09-06 16:24:52.777886,2025-09-06 12:24:52.777886
"CYQG",2025-09-06 16:00:00,2025-09-06 12:00:00,"VFR",17,6,49,260,11,14500,30,NA,"BKN  ft","CYQG 061600Z AUTO 26011G19KT 9SM BKN055 17/06 A3000 RMK SLP160 DENSITY ALT 900FT",2025-09-06 16:24:52.860624,2025-09-06 12:24:52.860624
"CYVV",2025-09-06 16:07:00,2025-09-06 12:07:00,"MVFR",12,10,88,250,9,19300,29.91,NA,"BKN  ft; OVC  ft","CYVV 061607Z 25009G15KT 12SM -SHRA BKN027 OVC051 12/10 A2991 RMK CU5SC3 SLP134",2025-09-06 16:24:52.935344,2025-09-06 12:24:52.935344
"CYYZ",2025-09-06 16:00:00,2025-09-06 12:00:00,"VFR",18,7,49,260,12,24100,29.94,NA,"FEW  ft; SCT  ft","CYYZ 061600Z 26012G18KT 15SM FEW045 SCT087 18/07 A2994 RMK CU2AC1 SLP141 DENSITY ALT 1100FT",2025-09-06 16:24:52.968611,2025-09-06 12:24:52.968611
"CYQA",2025-09-06 16:00:00,2025-09-06 12:00:00,"VFR",15,8,63,240,12,14500,29.91,NA,"SCT  ft; BKN  ft; BKN  ft; OVC  ft","CYQA 061600Z AUTO 24012G19KT 9SM SCT031 BKN044 BKN055 OVC076 15/08 A2991 RMK SLP133",2025-09-06 16:24:53.046514,2025-09-06 12:24:53.046514
"CYVR",2025-09-06 16:00:00,2025-09-06 12:00:00,"VFR",18,16,88,110,6,19300,29.89,NA,"FEW  ft; BKN  ft","CYVR 061600Z 11006KT 12SM FEW160 BKN220 18/16 A2989 RMK AC1CI5 HZ SLP125 DENSITY ALT 400FT",2025-09-06 16:24:53.126209,2025-09-06 12:24:53.126209
"CYYJ",2025-09-06 16:00:00,2025-09-06 12:00:00,"VFR",15,13,88,120,7,32200,29.9,NA,"FEW  ft; BKN  ft","CYYJ 061600Z 12007KT 20SM FEW220 BKN250 15/13 A2990 RMK CC2CI3 HZ SLP127",2025-09-06 16:24:53.199184,2025-09-06 12:24:53.199184
"CYLW",2025-09-06 16:00:00,2025-09-06 12:00:00,"VFR",17,11,68,0,0,12900,29.92,NA,"CLR  ft","CYLW 061600Z AUTO 00000KT 8SM CLR 17/11 A2992 RMK SLP133 DENSITY ALT 2100FT",2025-09-06 16:24:53.276299,2025-09-06 12:24:53.276299
"CYXS",2025-09-06 16:00:00,2025-09-06 12:00:00,"VFR",10,10,100,0,0,12900,29.95,NA,"CLR  ft","CYXS 061600Z AUTO 00000KT 8SM CLR 10/10 A2995 RMK SLP155",2025-09-06 16:24:53.35218,2025-09-06 12:24:53.35218
"CYXT",2025-09-06 16:00:00,2025-09-06 12:00:00,"LIFR",14,14,100,0,2,NA,29.93,NA,"OVX  ft","CYXT 061600Z VRB02KT 1/8SM FG VV001 14/14 A2993 RMK FG8 SLP140",2025-09-06 16:24:53.429739,2025-09-06 12:24:53.429739
"CYQQ",2025-09-06 16:00:00,2025-09-06 12:00:00,"VFR",19,14,73,280,2,19300,29.89,NA,"BKN  ft","CYQQ 061600Z 28002KT 12SM BKN250 19/14 A2989 RMK CI6 DENSITY ALT 797FT HZ SLP123",2025-09-06 16:24:53.504339,2025-09-06 12:24:53.504339
"CYYC",2025-09-06 16:00:00,2025-09-06 12:00:00,"VFR",16,8,59,0,2,19300,29.99,NA,"SKC  ft","CYYC 061600Z VRB02KT 12SM SKC 16/08 A2999 RMK FU SLP160 DENSITY ALT 4500FT",2025-09-06 16:24:53.575815,2025-09-06 12:24:53.575815
"CYEG",2025-09-06 16:00:00,2025-09-06 12:00:00,"VFR",13,3,51,180,7,32200,29.95,NA,"FEW  ft","CYEG 061600Z 18007KT 20SM FEW250 13/03 A2995 RMK CI2 SLP157 DENSITY ALT 2700FT",2025-09-06 16:24:53.646966,2025-09-06 12:24:53.646966
"CYMM",2025-09-06 16:00:00,2025-09-06 12:00:00,"VFR",14,7,63,110,7,11300,29.96,NA,"CLR  ft","CYMM 061600Z AUTO 11007KT 7SM CLR 14/07 A2996 RMK SLP159",2025-09-06 16:24:53.721006,2025-09-06 12:24:53.721006
"CYQF",2025-09-06 16:00:00,2025-09-06 12:00:00,"VFR",13,3,51,160,6,14500,29.98,NA,"CLR  ft","CYQF 061600Z AUTO 16006KT 150V220 9SM CLR 13/03 A2998 RMK SLP169 DENSITY ALT 3400FT",2025-09-06 16:24:53.792993,2025-09-06 12:24:53.792993
"CYXE",2025-09-06 16:00:00,2025-09-06 12:00:00,"VFR",13,5,59,140,5,24100,30.11,NA,"FEW  ft","CYXE 061600Z 14005KT 120V190 15SM FEW300 13/05 A3011 RMK CI1 SLP214",2025-09-06 16:24:53.867711,2025-09-06 12:24:53.867711
"CYQR",2025-09-06 16:00:00,2025-09-06 12:00:00,"VFR",12,3,54,0,0,24100,30.15,NA,"FEW  ft","CYQR 061600Z 00000KT 15SM FEW250 12/03 A3015 RMK CI1 CI TR SLP230",2025-09-06 16:24:53.943095,2025-09-06 12:24:53.943095
"CYWG",2025-09-06 16:00:00,2025-09-06 12:00:00,"VFR",13,5,59,350,18,24100,30.04,NA,"FEW  ft; BKN  ft","CYWG 061600Z 35018G26KT 15SM FEW027 BKN072 13/05 A3004 RMK CU2AC4 SLP180",2025-09-06 16:24:54.016662,2025-09-06 12:24:54.016662
"CYBR",2025-09-06 16:00:00,2025-09-06 12:00:00,"VFR",10,6,76,310,8,24100,30.12,NA,"FEW  ft; OVC  ft","CYBR 061600Z 31008KT 15SM FEW010 OVC055 10/06 A3012 RMK SF1SC7 SLP215",2025-09-06 16:24:54.09226,2025-09-06 12:24:54.09226
"CYUL",2025-09-06 16:00:00,2025-09-06 12:00:00,"VFR",16,11,72,230,12,24100,29.97,NA,"BKN  ft; OVC  ft","CYUL 061600Z 23012KT 15SM BKN040 OVC100 16/11 A2997 RMK SC5AC3 SLP150",2025-09-06 16:24:54.168188,2025-09-06 12:24:54.168188
"CYHU",2025-09-06 16:00:00,2025-09-06 12:00:00,"VFR",15,11,77,210,8,14500,29.97,NA,"BKN  ft; OVC  ft","CYHU 061600Z AUTO 21008KT 9SM BKN043 OVC110 15/11 A2997 RMK SLP151",2025-09-06 16:24:54.243277,2025-09-06 12:24:54.243277
"CYQB",2025-09-06 16:00:00,2025-09-06 12:00:00,"VFR",16,10,68,240,8,48300,29.95,NA,"FEW  ft; BKN  ft; OVC  ft","CYQB 061600Z 24008KT 30SM FEW020 BKN042 OVC100 16/10 A2995 RMK SC1SC6AC2 SC TR SLP144",2025-09-06 16:24:54.320784,2025-09-06 12:24:54.320784
"CYVO",2025-09-06 16:00:00,2025-09-06 12:00:00,"VFR",12,6,67,250,12,24100,29.78,NA,"BKN  ft; BKN  ft","CYVO 061600Z 25012KT 200V280 15SM BKN039 BKN055 12/06 A2978 RMK SC5SC1 TCU EMBD SLP095",2025-09-06 16:24:54.39215,2025-09-06 12:24:54.39215
"CYUY",2025-09-06 16:00:00,2025-09-06 12:00:00,"MVFR",12,5,63,240,12,24100,29.79,NA,"BKN  ft","CYUY 061600Z 24012G17KT 220V280 15SM BKN030 12/05 A2979 RMK SC7 SLP097",2025-09-06 16:24:54.46565,2025-09-06 12:24:54.46565
"CYZV",2025-09-06 16:00:00,2025-09-06 12:00:00,"VFR",19,13,68,200,11,48300,29.79,NA,"FEW  ft; FEW  ft; BKN  ft","CYZV 061600Z 20011KT 30SM FEW050 FEW120 BKN240 19/13 A2979 RMK CU1AC1CI5 CU TR AC TR SLP089 DENSITY ALT 900FT",2025-09-06 16:24:54.540714,2025-09-06 12:24:54.540714
"CYBC",2025-09-06 16:00:00,2025-09-06 12:00:00,"VFR",15,11,77,220,18,14500,29.83,NA,"CLR  ft","CYBC 061600Z AUTO 22018G24KT 9SM CLR 15/11 A2983 RMK SLP103",2025-09-06 16:24:54.616153,2025-09-06 12:24:54.616153
"CYRJ",2025-09-06 16:00:00,2025-09-06 12:00:00,"VFR",14,8,67,190,10,64400,29.86,NA,"BKN  ft; BKN  ft; OVC  ft","CYRJ 061600Z 19010G18KT 170V240 40SM BKN050 BKN190 OVC240 14/08 A2986 RMK SC5AC1CI2 SLP116",2025-09-06 16:24:54.692376,2025-09-06 12:24:54.692376
"CYHZ",2025-09-06 16:00:00,2025-09-06 12:00:00,"VFR",24,19,74,200,15,24100,30.09,NA,"FEW  ft; BKN  ft","CYHZ 061600Z 20015G21KT 15SM FEW014 BKN230 24/19 A3009 RMK CU1CS5 SLP191 DENSITY ALT 1400FT",2025-09-06 16:24:54.767188,2025-09-06 12:24:54.767188
"CYYG",2025-09-06 16:00:00,2025-09-06 12:00:00,"VFR",25,18,65,200,16,24100,30.02,NA,"FEW  ft; OVC  ft","CYYG 061600Z 20016G22KT 15SM FEW022 OVC250 25/18 A3002 RMK CF1CI8 CF TR SLP166 DENSITY ALT 1300FT",2025-09-06 16:24:54.843375,2025-09-06 12:24:54.843375
"CYQM",2025-09-06 16:00:00,2025-09-06 12:00:00,"MVFR",26,18,61,200,16,24100,29.99,NA,"BKN  ft","CYQM 061600Z 20016G21KT 15SM BKN030 26/18 A2999 RMK SC6 CU ASOCTD SLP158 DENSITY ALT 1500FT",2025-09-06 16:24:54.916403,2025-09-06 12:24:54.916403
"CYFC",2025-09-06 16:09:00,2025-09-06 12:09:00,"MVFR",23,18,74,170,9,14500,29.96,NA,"BKN  ft; BKN  ft","CYFC 061609Z AUTO 17009G16KT 9SM BKN018 BKN100 23/18 A2996 RMK SLP148 DENSITY ALT 1000FT",2025-09-06 16:24:54.98806,2025-09-06 12:24:54.98806
"CYYT",2025-09-06 16:00:00,2025-09-06 12:00:00,"VFR",23,12,50,260,9,24100,30.17,NA,"FEW  ft; FEW  ft","CYYT 061600Z 26009KT 160V280 15SM FEW100 FEW240 23/12 A3017 RMK AC1CI2 AC TR SLP221 DENSITY ALT 1200FT",2025-09-06 16:24:55.060355,2025-09-06 12:24:55.060355
"CYQY",2025-09-06 16:00:00,2025-09-06 12:00:00,"VFR",26,19,65,230,12,24100,30.07,NA,"FEW  ft; BKN  ft","CYQY 061600Z 23012KT 15SM FEW014 BKN240 26/19 A3007 RMK SC1CI4 SLP185 DENSITY ALT 1400FT",2025-09-06 16:24:55.135225,2025-09-06 12:24:55.135225
"CYXY",2025-09-06 16:00:00,2025-09-06 12:00:00,"VFR",12,12,100,350,3,40200,29.96,NA,"SCT  ft; BKN  ft; OVC  ft","CYXY 061600Z 35003KT 25SM SCT004 BKN064 OVC090 12/12 A2996 RMK SF4SC3AC1 SLP160 DENSITY ALT 2600FT",2025-09-06 16:24:55.206091,2025-09-06 12:24:55.206091
"CYZF",2025-09-06 16:00:00,2025-09-06 12:00:00,"VFR",13,8,72,150,16,24100,29.82,NA,"FEW  ft; FEW  ft; BKN  ft","CYZF 061600Z 15016G22KT 15SM FEW110 FEW160 BKN220 13/08 A2982 RMK AC1AC2CI5 AC TR SLP108",2025-09-06 16:24:55.283188,2025-09-06 12:24:55.283188
"CYFB",2025-09-06 16:10:00,2025-09-06 12:10:00,"IFR",2,1,93,130,16,6400,29.65,NA,"OVC  ft","CYFB 061610Z 13016G23KT 4SM -RASN BR OVC009 02/01 A2965 RMK ST8 SLP046",2025-09-06 16:24:55.359476,2025-09-06 12:24:55.359476
"CYRT",2025-09-06 16:00:00,2025-09-06 12:00:00,"MVFR",6,1,71,360,17,24100,29.91,NA,"BKN  ft; OVC  ft","CYRT 061600Z 36017KT 15SM BKN023 OVC040 06/01 A2991 RMK SC5SC3 SLP133",2025-09-06 16:24:55.435293,2025-09-06 12:24:55.435293
"CYBK",2025-09-06 16:00:00,2025-09-06 12:00:00,"MVFR",6,3,81,360,11,40200,30.02,NA,"BKN  ft; BKN  ft","CYBK 061600Z 36011G18KT 25SM -RA BKN021 BKN051 06/03 A3002 RMK SC6SC1 SLP171",2025-09-06 16:24:55.514799,2025-09-06 12:24:55.514799
"CYRB",2025-09-06 16:00:00,2025-09-06 12:00:00,"IFR",-2,-3,93,170,13,40200,30.08,NA,"BKN  ft","CYRB 061600Z 17013KT 25SM -SN BKN005 M02/M03 A3008 RMK ST7 SLP194",2025-09-06 16:24:55.604341,2025-09-06 12:24:55.604341
"CYCO",2025-09-06 16:00:00,2025-09-06 12:00:00,"VFR",14,7,63,210,15,9999,29.62,NA,"SCT  ft; BKN  ft; OVC  ft","CYCO 061600Z 21015G26KT 10SM SCT140 BKN170 OVC210 14/07 A2962 RMK FU2AC2AC3CI1 FU SLP035 DENSITY ALT 400FT",2025-09-06 16:24:55.680213,2025-09-06 12:24:55.680213
"CYER",2025-09-06 16:37:00,2025-09-06 12:37:00,"IFR",8,8,100,340,10,6400,29.69,NA,"BKN  ft; BKN  ft; BKN  ft; OVC  ft","CYER 061637Z AUTO 34010G20KT 4SM -RA BR BKN009 BKN014 BKN022 OVC037 08/08 A2969 RMK SLP056",2025-09-06 16:42:29.475119,2025-09-06 12:42:29.475119
"CYAT",2025-09-06 16:00:00,2025-09-06 12:00:00,"MVFR",9,8,94,290,10,14500,29.58,NA,"OVC  ft","CYAT 061600Z AUTO 29010G15KT 9SM OVC010 09/08 A2958 RMK SLP019",2025-09-06 16:42:29.527939,2025-09-06 12:42:29.527939
"CYMO",2025-09-06 16:30:00,2025-09-06 12:30:00,"MVFR",8,8,100,250,10,6400,29.66,NA,"OVC  ft","CYMO 061630Z AUTO 25010G15KT 4SM BR OVC010 08/08 A2966 RMK SLP047",2025-09-06 16:42:29.613256,2025-09-06 12:42:29.613256
"CYPL",2025-09-06 16:00:00,2025-09-06 12:00:00,"MVFR",6,4,87,320,9,14500,29.82,NA,"FEW  ft; BKN  ft; BKN  ft; OVC  ft","CYPL 061600Z AUTO 32009G15KT 270V020 9SM FEW010 BKN017 BKN022 OVC029 06/04 A2982 RMK SLP114",2025-09-06 16:42:29.700556,2025-09-06 12:42:29.700556
"CYQT",2025-09-06 16:00:00,2025-09-06 12:00:00,"VFR",12,4,58,280,11,32200,29.85,NA,"BKN  ft; BKN  ft; BKN  ft","CYQT 061600Z 28011G19KT 260V330 20SM BKN043 BKN140 BKN230 12/04 A2985 RMK SC5AC1CI1 CU ASOCTD SLP116",2025-09-06 16:42:29.796064,2025-09-06 12:42:29.796064
"CYAM",2025-09-06 16:00:00,2025-09-06 12:00:00,"VFR",11,8,82,260,10,24100,29.85,NA,"FEW  ft; SCT  ft; OVC  ft","CYAM 061600Z 26010KT 15SM VCSH FEW012 SCT033 OVC049 11/08 A2985 RMK CU2SC1SC5 VCSH W SLP115",2025-09-06 16:42:29.884055,2025-09-06 12:42:29.884055
"CYTS",2025-09-06 16:00:00,2025-09-06 12:00:00,"MVFR",9,4,71,290,3,24100,29.78,NA,"OVC  ft","CYTS 061600Z 29003KT 210V330 15SM OVC025 09/04 A2978 RMK SC8 SLP097",2025-09-06 16:42:29.935509,2025-09-06 12:42:29.935509
"CYSB",2025-09-06 16:00:00,2025-09-06 12:00:00,"MVFR",12,6,67,230,8,32200,29.83,NA,"BKN  ft; OVC  ft","CYSB 061600Z 23008KT 20SM BKN028 OVC084 12/06 A2983 RMK CU6AC2 SLP111",2025-09-06 16:42:30.024228,2025-09-06 12:42:30.024228
"CYYB",2025-09-06 16:00:00,2025-09-06 12:00:00,"VFR",11,8,82,260,9,48300,29.85,NA,"FEW  ft; OVC  ft","CYYB 061600Z 26009G18KT 30SM FEW020 OVC044 11/08 A2985 RMK SC2SC6 SLP116",2025-09-06 16:42:30.118512,2025-09-06 12:42:30.118512
"CYOW",2025-09-06 16:00:00,2025-09-06 12:00:00,"VFR",14,10,77,190,7,24100,29.93,NA,"FEW  ft; BKN  ft","CYOW 061600Z 19007KT 15SM FEW070 BKN100 14/10 A2993 RMK AC1AC5 SLP139",2025-09-06 16:42:30.209021,2025-09-06 12:42:30.209021
"CYGK",2025-09-06 16:00:00,2025-09-06 12:00:00,"VFR",17,9,59,230,9,24100,29.96,NA,"FEW  ft; SCT  ft; BKN  ft","CYGK 061600Z 23009KT 15SM VCSH FEW020 SCT060 BKN100 17/09 A2996 RMK CU2SC2AC3 SLP149 DENSITY ALT 700FT",2025-09-06 16:42:30.305388,2025-09-06 12:42:30.305388
"CYQG",2025-09-06 16:00:00,2025-09-06 12:00:00,"VFR",17,6,49,260,11,14500,30,NA,"BKN  ft","CYQG 061600Z AUTO 26011G19KT 9SM BKN055 17/06 A3000 RMK SLP160 DENSITY ALT 900FT",2025-09-06 16:42:30.402361,2025-09-06 12:42:30.402361
"CYVV",2025-09-06 16:07:00,2025-09-06 12:07:00,"MVFR",12,10,88,250,9,19300,29.91,NA,"BKN  ft; OVC  ft","CYVV 061607Z 25009G15KT 12SM -SHRA BKN027 OVC051 12/10 A2991 RMK CU5SC3 SLP134",2025-09-06 16:42:30.502216,2025-09-06 12:42:30.502216
"CYYZ",2025-09-06 16:00:00,2025-09-06 12:00:00,"VFR",18,7,49,260,12,24100,29.94,NA,"FEW  ft; SCT  ft","CYYZ 061600Z 26012G18KT 15SM FEW045 SCT087 18/07 A2994 RMK CU2AC1 SLP141 DENSITY ALT 1100FT",2025-09-06 16:42:30.590956,2025-09-06 12:42:30.590956
"CYQA",2025-09-06 16:27:00,2025-09-06 12:27:00,"VFR",13,9,77,250,14,14500,29.92,NA,"SCT  ft; BKN  ft; BKN  ft; OVC  ft","CYQA 061627Z AUTO 25014G21KT 220V300 9SM -RA SCT029 BKN033 BKN041 OVC049 13/09 A2992 RMK SLP137",2025-09-06 16:42:30.679025,2025-09-06 12:42:30.679025
"CYVR",2025-09-06 16:00:00,2025-09-06 12:00:00,"VFR",18,16,88,110,6,19300,29.89,NA,"FEW  ft; BKN  ft","CYVR 061600Z 11006KT 12SM FEW160 BKN220 18/16 A2989 RMK AC1CI5 HZ SLP125 DENSITY ALT 400FT",2025-09-06 16:42:30.769108,2025-09-06 12:42:30.769108
"CYYJ",2025-09-06 16:00:00,2025-09-06 12:00:00,"VFR",15,13,88,120,7,32200,29.9,NA,"FEW  ft; BKN  ft","CYYJ 061600Z 12007KT 20SM FEW220 BKN250 15/13 A2990 RMK CC2CI3 HZ SLP127",2025-09-06 16:42:30.86297,2025-09-06 12:42:30.86297
"CYLW",2025-09-06 16:33:00,2025-09-06 12:33:00,"MVFR",19,12,64,0,0,8000,29.92,NA,"CLR  ft","CYLW 061633Z AUTO 00000KT 5SM HZ CLR 19/12 A2992 RMK SLP131 DENSITY ALT 2300FT",2025-09-06 16:42:30.952931,2025-09-06 12:42:30.952931
"CYXS",2025-09-06 16:00:00,2025-09-06 12:00:00,"VFR",10,10,100,0,0,12900,29.95,NA,"CLR  ft","CYXS 061600Z AUTO 00000KT 8SM CLR 10/10 A2995 RMK SLP155",2025-09-06 16:42:31.039747,2025-09-06 12:42:31.039747
"CYXT",2025-09-06 16:00:00,2025-09-06 12:00:00,"LIFR",14,14,100,0,2,NA,29.93,NA,"OVX  ft","CYXT 061600Z VRB02KT 1/8SM FG VV001 14/14 A2993 RMK FG8 SLP140",2025-09-06 16:42:31.125708,2025-09-06 12:42:31.125708
"CYQQ",2025-09-06 16:00:00,2025-09-06 12:00:00,"VFR",19,14,73,280,2,19300,29.89,NA,"BKN  ft","CYQQ 061600Z 28002KT 12SM BKN250 19/14 A2989 RMK CI6 DENSITY ALT 797FT HZ SLP123",2025-09-06 16:42:31.212346,2025-09-06 12:42:31.212346
"CYYC",2025-09-06 16:00:00,2025-09-06 12:00:00,"VFR",16,8,59,0,2,19300,29.99,NA,"SKC  ft","CYYC 061600Z VRB02KT 12SM SKC 16/08 A2999 RMK FU SLP160 DENSITY ALT 4500FT",2025-09-06 16:42:31.301282,2025-09-06 12:42:31.301282
"CYEG",2025-09-06 16:00:00,2025-09-06 12:00:00,"VFR",13,3,51,180,7,32200,29.95,NA,"FEW  ft","CYEG 061600Z 18007KT 20SM FEW250 13/03 A2995 RMK CI2 SLP157 DENSITY ALT 2700FT",2025-09-06 16:42:31.387228,2025-09-06 12:42:31.387228
"CYMM",2025-09-06 16:00:00,2025-09-06 12:00:00,"VFR",14,7,63,110,7,11300,29.96,NA,"CLR  ft","CYMM 061600Z AUTO 11007KT 7SM CLR 14/07 A2996 RMK SLP159",2025-09-06 16:42:31.479981,2025-09-06 12:42:31.479981
"CYQF",2025-09-06 16:00:00,2025-09-06 12:00:00,"VFR",13,3,51,160,6,14500,29.98,NA,"CLR  ft","CYQF 061600Z AUTO 16006KT 150V220 9SM CLR 13/03 A2998 RMK SLP169 DENSITY ALT 3400FT",2025-09-06 16:42:31.567248,2025-09-06 12:42:31.567248
"CYXE",2025-09-06 16:00:00,2025-09-06 12:00:00,"VFR",13,5,59,140,5,24100,30.11,NA,"FEW  ft","CYXE 061600Z 14005KT 120V190 15SM FEW300 13/05 A3011 RMK CI1 SLP214",2025-09-06 16:42:31.651969,2025-09-06 12:42:31.651969
"CYQR",2025-09-06 16:00:00,2025-09-06 12:00:00,"VFR",12,3,54,0,0,24100,30.15,NA,"FEW  ft","CYQR 061600Z 00000KT 15SM FEW250 12/03 A3015 RMK CI1 CI TR SLP230",2025-09-06 16:42:31.738702,2025-09-06 12:42:31.738702
"CYWG",2025-09-06 16:00:00,2025-09-06 12:00:00,"VFR",13,5,59,350,18,24100,30.04,NA,"FEW  ft; BKN  ft","CYWG 061600Z 35018G26KT 15SM FEW027 BKN072 13/05 A3004 RMK CU2AC4 SLP180",2025-09-06 16:42:31.824206,2025-09-06 12:42:31.824206
"CYBR",2025-09-06 16:00:00,2025-09-06 12:00:00,"VFR",10,6,76,310,8,24100,30.12,NA,"FEW  ft; OVC  ft","CYBR 061600Z 31008KT 15SM FEW010 OVC055 10/06 A3012 RMK SF1SC7 SLP215",2025-09-06 16:42:31.912177,2025-09-06 12:42:31.912177
"CYUL",2025-09-06 16:33:00,2025-09-06 12:33:00,"VFR",16,11,72,230,10,24100,29.97,NA,"SCT  ft; BKN  ft; OVC  ft","CYUL 061633Z CCA 23010KT 15SM -RA SCT035 BKN075 OVC100 16/11 A2997 RMK SC3AC4AC1 SLP150",2025-09-06 16:42:32.001122,2025-09-06 12:42:32.001122
"CYHU",2025-09-06 16:30:00,2025-09-06 12:30:00,"VFR",15,12,82,220,11,14500,29.96,NA,"OVC  ft","CYHU 061630Z AUTO 22011KT 9SM -RA OVC043 15/12 A2996 RMK SLP149",2025-09-06 16:42:32.08625,2025-09-06 12:42:32.08625
"CYQB",2025-09-06 16:00:00,2025-09-06 12:00:00,"VFR",16,10,68,240,8,48300,29.95,NA,"FEW  ft; BKN  ft; OVC  ft","CYQB 061600Z 24008KT 30SM FEW020 BKN042 OVC100 16/10 A2995 RMK SC1SC6AC2 SC TR SLP144",2025-09-06 16:42:32.134743,2025-09-06 12:42:32.134743
"CYVO",2025-09-06 16:38:00,2025-09-06 12:38:00,"VFR",12,7,72,240,10,24100,29.79,NA,"BKN  ft; BKN  ft","CYVO 061638Z 24010KT 180V250 15SM -SHRA BKN037TCU BKN055 12/07 A2979 RMK TCU5SC1 SLP100",2025-09-06 16:42:32.220136,2025-09-06 12:42:32.220136
"CYUY",2025-09-06 16:00:00,2025-09-06 12:00:00,"MVFR",12,5,63,240,12,24100,29.79,NA,"BKN  ft","CYUY 061600Z 24012G17KT 220V280 15SM BKN030 12/05 A2979 RMK SC7 SLP097",2025-09-06 16:42:32.264233,2025-09-06 12:42:32.264233
"CYZV",2025-09-06 16:00:00,2025-09-06 12:00:00,"VFR",19,13,68,200,11,48300,29.79,NA,"FEW  ft; FEW  ft; BKN  ft","CYZV 061600Z 20011KT 30SM FEW050 FEW120 BKN240 19/13 A2979 RMK CU1AC1CI5 CU TR AC TR SLP089 DENSITY ALT 900FT",2025-09-06 16:42:32.349339,2025-09-06 12:42:32.349339
"CYBC",2025-09-06 16:00:00,2025-09-06 12:00:00,"VFR",15,11,77,220,18,14500,29.83,NA,"CLR  ft","CYBC 061600Z AUTO 22018G24KT 9SM CLR 15/11 A2983 RMK SLP103",2025-09-06 16:42:32.438677,2025-09-06 12:42:32.438677
"CYRJ",2025-09-06 16:00:00,2025-09-06 12:00:00,"VFR",14,8,67,190,10,64400,29.86,NA,"BKN  ft; BKN  ft; OVC  ft","CYRJ 061600Z 19010G18KT 170V240 40SM BKN050 BKN190 OVC240 14/08 A2986 RMK SC5AC1CI2 SLP116",2025-09-06 16:42:32.528987,2025-09-06 12:42:32.528987
"CYHZ",2025-09-06 16:00:00,2025-09-06 12:00:00,"VFR",24,19,74,200,15,24100,30.09,NA,"FEW  ft; BKN  ft","CYHZ 061600Z 20015G21KT 15SM FEW014 BKN230 24/19 A3009 RMK CU1CS5 SLP191 DENSITY ALT 1400FT",2025-09-06 16:42:32.618578,2025-09-06 12:42:32.618578
"CYYG",2025-09-06 16:00:00,2025-09-06 12:00:00,"VFR",25,18,65,200,16,24100,30.02,NA,"FEW  ft; OVC  ft","CYYG 061600Z 20016G22KT 15SM FEW022 OVC250 25/18 A3002 RMK CF1CI8 CF TR SLP166 DENSITY ALT 1300FT",2025-09-06 16:42:32.706327,2025-09-06 12:42:32.706327
"CYQM",2025-09-06 16:00:00,2025-09-06 12:00:00,"MVFR",26,18,61,200,16,24100,29.99,NA,"BKN  ft","CYQM 061600Z 20016G21KT 15SM BKN030 26/18 A2999 RMK SC6 CU ASOCTD SLP158 DENSITY ALT 1500FT",2025-09-06 16:42:32.799282,2025-09-06 12:42:32.799282
"CYFC",2025-09-06 16:09:00,2025-09-06 12:09:00,"MVFR",23,18,74,170,9,14500,29.96,NA,"BKN  ft; BKN  ft","CYFC 061609Z AUTO 17009G16KT 9SM BKN018 BKN100 23/18 A2996 RMK SLP148 DENSITY ALT 1000FT",2025-09-06 16:42:32.887264,2025-09-06 12:42:32.887264
"CYYT",2025-09-06 16:00:00,2025-09-06 12:00:00,"VFR",23,12,50,260,9,24100,30.17,NA,"FEW  ft; FEW  ft","CYYT 061600Z 26009KT 160V280 15SM FEW100 FEW240 23/12 A3017 RMK AC1CI2 AC TR SLP221 DENSITY ALT 1200FT",2025-09-06 16:42:32.97417,2025-09-06 12:42:32.97417
"CYQY",2025-09-06 16:00:00,2025-09-06 12:00:00,"VFR",26,19,65,230,12,24100,30.07,NA,"FEW  ft; BKN  ft","CYQY 061600Z 23012KT 15SM FEW014 BKN240 26/19 A3007 RMK SC1CI4 SLP185 DENSITY ALT 1400FT",2025-09-06 16:42:33.063812,2025-09-06 12:42:33.063812
"CYXY",2025-09-06 16:00:00,2025-09-06 12:00:00,"VFR",12,12,100,350,3,40200,29.96,NA,"SCT  ft; BKN  ft; OVC  ft","CYXY 061600Z 35003KT 25SM SCT004 BKN064 OVC090 12/12 A2996 RMK SF4SC3AC1 SLP160 DENSITY ALT 2600FT",2025-09-06 16:42:33.151343,2025-09-06 12:42:33.151343
"CYZF",2025-09-06 16:00:00,2025-09-06 12:00:00,"VFR",13,8,72,150,16,24100,29.82,NA,"FEW  ft; FEW  ft; BKN  ft","CYZF 061600Z 15016G22KT 15SM FEW110 FEW160 BKN220 13/08 A2982 RMK AC1AC2CI5 AC TR SLP108",2025-09-06 16:42:33.238085,2025-09-06 12:42:33.238085
"CYFB",2025-09-06 16:39:00,2025-09-06 12:39:00,"MVFR",2,1,93,130,15,8000,29.65,NA,"OVC  ft","CYFB 061639Z 13015G22KT 5SM -RASN BR OVC011 02/01 A2965 RMK SC8 SLP043",2025-09-06 16:42:33.325369,2025-09-06 12:42:33.325369
"CYRT",2025-09-06 16:00:00,2025-09-06 12:00:00,"MVFR",6,1,71,360,17,24100,29.91,NA,"BKN  ft; OVC  ft","CYRT 061600Z 36017KT 15SM BKN023 OVC040 06/01 A2991 RMK SC5SC3 SLP133",2025-09-06 16:42:33.413192,2025-09-06 12:42:33.413192
"CYBK",2025-09-06 16:32:00,2025-09-06 12:32:00,"VFR",7,2,71,340,9,40200,30.02,NA,"SCT  ft; BKN  ft","CYBK 061632Z 34009KT 25SM SCT021 BKN042 07/02 A3002 RMK SC4SC3 SLP167",2025-09-06 16:42:33.460632,2025-09-06 12:42:33.460632
"CYRB",2025-09-06 16:26:00,2025-09-06 12:26:00,"IFR",-1,-3,86,160,13,40200,30.07,NA,"BKN  ft","CYRB 061626Z 16013KT 25SM BKN006 M01/M03 A3007 RMK ST7 SLP192",2025-09-06 16:42:33.556663,2025-09-06 12:42:33.556663
"CYCO",2025-09-06 16:00:00,2025-09-06 12:00:00,"VFR",14,7,63,210,15,9999,29.62,NA,"SCT  ft; BKN  ft; OVC  ft","CYCO 061600Z 21015G26KT 10SM SCT140 BKN170 OVC210 14/07 A2962 RMK FU2AC2AC3CI1 FU SLP035 DENSITY ALT 400FT",2025-09-06 16:42:33.603348,2025-09-06 12:42:33.603348
"CYER",2025-09-06 16:52:00,2025-09-06 12:52:00,"IFR",8,8,100,340,10,9700,29.69,NA,"BKN  ft; BKN  ft; OVC  ft","CYER 061652Z AUTO 34010G18KT 6SM -RA BR BKN009 BKN014 OVC021 08/08 A2969 RMK SLP058",2025-09-06 16:59:45.006587,2025-09-06 12:59:45.006587
"CYAT",2025-09-06 16:00:00,2025-09-06 12:00:00,"MVFR",9,8,94,290,10,14500,29.58,NA,"OVC  ft","CYAT 061600Z AUTO 29010G15KT 9SM OVC010 09/08 A2958 RMK SLP019",2025-09-06 16:59:45.125891,2025-09-06 12:59:45.125891
"CYMO",2025-09-06 16:46:00,2025-09-06 12:46:00,"MVFR",8,8,100,250,13,9700,29.67,NA,"OVC  ft","CYMO 061646Z AUTO 25013G18KT 6SM BR OVC010 08/08 A2967 RMK SLP050",2025-09-06 16:59:45.199955,2025-09-06 12:59:45.199955
"CYPL",2025-09-06 16:00:00,2025-09-06 12:00:00,"MVFR",6,4,87,320,9,14500,29.82,NA,"FEW  ft; BKN  ft; BKN  ft; OVC  ft","CYPL 061600Z AUTO 32009G15KT 270V020 9SM FEW010 BKN017 BKN022 OVC029 06/04 A2982 RMK SLP114",2025-09-06 16:59:45.313981,2025-09-06 12:59:45.313981
"CYQT",2025-09-06 16:00:00,2025-09-06 12:00:00,"VFR",12,4,58,280,11,32200,29.85,NA,"BKN  ft; BKN  ft; BKN  ft","CYQT 061600Z 28011G19KT 260V330 20SM BKN043 BKN140 BKN230 12/04 A2985 RMK SC5AC1CI1 CU ASOCTD SLP116",2025-09-06 16:59:45.390926,2025-09-06 12:59:45.390926
"CYAM",2025-09-06 16:00:00,2025-09-06 12:00:00,"VFR",11,8,82,260,10,24100,29.85,NA,"FEW  ft; SCT  ft; OVC  ft","CYAM 061600Z 26010KT 15SM VCSH FEW012 SCT033 OVC049 11/08 A2985 RMK CU2SC1SC5 VCSH W SLP115",2025-09-06 16:59:45.465265,2025-09-06 12:59:45.465265
"CYTS",2025-09-06 16:00:00,2025-09-06 12:00:00,"MVFR",9,4,71,290,3,24100,29.78,NA,"OVC  ft","CYTS 061600Z 29003KT 210V330 15SM OVC025 09/04 A2978 RMK SC8 SLP097",2025-09-06 16:59:45.542161,2025-09-06 12:59:45.542161
"CYSB",2025-09-06 16:00:00,2025-09-06 12:00:00,"MVFR",12,6,67,230,8,32200,29.83,NA,"BKN  ft; OVC  ft","CYSB 061600Z 23008KT 20SM BKN028 OVC084 12/06 A2983 RMK CU6AC2 SLP111",2025-09-06 16:59:45.613925,2025-09-06 12:59:45.613925
"CYYB",2025-09-06 16:00:00,2025-09-06 12:00:00,"VFR",11,8,82,260,9,48300,29.85,NA,"FEW  ft; OVC  ft","CYYB 061600Z 26009G18KT 30SM FEW020 OVC044 11/08 A2985 RMK SC2SC6 SLP116",2025-09-06 16:59:45.685339,2025-09-06 12:59:45.685339
"CYOW",2025-09-06 16:00:00,2025-09-06 12:00:00,"VFR",14,10,77,190,7,24100,29.93,NA,"FEW  ft; BKN  ft","CYOW 061600Z 19007KT 15SM FEW070 BKN100 14/10 A2993 RMK AC1AC5 SLP139",2025-09-06 16:59:45.756491,2025-09-06 12:59:45.756491
"CYGK",2025-09-06 16:00:00,2025-09-06 12:00:00,"VFR",17,9,59,230,9,24100,29.96,NA,"FEW  ft; SCT  ft; BKN  ft","CYGK 061600Z 23009KT 15SM VCSH FEW020 SCT060 BKN100 17/09 A2996 RMK CU2SC2AC3 SLP149 DENSITY ALT 700FT",2025-09-06 16:59:45.830987,2025-09-06 12:59:45.830987
"CYQG",2025-09-06 16:00:00,2025-09-06 12:00:00,"VFR",17,6,49,260,11,14500,30,NA,"BKN  ft","CYQG 061600Z AUTO 26011G19KT 9SM BKN055 17/06 A3000 RMK SLP160 DENSITY ALT 900FT",2025-09-06 16:59:45.902995,2025-09-06 12:59:45.902995
"CYVV",2025-09-06 16:07:00,2025-09-06 12:07:00,"MVFR",12,10,88,250,9,19300,29.91,NA,"BKN  ft; OVC  ft","CYVV 061607Z 25009G15KT 12SM -SHRA BKN027 OVC051 12/10 A2991 RMK CU5SC3 SLP134",2025-09-06 16:59:45.976197,2025-09-06 12:59:45.976197
"CYYZ",2025-09-06 16:00:00,2025-09-06 12:00:00,"VFR",18,7,49,260,12,24100,29.94,NA,"FEW  ft; SCT  ft","CYYZ 061600Z 26012G18KT 15SM FEW045 SCT087 18/07 A2994 RMK CU2AC1 SLP141 DENSITY ALT 1100FT",2025-09-06 16:59:46.047467,2025-09-06 12:59:46.047467
"CYQA",2025-09-06 16:42:00,2025-09-06 12:42:00,"VFR",14,9,72,240,9,14500,29.92,NA,"FEW  ft; SCT  ft; OVC  ft","CYQA 061642Z AUTO 24009G17KT 210V270 9SM FEW029 SCT041 OVC050 14/09 A2992 RMK SLP136",2025-09-06 16:59:46.119664,2025-09-06 12:59:46.119664
"CYVR",2025-09-06 16:00:00,2025-09-06 12:00:00,"VFR",18,16,88,110,6,19300,29.89,NA,"FEW  ft; BKN  ft","CYVR 061600Z 11006KT 12SM FEW160 BKN220 18/16 A2989 RMK AC1CI5 HZ SLP125 DENSITY ALT 400FT",2025-09-06 16:59:46.193129,2025-09-06 12:59:46.193129
"CYYJ",2025-09-06 16:00:00,2025-09-06 12:00:00,"VFR",15,13,88,120,7,32200,29.9,NA,"FEW  ft; BKN  ft","CYYJ 061600Z 12007KT 20SM FEW220 BKN250 15/13 A2990 RMK CC2CI3 HZ SLP127",2025-09-06 16:59:46.267074,2025-09-06 12:59:46.267074
"CYLW",2025-09-06 16:43:00,2025-09-06 12:43:00,"VFR",20,12,60,20,3,9700,29.92,NA,"CLR  ft","CYLW 061643Z AUTO 02003KT 330V040 6SM HZ CLR 20/12 A2992 RMK SLP131 DENSITY ALT 2300FT",2025-09-06 16:59:46.342422,2025-09-06 12:59:46.342422
"CYXS",2025-09-06 16:00:00,2025-09-06 12:00:00,"VFR",10,10,100,0,0,12900,29.95,NA,"CLR  ft","CYXS 061600Z AUTO 00000KT 8SM CLR 10/10 A2995 RMK SLP155",2025-09-06 16:59:46.415309,2025-09-06 12:59:46.415309
"CYXT",2025-09-06 16:00:00,2025-09-06 12:00:00,"LIFR",14,14,100,0,2,NA,29.93,NA,"OVX  ft","CYXT 061600Z VRB02KT 1/8SM FG VV001 14/14 A2993 RMK FG8 SLP140",2025-09-06 16:59:46.488475,2025-09-06 12:59:46.488475
"CYQQ",2025-09-06 16:00:00,2025-09-06 12:00:00,"VFR",19,14,73,280,2,19300,29.89,NA,"BKN  ft","CYQQ 061600Z 28002KT 12SM BKN250 19/14 A2989 RMK CI6 DENSITY ALT 797FT HZ SLP123",2025-09-06 16:59:46.561351,2025-09-06 12:59:46.561351
"CYYC",2025-09-06 16:00:00,2025-09-06 12:00:00,"VFR",16,8,59,0,2,19300,29.99,NA,"SKC  ft","CYYC 061600Z VRB02KT 12SM SKC 16/08 A2999 RMK FU SLP160 DENSITY ALT 4500FT",2025-09-06 16:59:46.636639,2025-09-06 12:59:46.636639
"CYEG",2025-09-06 16:00:00,2025-09-06 12:00:00,"VFR",13,3,51,180,7,32200,29.95,NA,"FEW  ft","CYEG 061600Z 18007KT 20SM FEW250 13/03 A2995 RMK CI2 SLP157 DENSITY ALT 2700FT",2025-09-06 16:59:46.709921,2025-09-06 12:59:46.709921
"CYMM",2025-09-06 16:00:00,2025-09-06 12:00:00,"VFR",14,7,63,110,7,11300,29.96,NA,"CLR  ft","CYMM 061600Z AUTO 11007KT 7SM CLR 14/07 A2996 RMK SLP159",2025-09-06 16:59:46.790215,2025-09-06 12:59:46.790215
"CYQF",2025-09-06 16:00:00,2025-09-06 12:00:00,"VFR",13,3,51,160,6,14500,29.98,NA,"CLR  ft","CYQF 061600Z AUTO 16006KT 150V220 9SM CLR 13/03 A2998 RMK SLP169 DENSITY ALT 3400FT",2025-09-06 16:59:46.867319,2025-09-06 12:59:46.867319
"CYXE",2025-09-06 16:00:00,2025-09-06 12:00:00,"VFR",13,5,59,140,5,24100,30.11,NA,"FEW  ft","CYXE 061600Z 14005KT 120V190 15SM FEW300 13/05 A3011 RMK CI1 SLP214",2025-09-06 16:59:46.940979,2025-09-06 12:59:46.940979
"CYQR",2025-09-06 16:00:00,2025-09-06 12:00:00,"VFR",12,3,54,0,0,24100,30.15,NA,"FEW  ft","CYQR 061600Z 00000KT 15SM FEW250 12/03 A3015 RMK CI1 CI TR SLP230",2025-09-06 16:59:47.060238,2025-09-06 12:59:47.060238
"CYWG",2025-09-06 16:00:00,2025-09-06 12:00:00,"VFR",13,5,59,350,18,24100,30.04,NA,"FEW  ft; BKN  ft","CYWG 061600Z 35018G26KT 15SM FEW027 BKN072 13/05 A3004 RMK CU2AC4 SLP180",2025-09-06 16:59:47.136836,2025-09-06 12:59:47.136836
"CYBR",2025-09-06 16:00:00,2025-09-06 12:00:00,"VFR",10,6,76,310,8,24100,30.12,NA,"FEW  ft; OVC  ft","CYBR 061600Z 31008KT 15SM FEW010 OVC055 10/06 A3012 RMK SF1SC7 SLP215",2025-09-06 16:59:47.211754,2025-09-06 12:59:47.211754
"CYUL",2025-09-06 16:33:00,2025-09-06 12:33:00,"VFR",16,11,72,230,10,24100,29.97,NA,"SCT  ft; BKN  ft; OVC  ft","CYUL 061633Z CCA 23010KT 15SM -RA SCT035 BKN075 OVC100 16/11 A2997 RMK SC3AC4AC1 SLP150",2025-09-06 16:59:47.292004,2025-09-06 12:59:47.292004
"CYHU",2025-09-06 16:30:00,2025-09-06 12:30:00,"VFR",15,12,82,220,11,14500,29.96,NA,"OVC  ft","CYHU 061630Z AUTO 22011KT 9SM -RA OVC043 15/12 A2996 RMK SLP149",2025-09-06 16:59:47.3693,2025-09-06 12:59:47.3693
"CYQB",2025-09-06 16:00:00,2025-09-06 12:00:00,"VFR",16,10,68,240,8,48300,29.95,NA,"FEW  ft; BKN  ft; OVC  ft","CYQB 061600Z 24008KT 30SM FEW020 BKN042 OVC100 16/10 A2995 RMK SC1SC6AC2 SC TR SLP144",2025-09-06 16:59:47.448104,2025-09-06 12:59:47.448104
"CYVO",2025-09-06 16:38:00,2025-09-06 12:38:00,"VFR",12,7,72,240,10,24100,29.79,NA,"BKN  ft; BKN  ft","CYVO 061638Z 24010KT 180V250 15SM -SHRA BKN037TCU BKN055 12/07 A2979 RMK TCU5SC1 SLP100",2025-09-06 16:59:47.526912,2025-09-06 12:59:47.526912
"CYUY",2025-09-06 16:00:00,2025-09-06 12:00:00,"MVFR",12,5,63,240,12,24100,29.79,NA,"BKN  ft","CYUY 061600Z 24012G17KT 220V280 15SM BKN030 12/05 A2979 RMK SC7 SLP097",2025-09-06 16:59:47.605005,2025-09-06 12:59:47.605005
"CYZV",2025-09-06 16:00:00,2025-09-06 12:00:00,"VFR",19,13,68,200,11,48300,29.79,NA,"FEW  ft; FEW  ft; BKN  ft","CYZV 061600Z 20011KT 30SM FEW050 FEW120 BKN240 19/13 A2979 RMK CU1AC1CI5 CU TR AC TR SLP089 DENSITY ALT 900FT",2025-09-06 16:59:47.679524,2025-09-06 12:59:47.679524
"CYBC",2025-09-06 16:00:00,2025-09-06 12:00:00,"VFR",15,11,77,220,18,14500,29.83,NA,"CLR  ft","CYBC 061600Z AUTO 22018G24KT 9SM CLR 15/11 A2983 RMK SLP103",2025-09-06 16:59:47.755647,2025-09-06 12:59:47.755647
"CYRJ",2025-09-06 16:00:00,2025-09-06 12:00:00,"VFR",14,8,67,190,10,64400,29.86,NA,"BKN  ft; BKN  ft; OVC  ft","CYRJ 061600Z 19010G18KT 170V240 40SM BKN050 BKN190 OVC240 14/08 A2986 RMK SC5AC1CI2 SLP116",2025-09-06 16:59:47.875174,2025-09-06 12:59:47.875174
"CYHZ",2025-09-06 16:00:00,2025-09-06 12:00:00,"VFR",24,19,74,200,15,24100,30.09,NA,"FEW  ft; BKN  ft","CYHZ 061600Z 20015G21KT 15SM FEW014 BKN230 24/19 A3009 RMK CU1CS5 SLP191 DENSITY ALT 1400FT",2025-09-06 16:59:47.949146,2025-09-06 12:59:47.949146
"CYYG",2025-09-06 16:00:00,2025-09-06 12:00:00,"VFR",25,18,65,200,16,24100,30.02,NA,"FEW  ft; OVC  ft","CYYG 061600Z 20016G22KT 15SM FEW022 OVC250 25/18 A3002 RMK CF1CI8 CF TR SLP166 DENSITY ALT 1300FT",2025-09-06 16:59:48.021007,2025-09-06 12:59:48.021007
"CYQM",2025-09-06 16:00:00,2025-09-06 12:00:00,"MVFR",26,18,61,200,16,24100,29.99,NA,"BKN  ft","CYQM 061600Z 20016G21KT 15SM BKN030 26/18 A2999 RMK SC6 CU ASOCTD SLP158 DENSITY ALT 1500FT",2025-09-06 16:59:48.136156,2025-09-06 12:59:48.136156
"CYFC",2025-09-06 16:49:00,2025-09-06 12:49:00,"VFR",23,18,74,190,9,14500,29.96,NA,"SCT  ft; OVC  ft","CYFC 061649Z AUTO 19009G15KT 9SM SCT022 OVC086 23/18 A2996 RMK SLP147 DENSITY ALT 1000FT",2025-09-06 16:59:48.212777,2025-09-06 12:59:48.212777
"CYYT",2025-09-06 16:00:00,2025-09-06 12:00:00,"VFR",23,12,50,260,9,24100,30.17,NA,"FEW  ft; FEW  ft","CYYT 061600Z 26009KT 160V280 15SM FEW100 FEW240 23/12 A3017 RMK AC1CI2 AC TR SLP221 DENSITY ALT 1200FT",2025-09-06 16:59:48.295375,2025-09-06 12:59:48.295375
"CYQY",2025-09-06 16:00:00,2025-09-06 12:00:00,"VFR",26,19,65,230,12,24100,30.07,NA,"FEW  ft; BKN  ft","CYQY 061600Z 23012KT 15SM FEW014 BKN240 26/19 A3007 RMK SC1CI4 SLP185 DENSITY ALT 1400FT",2025-09-06 16:59:48.371242,2025-09-06 12:59:48.371242
"CYXY",2025-09-06 16:00:00,2025-09-06 12:00:00,"VFR",12,12,100,350,3,40200,29.96,NA,"SCT  ft; BKN  ft; OVC  ft","CYXY 061600Z 35003KT 25SM SCT004 BKN064 OVC090 12/12 A2996 RMK SF4SC3AC1 SLP160 DENSITY ALT 2600FT",2025-09-06 16:59:48.445775,2025-09-06 12:59:48.445775
"CYZF",2025-09-06 16:00:00,2025-09-06 12:00:00,"VFR",13,8,72,150,16,24100,29.82,NA,"FEW  ft; FEW  ft; BKN  ft","CYZF 061600Z 15016G22KT 15SM FEW110 FEW160 BKN220 13/08 A2982 RMK AC1AC2CI5 AC TR SLP108",2025-09-06 16:59:48.520693,2025-09-06 12:59:48.520693
"CYFB",2025-09-06 16:39:00,2025-09-06 12:39:00,"MVFR",2,1,93,130,15,8000,29.65,NA,"OVC  ft","CYFB 061639Z 13015G22KT 5SM -RASN BR OVC011 02/01 A2965 RMK SC8 SLP043",2025-09-06 16:59:48.595459,2025-09-06 12:59:48.595459
"CYRT",2025-09-06 16:00:00,2025-09-06 12:00:00,"MVFR",6,1,71,360,17,24100,29.91,NA,"BKN  ft; OVC  ft","CYRT 061600Z 36017KT 15SM BKN023 OVC040 06/01 A2991 RMK SC5SC3 SLP133",2025-09-06 16:59:48.673656,2025-09-06 12:59:48.673656
"CYBK",2025-09-06 16:32:00,2025-09-06 12:32:00,"VFR",7,2,71,340,9,40200,30.02,NA,"SCT  ft; BKN  ft","CYBK 061632Z 34009KT 25SM SCT021 BKN042 07/02 A3002 RMK SC4SC3 SLP167",2025-09-06 16:59:48.753278,2025-09-06 12:59:48.753278
"CYRB",2025-09-06 16:53:00,2025-09-06 12:53:00,"VFR",-1,-3,86,140,14,40200,30.06,NA,"SCT  ft; BKN  ft","CYRB 061653Z 14014KT 25SM SCT010 BKN045 M01/M03 A3006 RMK ST4SC3 SLP189",2025-09-06 16:59:48.845296,2025-09-06 12:59:48.845296
"CYCO",2025-09-06 16:00:00,2025-09-06 12:00:00,"VFR",14,7,63,210,15,9999,29.62,NA,"SCT  ft; BKN  ft; OVC  ft","CYCO 061600Z 21015G26KT 10SM SCT140 BKN170 OVC210 14/07 A2962 RMK FU2AC2AC3CI1 FU SLP035 DENSITY ALT 400FT",2025-09-06 16:59:48.92353,2025-09-06 12:59:48.92353
"CYER",2025-09-06 17:02:00,2025-09-06 13:02:00,"IFR",8,8,100,340,13,8000,29.7,NA,"BKN  ft; BKN  ft; OVC  ft","CYER 061702Z AUTO 34013G19KT 5SM -RA BR BKN009 BKN014 OVC020 08/08 A2970 RMK SLP060",2025-09-06 17:08:10.903414,2025-09-06 13:08:10.903414
"CYAT",2025-09-06 16:00:00,2025-09-06 12:00:00,"MVFR",9,8,94,290,10,14500,29.58,NA,"OVC  ft","CYAT 061600Z AUTO 29010G15KT 9SM OVC010 09/08 A2958 RMK SLP019",2025-09-06 17:08:11.014189,2025-09-06 13:08:11.014189
"CYMO",2025-09-06 16:46:00,2025-09-06 12:46:00,"MVFR",8,8,100,250,13,9700,29.67,NA,"OVC  ft","CYMO 061646Z AUTO 25013G18KT 6SM BR OVC010 08/08 A2967 RMK SLP050",2025-09-06 17:08:11.156703,2025-09-06 13:08:11.156703
"CYPL",2025-09-06 16:00:00,2025-09-06 12:00:00,"MVFR",6,4,87,320,9,14500,29.82,NA,"FEW  ft; BKN  ft; BKN  ft; OVC  ft","CYPL 061600Z AUTO 32009G15KT 270V020 9SM FEW010 BKN017 BKN022 OVC029 06/04 A2982 RMK SLP114",2025-09-06 17:08:11.261761,2025-09-06 13:08:11.261761
"CYQT",2025-09-06 16:00:00,2025-09-06 12:00:00,"VFR",12,4,58,280,11,32200,29.85,NA,"BKN  ft; BKN  ft; BKN  ft","CYQT 061600Z 28011G19KT 260V330 20SM BKN043 BKN140 BKN230 12/04 A2985 RMK SC5AC1CI1 CU ASOCTD SLP116",2025-09-06 17:08:11.362494,2025-09-06 13:08:11.362494
"CYAM",2025-09-06 16:55:00,2025-09-06 12:55:00,"VFR",11,8,82,260,12,19300,29.87,NA,"SCT  ft; BKN  ft; OVC  ft","CYAM 061655Z 26012KT 250V310 12SM -SHRA SCT016 BKN036 OVC046 11/08 A2987 RMK CU3SC4SC1 SLP120",2025-09-06 17:08:11.465443,2025-09-06 13:08:11.465443
"CYTS",2025-09-06 16:00:00,2025-09-06 12:00:00,"MVFR",9,4,71,290,3,24100,29.78,NA,"OVC  ft","CYTS 061600Z 29003KT 210V330 15SM OVC025 09/04 A2978 RMK SC8 SLP097",2025-09-06 17:08:11.567715,2025-09-06 13:08:11.567715
"CYSB",2025-09-06 16:00:00,2025-09-06 12:00:00,"MVFR",12,6,67,230,8,32200,29.83,NA,"BKN  ft; OVC  ft","CYSB 061600Z 23008KT 20SM BKN028 OVC084 12/06 A2983 RMK CU6AC2 SLP111",2025-09-06 17:08:11.666505,2025-09-06 13:08:11.666505
"CYYB",2025-09-06 16:00:00,2025-09-06 12:00:00,"VFR",11,8,82,260,9,48300,29.85,NA,"FEW  ft; OVC  ft","CYYB 061600Z 26009G18KT 30SM FEW020 OVC044 11/08 A2985 RMK SC2SC6 SLP116",2025-09-06 17:08:11.804293,2025-09-06 13:08:11.804293
"CYOW",2025-09-06 16:00:00,2025-09-06 12:00:00,"VFR",14,10,77,190,7,24100,29.93,NA,"FEW  ft; BKN  ft","CYOW 061600Z 19007KT 15SM FEW070 BKN100 14/10 A2993 RMK AC1AC5 SLP139",2025-09-06 17:08:11.938536,2025-09-06 13:08:11.938536
"CYGK",2025-09-06 16:00:00,2025-09-06 12:00:00,"VFR",17,9,59,230,9,24100,29.96,NA,"FEW  ft; SCT  ft; BKN  ft","CYGK 061600Z 23009KT 15SM VCSH FEW020 SCT060 BKN100 17/09 A2996 RMK CU2SC2AC3 SLP149 DENSITY ALT 700FT",2025-09-06 17:08:12.034758,2025-09-06 13:08:12.034758
"CYQG",2025-09-06 16:00:00,2025-09-06 12:00:00,"VFR",17,6,49,260,11,14500,30,NA,"BKN  ft","CYQG 061600Z AUTO 26011G19KT 9SM BKN055 17/06 A3000 RMK SLP160 DENSITY ALT 900FT",2025-09-06 17:08:12.132946,2025-09-06 13:08:12.132946
"CYVV",2025-09-06 16:07:00,2025-09-06 12:07:00,"MVFR",12,10,88,250,9,19300,29.91,NA,"BKN  ft; OVC  ft","CYVV 061607Z 25009G15KT 12SM -SHRA BKN027 OVC051 12/10 A2991 RMK CU5SC3 SLP134",2025-09-06 17:08:12.234458,2025-09-06 13:08:12.234458
"CYYZ",2025-09-06 16:00:00,2025-09-06 12:00:00,"VFR",18,7,49,260,12,24100,29.94,NA,"FEW  ft; SCT  ft","CYYZ 061600Z 26012G18KT 15SM FEW045 SCT087 18/07 A2994 RMK CU2AC1 SLP141 DENSITY ALT 1100FT",2025-09-06 17:08:12.331623,2025-09-06 13:08:12.331623
"CYQA",2025-09-06 16:42:00,2025-09-06 12:42:00,"VFR",14,9,72,240,9,14500,29.92,NA,"FEW  ft; SCT  ft; OVC  ft","CYQA 061642Z AUTO 24009G17KT 210V270 9SM FEW029 SCT041 OVC050 14/09 A2992 RMK SLP136",2025-09-06 17:08:12.428976,2025-09-06 13:08:12.428976
"CYVR",2025-09-06 16:00:00,2025-09-06 12:00:00,"VFR",18,16,88,110,6,19300,29.89,NA,"FEW  ft; BKN  ft","CYVR 061600Z 11006KT 12SM FEW160 BKN220 18/16 A2989 RMK AC1CI5 HZ SLP125 DENSITY ALT 400FT",2025-09-06 17:08:12.522108,2025-09-06 13:08:12.522108
"CYYJ",2025-09-06 16:00:00,2025-09-06 12:00:00,"VFR",15,13,88,120,7,32200,29.9,NA,"FEW  ft; BKN  ft","CYYJ 061600Z 12007KT 20SM FEW220 BKN250 15/13 A2990 RMK CC2CI3 HZ SLP127",2025-09-06 17:08:12.620951,2025-09-06 13:08:12.620951
"CYLW",2025-09-06 16:43:00,2025-09-06 12:43:00,"VFR",20,12,60,20,3,9700,29.92,NA,"CLR  ft","CYLW 061643Z AUTO 02003KT 330V040 6SM HZ CLR 20/12 A2992 RMK SLP131 DENSITY ALT 2300FT",2025-09-06 17:08:12.725332,2025-09-06 13:08:12.725332
"CYXS",2025-09-06 16:00:00,2025-09-06 12:00:00,"VFR",10,10,100,0,0,12900,29.95,NA,"CLR  ft","CYXS 061600Z AUTO 00000KT 8SM CLR 10/10 A2995 RMK SLP155",2025-09-06 17:08:12.819176,2025-09-06 13:08:12.819176
"CYXT",2025-09-06 17:05:00,2025-09-06 13:05:00,"LIFR",14,14,100,0,0,NA,29.93,NA,"OVX  ft","CYXT 061705Z 00000KT 1/2SM FG VV001 14/14 A2993 RMK FG8 SLP140",2025-09-06 17:08:12.917995,2025-09-06 13:08:12.917995
"CYQQ",2025-09-06 16:00:00,2025-09-06 12:00:00,"VFR",19,14,73,280,2,19300,29.89,NA,"BKN  ft","CYQQ 061600Z 28002KT 12SM BKN250 19/14 A2989 RMK CI6 DENSITY ALT 797FT HZ SLP123",2025-09-06 17:08:13.014697,2025-09-06 13:08:13.014697
"CYYC",2025-09-06 16:00:00,2025-09-06 12:00:00,"VFR",16,8,59,0,2,19300,29.99,NA,"SKC  ft","CYYC 061600Z VRB02KT 12SM SKC 16/08 A2999 RMK FU SLP160 DENSITY ALT 4500FT",2025-09-06 17:08:13.14905,2025-09-06 13:08:13.14905
"CYEG",2025-09-06 16:00:00,2025-09-06 12:00:00,"VFR",13,3,51,180,7,32200,29.95,NA,"FEW  ft","CYEG 061600Z 18007KT 20SM FEW250 13/03 A2995 RMK CI2 SLP157 DENSITY ALT 2700FT",2025-09-06 17:08:13.246325,2025-09-06 13:08:13.246325
"CYMM",2025-09-06 16:00:00,2025-09-06 12:00:00,"VFR",14,7,63,110,7,11300,29.96,NA,"CLR  ft","CYMM 061600Z AUTO 11007KT 7SM CLR 14/07 A2996 RMK SLP159",2025-09-06 17:08:13.341157,2025-09-06 13:08:13.341157
"CYQF",2025-09-06 16:00:00,2025-09-06 12:00:00,"VFR",13,3,51,160,6,14500,29.98,NA,"CLR  ft","CYQF 061600Z AUTO 16006KT 150V220 9SM CLR 13/03 A2998 RMK SLP169 DENSITY ALT 3400FT",2025-09-06 17:08:13.437571,2025-09-06 13:08:13.437571
"CYXE",2025-09-06 16:00:00,2025-09-06 12:00:00,"VFR",13,5,59,140,5,24100,30.11,NA,"FEW  ft","CYXE 061600Z 14005KT 120V190 15SM FEW300 13/05 A3011 RMK CI1 SLP214",2025-09-06 17:08:13.531439,2025-09-06 13:08:13.531439
"CYQR",2025-09-06 16:00:00,2025-09-06 12:00:00,"VFR",12,3,54,0,0,24100,30.15,NA,"FEW  ft","CYQR 061600Z 00000KT 15SM FEW250 12/03 A3015 RMK CI1 CI TR SLP230",2025-09-06 17:08:13.626107,2025-09-06 13:08:13.626107
"CYWG",2025-09-06 16:00:00,2025-09-06 12:00:00,"VFR",13,5,59,350,18,24100,30.04,NA,"FEW  ft; BKN  ft","CYWG 061600Z 35018G26KT 15SM FEW027 BKN072 13/05 A3004 RMK CU2AC4 SLP180",2025-09-06 17:08:13.72296,2025-09-06 13:08:13.72296
"CYBR",2025-09-06 16:00:00,2025-09-06 12:00:00,"VFR",10,6,76,310,8,24100,30.12,NA,"FEW  ft; OVC  ft","CYBR 061600Z 31008KT 15SM FEW010 OVC055 10/06 A3012 RMK SF1SC7 SLP215",2025-09-06 17:08:13.81908,2025-09-06 13:08:13.81908
"CYUL",2025-09-06 16:33:00,2025-09-06 12:33:00,"VFR",16,11,72,230,10,24100,29.97,NA,"SCT  ft; BKN  ft; OVC  ft","CYUL 061633Z CCA 23010KT 15SM -RA SCT035 BKN075 OVC100 16/11 A2997 RMK SC3AC4AC1 SLP150",2025-09-06 17:08:13.915531,2025-09-06 13:08:13.915531
"CYHU",2025-09-06 16:30:00,2025-09-06 12:30:00,"VFR",15,12,82,220,11,14500,29.96,NA,"OVC  ft","CYHU 061630Z AUTO 22011KT 9SM -RA OVC043 15/12 A2996 RMK SLP149",2025-09-06 17:08:14.010652,2025-09-06 13:08:14.010652
"CYQB",2025-09-06 16:00:00,2025-09-06 12:00:00,"VFR",16,10,68,240,8,48300,29.95,NA,"FEW  ft; BKN  ft; OVC  ft","CYQB 061600Z 24008KT 30SM FEW020 BKN042 OVC100 16/10 A2995 RMK SC1SC6AC2 SC TR SLP144",2025-09-06 17:08:14.14593,2025-09-06 13:08:14.14593
"CYVO",2025-09-06 16:38:00,2025-09-06 12:38:00,"VFR",12,7,72,240,10,24100,29.79,NA,"BKN  ft; BKN  ft","CYVO 061638Z 24010KT 180V250 15SM -SHRA BKN037TCU BKN055 12/07 A2979 RMK TCU5SC1 SLP100",2025-09-06 17:08:14.279305,2025-09-06 13:08:14.279305
"CYUY",2025-09-06 16:00:00,2025-09-06 12:00:00,"MVFR",12,5,63,240,12,24100,29.79,NA,"BKN  ft","CYUY 061600Z 24012G17KT 220V280 15SM BKN030 12/05 A2979 RMK SC7 SLP097",2025-09-06 17:08:14.414912,2025-09-06 13:08:14.414912
"CYZV",2025-09-06 16:00:00,2025-09-06 12:00:00,"VFR",19,13,68,200,11,48300,29.79,NA,"FEW  ft; FEW  ft; BKN  ft","CYZV 061600Z 20011KT 30SM FEW050 FEW120 BKN240 19/13 A2979 RMK CU1AC1CI5 CU TR AC TR SLP089 DENSITY ALT 900FT",2025-09-06 17:08:14.518739,2025-09-06 13:08:14.518739
"CYBC",2025-09-06 16:00:00,2025-09-06 12:00:00,"VFR",15,11,77,220,18,14500,29.83,NA,"CLR  ft","CYBC 061600Z AUTO 22018G24KT 9SM CLR 15/11 A2983 RMK SLP103",2025-09-06 17:08:14.653247,2025-09-06 13:08:14.653247
"CYRJ",2025-09-06 16:00:00,2025-09-06 12:00:00,"VFR",14,8,67,190,10,64400,29.86,NA,"BKN  ft; BKN  ft; OVC  ft","CYRJ 061600Z 19010G18KT 170V240 40SM BKN050 BKN190 OVC240 14/08 A2986 RMK SC5AC1CI2 SLP116",2025-09-06 17:08:14.749931,2025-09-06 13:08:14.749931
"CYHZ",2025-09-06 16:00:00,2025-09-06 12:00:00,"VFR",24,19,74,200,15,24100,30.09,NA,"FEW  ft; BKN  ft","CYHZ 061600Z 20015G21KT 15SM FEW014 BKN230 24/19 A3009 RMK CU1CS5 SLP191 DENSITY ALT 1400FT",2025-09-06 17:08:14.845062,2025-09-06 13:08:14.845062
"CYYG",2025-09-06 16:00:00,2025-09-06 12:00:00,"VFR",25,18,65,200,16,24100,30.02,NA,"FEW  ft; OVC  ft","CYYG 061600Z 20016G22KT 15SM FEW022 OVC250 25/18 A3002 RMK CF1CI8 CF TR SLP166 DENSITY ALT 1300FT",2025-09-06 17:08:14.943134,2025-09-06 13:08:14.943134
"CYQM",2025-09-06 16:00:00,2025-09-06 12:00:00,"MVFR",26,18,61,200,16,24100,29.99,NA,"BKN  ft","CYQM 061600Z 20016G21KT 15SM BKN030 26/18 A2999 RMK SC6 CU ASOCTD SLP158 DENSITY ALT 1500FT",2025-09-06 17:08:15.037493,2025-09-06 13:08:15.037493
"CYFC",2025-09-06 16:49:00,2025-09-06 12:49:00,"VFR",23,18,74,190,9,14500,29.96,NA,"SCT  ft; OVC  ft","CYFC 061649Z AUTO 19009G15KT 9SM SCT022 OVC086 23/18 A2996 RMK SLP147 DENSITY ALT 1000FT",2025-09-06 17:08:15.135194,2025-09-06 13:08:15.135194
"CYYT",2025-09-06 16:00:00,2025-09-06 12:00:00,"VFR",23,12,50,260,9,24100,30.17,NA,"FEW  ft; FEW  ft","CYYT 061600Z 26009KT 160V280 15SM FEW100 FEW240 23/12 A3017 RMK AC1CI2 AC TR SLP221 DENSITY ALT 1200FT",2025-09-06 17:08:15.227939,2025-09-06 13:08:15.227939
"CYQY",2025-09-06 16:00:00,2025-09-06 12:00:00,"VFR",26,19,65,230,12,24100,30.07,NA,"FEW  ft; BKN  ft","CYQY 061600Z 23012KT 15SM FEW014 BKN240 26/19 A3007 RMK SC1CI4 SLP185 DENSITY ALT 1400FT",2025-09-06 17:08:15.325216,2025-09-06 13:08:15.325216
"CYXY",2025-09-06 16:00:00,2025-09-06 12:00:00,"VFR",12,12,100,350,3,40200,29.96,NA,"SCT  ft; BKN  ft; OVC  ft","CYXY 061600Z 35003KT 25SM SCT004 BKN064 OVC090 12/12 A2996 RMK SF4SC3AC1 SLP160 DENSITY ALT 2600FT",2025-09-06 17:08:15.461386,2025-09-06 13:08:15.461386
"CYZF",2025-09-06 16:00:00,2025-09-06 12:00:00,"VFR",13,8,72,150,16,24100,29.82,NA,"FEW  ft; FEW  ft; BKN  ft","CYZF 061600Z 15016G22KT 15SM FEW110 FEW160 BKN220 13/08 A2982 RMK AC1AC2CI5 AC TR SLP108",2025-09-06 17:08:15.557397,2025-09-06 13:08:15.557397
"CYFB",2025-09-06 16:39:00,2025-09-06 12:39:00,"MVFR",2,1,93,130,15,8000,29.65,NA,"OVC  ft","CYFB 061639Z 13015G22KT 5SM -RASN BR OVC011 02/01 A2965 RMK SC8 SLP043",2025-09-06 17:08:15.653664,2025-09-06 13:08:15.653664
"CYRT",2025-09-06 16:00:00,2025-09-06 12:00:00,"MVFR",6,1,71,360,17,24100,29.91,NA,"BKN  ft; OVC  ft","CYRT 061600Z 36017KT 15SM BKN023 OVC040 06/01 A2991 RMK SC5SC3 SLP133",2025-09-06 17:08:15.750755,2025-09-06 13:08:15.750755
"CYBK",2025-09-06 16:32:00,2025-09-06 12:32:00,"VFR",7,2,71,340,9,40200,30.02,NA,"SCT  ft; BKN  ft","CYBK 061632Z 34009KT 25SM SCT021 BKN042 07/02 A3002 RMK SC4SC3 SLP167",2025-09-06 17:08:15.892832,2025-09-06 13:08:15.892832
"CYRB",2025-09-06 16:53:00,2025-09-06 12:53:00,"VFR",-1,-3,86,140,14,40200,30.06,NA,"SCT  ft; BKN  ft","CYRB 061653Z 14014KT 25SM SCT010 BKN045 M01/M03 A3006 RMK ST4SC3 SLP189",2025-09-06 17:08:16.039186,2025-09-06 13:08:16.039186
"CYCO",2025-09-06 16:00:00,2025-09-06 12:00:00,"VFR",14,7,63,210,15,9999,29.62,NA,"SCT  ft; BKN  ft; OVC  ft","CYCO 061600Z 21015G26KT 10SM SCT140 BKN170 OVC210 14/07 A2962 RMK FU2AC2AC3CI1 FU SLP035 DENSITY ALT 400FT",2025-09-06 17:08:16.192425,2025-09-06 13:08:16.192425
"CYER",2025-09-06 17:20:00,2025-09-06 13:20:00,"IFR",8,8,100,330,13,12900,29.7,NA,"BKN  ft; BKN  ft; OVC  ft","CYER 061720Z AUTO 33013G19KT 8SM -RA BKN009 BKN015 OVC019 08/08 A2970 RMK SLP061",2025-09-06 17:24:31.654041,2025-09-06 13:24:31.654041
"CYAT",2025-09-06 17:00:00,2025-09-06 13:00:00,"MVFR",10,8,88,290,12,14500,29.61,NA,"OVC  ft","CYAT 061700Z AUTO 29012G17KT 9SM OVC012 10/08 A2961 RMK SLP030",2025-09-06 17:24:31.728287,2025-09-06 13:24:31.728287
"CYMO",2025-09-06 17:00:00,2025-09-06 13:00:00,"MVFR",8,8,100,260,14,14500,29.68,NA,"OVC  ft","CYMO 061700Z AUTO 26014G19KT 9SM OVC010 08/08 A2968 RMK SLP052",2025-09-06 17:24:31.796043,2025-09-06 13:24:31.796043
"CYPL",2025-09-06 17:00:00,2025-09-06 13:00:00,"MVFR",7,4,81,300,7,14500,29.83,NA,"BKN  ft; OVC  ft","CYPL 061700Z AUTO 30007G16KT 270V360 9SM BKN018 OVC025 07/04 A2983 RMK SLP120",2025-09-06 17:24:31.863146,2025-09-06 13:24:31.863146
"CYQT",2025-09-06 17:00:00,2025-09-06 13:00:00,"VFR",14,4,51,320,9,32200,29.86,NA,"SCT  ft; BKN  ft; BKN  ft","CYQT 061700Z 32009G20KT 20SM SCT045 BKN140 BKN230 14/04 A2986 RMK SC4AC2CI1 SLP120",2025-09-06 17:24:31.933963,2025-09-06 13:24:31.933963
"CYAM",2025-09-06 17:00:00,2025-09-06 13:00:00,"VFR",11,7,77,280,8,19300,29.87,NA,"SCT  ft; BKN  ft; OVC  ft","CYAM 061700Z 28008G16KT 12SM -SHRA SCT016 BKN036 OVC046 11/07 A2987 RMK CU3SC4SC1 SLP120",2025-09-06 17:24:32.001102,2025-09-06 13:24:32.001102
"CYTS",2025-09-06 17:00:00,2025-09-06 13:00:00,"MVFR",10,5,71,290,3,24100,29.79,NA,"OVC  ft","CYTS 061700Z 29003KT 230V330 15SM OVC030 10/05 A2979 RMK SC8 SLP100",2025-09-06 17:24:32.067774,2025-09-06 13:24:32.067774
"CYSB",2025-09-06 17:00:00,2025-09-06 13:00:00,"MVFR",13,6,63,260,7,32200,29.83,NA,"BKN  ft; OVC  ft","CYSB 061700Z 26007G16KT 200V290 20SM BKN028 OVC084 13/06 A2983 RMK CU6AC2 SLP111 DENSITY ALT 1400FT",2025-09-06 17:24:32.134451,2025-09-06 13:24:32.134451
"CYYB",2025-09-06 17:00:00,2025-09-06 13:00:00,"VFR",14,7,63,260,10,48300,29.85,NA,"SCT  ft; BKN  ft; BKN  ft","CYYB 061700Z 26010G19KT 210V280 30SM SCT027 BKN090 BKN260 14/07 A2985 RMK CU3AC3CI1 SLP115 DENSITY ALT 1500FT",2025-09-06 17:24:32.203278,2025-09-06 13:24:32.203278
"CYOW",2025-09-06 17:00:00,2025-09-06 13:00:00,"VFR",16,9,63,200,11,24100,29.93,NA,"FEW  ft; SCT  ft; BKN  ft; BKN  ft","CYOW 061700Z 20011KT 190V250 15SM FEW030 SCT170 BKN210 BKN250 16/09 A2993 RMK CU1AC2CC2CI1 CI TR SLP138 DENSITY ALT 600FT",2025-09-06 17:24:32.27219,2025-09-06 13:24:32.27219
"CYGK",2025-09-06 17:00:00,2025-09-06 13:00:00,"VFR",18,8,52,230,11,24100,29.96,NA,"FEW  ft; BKN  ft","CYGK 061700Z 23011G16KT 15SM FEW025 BKN074 18/08 A2996 RMK CU2AC4 SLP148 DENSITY ALT 700FT",2025-09-06 17:24:32.345288,2025-09-06 13:24:32.345288
"CYQG",2025-09-06 17:00:00,2025-09-06 13:00:00,"VFR",19,7,46,300,12,14500,29.99,NA,"OVC  ft","CYQG 061700Z AUTO 30012G19KT 9SM OVC060 19/07 A2999 RMK SLP158 DENSITY ALT 1200FT",2025-09-06 17:24:32.41177,2025-09-06 13:24:32.41177
"CYVV",2025-09-06 17:16:00,2025-09-06 13:16:00,"MVFR",12,11,94,220,10,24100,29.92,NA,"BKN  ft; OVC  ft","CYVV 061716Z 22010KT 15SM BKN026 OVC046 12/11 A2992 RMK SC6SC2 SLP138",2025-09-06 17:24:32.481721,2025-09-06 13:24:32.481721
"CYYZ",2025-09-06 17:00:00,2025-09-06 13:00:00,"VFR",20,9,49,240,9,24100,29.94,NA,"BKN  ft","CYYZ 061700Z 24009G18KT 15SM BKN062 20/09 A2994 RMK CU5 SLP140 DENSITY ALT 1300FT",2025-09-06 17:24:32.55005,2025-09-06 13:24:32.55005
"CYQA",2025-09-06 17:00:00,2025-09-06 13:00:00,"VFR",14,9,72,250,13,14500,29.91,NA,"OVC  ft","CYQA 061700Z AUTO 25013G19KT 190V280 9SM OVC050 14/09 A2991 RMK SLP135",2025-09-06 17:24:32.619531,2025-09-06 13:24:32.619531
"CYVR",2025-09-06 17:00:00,2025-09-06 13:00:00,"VFR",19,16,83,140,6,24100,29.91,NA,"FEW  ft; SCT  ft","CYVR 061700Z 14006KT 090V150 15SM FEW100 SCT220 19/16 A2991 RMK AC1CI3 AC TR HZ SLP132 DENSITY ALT 500FT",2025-09-06 17:24:32.690198,2025-09-06 13:24:32.690198
"CYYJ",2025-09-06 17:00:00,2025-09-06 13:00:00,"VFR",15,13,88,130,11,32200,29.92,NA,"FEW  ft; FEW  ft; BKN  ft","CYYJ 061700Z 13011KT 20SM FEW070 FEW220 BKN250 15/13 A2992 RMK AC1CC1CI4 AC TR HZ SLP134",2025-09-06 17:24:32.758353,2025-09-06 13:24:32.758353
"CYLW",2025-09-06 17:22:00,2025-09-06 13:22:00,"MVFR",21,11,53,360,4,8000,29.92,NA,"CLR  ft","CYLW 061722Z AUTO 36004KT 320V070 5SM HZ CLR 21/11 A2992 RMK SLP130 DENSITY ALT 2500FT",2025-09-06 17:24:32.834124,2025-09-06 13:24:32.834124
"CYXS",2025-09-06 17:00:00,2025-09-06 13:00:00,"VFR",12,12,100,170,4,14500,29.95,NA,"CLR  ft","CYXS 061700Z AUTO 17004KT 9SM CLR 12/12 A2995 RMK SLP155 DENSITY ALT 2500FT",2025-09-06 17:24:32.901713,2025-09-06 13:24:32.901713
"CYXT",2025-09-06 17:18:00,2025-09-06 13:18:00,"LIFR",14,14,100,0,2,1200,29.93,NA,"SKC  ft","CYXT 061718Z VRB02KT 3/4SM BCFG BR SKC 14/14 A2993 RMK SLP140",2025-09-06 17:24:32.970793,2025-09-06 13:24:32.970793
"CYQQ",2025-09-06 17:00:00,2025-09-06 13:00:00,"VFR",20,15,73,20,6,19300,29.9,NA,"SCT  ft","CYQQ 061700Z 02006KT 12SM SCT250 20/15 A2990 RMK CI4 DENSITY ALT 881FT CONTRAILS HZ SLP125",2025-09-06 17:24:33.038007,2025-09-06 13:24:33.038007
"CYYC",2025-09-06 17:00:00,2025-09-06 13:00:00,"VFR",19,9,52,200,4,19300,29.99,NA,"SKC  ft","CYYC 061700Z 20004KT 110V230 12SM SKC 19/09 A2999 RMK FU SLP160 DENSITY ALT 4900FT",2025-09-06 17:24:33.107345,2025-09-06 13:24:33.107345
"CYEG",2025-09-06 17:00:00,2025-09-06 13:00:00,"VFR",16,5,48,160,3,32200,29.96,NA,"FEW  ft","CYEG 061700Z 16003KT 140V250 20SM FEW250 16/05 A2996 RMK CI2 SLP155 DENSITY ALT 3000FT",2025-09-06 17:24:33.176769,2025-09-06 13:24:33.176769
"CYMM",2025-09-06 17:00:00,2025-09-06 13:00:00,"VFR",16,8,59,80,5,12900,29.95,NA,"CLR  ft","CYMM 061700Z AUTO 08005KT 050V110 8SM CLR 16/08 A2995 RMK SLP156 DENSITY ALT 1600FT",2025-09-06 17:24:33.24963,2025-09-06 13:24:33.24963
"CYQF",2025-09-06 17:00:00,2025-09-06 13:00:00,"VFR",16,5,48,0,5,14500,29.98,NA,"CLR  ft","CYQF 061700Z AUTO VRB05KT 9SM CLR 16/05 A2998 RMK SLP166 DENSITY ALT 3700FT",2025-09-06 17:24:33.321898,2025-09-06 13:24:33.321898
"CYXE",2025-09-06 17:00:00,2025-09-06 13:00:00,"VFR",16,5,48,130,8,24100,30.12,NA,"FEW  ft","CYXE 061700Z 13008KT 15SM FEW300 16/05 A3012 RMK CI1 SLP215 DENSITY ALT 1900FT",2025-09-06 17:24:33.422488,2025-09-06 13:24:33.422488
"CYQR",2025-09-06 17:00:00,2025-09-06 13:00:00,"VFR",13,3,51,80,4,24100,30.15,NA,"FEW  ft; FEW  ft","CYQR 061700Z 08004KT 040V170 15SM FEW040 FEW250 13/03 A3015 RMK CF1CI1 CF TR CI TR SLP230",2025-09-06 17:24:33.451321,2025-09-06 13:24:33.451321
"CYWG",2025-09-06 17:00:00,2025-09-06 13:00:00,"VFR",12,5,63,350,15,24100,30.05,NA,"FEW  ft; BKN  ft","CYWG 061700Z 35015G21KT 15SM FEW035 BKN072 12/05 A3005 RMK CU1AC6 SLP187",2025-09-06 17:24:33.520511,2025-09-06 13:24:33.520511
"CYBR",2025-09-06 17:00:00,2025-09-06 13:00:00,"MVFR",11,6,72,330,9,24100,30.13,NA,"BKN  ft; BKN  ft","CYBR 061700Z 33009KT 15SM BKN018 BKN055 11/06 A3013 RMK SC6SC1 SLP219",2025-09-06 17:24:33.590452,2025-09-06 13:24:33.590452
"CYUL",2025-09-06 17:00:00,2025-09-06 13:00:00,"VFR",15,11,77,260,10,9700,29.96,NA,"FEW  ft; BKN  ft; OVC  ft","CYUL 061700Z 26010G17KT 230V290 6SM -RA BR FEW030 BKN075 OVC100 15/11 A2996 RMK CU1AC6AC1 SLP148",2025-09-06 17:24:33.622023,2025-09-06 13:24:33.622023
"CYHU",2025-09-06 17:00:00,2025-09-06 13:00:00,"VFR",15,12,82,210,10,14500,29.97,NA,"SCT  ft; BKN  ft; OVC  ft","CYHU 061700Z AUTO 21010G15KT 9SM -RA SCT047 BKN076 OVC093 15/12 A2997 RMK SLP150",2025-09-06 17:24:33.69073,2025-09-06 13:24:33.69073
"CYQB",2025-09-06 17:00:00,2025-09-06 13:00:00,"VFR",16,10,68,240,10,48300,29.96,NA,"FEW  ft; BKN  ft; OVC  ft","CYQB 061700Z 24010KT 30SM FEW031 BKN040 OVC090 16/10 A2996 RMK SC1SC6AC2 SC TR VIRGA SLP149",2025-09-06 17:24:33.759223,2025-09-06 13:24:33.759223
"CYVO",2025-09-06 17:00:00,2025-09-06 13:00:00,"VFR",13,7,67,200,13,24100,29.79,NA,"BKN  ft; BKN  ft","CYVO 061700Z 20013KT 15SM -SHRA BKN042TCU BKN074 13/07 A2979 RMK TCU5AC1 AC TR SLP100",2025-09-06 17:24:33.83045,2025-09-06 13:24:33.83045
"CYUY",2025-09-06 17:00:00,2025-09-06 13:00:00,"MVFR",12,6,67,270,7,24100,29.8,NA,"BKN  ft; BKN  ft; BKN  ft","CYUY 061700Z 27007KT 240V300 15SM BKN030 BKN044 BKN220 12/06 A2980 RMK SC5SC1CI1 SLP100",2025-09-06 17:24:33.858621,2025-09-06 13:24:33.858621
"CYZV",2025-09-06 17:00:00,2025-09-06 13:00:00,"VFR",19,10,56,230,15,48300,29.79,NA,"FEW  ft; BKN  ft","CYZV 061700Z 23015G21KT 30SM FEW050 BKN190 19/10 A2979 RMK CU1CI7 CU TR SLP092 DENSITY ALT 900FT",2025-09-06 17:24:33.927336,2025-09-06 13:24:33.927336
"CYBC",2025-09-06 17:00:00,2025-09-06 13:00:00,"VFR",15,10,72,230,22,14500,29.84,NA,"CLR  ft","CYBC 061700Z AUTO 23022G29KT 9SM CLR 15/10 A2984 RMK SLP108",2025-09-06 17:24:33.995131,2025-09-06 13:24:33.995131
"CYRJ",2025-09-06 17:00:00,2025-09-06 13:00:00,"VFR",15,8,63,220,13,64400,29.85,NA,"BKN  ft","CYRJ 061700Z 22013G21KT 40SM BKN058 15/08 A2985 RMK SC7 SLP112 DENSITY ALT 800FT",2025-09-06 17:24:34.066297,2025-09-06 13:24:34.066297
"CYHZ",2025-09-06 17:00:00,2025-09-06 13:00:00,"VFR",25,20,74,200,12,24100,30.08,NA,"FEW  ft; BKN  ft","CYHZ 061700Z 20012G20KT 15SM FEW019 BKN250 25/20 A3008 RMK CU1CS5 CU TR SLP186 DENSITY ALT 1600FT",2025-09-06 17:24:34.135605,2025-09-06 13:24:34.135605
"CYYG",2025-09-06 17:00:00,2025-09-06 13:00:00,"VFR",26,18,61,210,14,24100,30,NA,"FEW  ft; BKN  ft","CYYG 061700Z 21014G20KT 15SM FEW032 BKN250 26/18 A3000 RMK CF1CI5 CF TR SLP162 DENSITY ALT 1500FT",2025-09-06 17:24:34.204229,2025-09-06 13:24:34.204229
"CYQM",2025-09-06 17:00:00,2025-09-06 13:00:00,"MVFR",25,18,65,200,15,24100,29.98,NA,"BKN  ft; BKN  ft","CYQM 061700Z 20015G23KT 15SM BKN030 BKN250 25/18 A2998 RMK SC7CI1 CI TR CU ASOCTD SLP154 DENSITY ALT 1400FT",2025-09-06 17:24:34.273685,2025-09-06 13:24:34.273685
"CYFC",2025-09-06 17:00:00,2025-09-06 13:00:00,"VFR",23,19,78,190,8,14500,29.95,NA,"FEW  ft; OVC  ft","CYFC 061700Z AUTO 19008KT 9SM FEW022 OVC081 23/19 A2995 RMK SLP145 DENSITY ALT 1000FT",2025-09-06 17:24:34.341902,2025-09-06 13:24:34.341902
"CYYT",2025-09-06 17:00:00,2025-09-06 13:00:00,"VFR",25,12,44,230,9,24100,30.15,NA,"FEW  ft; SCT  ft","CYYT 061700Z 23009G16KT 15SM FEW056 SCT240 25/12 A3015 RMK SC1CI3 SLP213 DENSITY ALT 1500FT",2025-09-06 17:24:34.369491,2025-09-06 13:24:34.369491
"CYQY",2025-09-06 17:00:00,2025-09-06 13:00:00,"VFR",27,19,62,230,13,24100,30.06,NA,"FEW  ft; BKN  ft","CYQY 061700Z 23013G20KT 15SM FEW033 BKN240 27/19 A3006 RMK CU2CI3 SLP181 DENSITY ALT 1500FT",2025-09-06 17:24:34.440012,2025-09-06 13:24:34.440012
"CYXY",2025-09-06 17:00:00,2025-09-06 13:00:00,"VFR",14,12,88,40,3,64400,29.97,NA,"SCT  ft; SCT  ft; BKN  ft; BKN  ft","CYXY 061700Z 04003KT 310V100 40SM SCT004 SCT036 BKN068 BKN081 14/12 A2997 RMK SF3SC1AC1AC2 VIS LWR N SLP161 DENSITY ALT 2700FT",2025-09-06 17:24:34.507435,2025-09-06 13:24:34.507435
"CYZF",2025-09-06 17:00:00,2025-09-06 13:00:00,"VFR",14,9,72,140,14,24100,29.81,NA,"FEW  ft; SCT  ft; BKN  ft","CYZF 061700Z 14014G21KT 15SM FEW110 SCT160 BKN220 14/09 A2981 RMK AC1AC3CI3 SLP105 DENSITY ALT 900FT",2025-09-06 17:24:34.5744,2025-09-06 13:24:34.5744
"CYFB",2025-09-06 17:00:00,2025-09-06 13:00:00,"MVFR",2,1,93,130,14,8000,29.64,NA,"OVC  ft","CYFB 061700Z 13014G19KT 5SM -RASN BR OVC014 02/01 A2964 RMK SC8 SLP041",2025-09-06 17:24:34.642209,2025-09-06 13:24:34.642209
"CYRT",2025-09-06 17:00:00,2025-09-06 13:00:00,"MVFR",7,1,66,350,19,24100,29.9,NA,"BKN  ft; OVC  ft","CYRT 061700Z 35019KT 15SM BKN026 OVC040 07/01 A2990 RMK SC5SC3 SLP129",2025-09-06 17:24:34.708791,2025-09-06 13:24:34.708791
"CYBK",2025-09-06 17:00:00,2025-09-06 13:00:00,"VFR",8,3,71,360,8,40200,30.01,NA,"SCT  ft; BKN  ft","CYBK 061700Z 36008KT 25SM SCT028 BKN039 08/03 A3001 RMK SC3SC4 SLP165",2025-09-06 17:24:34.777077,2025-09-06 13:24:34.777077
"CYRB",2025-09-06 17:00:00,2025-09-06 13:00:00,"VFR",-1,-3,86,150,13,48300,30.06,NA,"SCT  ft; BKN  ft","CYRB 061700Z 15013KT 30SM SCT011 BKN045 M01/M03 A3006 RMK ST4SC3 SLP188",2025-09-06 17:24:34.855515,2025-09-06 13:24:34.855515
"CYCO",2025-09-06 17:00:00,2025-09-06 13:00:00,"VFR",15,8,63,210,19,9999,29.61,NA,"BKN  ft; OVC  ft","CYCO 061700Z 21019KT 10SM BKN150 OVC180 15/08 A2961 RMK FU4AC3AC1 FU SLP030 DENSITY ALT 500FT",2025-09-06 17:24:34.924396,2025-09-06 13:24:34.924396
"CYER",2025-09-06 17:36:00,2025-09-06 13:36:00,"MVFR",8,8,100,330,13,4800,29.71,NA,"SCT  ft; BKN  ft; BKN  ft; OVC  ft","CYER 061736Z AUTO 33013G22KT 3SM -RA BR SCT009 BKN015 BKN022 OVC027 08/08 A2971 RMK SLP064",2025-09-06 17:41:52.683259,2025-09-06 13:41:52.683259
"CYAT",2025-09-06 17:00:00,2025-09-06 13:00:00,"MVFR",10,8,88,290,12,14500,29.61,NA,"OVC  ft","CYAT 061700Z AUTO 29012G17KT 9SM OVC012 10/08 A2961 RMK SLP030",2025-09-06 17:41:52.774776,2025-09-06 13:41:52.774776
"CYMO",2025-09-06 17:00:00,2025-09-06 13:00:00,"MVFR",8,8,100,260,14,14500,29.68,NA,"OVC  ft","CYMO 061700Z AUTO 26014G19KT 9SM OVC010 08/08 A2968 RMK SLP052",2025-09-06 17:41:52.858725,2025-09-06 13:41:52.858725
"CYPL",2025-09-06 17:25:00,2025-09-06 13:25:00,"MVFR",7,4,81,310,10,14500,29.84,NA,"SCT  ft; BKN  ft; OVC  ft","CYPL 061725Z AUTO 31010G20KT 280V350 9SM SCT021 BKN028 OVC032 07/04 A2984 RMK SLP119",2025-09-06 17:41:52.943326,2025-09-06 13:41:52.943326
"CYQT",2025-09-06 17:00:00,2025-09-06 13:00:00,"VFR",14,4,51,320,9,32200,29.86,NA,"SCT  ft; BKN  ft; BKN  ft","CYQT 061700Z 32009G20KT 20SM SCT045 BKN140 BKN230 14/04 A2986 RMK SC4AC2CI1 SLP120",2025-09-06 17:41:53.035243,2025-09-06 13:41:53.035243
"CYAM",2025-09-06 17:00:00,2025-09-06 13:00:00,"VFR",11,7,77,280,8,19300,29.87,NA,"SCT  ft; BKN  ft; OVC  ft","CYAM 061700Z 28008G16KT 12SM -SHRA SCT016 BKN036 OVC046 11/07 A2987 RMK CU3SC4SC1 SLP120",2025-09-06 17:41:53.082825,2025-09-06 13:41:53.082825
"CYTS",2025-09-06 17:00:00,2025-09-06 13:00:00,"MVFR",10,5,71,290,3,24100,29.79,NA,"OVC  ft","CYTS 061700Z 29003KT 230V330 15SM OVC030 10/05 A2979 RMK SC8 SLP100",2025-09-06 17:41:53.171227,2025-09-06 13:41:53.171227
"CYSB",2025-09-06 17:00:00,2025-09-06 13:00:00,"MVFR",13,6,63,260,7,32200,29.83,NA,"BKN  ft; OVC  ft","CYSB 061700Z 26007G16KT 200V290 20SM BKN028 OVC084 13/06 A2983 RMK CU6AC2 SLP111 DENSITY ALT 1400FT",2025-09-06 17:41:53.258912,2025-09-06 13:41:53.258912
"CYYB",2025-09-06 17:00:00,2025-09-06 13:00:00,"VFR",14,7,63,260,10,48300,29.85,NA,"SCT  ft; BKN  ft; BKN  ft","CYYB 061700Z 26010G19KT 210V280 30SM SCT027 BKN090 BKN260 14/07 A2985 RMK CU3AC3CI1 SLP115 DENSITY ALT 1500FT",2025-09-06 17:41:53.345064,2025-09-06 13:41:53.345064
"CYOW",2025-09-06 17:00:00,2025-09-06 13:00:00,"VFR",16,9,63,200,11,24100,29.93,NA,"FEW  ft; SCT  ft; BKN  ft; BKN  ft","CYOW 061700Z 20011KT 190V250 15SM FEW030 SCT170 BKN210 BKN250 16/09 A2993 RMK CU1AC2CC2CI1 CI TR SLP138 DENSITY ALT 600FT",2025-09-06 17:41:53.431108,2025-09-06 13:41:53.431108
"CYGK",2025-09-06 17:00:00,2025-09-06 13:00:00,"VFR",18,8,52,230,11,24100,29.96,NA,"FEW  ft; BKN  ft","CYGK 061700Z 23011G16KT 15SM FEW025 BKN074 18/08 A2996 RMK CU2AC4 SLP148 DENSITY ALT 700FT",2025-09-06 17:41:53.521825,2025-09-06 13:41:53.521825
"CYQG",2025-09-06 17:00:00,2025-09-06 13:00:00,"VFR",19,7,46,300,12,14500,29.99,NA,"OVC  ft","CYQG 061700Z AUTO 30012G19KT 9SM OVC060 19/07 A2999 RMK SLP158 DENSITY ALT 1200FT",2025-09-06 17:41:53.607186,2025-09-06 13:41:53.607186
"CYVV",2025-09-06 17:25:00,2025-09-06 13:25:00,"MVFR",12,11,94,220,10,9999,29.92,NA,"BKN  ft; OVC  ft","CYVV 061725Z 22010KT 10SM -SHRA BKN026 OVC046 12/11 A2992 RMK SC6SC2 CVCTV CLD EMBD SLP138",2025-09-06 17:41:53.691926,2025-09-06 13:41:53.691926
"CYYZ",2025-09-06 17:00:00,2025-09-06 13:00:00,"VFR",20,9,49,240,9,24100,29.94,NA,"BKN  ft","CYYZ 061700Z 24009G18KT 15SM BKN062 20/09 A2994 RMK CU5 SLP140 DENSITY ALT 1300FT",2025-09-06 17:41:53.777223,2025-09-06 13:41:53.777223
"CYQA",2025-09-06 17:00:00,2025-09-06 13:00:00,"VFR",14,9,72,250,13,14500,29.91,NA,"OVC  ft","CYQA 061700Z AUTO 25013G19KT 190V280 9SM OVC050 14/09 A2991 RMK SLP135",2025-09-06 17:41:53.826989,2025-09-06 13:41:53.826989
"CYVR",2025-09-06 17:00:00,2025-09-06 13:00:00,"VFR",19,16,83,140,6,24100,29.91,NA,"FEW  ft; SCT  ft","CYVR 061700Z 14006KT 090V150 15SM FEW100 SCT220 19/16 A2991 RMK AC1CI3 AC TR HZ SLP132 DENSITY ALT 500FT",2025-09-06 17:41:53.917245,2025-09-06 13:41:53.917245
"CYYJ",2025-09-06 17:00:00,2025-09-06 13:00:00,"VFR",15,13,88,130,11,32200,29.92,NA,"FEW  ft; FEW  ft; BKN  ft","CYYJ 061700Z 13011KT 20SM FEW070 FEW220 BKN250 15/13 A2992 RMK AC1CC1CI4 AC TR HZ SLP134",2025-09-06 17:41:54.007456,2025-09-06 13:41:54.007456
"CYLW",2025-09-06 17:32:00,2025-09-06 13:32:00,"VFR",21,12,57,350,5,12900,29.92,NA,"CLR  ft","CYLW 061732Z AUTO 35005KT 330V030 8SM CLR 21/12 A2992 RMK SLP130 DENSITY ALT 2500FT",2025-09-06 17:41:54.063985,2025-09-06 13:41:54.063985
"CYXS",2025-09-06 17:00:00,2025-09-06 13:00:00,"VFR",12,12,100,170,4,14500,29.95,NA,"CLR  ft","CYXS 061700Z AUTO 17004KT 9SM CLR 12/12 A2995 RMK SLP155 DENSITY ALT 2500FT",2025-09-06 17:41:54.150963,2025-09-06 13:41:54.150963
"CYXT",2025-09-06 17:26:00,2025-09-06 13:26:00,"LIFR",14,14,100,0,0,1600,29.93,NA,"BKN  ft","CYXT 061726Z 00000KT 1SM BCFG BR BKN003 14/14 A2993 RMK FG5SF2 SLP140",2025-09-06 17:41:54.23958,2025-09-06 13:41:54.23958
"CYQQ",2025-09-06 17:00:00,2025-09-06 13:00:00,"VFR",20,15,73,20,6,19300,29.9,NA,"SCT  ft","CYQQ 061700Z 02006KT 12SM SCT250 20/15 A2990 RMK CI4 DENSITY ALT 881FT CONTRAILS HZ SLP125",2025-09-06 17:41:54.330246,2025-09-06 13:41:54.330246
"CYYC",2025-09-06 17:00:00,2025-09-06 13:00:00,"VFR",19,9,52,200,4,19300,29.99,NA,"SKC  ft","CYYC 061700Z 20004KT 110V230 12SM SKC 19/09 A2999 RMK FU SLP160 DENSITY ALT 4900FT",2025-09-06 17:41:54.418826,2025-09-06 13:41:54.418826
"CYEG",2025-09-06 17:00:00,2025-09-06 13:00:00,"VFR",16,5,48,160,3,32200,29.96,NA,"FEW  ft","CYEG 061700Z 16003KT 140V250 20SM FEW250 16/05 A2996 RMK CI2 SLP155 DENSITY ALT 3000FT",2025-09-06 17:41:54.508215,2025-09-06 13:41:54.508215
"CYMM",2025-09-06 17:00:00,2025-09-06 13:00:00,"VFR",16,8,59,80,5,12900,29.95,NA,"CLR  ft","CYMM 061700Z AUTO 08005KT 050V110 8SM CLR 16/08 A2995 RMK SLP156 DENSITY ALT 1600FT",2025-09-06 17:41:54.600803,2025-09-06 13:41:54.600803
"CYQF",2025-09-06 17:00:00,2025-09-06 13:00:00,"VFR",16,5,48,0,5,14500,29.98,NA,"CLR  ft","CYQF 061700Z AUTO VRB05KT 9SM CLR 16/05 A2998 RMK SLP166 DENSITY ALT 3700FT",2025-09-06 17:41:54.690778,2025-09-06 13:41:54.690778
"CYXE",2025-09-06 17:00:00,2025-09-06 13:00:00,"VFR",16,5,48,130,8,24100,30.12,NA,"FEW  ft","CYXE 061700Z 13008KT 15SM FEW300 16/05 A3012 RMK CI1 SLP215 DENSITY ALT 1900FT",2025-09-06 17:41:54.778895,2025-09-06 13:41:54.778895
"CYQR",2025-09-06 17:00:00,2025-09-06 13:00:00,"VFR",13,3,51,80,4,24100,30.15,NA,"FEW  ft; FEW  ft","CYQR 061700Z 08004KT 040V170 15SM FEW040 FEW250 13/03 A3015 RMK CF1CI1 CF TR CI TR SLP230",2025-09-06 17:41:54.868019,2025-09-06 13:41:54.868019
"CYWG",2025-09-06 17:00:00,2025-09-06 13:00:00,"VFR",12,5,63,350,15,24100,30.05,NA,"FEW  ft; BKN  ft","CYWG 061700Z 35015G21KT 15SM FEW035 BKN072 12/05 A3005 RMK CU1AC6 SLP187",2025-09-06 17:41:54.957719,2025-09-06 13:41:54.957719
"CYBR",2025-09-06 17:00:00,2025-09-06 13:00:00,"MVFR",11,6,72,330,9,24100,30.13,NA,"BKN  ft; BKN  ft","CYBR 061700Z 33009KT 15SM BKN018 BKN055 11/06 A3013 RMK SC6SC1 SLP219",2025-09-06 17:41:55.047913,2025-09-06 13:41:55.047913
"CYUL",2025-09-06 17:00:00,2025-09-06 13:00:00,"VFR",15,11,77,260,10,9700,29.96,NA,"FEW  ft; BKN  ft; OVC  ft","CYUL 061700Z 26010G17KT 230V290 6SM -RA BR FEW030 BKN075 OVC100 15/11 A2996 RMK CU1AC6AC1 SLP148",2025-09-06 17:41:55.139242,2025-09-06 13:41:55.139242
"CYHU",2025-09-06 17:00:00,2025-09-06 13:00:00,"VFR",15,12,82,210,10,14500,29.97,NA,"SCT  ft; BKN  ft; OVC  ft","CYHU 061700Z AUTO 21010G15KT 9SM -RA SCT047 BKN076 OVC093 15/12 A2997 RMK SLP150",2025-09-06 17:41:55.18952,2025-09-06 13:41:55.18952
"CYQB",2025-09-06 17:00:00,2025-09-06 13:00:00,"VFR",16,10,68,240,10,48300,29.96,NA,"FEW  ft; BKN  ft; OVC  ft","CYQB 061700Z 24010KT 30SM FEW031 BKN040 OVC090 16/10 A2996 RMK SC1SC6AC2 SC TR VIRGA SLP149",2025-09-06 17:41:55.278247,2025-09-06 13:41:55.278247
"CYVO",2025-09-06 17:00:00,2025-09-06 13:00:00,"VFR",13,7,67,200,13,24100,29.79,NA,"BKN  ft; BKN  ft","CYVO 061700Z 20013KT 15SM -SHRA BKN042TCU BKN074 13/07 A2979 RMK TCU5AC1 AC TR SLP100",2025-09-06 17:41:55.36751,2025-09-06 13:41:55.36751
"CYUY",2025-09-06 17:00:00,2025-09-06 13:00:00,"MVFR",12,6,67,270,7,24100,29.8,NA,"BKN  ft; BKN  ft; BKN  ft","CYUY 061700Z 27007KT 240V300 15SM BKN030 BKN044 BKN220 12/06 A2980 RMK SC5SC1CI1 SLP100",2025-09-06 17:41:55.459188,2025-09-06 13:41:55.459188
"CYZV",2025-09-06 17:00:00,2025-09-06 13:00:00,"VFR",19,10,56,230,15,48300,29.79,NA,"FEW  ft; BKN  ft","CYZV 061700Z 23015G21KT 30SM FEW050 BKN190 19/10 A2979 RMK CU1CI7 CU TR SLP092 DENSITY ALT 900FT",2025-09-06 17:41:55.547293,2025-09-06 13:41:55.547293
"CYBC",2025-09-06 17:00:00,2025-09-06 13:00:00,"VFR",15,10,72,230,22,14500,29.84,NA,"CLR  ft","CYBC 061700Z AUTO 23022G29KT 9SM CLR 15/10 A2984 RMK SLP108",2025-09-06 17:41:55.633266,2025-09-06 13:41:55.633266
"CYRJ",2025-09-06 17:00:00,2025-09-06 13:00:00,"VFR",15,8,63,220,13,64400,29.85,NA,"BKN  ft","CYRJ 061700Z 22013G21KT 40SM BKN058 15/08 A2985 RMK SC7 SLP112 DENSITY ALT 800FT",2025-09-06 17:41:55.72329,2025-09-06 13:41:55.72329
"CYHZ",2025-09-06 17:00:00,2025-09-06 13:00:00,"VFR",25,20,74,200,12,24100,30.08,NA,"FEW  ft; BKN  ft","CYHZ 061700Z 20012G20KT 15SM FEW019 BKN250 25/20 A3008 RMK CU1CS5 CU TR SLP186 DENSITY ALT 1600FT",2025-09-06 17:41:55.814578,2025-09-06 13:41:55.814578
"CYYG",2025-09-06 17:00:00,2025-09-06 13:00:00,"VFR",26,18,61,210,14,24100,30,NA,"FEW  ft; BKN  ft","CYYG 061700Z 21014G20KT 15SM FEW032 BKN250 26/18 A3000 RMK CF1CI5 CF TR SLP162 DENSITY ALT 1500FT",2025-09-06 17:41:55.902106,2025-09-06 13:41:55.902106
"CYQM",2025-09-06 17:00:00,2025-09-06 13:00:00,"MVFR",25,18,65,200,15,24100,29.98,NA,"BKN  ft; BKN  ft","CYQM 061700Z 20015G23KT 15SM BKN030 BKN250 25/18 A2998 RMK SC7CI1 CI TR CU ASOCTD SLP154 DENSITY ALT 1400FT",2025-09-06 17:41:55.987569,2025-09-06 13:41:55.987569
"CYFC",2025-09-06 17:36:00,2025-09-06 13:36:00,"MVFR",23,19,78,180,8,14500,29.95,NA,"BKN  ft; OVC  ft","CYFC 061736Z AUTO 18008KT 9SM BKN020 OVC086 23/19 A2995 RMK SLP143 DENSITY ALT 1000FT",2025-09-06 17:41:56.082023,2025-09-06 13:41:56.082023
"CYYT",2025-09-06 17:00:00,2025-09-06 13:00:00,"VFR",25,12,44,230,9,24100,30.15,NA,"FEW  ft; SCT  ft","CYYT 061700Z 23009G16KT 15SM FEW056 SCT240 25/12 A3015 RMK SC1CI3 SLP213 DENSITY ALT 1500FT",2025-09-06 17:41:56.169348,2025-09-06 13:41:56.169348
"CYQY",2025-09-06 17:00:00,2025-09-06 13:00:00,"VFR",27,19,62,230,13,24100,30.06,NA,"FEW  ft; BKN  ft","CYQY 061700Z 23013G20KT 15SM FEW033 BKN240 27/19 A3006 RMK CU2CI3 SLP181 DENSITY ALT 1500FT",2025-09-06 17:41:56.227071,2025-09-06 13:41:56.227071
"CYXY",2025-09-06 17:00:00,2025-09-06 13:00:00,"VFR",14,12,88,40,3,64400,29.97,NA,"SCT  ft; SCT  ft; BKN  ft; BKN  ft","CYXY 061700Z 04003KT 310V100 40SM SCT004 SCT036 BKN068 BKN081 14/12 A2997 RMK SF3SC1AC1AC2 VIS LWR N SLP161 DENSITY ALT 2700FT",2025-09-06 17:41:56.312221,2025-09-06 13:41:56.312221
"CYZF",2025-09-06 17:00:00,2025-09-06 13:00:00,"VFR",14,9,72,140,14,24100,29.81,NA,"FEW  ft; SCT  ft; BKN  ft","CYZF 061700Z 14014G21KT 15SM FEW110 SCT160 BKN220 14/09 A2981 RMK AC1AC3CI3 SLP105 DENSITY ALT 900FT",2025-09-06 17:41:56.398268,2025-09-06 13:41:56.398268
"CYFB",2025-09-06 17:31:00,2025-09-06 13:31:00,"IFR",2,1,93,150,13,6400,29.64,NA,"OVC  ft","CYFB 061731Z 15013G20KT 4SM -RASN BR OVC009 02/01 A2964 RMK ST8 SLP040",2025-09-06 17:41:56.486354,2025-09-06 13:41:56.486354
"CYRT",2025-09-06 17:00:00,2025-09-06 13:00:00,"MVFR",7,1,66,350,19,24100,29.9,NA,"BKN  ft; OVC  ft","CYRT 061700Z 35019KT 15SM BKN026 OVC040 07/01 A2990 RMK SC5SC3 SLP129",2025-09-06 17:41:56.541473,2025-09-06 13:41:56.541473
"CYBK",2025-09-06 17:00:00,2025-09-06 13:00:00,"VFR",8,3,71,360,8,40200,30.01,NA,"SCT  ft; BKN  ft","CYBK 061700Z 36008KT 25SM SCT028 BKN039 08/03 A3001 RMK SC3SC4 SLP165",2025-09-06 17:41:56.631323,2025-09-06 13:41:56.631323
"CYRB",2025-09-06 17:00:00,2025-09-06 13:00:00,"VFR",-1,-3,86,150,13,48300,30.06,NA,"SCT  ft; BKN  ft","CYRB 061700Z 15013KT 30SM SCT011 BKN045 M01/M03 A3006 RMK ST4SC3 SLP188",2025-09-06 17:41:56.728632,2025-09-06 13:41:56.728632
"CYCO",2025-09-06 17:00:00,2025-09-06 13:00:00,"VFR",15,8,63,210,19,9999,29.61,NA,"BKN  ft; OVC  ft","CYCO 061700Z 21019KT 10SM BKN150 OVC180 15/08 A2961 RMK FU4AC3AC1 FU SLP030 DENSITY ALT 500FT",2025-09-06 17:41:56.822232,2025-09-06 13:41:56.822232
"CYER",2025-09-06 18:25:00,2025-09-06 14:25:00,"MVFR",7,7,100,330,12,4800,29.73,NA,"BKN  ft; OVC  ft","CYER 061825Z AUTO 33012G22KT 3SM -RA BR BKN010 OVC013 07/07 A2973 RMK SLP071",2025-09-06 18:32:23.997861,2025-09-06 14:32:23.997861
"CYAT",2025-09-06 18:00:00,2025-09-06 14:00:00,"MVFR",10,8,88,280,9,14500,29.64,NA,"OVC  ft","CYAT 061800Z AUTO 28009KT 9SM OVC016 10/08 A2964 RMK SLP040",2025-09-06 18:32:24.050555,2025-09-06 14:32:24.050555
"CYMO",2025-09-06 18:00:00,2025-09-06 14:00:00,"MVFR",9,8,94,260,12,14500,29.7,NA,"OVC  ft","CYMO 061800Z AUTO 26012G20KT 9SM OVC012 09/08 A2970 RMK SLP061",2025-09-06 18:32:24.13694,2025-09-06 14:32:24.13694
"CYPL",2025-09-06 18:25:00,2025-09-06 14:25:00,"MVFR",7,4,81,340,8,14500,29.86,NA,"FEW  ft; BKN  ft; BKN  ft; OVC  ft","CYPL 061825Z AUTO 34008G17KT 290V020 9SM -RA FEW018 BKN024 BKN033 OVC040 07/04 A2986 RMK SLP126",2025-09-06 18:32:24.222962,2025-09-06 14:32:24.222962
"CYQT",2025-09-06 18:00:00,2025-09-06 14:00:00,"VFR",13,4,55,310,11,32200,29.88,NA,"BKN  ft; BKN  ft","CYQT 061800Z 31011G17KT 20SM BKN055 BKN100 13/04 A2988 RMK SC6AC1 SLP124",2025-09-06 18:32:24.31477,2025-09-06 14:32:24.31477
"CYAM",2025-09-06 18:00:00,2025-09-06 14:00:00,"VFR",10,9,94,310,12,19300,29.88,NA,"SCT  ft; BKN  ft; OVC  ft","CYAM 061800Z 31012G20KT 12SM -SHRA SCT014 BKN031 OVC047 10/09 A2988 RMK CU3SC4SC1 SLP127",2025-09-06 18:32:25.049004,2025-09-06 14:32:25.049004
"CYTS",2025-09-06 18:00:00,2025-09-06 14:00:00,"VFR",11,5,67,270,5,24100,29.81,NA,"OVC  ft","CYTS 061800Z 27005KT 210V320 15SM OVC032 11/05 A2981 RMK SC8 SLP104",2025-09-06 18:32:25.13389,2025-09-06 14:32:25.13389
"CYSB",2025-09-06 18:00:00,2025-09-06 14:00:00,"VFR",14,5,55,240,9,32200,29.84,NA,"BKN  ft; OVC  ft","CYSB 061800Z 24009G15KT 220V290 20SM BKN035 OVC075 14/05 A2984 RMK CU6AC2 SLP114 DENSITY ALT 1400FT",2025-09-06 18:32:25.217978,2025-09-06 14:32:25.217978
"CYYB",2025-09-06 18:00:00,2025-09-06 14:00:00,"VFR",15,7,59,250,14,48300,29.86,NA,"SCT  ft; BKN  ft","CYYB 061800Z 25014G21KT 210V270 30SM SCT031 BKN095 15/07 A2986 RMK CU4AC3 SLP118 DENSITY ALT 1600FT",2025-09-06 18:32:25.302901,2025-09-06 14:32:25.302901
"CYOW",2025-09-06 18:00:00,2025-09-06 14:00:00,"VFR",18,8,52,220,12,24100,29.92,NA,"SCT  ft; SCT  ft","CYOW 061800Z 22012G18KT 15SM SCT040 SCT210 18/08 A2992 RMK CU3CC1 SLP133 DENSITY ALT 800FT",2025-09-06 18:32:25.387847,2025-09-06 14:32:25.387847
"CYGK",2025-09-06 18:00:00,2025-09-06 14:00:00,"VFR",20,9,49,230,11,24100,29.95,NA,"FEW  ft; SCT  ft; SCT  ft; BKN  ft","CYGK 061800Z 23011G16KT 190V260 15SM FEW025 SCT090 SCT170 BKN250 20/09 A2995 RMK CU2AC1AC1CI1 SLP145 DENSITY ALT 1000FT",2025-09-06 18:32:25.477052,2025-09-06 14:32:25.477052
"CYQG",2025-09-06 18:00:00,2025-09-06 14:00:00,"VFR",18,7,49,260,13,14500,30,NA,"OVC  ft","CYQG 061800Z AUTO 26013G19KT 9SM OVC066 18/07 A3000 RMK SLP160 DENSITY ALT 1100FT",2025-09-06 18:32:25.561943,2025-09-06 14:32:25.561943
"CYVV",2025-09-06 18:00:00,2025-09-06 14:00:00,"MVFR",13,11,88,230,8,24100,29.92,NA,"BKN  ft; OVC  ft","CYVV 061800Z 23008KT 15SM -SHRA BKN026 OVC052 13/11 A2992 RMK CU7SC1 SLP138",2025-09-06 18:32:25.646771,2025-09-06 14:32:25.646771
"CYYZ",2025-09-06 18:00:00,2025-09-06 14:00:00,"VFR",19,6,43,230,15,24100,29.93,NA,"BKN  ft","CYYZ 061800Z 23015G20KT 15SM BKN058 19/06 A2993 RMK CU7 SLP139 DENSITY ALT 1200FT",2025-09-06 18:32:25.691112,2025-09-06 14:32:25.691112
"CYQA",2025-09-06 18:00:00,2025-09-06 14:00:00,"VFR",15,7,59,250,9,14500,29.92,NA,"FEW  ft; OVC  ft","CYQA 061800Z AUTO 25009G19KT 230V290 9SM FEW055 OVC071 15/07 A2992 RMK SLP136 DENSITY ALT 1200FT",2025-09-06 18:32:25.77491,2025-09-06 14:32:25.77491
"CYVR",2025-09-06 18:00:00,2025-09-06 14:00:00,"VFR",19,15,78,110,11,24100,29.93,NA,"FEW  ft; SCT  ft; BKN  ft","CYVR 061800Z 11011G18KT 15SM FEW017 SCT120 BKN220 19/15 A2993 RMK SC2AC1CI3 HZ SLP137 DENSITY ALT 500FT",2025-09-06 18:32:25.818727,2025-09-06 14:32:25.818727
"CYYJ",2025-09-06 18:00:00,2025-09-06 14:00:00,"VFR",16,13,83,130,9,32200,29.93,NA,"FEW  ft; BKN  ft","CYYJ 061800Z 13009G15KT 20SM FEW010 BKN250 16/13 A2993 RMK SF1CI6 SF TR SLP138",2025-09-06 18:32:25.90291,2025-09-06 14:32:25.90291
"CYLW",2025-09-06 18:00:00,2025-09-06 14:00:00,"VFR",22,11,50,340,4,12900,29.91,NA,"CLR  ft","CYLW 061800Z AUTO 34004KT 310V080 8SM CLR 22/11 A2991 RMK SLP127 DENSITY ALT 2600FT",2025-09-06 18:32:25.949502,2025-09-06 14:32:25.949502
"CYXS",2025-09-06 18:00:00,2025-09-06 14:00:00,"VFR",15,12,82,170,3,14500,29.95,NA,"CLR  ft","CYXS 061800Z AUTO 17003KT 130V220 9SM CLR 15/12 A2995 RMK SLP157 DENSITY ALT 2800FT",2025-09-06 18:32:26.03391,2025-09-06 14:32:26.03391
"CYXT",2025-09-06 18:25:00,2025-09-06 14:25:00,"IFR",16,16,100,250,3,4800,29.92,NA,"BKN  ft; BKN  ft","CYXT 061825Z 25003KT 220V330 3SM BR BKN005 BKN210 16/16 A2992 RMK FG2SF3CI1 CI TR SLP136 DENSITY ALT 1000FT",2025-09-06 18:32:26.118833,2025-09-06 14:32:26.118833
"CYQQ",2025-09-06 18:00:00,2025-09-06 14:00:00,"VFR",21,15,69,10,6,24100,29.9,NA,"SCT  ft","CYQQ 061800Z 01006KT 15SM SCT250 21/15 A2990 RMK CI3 DENSITY ALT 1044FT HZ SLP127",2025-09-06 18:32:26.168255,2025-09-06 14:32:26.168255
"CYYC",2025-09-06 18:00:00,2025-09-06 14:00:00,"VFR",21,7,40,160,4,19300,29.98,NA,"SKC  ft","CYYC 061800Z 16004KT 100V220 12SM SKC 21/07 A2998 RMK FU SLP154 DENSITY ALT 5100FT",2025-09-06 18:32:26.252682,2025-09-06 14:32:26.252682
"CYEG",2025-09-06 18:00:00,2025-09-06 14:00:00,"VFR",18,6,46,190,4,32200,29.95,NA,"SCT  ft","CYEG 061800Z 19004KT 130V210 20SM SCT250 18/06 A2995 RMK CI3 SLP153 DENSITY ALT 3300FT",2025-09-06 18:32:26.339504,2025-09-06 14:32:26.339504
"CYMM",2025-09-06 18:00:00,2025-09-06 14:00:00,"VFR",20,7,43,100,9,14500,29.95,NA,"CLR  ft","CYMM 061800Z AUTO 10009KT 060V140 9SM CLR 20/07 A2995 RMK SLP151 DENSITY ALT 2100FT",2025-09-06 18:32:26.428782,2025-09-06 14:32:26.428782
"CYQF",2025-09-06 18:00:00,2025-09-06 14:00:00,"VFR",20,7,43,180,5,14500,29.97,NA,"CLR  ft","CYQF 061800Z AUTO 18005KT 140V210 9SM CLR 20/07 A2997 RMK SLP161 DENSITY ALT 4200FT",2025-09-06 18:32:26.514129,2025-09-06 14:32:26.514129
"CYXE",2025-09-06 18:00:00,2025-09-06 14:00:00,"VFR",17,4,42,140,6,24100,30.12,NA,"FEW  ft","CYXE 061800Z 14006KT 070V170 15SM FEW300 17/04 A3012 RMK CI1 SLP214 DENSITY ALT 2100FT",2025-09-06 18:32:26.599905,2025-09-06 14:32:26.599905
"CYQR",2025-09-06 18:00:00,2025-09-06 14:00:00,"VFR",15,2,42,90,5,24100,30.15,NA,"FEW  ft; FEW  ft","CYQR 061800Z 09005KT 040V140 15SM FEW048 FEW250 15/02 A3015 RMK CF1CI1 CF TR CI TR SLP230 DENSITY ALT 2100FT",2025-09-06 18:32:26.685783,2025-09-06 14:32:26.685783
"CYWG",2025-09-06 18:00:00,2025-09-06 14:00:00,"VFR",13,5,59,360,13,24100,30.07,NA,"FEW  ft; FEW  ft; BKN  ft","CYWG 061800Z 36013G20KT 15SM FEW035 FEW045 BKN075 13/05 A3007 RMK CU1SC1AC5 DIST SH N-NE TCU TOPS SLP190",2025-09-06 18:32:26.770681,2025-09-06 14:32:26.770681
"CYBR",2025-09-06 18:00:00,2025-09-06 14:00:00,"MVFR",12,6,67,340,11,24100,30.13,NA,"BKN  ft; BKN  ft","CYBR 061800Z 34011G17KT 15SM BKN030 BKN060 12/06 A3013 RMK CU5SC2 SLP219",2025-09-06 18:32:26.855977,2025-09-06 14:32:26.855977
"CYUL",2025-09-06 18:00:00,2025-09-06 14:00:00,"MVFR",14,12,88,250,7,12900,29.96,NA,"BKN  ft; OVC  ft","CYUL 061800Z 25007KT 8SM BKN017 OVC070 14/12 A2996 RMK SC5AC3 SLP148",2025-09-06 18:32:26.943694,2025-09-06 14:32:26.943694
"CYHU",2025-09-06 18:20:00,2025-09-06 14:20:00,"MVFR",15,14,94,180,7,14500,29.96,NA,"FEW  ft; BKN  ft; BKN  ft; OVC  ft","CYHU 061820Z AUTO 18007KT 9SM -RA FEW014 BKN022 BKN030 OVC060 15/14 A2996 RMK PCPN 0.5MM PAST HR SLP146",2025-09-06 18:32:26.990268,2025-09-06 14:32:26.990268
"CYQB",2025-09-06 18:00:00,2025-09-06 14:00:00,"VFR",14,12,88,220,6,9700,29.97,NA,"FEW  ft; BKN  ft; OVC  ft","CYQB 061800Z 22006KT 6SM -SHRA BR FEW022 BKN049 OVC069 14/12 A2997 RMK SC1SC6AC1 CVCTV CLD EMBD SLP151",2025-09-06 18:32:27.081329,2025-09-06 14:32:27.081329
"CYVO",2025-09-06 18:00:00,2025-09-06 14:00:00,"VFR",12,8,77,220,6,24100,29.8,NA,"BKN  ft; BKN  ft","CYVO 061800Z 22006KT 15SM -SHRA BKN036TCU BKN170 12/08 A2980 RMK TCU5AC2 SLP103",2025-09-06 18:32:27.168049,2025-09-06 14:32:27.168049
"CYUY",2025-09-06 18:00:00,2025-09-06 14:00:00,"VFR",13,6,63,300,9,24100,29.8,NA,"SCT  ft; BKN  ft","CYUY 061800Z 30009G15KT 15SM SCT030 BKN240 13/06 A2980 RMK SC4CI3 CU ASOCTD SLP103",2025-09-06 18:32:27.25355,2025-09-06 14:32:27.25355
"CYZV",2025-09-06 18:00:00,2025-09-06 14:00:00,"VFR",19,9,52,220,13,48300,29.79,NA,"FEW  ft; BKN  ft; BKN  ft","CYZV 061800Z 22013G22KT 30SM FEW050 BKN170 BKN200 19/09 A2979 RMK CU1AC6CI1 CU TR SLP090 DENSITY ALT 900FT",2025-09-06 18:32:27.340958,2025-09-06 14:32:27.340958
"CYBC",2025-09-06 18:00:00,2025-09-06 14:00:00,"VFR",15,11,77,240,22,14500,29.85,NA,"OVC  ft","CYBC 061800Z AUTO 24022KT 9SM OVC060 15/11 A2985 RMK SLP111",2025-09-06 18:32:27.427998,2025-09-06 14:32:27.427998
"CYRJ",2025-09-06 18:00:00,2025-09-06 14:00:00,"VFR",15,8,63,230,10,64400,29.84,NA,"FEW  ft; BKN  ft; BKN  ft","CYRJ 061800Z 23010G20KT 190V250 40SM FEW033 BKN190 BKN200 15/08 A2984 RMK SC2AC3CI2 SLP111 DENSITY ALT 800FT",2025-09-06 18:32:27.476626,2025-09-06 14:32:27.476626
"CYHZ",2025-09-06 18:00:00,2025-09-06 14:00:00,"VFR",25,20,74,200,10,24100,30.06,NA,"FEW  ft; BKN  ft","CYHZ 061800Z 20010G17KT 15SM FEW028 BKN240 25/20 A3006 RMK CU1CS5 CU TR SLP181 DENSITY ALT 1600FT",2025-09-06 18:32:27.562473,2025-09-06 14:32:27.562473
"CYYG",2025-09-06 18:00:00,2025-09-06 14:00:00,"VFR",27,18,58,200,14,24100,29.99,NA,"FEW  ft; SCT  ft","CYYG 061800Z 20014G22KT 15SM FEW034 SCT250 27/18 A2999 RMK CF1CI3 CF TR SLP156 DENSITY ALT 1600FT",2025-09-06 18:32:27.648055,2025-09-06 14:32:27.648055
"CYQM",2025-09-06 18:00:00,2025-09-06 14:00:00,"VFR",26,19,65,200,16,24100,29.96,NA,"SCT  ft; SCT  ft","CYQM 061800Z 20016G27KT 15SM SCT030 SCT220 26/19 A2996 RMK SC3CS1 CU ASOCTD SLP149 DENSITY ALT 1500FT",2025-09-06 18:32:27.73193,2025-09-06 14:32:27.73193
"CYFC",2025-09-06 18:00:00,2025-09-06 14:00:00,"VFR",23,19,78,190,6,14500,29.94,NA,"SCT  ft; OVC  ft","CYFC 061800Z AUTO 19006KT 9SM SCT020 OVC076 23/19 A2994 RMK SLP142 DENSITY ALT 1100FT",2025-09-06 18:32:27.8169,2025-09-06 14:32:27.8169
"CYYT",2025-09-06 18:00:00,2025-09-06 14:00:00,"VFR",24,11,44,260,11,24100,30.14,NA,"FEW  ft; FEW  ft","CYYT 061800Z 26011KT 15SM FEW120 FEW220 24/11 A3014 RMK AC1CI2 AC TR SLP210 DENSITY ALT 1400FT",2025-09-06 18:32:27.903966,2025-09-06 14:32:27.903966
"CYQY",2025-09-06 18:00:00,2025-09-06 14:00:00,"VFR",27,19,62,250,11,24100,30.05,NA,"FEW  ft; BKN  ft","CYQY 061800Z 25011G16KT 15SM FEW038 BKN240 27/19 A3005 RMK CU1CI5 SLP179 DENSITY ALT 1600FT",2025-09-06 18:32:27.953656,2025-09-06 14:32:27.953656
"CYXY",2025-09-06 18:00:00,2025-09-06 14:00:00,"VFR",14,12,88,0,2,64400,29.97,NA,"FEW  ft; SCT  ft; BKN  ft; BKN  ft","CYXY 061800Z VRB02KT 40SM FEW004 SCT011 BKN035 BKN068 14/12 A2997 RMK SF1SF2SC3AC1 SLP161 DENSITY ALT 2800FT",2025-09-06 18:32:28.038036,2025-09-06 14:32:28.038036
"CYZF",2025-09-06 18:00:00,2025-09-06 14:00:00,"VFR",13,8,72,140,16,24100,29.8,NA,"FEW  ft; BKN  ft; BKN  ft","CYZF 061800Z 14016G22KT 15SM FEW110 BKN150 BKN220 13/08 A2980 RMK AC1AC5CI2 AC TR SLP101",2025-09-06 18:32:28.124272,2025-09-06 14:32:28.124272
"CYFB",2025-09-06 18:15:00,2025-09-06 14:15:00,"MVFR",3,1,87,130,15,8000,29.64,NA,"OVC  ft","CYFB 061815Z 13015G20KT 5SM -RA BR OVC010 03/01 A2964 RMK SC8 SLP040",2025-09-06 18:32:28.216248,2025-09-06 14:32:28.216248
"CYRT",2025-09-06 18:00:00,2025-09-06 14:00:00,"VFR",7,1,66,360,17,24100,29.91,NA,"SCT  ft; BKN  ft; BKN  ft","CYRT 061800Z 36017KT 15SM SCT026 BKN038 BKN074 07/01 A2991 RMK SC3SC3AC1 SLP132",2025-09-06 18:32:28.30284,2025-09-06 14:32:28.30284
"CYBK",2025-09-06 18:00:00,2025-09-06 14:00:00,"VFR",7,1,66,360,14,40200,30.01,NA,"BKN  ft; BKN  ft","CYBK 061800Z 36014KT 25SM BKN031 BKN049 07/01 A3001 RMK SC5SC2 SLP165",2025-09-06 18:32:28.388877,2025-09-06 14:32:28.388877
"CYRB",2025-09-06 18:00:00,2025-09-06 14:00:00,"VFR",-1,-3,86,150,13,48300,30.06,NA,"SCT  ft","CYRB 061800Z 15013KT 30SM SCT011 M01/M03 A3006 RMK ST4 SLP187",2025-09-06 18:32:28.486228,2025-09-06 14:32:28.486228
"CYCO",2025-09-06 18:00:00,2025-09-06 14:00:00,"VFR",16,8,59,230,14,9999,29.62,NA,"BKN  ft; OVC  ft","CYCO 061800Z 23014G23KT 10SM BKN150 OVC180 16/08 A2962 RMK FU4AC3AC1 FU SLP033 DENSITY ALT 600FT",2025-09-06 18:32:28.573105,2025-09-06 14:32:28.573105
"CYER",2025-09-06 18:34:00,2025-09-06 14:34:00,"IFR",7,7,100,330,14,4800,29.73,NA,"OVC  ft","CYER 061834Z AUTO 33014G21KT 3SM -RA BR OVC008 07/07 A2973 RMK SLP072",2025-09-06 18:45:14.144661,2025-09-06 14:45:14.144661
"CYAT",2025-09-06 18:00:00,2025-09-06 14:00:00,"MVFR",10,8,88,280,9,14500,29.64,NA,"OVC  ft","CYAT 061800Z AUTO 28009KT 9SM OVC016 10/08 A2964 RMK SLP040",2025-09-06 18:45:14.218572,2025-09-06 14:45:14.218572
"CYMO",2025-09-06 18:00:00,2025-09-06 14:00:00,"MVFR",9,8,94,260,12,14500,29.7,NA,"OVC  ft","CYMO 061800Z AUTO 26012G20KT 9SM OVC012 09/08 A2970 RMK SLP061",2025-09-06 18:45:14.284857,2025-09-06 14:45:14.284857
"CYPL",2025-09-06 18:36:00,2025-09-06 14:36:00,"VFR",7,5,87,320,6,14500,29.86,NA,"SCT  ft; BKN  ft; OVC  ft","CYPL 061836Z AUTO 32006G18KT 270V020 9SM -RA SCT024 BKN037 OVC046 07/05 A2986 RMK SLP127",2025-09-06 18:45:14.352749,2025-09-06 14:45:14.352749
"CYQT",2025-09-06 18:00:00,2025-09-06 14:00:00,"VFR",13,4,55,310,11,32200,29.88,NA,"BKN  ft; BKN  ft","CYQT 061800Z 31011G17KT 20SM BKN055 BKN100 13/04 A2988 RMK SC6AC1 SLP124",2025-09-06 18:45:14.424603,2025-09-06 14:45:14.424603
"CYAM",2025-09-06 18:00:00,2025-09-06 14:00:00,"VFR",10,9,94,310,12,19300,29.88,NA,"SCT  ft; BKN  ft; OVC  ft","CYAM 061800Z 31012G20KT 12SM -SHRA SCT014 BKN031 OVC047 10/09 A2988 RMK CU3SC4SC1 SLP127",2025-09-06 18:45:14.493224,2025-09-06 14:45:14.493224
"CYTS",2025-09-06 18:00:00,2025-09-06 14:00:00,"VFR",11,5,67,270,5,24100,29.81,NA,"OVC  ft","CYTS 061800Z 27005KT 210V320 15SM OVC032 11/05 A2981 RMK SC8 SLP104",2025-09-06 18:45:14.538223,2025-09-06 14:45:14.538223
"CYSB",2025-09-06 18:00:00,2025-09-06 14:00:00,"VFR",14,5,55,240,9,32200,29.84,NA,"BKN  ft; OVC  ft","CYSB 061800Z 24009G15KT 220V290 20SM BKN035 OVC075 14/05 A2984 RMK CU6AC2 SLP114 DENSITY ALT 1400FT",2025-09-06 18:45:14.608763,2025-09-06 14:45:14.608763
"CYYB",2025-09-06 18:00:00,2025-09-06 14:00:00,"VFR",15,7,59,250,14,48300,29.86,NA,"SCT  ft; BKN  ft","CYYB 061800Z 25014G21KT 210V270 30SM SCT031 BKN095 15/07 A2986 RMK CU4AC3 SLP118 DENSITY ALT 1600FT",2025-09-06 18:45:14.676762,2025-09-06 14:45:14.676762
"CYOW",2025-09-06 18:00:00,2025-09-06 14:00:00,"VFR",18,8,52,220,12,24100,29.92,NA,"SCT  ft; SCT  ft","CYOW 061800Z 22012G18KT 15SM SCT040 SCT210 18/08 A2992 RMK CU3CC1 SLP133 DENSITY ALT 800FT",2025-09-06 18:45:14.746702,2025-09-06 14:45:14.746702
"CYGK",2025-09-06 18:00:00,2025-09-06 14:00:00,"VFR",20,9,49,230,11,24100,29.95,NA,"FEW  ft; SCT  ft; SCT  ft; BKN  ft","CYGK 061800Z 23011G16KT 190V260 15SM FEW025 SCT090 SCT170 BKN250 20/09 A2995 RMK CU2AC1AC1CI1 SLP145 DENSITY ALT 1000FT",2025-09-06 18:45:14.81976,2025-09-06 14:45:14.81976
"CYQG",2025-09-06 18:00:00,2025-09-06 14:00:00,"VFR",18,7,49,260,13,14500,30,NA,"OVC  ft","CYQG 061800Z AUTO 26013G19KT 9SM OVC066 18/07 A3000 RMK SLP160 DENSITY ALT 1100FT",2025-09-06 18:45:14.892918,2025-09-06 14:45:14.892918
"CYVV",2025-09-06 18:00:00,2025-09-06 14:00:00,"MVFR",13,11,88,230,8,24100,29.92,NA,"BKN  ft; OVC  ft","CYVV 061800Z 23008KT 15SM -SHRA BKN026 OVC052 13/11 A2992 RMK CU7SC1 SLP138",2025-09-06 18:45:14.963905,2025-09-06 14:45:14.963905
"CYYZ",2025-09-06 18:00:00,2025-09-06 14:00:00,"VFR",19,6,43,230,15,24100,29.93,NA,"BKN  ft","CYYZ 061800Z 23015G20KT 15SM BKN058 19/06 A2993 RMK CU7 SLP139 DENSITY ALT 1200FT",2025-09-06 18:45:15.030995,2025-09-06 14:45:15.030995
"CYQA",2025-09-06 18:00:00,2025-09-06 14:00:00,"VFR",15,7,59,250,9,14500,29.92,NA,"FEW  ft; OVC  ft","CYQA 061800Z AUTO 25009G19KT 230V290 9SM FEW055 OVC071 15/07 A2992 RMK SLP136 DENSITY ALT 1200FT",2025-09-06 18:45:15.098966,2025-09-06 14:45:15.098966
"CYVR",2025-09-06 18:00:00,2025-09-06 14:00:00,"VFR",19,15,78,110,11,24100,29.93,NA,"FEW  ft; SCT  ft; BKN  ft","CYVR 061800Z 11011G18KT 15SM FEW017 SCT120 BKN220 19/15 A2993 RMK SC2AC1CI3 HZ SLP137 DENSITY ALT 500FT",2025-09-06 18:45:15.166851,2025-09-06 14:45:15.166851
"CYYJ",2025-09-06 18:00:00,2025-09-06 14:00:00,"VFR",16,13,83,130,9,32200,29.93,NA,"FEW  ft; BKN  ft","CYYJ 061800Z 13009G15KT 20SM FEW010 BKN250 16/13 A2993 RMK SF1CI6 SF TR SLP138",2025-09-06 18:45:15.233102,2025-09-06 14:45:15.233102
"CYLW",2025-09-06 18:00:00,2025-09-06 14:00:00,"VFR",22,11,50,340,4,12900,29.91,NA,"CLR  ft","CYLW 061800Z AUTO 34004KT 310V080 8SM CLR 22/11 A2991 RMK SLP127 DENSITY ALT 2600FT",2025-09-06 18:45:15.3038,2025-09-06 14:45:15.3038
"CYXS",2025-09-06 18:00:00,2025-09-06 14:00:00,"VFR",15,12,82,170,3,14500,29.95,NA,"CLR  ft","CYXS 061800Z AUTO 17003KT 130V220 9SM CLR 15/12 A2995 RMK SLP157 DENSITY ALT 2800FT",2025-09-06 18:45:15.373663,2025-09-06 14:45:15.373663
"CYXT",2025-09-06 18:41:00,2025-09-06 14:41:00,"MVFR",16,16,100,260,3,6400,29.92,NA,"FEW  ft; SCT  ft","CYXT 061841Z 26003KT 240V350 4SM BR FEW005 SCT210 16/16 A2992 RMK FG1SF1CI1 SLP137 DENSITY ALT 1100FT",2025-09-06 18:45:15.439766,2025-09-06 14:45:15.439766
"CYQQ",2025-09-06 18:00:00,2025-09-06 14:00:00,"VFR",21,15,69,10,6,24100,29.9,NA,"SCT  ft","CYQQ 061800Z 01006KT 15SM SCT250 21/15 A2990 RMK CI3 DENSITY ALT 1044FT HZ SLP127",2025-09-06 18:45:15.507089,2025-09-06 14:45:15.507089
"CYYC",2025-09-06 18:00:00,2025-09-06 14:00:00,"VFR",21,7,40,160,4,19300,29.98,NA,"SKC  ft","CYYC 061800Z 16004KT 100V220 12SM SKC 21/07 A2998 RMK FU SLP154 DENSITY ALT 5100FT",2025-09-06 18:45:15.573399,2025-09-06 14:45:15.573399
"CYEG",2025-09-06 18:00:00,2025-09-06 14:00:00,"VFR",18,6,46,190,4,32200,29.95,NA,"SCT  ft","CYEG 061800Z 19004KT 130V210 20SM SCT250 18/06 A2995 RMK CI3 SLP153 DENSITY ALT 3300FT",2025-09-06 18:45:15.639791,2025-09-06 14:45:15.639791
"CYMM",2025-09-06 18:00:00,2025-09-06 14:00:00,"VFR",20,7,43,100,9,14500,29.95,NA,"CLR  ft","CYMM 061800Z AUTO 10009KT 060V140 9SM CLR 20/07 A2995 RMK SLP151 DENSITY ALT 2100FT",2025-09-06 18:45:15.669611,2025-09-06 14:45:15.669611
"CYQF",2025-09-06 18:00:00,2025-09-06 14:00:00,"VFR",20,7,43,180,5,14500,29.97,NA,"CLR  ft","CYQF 061800Z AUTO 18005KT 140V210 9SM CLR 20/07 A2997 RMK SLP161 DENSITY ALT 4200FT",2025-09-06 18:45:15.697444,2025-09-06 14:45:15.697444
"CYXE",2025-09-06 18:00:00,2025-09-06 14:00:00,"VFR",17,4,42,140,6,24100,30.12,NA,"FEW  ft","CYXE 061800Z 14006KT 070V170 15SM FEW300 17/04 A3012 RMK CI1 SLP214 DENSITY ALT 2100FT",2025-09-06 18:45:15.764726,2025-09-06 14:45:15.764726
"CYQR",2025-09-06 18:00:00,2025-09-06 14:00:00,"VFR",15,2,42,90,5,24100,30.15,NA,"FEW  ft; FEW  ft","CYQR 061800Z 09005KT 040V140 15SM FEW048 FEW250 15/02 A3015 RMK CF1CI1 CF TR CI TR SLP230 DENSITY ALT 2100FT",2025-09-06 18:45:15.837137,2025-09-06 14:45:15.837137
"CYWG",2025-09-06 18:00:00,2025-09-06 14:00:00,"VFR",13,5,59,360,13,24100,30.07,NA,"FEW  ft; FEW  ft; BKN  ft","CYWG 061800Z 36013G20KT 15SM FEW035 FEW045 BKN075 13/05 A3007 RMK CU1SC1AC5 DIST SH N-NE TCU TOPS SLP190",2025-09-06 18:45:15.871982,2025-09-06 14:45:15.871982
"CYBR",2025-09-06 18:00:00,2025-09-06 14:00:00,"MVFR",12,6,67,340,11,24100,30.13,NA,"BKN  ft; BKN  ft","CYBR 061800Z 34011G17KT 15SM BKN030 BKN060 12/06 A3013 RMK CU5SC2 SLP219",2025-09-06 18:45:15.94135,2025-09-06 14:45:15.94135
"CYUL",2025-09-06 18:00:00,2025-09-06 14:00:00,"MVFR",14,12,88,250,7,12900,29.96,NA,"BKN  ft; OVC  ft","CYUL 061800Z CCA 25007KT 8SM -RA BKN017 OVC070 14/12 A2996 RMK SC5AC3 SLP148",2025-09-06 18:45:16.012808,2025-09-06 14:45:16.012808
"CYHU",2025-09-06 18:35:00,2025-09-06 14:35:00,"MVFR",15,14,94,170,8,14500,29.96,NA,"SCT  ft; BKN  ft; BKN  ft; OVC  ft","CYHU 061835Z AUTO 17008KT 9SM -RA SCT013 BKN024 BKN032 OVC055 15/14 A2996 RMK PCPN 0.8MM PAST HR SLP146",2025-09-06 18:45:16.088478,2025-09-06 14:45:16.088478
"CYQB",2025-09-06 18:00:00,2025-09-06 14:00:00,"VFR",14,12,88,220,6,9700,29.97,NA,"FEW  ft; BKN  ft; OVC  ft","CYQB 061800Z 22006KT 6SM -SHRA BR FEW022 BKN049 OVC069 14/12 A2997 RMK SC1SC6AC1 CVCTV CLD EMBD SLP151",2025-09-06 18:45:16.163421,2025-09-06 14:45:16.163421
"CYVO",2025-09-06 18:00:00,2025-09-06 14:00:00,"VFR",12,8,77,220,6,24100,29.8,NA,"BKN  ft; BKN  ft","CYVO 061800Z 22006KT 15SM -SHRA BKN036TCU BKN170 12/08 A2980 RMK TCU5AC2 SLP103",2025-09-06 18:45:16.23741,2025-09-06 14:45:16.23741
"CYUY",2025-09-06 18:00:00,2025-09-06 14:00:00,"VFR",13,6,63,300,9,24100,29.8,NA,"SCT  ft; BKN  ft","CYUY 061800Z 30009G15KT 15SM SCT030 BKN240 13/06 A2980 RMK SC4CI3 CU ASOCTD SLP103",2025-09-06 18:45:16.313468,2025-09-06 14:45:16.313468
"CYZV",2025-09-06 18:00:00,2025-09-06 14:00:00,"VFR",19,9,52,220,13,48300,29.79,NA,"FEW  ft; BKN  ft; BKN  ft","CYZV 061800Z 22013G22KT 30SM FEW050 BKN170 BKN200 19/09 A2979 RMK CU1AC6CI1 CU TR SLP090 DENSITY ALT 900FT",2025-09-06 18:45:16.344937,2025-09-06 14:45:16.344937
"CYBC",2025-09-06 18:00:00,2025-09-06 14:00:00,"VFR",15,11,77,240,22,14500,29.85,NA,"OVC  ft","CYBC 061800Z AUTO 24022KT 9SM OVC060 15/11 A2985 RMK SLP111",2025-09-06 18:45:16.417857,2025-09-06 14:45:16.417857
"CYRJ",2025-09-06 18:00:00,2025-09-06 14:00:00,"VFR",15,8,63,230,10,64400,29.84,NA,"FEW  ft; BKN  ft; BKN  ft","CYRJ 061800Z 23010G20KT 190V250 40SM FEW033 BKN190 BKN200 15/08 A2984 RMK SC2AC3CI2 SLP111 DENSITY ALT 800FT",2025-09-06 18:45:16.490206,2025-09-06 14:45:16.490206
"CYHZ",2025-09-06 18:00:00,2025-09-06 14:00:00,"VFR",25,20,74,200,10,24100,30.06,NA,"FEW  ft; BKN  ft","CYHZ 061800Z 20010G17KT 15SM FEW028 BKN240 25/20 A3006 RMK CU1CS5 CU TR SLP181 DENSITY ALT 1600FT",2025-09-06 18:45:16.560505,2025-09-06 14:45:16.560505
"CYYG",2025-09-06 18:00:00,2025-09-06 14:00:00,"VFR",27,18,58,200,14,24100,29.99,NA,"FEW  ft; SCT  ft","CYYG 061800Z 20014G22KT 15SM FEW034 SCT250 27/18 A2999 RMK CF1CI3 CF TR SLP156 DENSITY ALT 1600FT",2025-09-06 18:45:16.631726,2025-09-06 14:45:16.631726
"CYQM",2025-09-06 18:00:00,2025-09-06 14:00:00,"VFR",26,19,65,200,16,24100,29.96,NA,"SCT  ft; SCT  ft","CYQM 061800Z 20016G27KT 15SM SCT030 SCT220 26/19 A2996 RMK SC3CS1 CU ASOCTD SLP149 DENSITY ALT 1500FT",2025-09-06 18:45:16.704867,2025-09-06 14:45:16.704867
"CYFC",2025-09-06 18:00:00,2025-09-06 14:00:00,"VFR",23,19,78,190,6,14500,29.94,NA,"SCT  ft; OVC  ft","CYFC 061800Z AUTO 19006KT 9SM SCT020 OVC076 23/19 A2994 RMK SLP142 DENSITY ALT 1100FT",2025-09-06 18:45:16.775688,2025-09-06 14:45:16.775688
"CYYT",2025-09-06 18:00:00,2025-09-06 14:00:00,"VFR",24,11,44,260,11,24100,30.14,NA,"FEW  ft; FEW  ft","CYYT 061800Z 26011KT 15SM FEW120 FEW220 24/11 A3014 RMK AC1CI2 AC TR SLP210 DENSITY ALT 1400FT",2025-09-06 18:45:16.845824,2025-09-06 14:45:16.845824
"CYQY",2025-09-06 18:00:00,2025-09-06 14:00:00,"VFR",27,19,62,250,11,24100,30.05,NA,"FEW  ft; BKN  ft","CYQY 061800Z 25011G16KT 15SM FEW038 BKN240 27/19 A3005 RMK CU1CI5 SLP179 DENSITY ALT 1600FT",2025-09-06 18:45:16.91876,2025-09-06 14:45:16.91876
"CYXY",2025-09-06 18:00:00,2025-09-06 14:00:00,"VFR",14,12,88,0,2,64400,29.97,NA,"FEW  ft; SCT  ft; BKN  ft; BKN  ft","CYXY 061800Z VRB02KT 40SM FEW004 SCT011 BKN035 BKN068 14/12 A2997 RMK SF1SF2SC3AC1 SLP161 DENSITY ALT 2800FT",2025-09-06 18:45:16.986827,2025-09-06 14:45:16.986827
"CYZF",2025-09-06 18:00:00,2025-09-06 14:00:00,"VFR",13,8,72,140,16,24100,29.8,NA,"FEW  ft; BKN  ft; BKN  ft","CYZF 061800Z 14016G22KT 15SM FEW110 BKN150 BKN220 13/08 A2980 RMK AC1AC5CI2 AC TR SLP101",2025-09-06 18:45:17.055806,2025-09-06 14:45:17.055806
"CYFB",2025-09-06 18:15:00,2025-09-06 14:15:00,"MVFR",3,1,87,130,15,8000,29.64,NA,"OVC  ft","CYFB 061815Z 13015G20KT 5SM -RA BR OVC010 03/01 A2964 RMK SC8 SLP040",2025-09-06 18:45:17.124205,2025-09-06 14:45:17.124205
"CYRT",2025-09-06 18:00:00,2025-09-06 14:00:00,"VFR",7,1,66,360,17,24100,29.91,NA,"SCT  ft; BKN  ft; BKN  ft","CYRT 061800Z 36017KT 15SM SCT026 BKN038 BKN074 07/01 A2991 RMK SC3SC3AC1 SLP132",2025-09-06 18:45:17.191691,2025-09-06 14:45:17.191691
"CYBK",2025-09-06 18:00:00,2025-09-06 14:00:00,"VFR",7,1,66,360,14,40200,30.01,NA,"BKN  ft; BKN  ft","CYBK 061800Z 36014KT 25SM BKN031 BKN049 07/01 A3001 RMK SC5SC2 SLP165",2025-09-06 18:45:17.262708,2025-09-06 14:45:17.262708
"CYRB",2025-09-06 18:00:00,2025-09-06 14:00:00,"VFR",-1,-3,86,150,13,48300,30.06,NA,"SCT  ft","CYRB 061800Z 15013KT 30SM SCT011 M01/M03 A3006 RMK ST4 SLP187",2025-09-06 18:45:17.35355,2025-09-06 14:45:17.35355
"CYCO",2025-09-06 18:00:00,2025-09-06 14:00:00,"VFR",16,8,59,230,14,9999,29.62,NA,"BKN  ft; OVC  ft","CYCO 061800Z 23014G23KT 10SM BKN150 OVC180 16/08 A2962 RMK FU4AC3AC1 FU SLP033 DENSITY ALT 600FT",2025-09-06 18:45:17.423174,2025-09-06 14:45:17.423174
"CYER",2025-09-06 19:03:00,2025-09-06 15:03:00,"MVFR",7,7,100,330,12,14500,29.75,NA,"OVC  ft","CYER 061903Z AUTO 33012G20KT 9SM OVC012 07/07 A2975 RMK SLP076",2025-09-06 19:18:13.365868,2025-09-06 15:18:13.365868
"CYAT",2025-09-06 19:00:00,2025-09-06 15:00:00,"MVFR",10,8,88,280,8,14500,29.66,NA,"OVC  ft","CYAT 061900Z AUTO 28008KT 9SM OVC016 10/08 A2966 RMK SLP047",2025-09-06 19:18:13.422734,2025-09-06 15:18:13.422734
"CYMO",2025-09-06 19:09:00,2025-09-06 15:09:00,"MVFR",10,9,94,260,7,14500,29.72,NA,"FEW  ft; BKN  ft; OVC  ft","CYMO 061909Z AUTO 26007KT 9SM FEW014 BKN019 OVC025 10/09 A2972 RMK SLP068",2025-09-06 19:18:13.52013,2025-09-06 15:18:13.52013
"CYPL",2025-09-06 19:13:00,2025-09-06 15:13:00,"MVFR",7,5,87,310,8,14500,29.87,NA,"SCT  ft; BKN  ft; BKN  ft; OVC  ft","CYPL 061913Z AUTO 31008G17KT 260V030 9SM -RA SCT015 BKN019 BKN027 OVC034 07/05 A2987 RMK SLP130",2025-09-06 19:18:13.573845,2025-09-06 15:18:13.573845
"CYQT",2025-09-06 19:00:00,2025-09-06 15:00:00,"VFR",14,4,51,310,11,32200,29.89,NA,"BKN  ft; BKN  ft","CYQT 061900Z 31011G17KT 20SM -SHRA BKN055 BKN070 14/04 A2989 RMK SC5AC2 CVCTV CLD EMBD SLP128",2025-09-06 19:18:13.667551,2025-09-06 15:18:13.667551
"CYAM",2025-09-06 19:00:00,2025-09-06 15:00:00,"MVFR",11,8,82,320,10,9999,29.9,NA,"BKN  ft; OVC  ft","CYAM 061900Z 32010G17KT 10SM -SHRA BKN018 OVC043 11/08 A2990 RMK CU5SC3 SLP131",2025-09-06 19:18:13.716718,2025-09-06 15:18:13.716718
"CYTS",2025-09-06 19:00:00,2025-09-06 15:00:00,"VFR",12,5,63,0,5,24100,29.81,NA,"OVC  ft","CYTS 061900Z VRB05KT 15SM OVC038 12/05 A2981 RMK SC8 SLP105",2025-09-06 19:18:13.805084,2025-09-06 15:18:13.805084
"CYSB",2025-09-06 19:00:00,2025-09-06 15:00:00,"VFR",11,8,82,220,8,32200,29.86,NA,"BKN  ft; OVC  ft","CYSB 061900Z 22008G16KT 20SM -SHRA BKN038 OVC076 11/08 A2986 RMK SC7AC1 CVCTV CLD EMBD SLP122",2025-09-06 19:18:13.894727,2025-09-06 15:18:13.894727
"CYYB",2025-09-06 19:00:00,2025-09-06 15:00:00,"VFR",14,8,67,230,10,48300,29.86,NA,"SCT  ft; OVC  ft","CYYB 061900Z 23010KT 210V290 30SM SCT031 OVC055 14/08 A2986 RMK CU4SC4 SLP119 DENSITY ALT 1500FT",2025-09-06 19:18:13.985102,2025-09-06 15:18:13.985102
"CYOW",2025-09-06 19:00:00,2025-09-06 15:00:00,"VFR",19,8,49,230,10,24100,29.91,NA,"SCT  ft; BKN  ft","CYOW 061900Z 23010G15KT 190V250 15SM SCT047 BKN250 19/08 A2991 RMK CU3CI3 SLP131 DENSITY ALT 900FT",2025-09-06 19:18:14.033057,2025-09-06 15:18:14.033057
"CYGK",2025-09-06 19:00:00,2025-09-06 15:00:00,"VFR",19,11,60,190,18,24100,29.94,NA,"FEW  ft; SCT  ft; BKN  ft","CYGK 061900Z 19018KT 15SM FEW025 SCT080 BKN250 19/11 A2994 RMK SC1AC3CI1 SLP142 DENSITY ALT 900FT",2025-09-06 19:18:14.125616,2025-09-06 15:18:14.125616
"CYQG",2025-09-06 19:00:00,2025-09-06 15:00:00,"VFR",19,5,40,290,13,14500,30,NA,"BKN  ft","CYQG 061900Z AUTO 29013G19KT 240V300 9SM BKN071 19/05 A3000 RMK SLP159 DENSITY ALT 1100FT",2025-09-06 19:18:14.176908,2025-09-06 15:18:14.176908
"CYVV",2025-09-06 19:10:00,2025-09-06 15:10:00,"MVFR",13,10,82,240,5,24100,29.93,NA,"BKN  ft; BKN  ft","CYVV 061910Z 24005KT 15SM BKN026 BKN050 13/10 A2993 RMK CU6SC1 SLP139",2025-09-06 19:18:14.269463,2025-09-06 15:18:14.269463
"CYYZ",2025-09-06 19:00:00,2025-09-06 15:00:00,"VFR",19,7,46,230,9,24100,29.93,NA,"BKN  ft","CYYZ 061900Z 23009G16KT 15SM BKN059 19/07 A2993 RMK CU7 SLP138 DENSITY ALT 1200FT",2025-09-06 19:18:14.319437,2025-09-06 15:18:14.319437
"CYQA",2025-09-06 19:00:00,2025-09-06 15:00:00,"VFR",15,8,63,270,9,14500,29.92,NA,"FEW  ft; BKN  ft; OVC  ft","CYQA 061900Z AUTO 27009G25KT 240V310 9SM FEW032 BKN049 OVC060 15/08 A2992 RMK SLP138 DENSITY ALT 1200FT",2025-09-06 19:18:14.414519,2025-09-06 15:18:14.414519
"CYVR",2025-09-06 19:00:00,2025-09-06 15:00:00,"VFR",20,15,73,110,4,24100,29.93,NA,"SCT  ft; BKN  ft","CYVR 061900Z 11004KT 060V160 15SM SCT022 BKN220 20/15 A2993 RMK SC3CI3 HZ SLP138 DENSITY ALT 600FT",2025-09-06 19:18:14.505368,2025-09-06 15:18:14.505368
"CYYJ",2025-09-06 19:00:00,2025-09-06 15:00:00,"VFR",16,12,77,120,8,32200,29.93,NA,"FEW  ft; FEW  ft; BKN  ft","CYYJ 061900Z 12008KT 20SM FEW005 FEW200 BKN250 16/12 A2993 RMK SF1CC1CI5 SF TR SLP138",2025-09-06 19:18:14.608467,2025-09-06 15:18:14.608467
"CYLW",2025-09-06 19:00:00,2025-09-06 15:00:00,"VFR",24,11,44,320,11,12900,29.9,NA,"CLR  ft","CYLW 061900Z AUTO 32011G16KT 8SM CLR 24/11 A2990 RMK SLP124 DENSITY ALT 2800FT",2025-09-06 19:18:14.661577,2025-09-06 15:18:14.661577
"CYXS",2025-09-06 19:00:00,2025-09-06 15:00:00,"VFR",17,12,73,160,3,14500,29.95,NA,"BKN  ft","CYXS 061900Z AUTO 16003KT 120V210 9SM BKN150 17/12 A2995 RMK SLP154 DENSITY ALT 3100FT",2025-09-06 19:18:14.755314,2025-09-06 15:18:14.755314
"CYXT",2025-09-06 19:00:00,2025-09-06 15:00:00,"VFR",17,16,94,0,0,24100,29.91,NA,"FEW  ft; FEW  ft","CYXT 061900Z 00000KT 15SM FEW005 FEW210 17/16 A2991 RMK FG1SF1CI1 SF TR FU VIS W 4 SLP133 DENSITY ALT 1200FT",2025-09-06 19:18:14.842006,2025-09-06 15:18:14.842006
"CYQQ",2025-09-06 19:00:00,2025-09-06 15:00:00,"VFR",21,15,69,60,7,19300,29.91,NA,"FEW  ft","CYQQ 061900Z 06007KT 12SM FEW250 21/15 A2991 RMK CI2 DENSITY ALT 1045FT FU SLP129",2025-09-06 19:18:14.928988,2025-09-06 15:18:14.928988
"CYYC",2025-09-06 19:00:00,2025-09-06 15:00:00,"VFR",23,9,41,180,3,9999,29.98,NA,"SKC  ft","CYYC 061900Z 18003KT 090V220 10SM SKC 23/09 A2998 RMK FU SLP153 DENSITY ALT 5300FT",2025-09-06 19:18:15.017089,2025-09-06 15:18:15.017089
"CYEG",2025-09-06 19:00:00,2025-09-06 15:00:00,"VFR",21,7,40,0,2,32200,29.95,NA,"SCT  ft","CYEG 061900Z VRB02KT 20SM SCT250 21/07 A2995 RMK CI3 SLP150 DENSITY ALT 3600FT",2025-09-06 19:18:15.106226,2025-09-06 15:18:15.106226
"CYMM",2025-09-06 19:00:00,2025-09-06 15:00:00,"VFR",22,6,36,130,10,14500,29.93,NA,"CLR  ft","CYMM 061900Z AUTO 13010KT 9SM CLR 22/06 A2993 RMK SLP144 DENSITY ALT 2300FT",2025-09-06 19:18:15.197953,2025-09-06 15:18:15.197953
"CYQF",2025-09-06 19:00:00,2025-09-06 15:00:00,"VFR",23,8,38,160,7,14500,29.97,NA,"CLR  ft","CYQF 061900Z AUTO 16007KT 100V200 9SM CLR 23/08 A2997 RMK SLP153 DENSITY ALT 4500FT",2025-09-06 19:18:15.252923,2025-09-06 15:18:15.252923
"CYXE",2025-09-06 19:00:00,2025-09-06 15:00:00,"VFR",18,4,40,110,6,24100,30.11,NA,"SCT  ft","CYXE 061900Z 11006KT 080V180 15SM SCT300 18/04 A3011 RMK CI3 SLP211 DENSITY ALT 2200FT",2025-09-06 19:18:15.342271,2025-09-06 15:18:15.342271
"CYQR",2025-09-06 19:00:00,2025-09-06 15:00:00,"VFR",15,2,42,170,3,24100,30.14,NA,"FEW  ft; FEW  ft","CYQR 061900Z 17003KT 100V240 15SM FEW055 FEW250 15/02 A3014 RMK CF1CI1 CF TR CI TR SLP228 DENSITY ALT 2200FT",2025-09-06 19:18:15.430391,2025-09-06 15:18:15.430391
"CYWG",2025-09-06 19:00:00,2025-09-06 15:00:00,"VFR",12,6,67,30,11,22500,30.08,NA,"SCT  ft; BKN  ft; BKN  ft","CYWG 061900Z CCA 03011G17KT 14SM SCT035TCU BKN065 BKN078 12/06 A3008 RMK TCU4CU2AC1 VIRGA N-SE HRZN SLP196",2025-09-06 19:18:15.539319,2025-09-06 15:18:15.539319
"CYBR",2025-09-06 19:00:00,2025-09-06 15:00:00,"VFR",11,6,72,10,7,24100,30.14,NA,"FEW  ft; BKN  ft","CYBR 061900Z 01007KT 15SM FEW033 BKN050 11/06 A3014 RMK CU1SC6 SLP222",2025-09-06 19:18:15.630455,2025-09-06 15:18:15.630455
"CYUL",2025-09-06 19:00:00,2025-09-06 15:00:00,"MVFR",14,13,94,270,7,9999,29.95,NA,"FEW  ft; BKN  ft; OVC  ft","CYUL 061900Z 27007KT 230V300 10SM -RA FEW011 BKN016 OVC070 14/13 A2995 RMK CU1SC7AC1 CU TR SLP144",2025-09-06 19:18:15.678965,2025-09-06 15:18:15.678965
"CYHU",2025-09-06 19:00:00,2025-09-06 15:00:00,"VFR",15,14,94,190,6,14500,29.95,NA,"FEW  ft; SCT  ft; BKN  ft; OVC  ft","CYHU 061900Z AUTO 19006KT 9SM -RA FEW011 SCT023 BKN039 OVC098 15/14 A2995 RMK PCPN 1.5MM PAST HR SLP144",2025-09-06 19:18:15.770485,2025-09-06 15:18:15.770485
"CYQB",2025-09-06 19:00:00,2025-09-06 15:00:00,"VFR",14,13,94,210,9,12900,29.95,NA,"FEW  ft; BKN  ft; OVC  ft","CYQB 061900Z 21009KT 8SM -SHRA FEW023 BKN054 OVC067 14/13 A2995 RMK SC1SC7AC1 SC TR CVCTV CLD EMBD SLP146",2025-09-06 19:18:15.859424,2025-09-06 15:18:15.859424
"CYVO",2025-09-06 19:00:00,2025-09-06 15:00:00,"VFR",13,7,67,230,9,24100,29.81,NA,"SCT  ft; BKN  ft; BKN  ft","CYVO 061900Z 23009G15KT 15SM VCSH SCT047 BKN065 BKN170 13/07 A2981 RMK CU3SC2AC2 SLP106",2025-09-06 19:18:15.947809,2025-09-06 15:18:15.947809
"CYUY",2025-09-06 19:00:00,2025-09-06 15:00:00,"VFR",12,6,67,270,8,24100,29.81,NA,"BKN  ft; BKN  ft; BKN  ft","CYUY 061900Z 27008KT 240V320 15SM BKN031 BKN050 BKN220 12/06 A2981 RMK SC5SC2CI1 CI TR CU ASOCTD SLP106",2025-09-06 19:18:16.036424,2025-09-06 15:18:16.036424
"CYZV",2025-09-06 19:00:00,2025-09-06 15:00:00,"VFR",18,10,60,230,17,48300,29.79,NA,"FEW  ft; FEW  ft; OVC  ft","CYZV 061900Z 23017G27KT 30SM FEW050 FEW180 OVC200 18/10 A2979 RMK CU1CI2CI6 CU TR SLP091 DENSITY ALT 800FT",2025-09-06 19:18:16.124175,2025-09-06 15:18:16.124175
"CYBC",2025-09-06 19:00:00,2025-09-06 15:00:00,"VFR",15,10,72,240,18,14500,29.85,NA,"BKN  ft","CYBC 061900Z AUTO 24018G29KT 9SM BKN066 15/10 A2985 RMK SLP111",2025-09-06 19:18:16.17183,2025-09-06 15:18:16.17183
"CYRJ",2025-09-06 19:00:00,2025-09-06 15:00:00,"VFR",16,10,68,210,10,64400,29.83,NA,"SCT  ft; BKN  ft; BKN  ft","CYRJ 061900Z 21010G16KT 170V230 40SM SCT032 BKN080 BKN220 16/10 A2983 RMK SC3AC4CI1 CI TR SLP107 DENSITY ALT 1000FT",2025-09-06 19:18:16.263745,2025-09-06 15:18:16.263745
"CYHZ",2025-09-06 19:00:00,2025-09-06 15:00:00,"VFR",26,20,70,200,12,24100,30.06,NA,"FEW  ft; BKN  ft","CYHZ 061900Z 20012G18KT 15SM FEW032 BKN250 26/20 A3006 RMK CU1CS6 CU TR SLP179 DENSITY ALT 1800FT",2025-09-06 19:18:16.350394,2025-09-06 15:18:16.350394
"CYYG",2025-09-06 19:00:00,2025-09-06 15:00:00,"VFR",27,18,58,170,14,24100,29.97,NA,"SKC  ft","CYYG 061900Z 17014G19KT 15SM SKC 27/18 A2997 RMK SLP152 DENSITY ALT 1600FT",2025-09-06 19:18:16.445434,2025-09-06 15:18:16.445434
"CYQM",2025-09-06 19:00:00,2025-09-06 15:00:00,"VFR",28,19,58,200,13,24100,29.95,NA,"SCT  ft; BKN  ft","CYQM 061900Z 20013G20KT 15SM SCT030 BKN220 28/19 A2995 RMK CU3CS3 SLP142 DENSITY ALT 1700FT",2025-09-06 19:18:16.540473,2025-09-06 15:18:16.540473
"CYFC",2025-09-06 19:00:00,2025-09-06 15:00:00,"VFR",24,19,74,170,11,14500,29.92,NA,"FEW  ft; SCT  ft; BKN  ft","CYFC 061900Z AUTO 17011KT 9SM FEW024 SCT081 BKN097 24/19 A2992 RMK SLP134 DENSITY ALT 1200FT",2025-09-06 19:18:16.63401,2025-09-06 15:18:16.63401
"CYYT",2025-09-06 19:00:00,2025-09-06 15:00:00,"VFR",22,10,47,270,13,24100,30.15,NA,"SCT  ft; SCT  ft","CYYT 061900Z 27013KT 15SM SCT031 SCT240 22/10 A3015 RMK SC3CI4 SLP215 DENSITY ALT 1200FT",2025-09-06 19:18:16.725344,2025-09-06 15:18:16.725344
"CYQY",2025-09-06 19:00:00,2025-09-06 15:00:00,"VFR",27,18,58,210,13,24100,30.04,NA,"FEW  ft; BKN  ft","CYQY 061900Z 21013G19KT 15SM FEW033 BKN240 27/18 A3004 RMK CU1CI5 CU TR SLP175 DENSITY ALT 1500FT",2025-09-06 19:18:16.773328,2025-09-06 15:18:16.773328
"CYXY",2025-09-06 19:00:00,2025-09-06 15:00:00,"VFR",15,11,77,330,4,64400,29.96,NA,"SCT  ft; BKN  ft; BKN  ft","CYXY 061900Z 33004KT 300V060 40SM SCT035 BKN080 BKN220 15/11 A2996 RMK SC4AC2CI1 SLP160 DENSITY ALT 2800FT",2025-09-06 19:18:16.867566,2025-09-06 15:18:16.867566
"CYZF",2025-09-06 19:00:00,2025-09-06 15:00:00,"VFR",14,8,67,140,12,24100,29.8,NA,"FEW  ft; SCT  ft; BKN  ft","CYZF 061900Z 14012G20KT 15SM FEW110 SCT150 BKN210 14/08 A2980 RMK AC1AC3CI3 SLP101",2025-09-06 19:18:16.95613,2025-09-06 15:18:16.95613
"CYFB",2025-09-06 19:00:00,2025-09-06 15:00:00,"MVFR",2,1,93,150,11,8000,29.64,NA,"OVC  ft","CYFB 061900Z 15011KT 5SM -RA BR OVC014 02/01 A2964 RMK SC8 SLP040",2025-09-06 19:18:17.003677,2025-09-06 15:18:17.003677
"CYRT",2025-09-06 19:00:00,2025-09-06 15:00:00,"MVFR",7,1,66,360,19,24100,29.9,NA,"BKN  ft; BKN  ft","CYRT 061900Z 36019KT 15SM BKN029 BKN081 07/01 A2990 RMK SC5AC2 SLP130",2025-09-06 19:18:17.094778,2025-09-06 15:18:17.094778
"CYBK",2025-09-06 19:00:00,2025-09-06 15:00:00,"VFR",8,1,62,360,13,40200,30,NA,"SCT  ft; BKN  ft","CYBK 061900Z 36013KT 25SM SCT033 BKN047 08/01 A3000 RMK SC3SC4 SLP162",2025-09-06 19:18:17.143994,2025-09-06 15:18:17.143994
"CYRB",2025-09-06 19:00:00,2025-09-06 15:00:00,"MVFR",-1,-3,86,160,16,40200,30.05,NA,"SCT  ft; BKN  ft","CYRB 061900Z 16016KT 25SM SCT010 BKN015 M01/M03 A3005 RMK ST4ST3 SLP184",2025-09-06 19:18:17.240178,2025-09-06 15:18:17.240178
"CYCO",2025-09-06 19:00:00,2025-09-06 15:00:00,"VFR",14,9,72,260,21,9700,29.64,NA,"BKN  ft; BKN  ft","CYCO 061900Z 26021G28KT 6SM FU BKN068 BKN150 14/09 A2964 RMK FU3AC3AC2 SLP042 DENSITY ALT 400FT",2025-09-06 19:18:17.287457,2025-09-06 15:18:17.287457
"CYER",2025-09-06 19:03:00,2025-09-06 15:03:00,"MVFR",7,7,100,330,12,14500,29.75,NA,"OVC  ft","CYER 061903Z AUTO 33012G20KT 9SM OVC012 07/07 A2975 RMK SLP076",2025-09-06 19:41:23.124283,2025-09-06 15:41:23.124283
"CYAT",2025-09-06 19:00:00,2025-09-06 15:00:00,"MVFR",10,8,88,280,8,14500,29.66,NA,"OVC  ft","CYAT 061900Z AUTO 28008KT 9SM OVC016 10/08 A2966 RMK SLP047",2025-09-06 19:41:23.20116,2025-09-06 15:41:23.20116
"CYMO",2025-09-06 19:23:00,2025-09-06 15:23:00,"MVFR",10,9,94,250,7,14500,29.73,NA,"SCT  ft; OVC  ft","CYMO 061923Z AUTO 25007G15KT 9SM SCT019 OVC027 10/09 A2973 RMK SLP070",2025-09-06 19:41:23.272179,2025-09-06 15:41:23.272179
"CYPL",2025-09-06 19:28:00,2025-09-06 15:28:00,"MVFR",7,5,87,310,7,14500,29.87,NA,"SCT  ft; SCT  ft; BKN  ft; OVC  ft","CYPL 061928Z AUTO 31007G16KT 270V360 9SM -RA SCT017 SCT025 BKN030 OVC066 07/05 A2987 RMK SLP132",2025-09-06 19:41:23.342494,2025-09-06 15:41:23.342494
"CYQT",2025-09-06 19:00:00,2025-09-06 15:00:00,"VFR",14,4,51,310,11,32200,29.89,NA,"BKN  ft; BKN  ft","CYQT 061900Z 31011G17KT 20SM -SHRA BKN055 BKN070 14/04 A2989 RMK SC5AC2 CVCTV CLD EMBD SLP128",2025-09-06 19:41:23.416922,2025-09-06 15:41:23.416922
"CYAM",2025-09-06 19:00:00,2025-09-06 15:00:00,"MVFR",11,8,82,320,10,9999,29.9,NA,"BKN  ft; OVC  ft","CYAM 061900Z 32010G17KT 10SM -SHRA BKN018 OVC043 11/08 A2990 RMK CU5SC3 SLP131",2025-09-06 19:41:23.487421,2025-09-06 15:41:23.487421
"CYTS",2025-09-06 19:00:00,2025-09-06 15:00:00,"VFR",12,5,63,0,5,24100,29.81,NA,"OVC  ft","CYTS 061900Z VRB05KT 15SM OVC038 12/05 A2981 RMK SC8 SLP105",2025-09-06 19:41:23.558125,2025-09-06 15:41:23.558125
"CYSB",2025-09-06 19:00:00,2025-09-06 15:00:00,"VFR",11,8,82,220,8,32200,29.86,NA,"BKN  ft; OVC  ft","CYSB 061900Z 22008G16KT 20SM -SHRA BKN038 OVC076 11/08 A2986 RMK SC7AC1 CVCTV CLD EMBD SLP122",2025-09-06 19:41:23.628685,2025-09-06 15:41:23.628685
"CYYB",2025-09-06 19:00:00,2025-09-06 15:00:00,"VFR",14,8,67,230,10,48300,29.86,NA,"SCT  ft; OVC  ft","CYYB 061900Z 23010KT 210V290 30SM SCT031 OVC055 14/08 A2986 RMK CU4SC4 SLP119 DENSITY ALT 1500FT",2025-09-06 19:41:23.657767,2025-09-06 15:41:23.657767
"CYOW",2025-09-06 19:00:00,2025-09-06 15:00:00,"VFR",19,8,49,230,10,24100,29.91,NA,"SCT  ft; BKN  ft","CYOW 061900Z 23010G15KT 190V250 15SM SCT047 BKN250 19/08 A2991 RMK CU3CI3 SLP131 DENSITY ALT 900FT",2025-09-06 19:41:23.72818,2025-09-06 15:41:23.72818
"CYGK",2025-09-06 19:00:00,2025-09-06 15:00:00,"VFR",19,11,60,190,18,24100,29.94,NA,"FEW  ft; SCT  ft; BKN  ft","CYGK 061900Z 19018KT 15SM FEW025 SCT080 BKN250 19/11 A2994 RMK SC1AC3CI1 SLP142 DENSITY ALT 900FT",2025-09-06 19:41:23.80128,2025-09-06 15:41:23.80128
"CYQG",2025-09-06 19:00:00,2025-09-06 15:00:00,"VFR",19,5,40,290,13,14500,30,NA,"BKN  ft","CYQG 061900Z AUTO 29013G19KT 240V300 9SM BKN071 19/05 A3000 RMK SLP159 DENSITY ALT 1100FT",2025-09-06 19:41:23.871302,2025-09-06 15:41:23.871302
"CYVV",2025-09-06 19:10:00,2025-09-06 15:10:00,"MVFR",13,10,82,240,5,24100,29.93,NA,"BKN  ft; BKN  ft","CYVV 061910Z 24005KT 15SM BKN026 BKN050 13/10 A2993 RMK CU6SC1 SLP139",2025-09-06 19:41:23.942405,2025-09-06 15:41:23.942405
"CYYZ",2025-09-06 19:00:00,2025-09-06 15:00:00,"VFR",19,7,46,230,9,24100,29.93,NA,"BKN  ft","CYYZ 061900Z 23009G16KT 15SM BKN059 19/07 A2993 RMK CU7 SLP138 DENSITY ALT 1200FT",2025-09-06 19:41:24.012783,2025-09-06 15:41:24.012783
"CYQA",2025-09-06 19:00:00,2025-09-06 15:00:00,"VFR",15,8,63,270,9,14500,29.92,NA,"FEW  ft; BKN  ft; OVC  ft","CYQA 061900Z AUTO 27009G25KT 240V310 9SM FEW032 BKN049 OVC060 15/08 A2992 RMK SLP138 DENSITY ALT 1200FT",2025-09-06 19:41:24.084364,2025-09-06 15:41:24.084364
"CYVR",2025-09-06 19:00:00,2025-09-06 15:00:00,"VFR",20,15,73,110,4,24100,29.93,NA,"SCT  ft; BKN  ft","CYVR 061900Z 11004KT 060V160 15SM SCT022 BKN220 20/15 A2993 RMK SC3CI3 HZ SLP138 DENSITY ALT 600FT",2025-09-06 19:41:24.157391,2025-09-06 15:41:24.157391
"CYYJ",2025-09-06 19:00:00,2025-09-06 15:00:00,"VFR",16,12,77,120,8,32200,29.93,NA,"FEW  ft; FEW  ft; BKN  ft","CYYJ 061900Z 12008KT 20SM FEW005 FEW200 BKN250 16/12 A2993 RMK SF1CC1CI5 SF TR SLP138",2025-09-06 19:41:24.229659,2025-09-06 15:41:24.229659
"CYLW",2025-09-06 19:00:00,2025-09-06 15:00:00,"VFR",24,11,44,320,11,12900,29.9,NA,"CLR  ft","CYLW 061900Z AUTO 32011G16KT 8SM CLR 24/11 A2990 RMK SLP124 DENSITY ALT 2800FT",2025-09-06 19:41:24.304952,2025-09-06 15:41:24.304952
"CYXS",2025-09-06 19:00:00,2025-09-06 15:00:00,"VFR",17,12,73,160,3,14500,29.95,NA,"BKN  ft","CYXS 061900Z AUTO 16003KT 120V210 9SM BKN150 17/12 A2995 RMK SLP154 DENSITY ALT 3100FT",2025-09-06 19:41:24.33818,2025-09-06 15:41:24.33818
"CYXT",2025-09-06 19:00:00,2025-09-06 15:00:00,"VFR",17,16,94,0,0,24100,29.91,NA,"FEW  ft; FEW  ft","CYXT 061900Z 00000KT 15SM FEW005 FEW210 17/16 A2991 RMK FG1SF1CI1 SF TR FU VIS W 4 SLP133 DENSITY ALT 1200FT",2025-09-06 19:41:24.408114,2025-09-06 15:41:24.408114
"CYQQ",2025-09-06 19:00:00,2025-09-06 15:00:00,"VFR",21,15,69,60,7,19300,29.91,NA,"FEW  ft","CYQQ 061900Z 06007KT 12SM FEW250 21/15 A2991 RMK CI2 DENSITY ALT 1045FT FU SLP129",2025-09-06 19:41:24.438068,2025-09-06 15:41:24.438068
"CYYC",2025-09-06 19:00:00,2025-09-06 15:00:00,"VFR",23,9,41,180,3,9999,29.98,NA,"SKC  ft","CYYC 061900Z 18003KT 090V220 10SM SKC 23/09 A2998 RMK FU SLP153 DENSITY ALT 5300FT",2025-09-06 19:41:24.507754,2025-09-06 15:41:24.507754
"CYEG",2025-09-06 19:00:00,2025-09-06 15:00:00,"VFR",21,7,40,0,2,32200,29.95,NA,"SCT  ft","CYEG 061900Z VRB02KT 20SM SCT250 21/07 A2995 RMK CI3 SLP150 DENSITY ALT 3600FT",2025-09-06 19:41:24.577074,2025-09-06 15:41:24.577074
"CYMM",2025-09-06 19:00:00,2025-09-06 15:00:00,"VFR",22,6,36,130,10,14500,29.93,NA,"CLR  ft","CYMM 061900Z AUTO 13010KT 9SM CLR 22/06 A2993 RMK SLP144 DENSITY ALT 2300FT",2025-09-06 19:41:24.649271,2025-09-06 15:41:24.649271
"CYQF",2025-09-06 19:00:00,2025-09-06 15:00:00,"VFR",23,8,38,160,7,14500,29.97,NA,"CLR  ft","CYQF 061900Z AUTO 16007KT 100V200 9SM CLR 23/08 A2997 RMK SLP153 DENSITY ALT 4500FT",2025-09-06 19:41:24.72196,2025-09-06 15:41:24.72196
"CYXE",2025-09-06 19:00:00,2025-09-06 15:00:00,"VFR",18,4,40,110,6,24100,30.11,NA,"SCT  ft","CYXE 061900Z 11006KT 080V180 15SM SCT300 18/04 A3011 RMK CI3 SLP211 DENSITY ALT 2200FT",2025-09-06 19:41:24.78979,2025-09-06 15:41:24.78979
"CYQR",2025-09-06 19:00:00,2025-09-06 15:00:00,"VFR",15,2,42,170,3,24100,30.14,NA,"FEW  ft; FEW  ft","CYQR 061900Z 17003KT 100V240 15SM FEW055 FEW250 15/02 A3014 RMK CF1CI1 CF TR CI TR SLP228 DENSITY ALT 2200FT",2025-09-06 19:41:24.860802,2025-09-06 15:41:24.860802
"CYWG",2025-09-06 19:00:00,2025-09-06 15:00:00,"VFR",12,6,67,30,11,22500,30.08,NA,"SCT  ft; BKN  ft; BKN  ft","CYWG 061900Z CCA 03011G17KT 14SM SCT035TCU BKN065 BKN078 12/06 A3008 RMK TCU4CU2AC1 VIRGA N-SE HRZN SLP196",2025-09-06 19:41:24.930001,2025-09-06 15:41:24.930001
"CYBR",2025-09-06 19:00:00,2025-09-06 15:00:00,"VFR",11,6,72,10,7,24100,30.14,NA,"FEW  ft; BKN  ft","CYBR 061900Z 01007KT 15SM FEW033 BKN050 11/06 A3014 RMK CU1SC6 SLP222",2025-09-06 19:41:25.00016,2025-09-06 15:41:25.00016
"CYUL",2025-09-06 19:32:00,2025-09-06 15:32:00,"VFR",15,12,82,220,9,24100,29.93,NA,"FEW  ft; SCT  ft; BKN  ft","CYUL 061932Z 22009KT 15SM FEW024 SCT030 BKN100 15/12 A2993 RMK CF1SC3AC3 SLP138",2025-09-06 19:41:25.070519,2025-09-06 15:41:25.070519
"CYHU",2025-09-06 19:00:00,2025-09-06 15:00:00,"VFR",15,14,94,190,6,14500,29.95,NA,"FEW  ft; SCT  ft; BKN  ft; OVC  ft","CYHU 061900Z AUTO 19006KT 9SM -RA FEW011 SCT023 BKN039 OVC098 15/14 A2995 RMK PCPN 1.5MM PAST HR SLP144",2025-09-06 19:41:25.139637,2025-09-06 15:41:25.139637
"CYQB",2025-09-06 19:00:00,2025-09-06 15:00:00,"VFR",14,13,94,210,9,12900,29.95,NA,"FEW  ft; BKN  ft; OVC  ft","CYQB 061900Z 21009KT 8SM -SHRA FEW023 BKN054 OVC067 14/13 A2995 RMK SC1SC7AC1 SC TR CVCTV CLD EMBD SLP146",2025-09-06 19:41:25.20729,2025-09-06 15:41:25.20729
"CYVO",2025-09-06 19:00:00,2025-09-06 15:00:00,"VFR",13,7,67,230,9,24100,29.81,NA,"SCT  ft; BKN  ft; BKN  ft","CYVO 061900Z 23009G15KT 15SM VCSH SCT047 BKN065 BKN170 13/07 A2981 RMK CU3SC2AC2 SLP106",2025-09-06 19:41:25.276091,2025-09-06 15:41:25.276091
"CYUY",2025-09-06 19:00:00,2025-09-06 15:00:00,"VFR",12,6,67,270,8,24100,29.81,NA,"BKN  ft; BKN  ft; BKN  ft","CYUY 061900Z 27008KT 240V320 15SM BKN031 BKN050 BKN220 12/06 A2981 RMK SC5SC2CI1 CI TR CU ASOCTD SLP106",2025-09-06 19:41:25.34603,2025-09-06 15:41:25.34603
"CYZV",2025-09-06 19:00:00,2025-09-06 15:00:00,"VFR",18,10,60,230,17,48300,29.79,NA,"FEW  ft; FEW  ft; OVC  ft","CYZV 061900Z 23017G27KT 30SM FEW050 FEW180 OVC200 18/10 A2979 RMK CU1CI2CI6 CU TR SLP091 DENSITY ALT 800FT",2025-09-06 19:41:25.422044,2025-09-06 15:41:25.422044
"CYBC",2025-09-06 19:00:00,2025-09-06 15:00:00,"VFR",15,10,72,240,18,14500,29.85,NA,"BKN  ft","CYBC 061900Z AUTO 24018G29KT 9SM BKN066 15/10 A2985 RMK SLP111",2025-09-06 19:41:25.495144,2025-09-06 15:41:25.495144
"CYRJ",2025-09-06 19:00:00,2025-09-06 15:00:00,"VFR",16,10,68,210,10,64400,29.83,NA,"SCT  ft; BKN  ft; BKN  ft","CYRJ 061900Z 21010G16KT 170V230 40SM SCT032 BKN080 BKN220 16/10 A2983 RMK SC3AC4CI1 CI TR SLP107 DENSITY ALT 1000FT",2025-09-06 19:41:25.572456,2025-09-06 15:41:25.572456
"CYHZ",2025-09-06 19:00:00,2025-09-06 15:00:00,"VFR",26,20,70,200,12,24100,30.06,NA,"FEW  ft; BKN  ft","CYHZ 061900Z 20012G18KT 15SM FEW032 BKN250 26/20 A3006 RMK CU1CS6 CU TR SLP179 DENSITY ALT 1800FT",2025-09-06 19:41:25.642325,2025-09-06 15:41:25.642325
"CYYG",2025-09-06 19:00:00,2025-09-06 15:00:00,"VFR",27,18,58,170,14,24100,29.97,NA,"SKC  ft","CYYG 061900Z 17014G19KT 15SM SKC 27/18 A2997 RMK SLP152 DENSITY ALT 1600FT",2025-09-06 19:41:25.713375,2025-09-06 15:41:25.713375
"CYQM",2025-09-06 19:00:00,2025-09-06 15:00:00,"VFR",28,19,58,200,13,24100,29.95,NA,"SCT  ft; BKN  ft","CYQM 061900Z 20013G20KT 15SM SCT030 BKN220 28/19 A2995 RMK CU3CS3 SLP142 DENSITY ALT 1700FT",2025-09-06 19:41:25.784467,2025-09-06 15:41:25.784467
"CYFC",2025-09-06 19:00:00,2025-09-06 15:00:00,"VFR",24,19,74,170,11,14500,29.92,NA,"FEW  ft; SCT  ft; BKN  ft","CYFC 061900Z AUTO 17011KT 9SM FEW024 SCT081 BKN097 24/19 A2992 RMK SLP134 DENSITY ALT 1200FT",2025-09-06 19:41:25.857979,2025-09-06 15:41:25.857979
"CYYT",2025-09-06 19:00:00,2025-09-06 15:00:00,"VFR",22,10,47,270,13,24100,30.15,NA,"SCT  ft; SCT  ft","CYYT 061900Z 27013KT 15SM SCT031 SCT240 22/10 A3015 RMK SC3CI4 SLP215 DENSITY ALT 1200FT",2025-09-06 19:41:25.932006,2025-09-06 15:41:25.932006
"CYQY",2025-09-06 19:00:00,2025-09-06 15:00:00,"VFR",27,18,58,210,13,24100,30.04,NA,"FEW  ft; BKN  ft","CYQY 061900Z 21013G19KT 15SM FEW033 BKN240 27/18 A3004 RMK CU1CI5 CU TR SLP175 DENSITY ALT 1500FT",2025-09-06 19:41:26.007118,2025-09-06 15:41:26.007118
"CYXY",2025-09-06 19:00:00,2025-09-06 15:00:00,"VFR",15,11,77,330,4,64400,29.96,NA,"SCT  ft; BKN  ft; BKN  ft","CYXY 061900Z 33004KT 300V060 40SM SCT035 BKN080 BKN220 15/11 A2996 RMK SC4AC2CI1 SLP160 DENSITY ALT 2800FT",2025-09-06 19:41:26.080418,2025-09-06 15:41:26.080418
"CYZF",2025-09-06 19:00:00,2025-09-06 15:00:00,"VFR",14,8,67,140,12,24100,29.8,NA,"FEW  ft; SCT  ft; BKN  ft","CYZF 061900Z 14012G20KT 15SM FEW110 SCT150 BKN210 14/08 A2980 RMK AC1AC3CI3 SLP101",2025-09-06 19:41:26.152381,2025-09-06 15:41:26.152381
"CYFB",2025-09-06 19:30:00,2025-09-06 15:30:00,"MVFR",2,1,93,130,12,8000,29.63,NA,"OVC  ft","CYFB 061930Z 13012G22KT 5SM -RASN BR OVC010 02/01 A2963 RMK SC8 SLP039",2025-09-06 19:41:26.226581,2025-09-06 15:41:26.226581
"CYRT",2025-09-06 19:00:00,2025-09-06 15:00:00,"MVFR",7,1,66,360,19,24100,29.9,NA,"BKN  ft; BKN  ft","CYRT 061900Z 36019KT 15SM BKN029 BKN081 07/01 A2990 RMK SC5AC2 SLP130",2025-09-06 19:41:26.298424,2025-09-06 15:41:26.298424
"CYBK",2025-09-06 19:00:00,2025-09-06 15:00:00,"VFR",8,1,62,360,13,40200,30,NA,"SCT  ft; BKN  ft","CYBK 061900Z 36013KT 25SM SCT033 BKN047 08/01 A3000 RMK SC3SC4 SLP162",2025-09-06 19:41:26.370184,2025-09-06 15:41:26.370184
"CYRB",2025-09-06 19:00:00,2025-09-06 15:00:00,"MVFR",-1,-3,86,160,16,40200,30.05,NA,"SCT  ft; BKN  ft","CYRB 061900Z 16016KT 25SM SCT010 BKN015 M01/M03 A3005 RMK ST4ST3 SLP184",2025-09-06 19:41:26.452652,2025-09-06 15:41:26.452652
"CYCO",2025-09-06 19:18:00,2025-09-06 15:18:00,"MVFR",13,10,82,260,15,8000,29.66,NA,"BKN  ft; OVC  ft","CYCO 061918Z 26015G24KT 5SM -RA FU BKN060 OVC140 13/10 A2966 RMK FU3SC3AC2 SLP047",2025-09-06 19:41:26.523422,2025-09-06 15:41:26.523422
"CYER",2025-09-06 20:00:00,2025-09-06 16:00:00,"MVFR",8,7,93,330,11,14500,29.77,NA,"OVC  ft","CYER 062000Z AUTO 33011G19KT 9SM OVC014 08/07 A2977 RMK SLP085",2025-09-06 20:25:14.459559,2025-09-06 16:25:14.459559
"CYAT",2025-09-06 20:08:00,2025-09-06 16:08:00,"MVFR",11,8,82,290,9,14500,29.69,NA,"SCT  ft; BKN  ft; OVC  ft","CYAT 062008Z AUTO 29009KT 9SM SCT024 BKN029 OVC038 11/08 A2969 RMK SLP055",2025-09-06 20:25:14.512124,2025-09-06 16:25:14.512124
"CYMO",2025-09-06 20:00:00,2025-09-06 16:00:00,"VFR",11,9,88,260,10,14500,29.74,NA,"FEW  ft; SCT  ft; OVC  ft","CYMO 062000Z AUTO 26010KT 9SM FEW017 SCT025 OVC037 11/09 A2974 RMK SLP072",2025-09-06 20:25:14.599991,2025-09-06 16:25:14.599991
"CYPL",2025-09-06 20:05:00,2025-09-06 16:05:00,"MVFR",7,5,87,330,9,14500,29.88,NA,"SCT  ft; BKN  ft; BKN  ft; OVC  ft","CYPL 062005Z AUTO 33009G16KT 290V010 9SM -RA SCT016 BKN021 BKN027 OVC034 07/05 A2988 RMK SLP136",2025-09-06 20:25:14.684722,2025-09-06 16:25:14.684722
"CYQT",2025-09-06 20:00:00,2025-09-06 16:00:00,"VFR",13,6,63,330,12,32200,29.91,NA,"SCT  ft; BKN  ft","CYQT 062000Z 33012G20KT 20SM -SHRA SCT043 BKN075 13/06 A2991 RMK CU4AC3 SLP135",2025-09-06 20:25:14.77096,2025-09-06 16:25:14.77096
"CYAM",2025-09-06 20:00:00,2025-09-06 16:00:00,"VFR",12,6,67,300,14,32200,29.9,NA,"SCT  ft; BKN  ft; OVC  ft","CYAM 062000Z 30014G19KT 20SM SCT018 BKN032 OVC052 12/06 A2990 RMK CU3SC3SC2 OCNL -SHRA SLP133",2025-09-06 20:25:14.819064,2025-09-06 16:25:14.819064
"CYTS",2025-09-06 20:21:00,2025-09-06 16:21:00,"VFR",11,5,67,210,4,24100,29.83,NA,"BKN  ft; BKN  ft","CYTS 062021Z 21004KT 180V290 15SM BKN038 BKN045 11/05 A2983 RMK CU5SC1 SLP111",2025-09-06 20:25:14.905027,2025-09-06 16:25:14.905027
"CYSB",2025-09-06 20:00:00,2025-09-06 16:00:00,"VFR",11,7,77,250,5,32200,29.87,NA,"OVC  ft","CYSB 062000Z 25005KT 20SM -SHRA OVC031 11/07 A2987 RMK SC8 CVCTV CLD EMBD SLP123",2025-09-06 20:25:14.989222,2025-09-06 16:25:14.989222
"CYYB",2025-09-06 20:00:00,2025-09-06 16:00:00,"VFR",14,9,72,260,9,48300,29.87,NA,"SCT  ft; OVC  ft","CYYB 062000Z 26009KT 220V300 30SM SCT040 OVC080 14/09 A2987 RMK CU3AC5 SLP123 DENSITY ALT 1500FT",2025-09-06 20:25:15.072865,2025-09-06 16:25:15.072865
"CYOW",2025-09-06 20:00:00,2025-09-06 16:00:00,"VFR",19,8,49,230,9,24100,29.89,NA,"SCT  ft; SCT  ft","CYOW 062000Z 23009KT 15SM SCT053 SCT250 19/08 A2989 RMK CU3CI1 SLP126 DENSITY ALT 1000FT",2025-09-06 20:25:15.159872,2025-09-06 16:25:15.159872
"CYGK",2025-09-06 20:00:00,2025-09-06 16:00:00,"VFR",19,11,60,200,15,24100,29.93,NA,"FEW  ft; SCT  ft; BKN  ft","CYGK 062000Z 20015G24KT 15SM FEW032 SCT070 BKN250 19/11 A2993 RMK CU2AC1CI2 SLP139 DENSITY ALT 800FT",2025-09-06 20:25:15.246963,2025-09-06 16:25:15.246963
"CYQG",2025-09-06 20:00:00,2025-09-06 16:00:00,"VFR",18,6,46,280,10,14500,30,NA,"OVC  ft","CYQG 062000Z AUTO 28010G19KT 9SM OVC086 18/06 A3000 RMK SLP161 DENSITY ALT 1100FT",2025-09-06 20:25:15.332488,2025-09-06 16:25:15.332488
"CYVV",2025-09-06 20:00:00,2025-09-06 16:00:00,"VFR",15,10,72,260,6,24100,29.93,NA,"BKN  ft; OVC  ft","CYVV 062000Z 26006KT 220V280 15SM BKN047 OVC250 15/10 A2993 RMK SC7CC1 SLP138",2025-09-06 20:25:15.418654,2025-09-06 16:25:15.418654
"CYYZ",2025-09-06 20:00:00,2025-09-06 16:00:00,"VFR",19,6,43,260,15,24100,29.94,NA,"SCT  ft; BKN  ft","CYYZ 062000Z 26015KT 15SM SCT062 BKN078 19/06 A2994 RMK CU3AC4 SLP140 DENSITY ALT 1200FT",2025-09-06 20:25:15.467578,2025-09-06 16:25:15.467578
"CYQA",2025-09-06 20:00:00,2025-09-06 16:00:00,"VFR",15,7,59,280,13,14500,29.93,NA,"BKN  ft; OVC  ft","CYQA 062000Z AUTO 28013G20KT 250V320 9SM BKN060 OVC077 15/07 A2993 RMK SLP140 DENSITY ALT 1200FT",2025-09-06 20:25:15.556451,2025-09-06 16:25:15.556451
"CYVR",2025-09-06 20:00:00,2025-09-06 16:00:00,"VFR",21,16,73,80,7,24100,29.93,NA,"FEW  ft; BKN  ft","CYVR 062000Z 08007KT 15SM FEW026 BKN220 21/16 A2993 RMK SC1CI5 HZ SLP136 DENSITY ALT 800FT",2025-09-06 20:25:15.647357,2025-09-06 16:25:15.647357
"CYYJ",2025-09-06 20:00:00,2025-09-06 16:00:00,"VFR",15,13,88,130,10,32200,29.93,NA,"FEW  ft; FEW  ft; SCT  ft; BKN  ft","CYYJ 062000Z 13010KT 20SM FEW005 FEW010 SCT220 BKN250 15/13 A2993 RMK SF1SF1CC3CI2 SF TR SF TR SLP136",2025-09-06 20:25:15.695376,2025-09-06 16:25:15.695376
"CYLW",2025-09-06 20:00:00,2025-09-06 16:00:00,"VFR",25,11,42,340,4,9700,29.89,NA,"CLR  ft","CYLW 062000Z AUTO 34004KT 6SM HZ CLR 25/11 A2989 RMK SLP120 DENSITY ALT 2900FT",2025-09-06 20:25:15.783659,2025-09-06 16:25:15.783659
"CYXS",2025-09-06 20:00:00,2025-09-06 16:00:00,"VFR",19,12,64,0,2,14500,29.94,NA,"CLR  ft","CYXS 062000Z AUTO VRB02KT 9SM CLR 19/12 A2994 RMK SLP150 DENSITY ALT 3300FT",2025-09-06 20:25:15.871166,2025-09-06 16:25:15.871166
"CYXT",2025-09-06 20:00:00,2025-09-06 16:00:00,"VFR",21,16,73,0,3,32200,29.91,NA,"FEW  ft","CYXT 062000Z VRB03KT 20SM FEW210 21/16 A2991 RMK CI1 FU SLP132 DENSITY ALT 1600FT",2025-09-06 20:25:15.915957,2025-09-06 16:25:15.915957
"CYQQ",2025-09-06 20:00:00,2025-09-06 16:00:00,"VFR",22,16,69,60,5,19300,29.9,NA,"FEW  ft","CYQQ 062000Z 06005KT 12SM FEW250 22/16 A2990 RMK CI2 DENSITY ALT 1185FT FU SLP125",2025-09-06 20:25:16.002024,2025-09-06 16:25:16.002024
"CYYC",2025-09-06 20:00:00,2025-09-06 16:00:00,"VFR",23,8,38,170,7,9999,29.98,NA,"SKC  ft","CYYC 062000Z 17007KT 120V180 10SM SKC 23/08 A2998 RMK FU SLP151 DENSITY ALT 5400FT",2025-09-06 20:25:16.089336,2025-09-06 16:25:16.089336
"CYEG",2025-09-06 20:00:00,2025-09-06 16:00:00,"VFR",22,7,38,0,0,32200,29.93,NA,"FEW  ft; BKN  ft","CYEG 062000Z 00000KT 20SM FEW140 BKN250 22/07 A2993 RMK AC1CI4 SLP142 DENSITY ALT 3800FT",2025-09-06 20:25:16.175508,2025-09-06 16:25:16.175508
"CYMM",2025-09-06 20:00:00,2025-09-06 16:00:00,"VFR",23,6,33,120,8,14500,29.91,NA,"CLR  ft","CYMM 062000Z AUTO 12008KT 090V150 9SM CLR 23/06 A2991 RMK SLP138 DENSITY ALT 2500FT",2025-09-06 20:25:16.263803,2025-09-06 16:25:16.263803
"CYQF",2025-09-06 20:00:00,2025-09-06 16:00:00,"VFR",23,6,33,160,4,14500,29.96,NA,"CLR  ft","CYQF 062000Z AUTO 16004KT 110V190 9SM CLR 23/06 A2996 RMK SLP154 DENSITY ALT 4600FT",2025-09-06 20:25:16.349077,2025-09-06 16:25:16.349077
"CYXE",2025-09-06 20:00:00,2025-09-06 16:00:00,"VFR",19,4,37,130,8,24100,30.1,NA,"SCT  ft","CYXE 062000Z 13008KT 070V200 15SM SCT300 19/04 A3010 RMK CI3 SLP208 DENSITY ALT 2300FT",2025-09-06 20:25:16.433923,2025-09-06 16:25:16.433923
"CYQR",2025-09-06 20:00:00,2025-09-06 16:00:00,"VFR",17,1,34,0,3,24100,30.13,NA,"FEW  ft; FEW  ft","CYQR 062000Z VRB03KT 15SM FEW060 FEW250 17/01 A3013 RMK CF1CI1 CF TR CI TR SLP223 DENSITY ALT 2300FT",2025-09-06 20:25:16.520901,2025-09-06 16:25:16.520901
"CYWG",2025-09-06 20:00:00,2025-09-06 16:00:00,"VFR",14,4,51,340,11,24100,30.08,NA,"BKN  ft; BKN  ft","CYWG 062000Z 34011G19KT 300V010 15SM BKN040 BKN070 14/04 A3008 RMK SC5AC1 TCU ASOCTD SLP195",2025-09-06 20:25:16.565233,2025-09-06 16:25:16.565233
"CYBR",2025-09-06 20:00:00,2025-09-06 16:00:00,"VFR",12,5,63,20,7,24100,30.14,NA,"FEW  ft; BKN  ft","CYBR 062000Z 02007KT 15SM FEW032 BKN055 12/05 A3014 RMK CU2SC5 SLP223",2025-09-06 20:25:16.658027,2025-09-06 16:25:16.658027
"CYUL",2025-09-06 20:00:00,2025-09-06 16:00:00,"VFR",16,13,83,230,7,24100,29.92,NA,"FEW  ft; BKN  ft; BKN  ft","CYUL 062000Z 23007KT 15SM FEW018 BKN130 BKN220 16/13 A2992 RMK CF2AC4CC1 SLP136",2025-09-06 20:25:16.747029,2025-09-06 16:25:16.747029
"CYHU",2025-09-06 20:00:00,2025-09-06 16:00:00,"VFR",15,12,82,210,7,14500,29.93,NA,"OVC  ft","CYHU 062000Z AUTO 21007KT 9SM OVC110 15/12 A2993 RMK SLP136",2025-09-06 20:25:16.832491,2025-09-06 16:25:16.832491
"CYQB",2025-09-06 20:00:00,2025-09-06 16:00:00,"VFR",14,12,88,240,9,24100,29.95,NA,"FEW  ft; BKN  ft; OVC  ft","CYQB 062000Z 24009KT 15SM -SHRA FEW015 BKN076 OVC097 14/12 A2995 RMK SC2AC5AC1 CVCTV CLD EMBD SLP146",2025-09-06 20:25:16.917712,2025-09-06 16:25:16.917712
"CYVO",2025-09-06 20:00:00,2025-09-06 16:00:00,"VFR",11,9,88,250,10,24100,29.82,NA,"FEW  ft; BKN  ft","CYVO 062000Z 25010G16KT 15SM -SHRA FEW036 BKN043 11/09 A2982 RMK CU2SC5 SLP112",2025-09-06 20:25:17.002767,2025-09-06 16:25:17.002767
"CYUY",2025-09-06 20:00:00,2025-09-06 16:00:00,"VFR",13,5,59,280,9,24100,29.82,NA,"SCT  ft; BKN  ft; BKN  ft","CYUY 062000Z 28009KT 250V330 15SM SCT035 BKN062 BKN220 13/05 A2982 RMK CU4SC2CI1 SLP108 DENSITY ALT 1200FT",2025-09-06 20:25:17.088616,2025-09-06 16:25:17.088616
"CYZV",2025-09-06 20:00:00,2025-09-06 16:00:00,"VFR",17,9,59,230,16,48300,29.8,NA,"FEW  ft; OVC  ft","CYZV 062000Z 23016G24KT 30SM FEW050 OVC150 17/09 A2980 RMK SC2AC6 SLP093 DENSITY ALT 600FT",2025-09-06 20:25:17.180523,2025-09-06 16:25:17.180523
"CYBC",2025-09-06 20:00:00,2025-09-06 16:00:00,"VFR",14,10,77,240,19,14500,29.87,NA,"OVC  ft","CYBC 062000Z AUTO 24019G26KT 9SM OVC066 14/10 A2987 RMK SLP117",2025-09-06 20:25:17.270818,2025-09-06 16:25:17.270818
"CYRJ",2025-09-06 20:00:00,2025-09-06 16:00:00,"VFR",15,10,72,230,9,64400,29.84,NA,"FEW  ft; BKN  ft","CYRJ 062000Z 23009G15KT 180V250 40SM FEW027 BKN094 15/10 A2984 RMK SC1AC6 SLP110 DENSITY ALT 900FT",2025-09-06 20:25:17.360373,2025-09-06 16:25:17.360373
"CYHZ",2025-09-06 20:00:00,2025-09-06 16:00:00,"VFR",26,18,61,200,13,24100,30.06,NA,"FEW  ft; BKN  ft","CYHZ 062000Z 20013G19KT 15SM FEW032 BKN250 26/18 A3006 RMK CU1CS5 CU TR CI ASOCTD SLP179 DENSITY ALT 1800FT",2025-09-06 20:25:17.445311,2025-09-06 16:25:17.445311
"CYYG",2025-09-06 20:00:00,2025-09-06 16:00:00,"VFR",27,19,62,190,11,24100,29.97,NA,"SKC  ft","CYYG 062000Z 19011KT 15SM SKC 27/19 A2997 RMK SLP149 DENSITY ALT 1600FT",2025-09-06 20:25:17.532178,2025-09-06 16:25:17.532178
"CYQM",2025-09-06 20:00:00,2025-09-06 16:00:00,"VFR",28,19,58,220,18,24100,29.93,NA,"FEW  ft; BKN  ft; BKN  ft","CYQM 062000Z 22018G24KT 15SM FEW035 BKN220 BKN240 28/19 A2993 RMK CU2CI3CI1 SLP137 DENSITY ALT 1800FT",2025-09-06 20:25:17.617971,2025-09-06 16:25:17.617971
"CYFC",2025-09-06 20:00:00,2025-09-06 16:00:00,"VFR",24,19,74,190,9,14500,29.9,NA,"BKN  ft","CYFC 062000Z AUTO 19009KT 160V220 9SM BKN091 24/19 A2990 RMK SLP128 DENSITY ALT 1200FT",2025-09-06 20:25:17.704998,2025-09-06 16:25:17.704998
"CYYT",2025-09-06 20:00:00,2025-09-06 16:00:00,"VFR",22,13,57,240,11,24100,30.14,NA,"SCT  ft; SCT  ft; SCT  ft","CYYT 062000Z 24011KT 15SM SCT034 SCT140 SCT240 22/13 A3014 RMK SC3AC1CI1 AC TR SLP211 DENSITY ALT 1200FT",2025-09-06 20:25:17.790307,2025-09-06 16:25:17.790307
"CYQY",2025-09-06 20:00:00,2025-09-06 16:00:00,"VFR",27,19,62,220,8,24100,30.04,NA,"BKN  ft","CYQY 062000Z 22008G17KT 15SM BKN230 27/19 A3004 RMK CI6 SLP175 DENSITY ALT 1500FT",2025-09-06 20:25:17.878031,2025-09-06 16:25:17.878031
"CYXY",2025-09-06 20:00:00,2025-09-06 16:00:00,"VFR",16,10,68,360,4,64400,29.95,NA,"SCT  ft; BKN  ft; BKN  ft","CYXY 062000Z 36004KT 240V020 40SM SCT040TCU BKN075 BKN240 16/10 A2995 RMK TCU3AC3CI1 SLP157 DENSITY ALT 3000FT",2025-09-06 20:25:17.963343,2025-09-06 16:25:17.963343
"CYZF",2025-09-06 20:00:00,2025-09-06 16:00:00,"VFR",14,8,67,150,12,24100,29.79,NA,"SCT  ft; BKN  ft; BKN  ft","CYZF 062000Z 15012G18KT 15SM SCT110 BKN150 BKN240 14/08 A2979 RMK AS3AC3CI1 SLP098 DENSITY ALT 1000FT",2025-09-06 20:25:18.049046,2025-09-06 16:25:18.049046
"CYFB",2025-09-06 20:00:00,2025-09-06 16:00:00,"IFR",2,1,93,120,15,8000,29.63,NA,"BKN  ft; OVC  ft","CYFB 062000Z 12015G23KT 5SM -RASN BR BKN008 OVC018 02/01 A2963 RMK SC7SC1 SLP038",2025-09-06 20:25:18.133698,2025-09-06 16:25:18.133698
"CYRT",2025-09-06 20:00:00,2025-09-06 16:00:00,"VFR",8,1,62,360,16,24100,29.9,NA,"BKN  ft; BKN  ft","CYRT 062000Z 36016G22KT 15SM BKN033 BKN080 08/01 A2990 RMK SC5AC2 SLP129",2025-09-06 20:25:18.218636,2025-09-06 16:25:18.218636
"CYBK",2025-09-06 20:00:00,2025-09-06 16:00:00,"VFR",9,0,54,350,11,40200,30,NA,"FEW  ft; BKN  ft","CYBK 062000Z 35011KT 25SM FEW033 BKN045 09/M00 A3000 RMK SC1SC7 SC TR SLP161",2025-09-06 20:25:18.302438,2025-09-06 16:25:18.302438
"CYRB",2025-09-06 20:00:00,2025-09-06 16:00:00,"VFR",0,-3,80,150,17,40200,30.03,NA,"SCT  ft","CYRB 062000Z 15017KT 25SM SCT010 M00/M03 A3003 RMK ST4 SLP177",2025-09-06 20:25:18.396137,2025-09-06 16:25:18.396137
"CYCO",2025-09-06 20:15:00,2025-09-06 16:15:00,"IFR",11,11,100,270,13,3200,29.7,NA,"OVC  ft","CYCO 062015Z 27013G18KT 2SM -RA FU OVC018 11/11 A2970 RMK FU2SC6 SLP062",2025-09-06 20:25:18.439207,2025-09-06 16:25:18.439207
"CYER",2025-09-06 20:00:00,2025-09-06 16:00:00,"MVFR",8,7,93,330,11,14500,29.77,NA,"OVC  ft","CYER 062000Z AUTO 33011G19KT 9SM OVC014 08/07 A2977 RMK SLP085",2025-09-06 20:41:46.574123,2025-09-06 16:41:46.574123
"CYAT",2025-09-06 20:08:00,2025-09-06 16:08:00,"MVFR",11,8,82,290,9,14500,29.69,NA,"SCT  ft; BKN  ft; OVC  ft","CYAT 062008Z AUTO 29009KT 9SM SCT024 BKN029 OVC038 11/08 A2969 RMK SLP055",2025-09-06 20:41:46.648562,2025-09-06 16:41:46.648562
"CYMO",2025-09-06 20:00:00,2025-09-06 16:00:00,"VFR",11,9,88,260,10,14500,29.74,NA,"FEW  ft; SCT  ft; OVC  ft","CYMO 062000Z AUTO 26010KT 9SM FEW017 SCT025 OVC037 11/09 A2974 RMK SLP072",2025-09-06 20:41:46.716254,2025-09-06 16:41:46.716254
"CYPL",2025-09-06 20:36:00,2025-09-06 16:36:00,"MVFR",7,5,87,310,8,14500,29.89,NA,"SCT  ft; BKN  ft; OVC  ft","CYPL 062036Z AUTO 31008G16KT 280V010 9SM SCT013 BKN020 OVC066 07/05 A2989 RMK SLP139",2025-09-06 20:41:46.784298,2025-09-06 16:41:46.784298
"CYQT",2025-09-06 20:00:00,2025-09-06 16:00:00,"VFR",13,6,63,330,12,32200,29.91,NA,"SCT  ft; BKN  ft","CYQT 062000Z 33012G20KT 20SM -SHRA SCT043 BKN075 13/06 A2991 RMK CU4AC3 SLP135",2025-09-06 20:41:46.854606,2025-09-06 16:41:46.854606
"CYAM",2025-09-06 20:27:00,2025-09-06 16:27:00,"VFR",12,6,67,300,13,32200,29.91,NA,"SCT  ft; BKN  ft; BKN  ft","CYAM 062027Z 30013KT 20SM SCT024 BKN045 BKN220 12/06 A2991 RMK CU3SC4CI1 CI TR SLP135",2025-09-06 20:41:46.922186,2025-09-06 16:41:46.922186
"CYTS",2025-09-06 20:31:00,2025-09-06 16:31:00,"VFR",11,5,67,220,5,24100,29.83,NA,"BKN  ft","CYTS 062031Z 22005KT 190V260 15SM -SHRA BKN038 11/05 A2983 RMK CU5 SLP113",2025-09-06 20:41:46.989578,2025-09-06 16:41:46.989578
"CYSB",2025-09-06 20:00:00,2025-09-06 16:00:00,"VFR",11,7,77,250,5,32200,29.87,NA,"OVC  ft","CYSB 062000Z 25005KT 20SM -SHRA OVC031 11/07 A2987 RMK SC8 CVCTV CLD EMBD SLP123",2025-09-06 20:41:47.05912,2025-09-06 16:41:47.05912
"CYYB",2025-09-06 20:00:00,2025-09-06 16:00:00,"VFR",14,9,72,260,9,48300,29.87,NA,"SCT  ft; OVC  ft","CYYB 062000Z 26009KT 220V300 30SM SCT040 OVC080 14/09 A2987 RMK CU3AC5 SLP123 DENSITY ALT 1500FT",2025-09-06 20:41:47.12659,2025-09-06 16:41:47.12659
"CYOW",2025-09-06 20:00:00,2025-09-06 16:00:00,"VFR",19,8,49,230,9,24100,29.89,NA,"SCT  ft; SCT  ft","CYOW 062000Z 23009KT 15SM SCT053 SCT250 19/08 A2989 RMK CU3CI1 SLP126 DENSITY ALT 1000FT",2025-09-06 20:41:47.19389,2025-09-06 16:41:47.19389
"CYGK",2025-09-06 20:00:00,2025-09-06 16:00:00,"VFR",19,11,60,200,15,24100,29.93,NA,"FEW  ft; SCT  ft; BKN  ft","CYGK 062000Z 20015G24KT 15SM FEW032 SCT070 BKN250 19/11 A2993 RMK CU2AC1CI2 SLP139 DENSITY ALT 800FT",2025-09-06 20:41:47.262992,2025-09-06 16:41:47.262992
"CYQG",2025-09-06 20:00:00,2025-09-06 16:00:00,"VFR",18,6,46,280,10,14500,30,NA,"OVC  ft","CYQG 062000Z AUTO 28010G19KT 9SM OVC086 18/06 A3000 RMK SLP161 DENSITY ALT 1100FT",2025-09-06 20:41:47.33039,2025-09-06 16:41:47.33039
"CYVV",2025-09-06 20:00:00,2025-09-06 16:00:00,"VFR",15,10,72,260,6,24100,29.93,NA,"BKN  ft; OVC  ft","CYVV 062000Z 26006KT 220V280 15SM BKN047 OVC250 15/10 A2993 RMK SC7CC1 SLP138",2025-09-06 20:41:47.397994,2025-09-06 16:41:47.397994
"CYYZ",2025-09-06 20:00:00,2025-09-06 16:00:00,"VFR",19,6,43,260,15,24100,29.94,NA,"SCT  ft; BKN  ft","CYYZ 062000Z 26015KT 15SM SCT062 BKN078 19/06 A2994 RMK CU3AC4 SLP140 DENSITY ALT 1200FT",2025-09-06 20:41:47.466963,2025-09-06 16:41:47.466963
"CYQA",2025-09-06 20:00:00,2025-09-06 16:00:00,"VFR",15,7,59,280,13,14500,29.93,NA,"BKN  ft; OVC  ft","CYQA 062000Z AUTO 28013G20KT 250V320 9SM BKN060 OVC077 15/07 A2993 RMK SLP140 DENSITY ALT 1200FT",2025-09-06 20:41:47.53609,2025-09-06 16:41:47.53609
"CYVR",2025-09-06 20:00:00,2025-09-06 16:00:00,"VFR",21,16,73,80,7,24100,29.93,NA,"FEW  ft; BKN  ft","CYVR 062000Z 08007KT 15SM FEW026 BKN220 21/16 A2993 RMK SC1CI5 HZ SLP136 DENSITY ALT 800FT",2025-09-06 20:41:47.605102,2025-09-06 16:41:47.605102
"CYYJ",2025-09-06 20:00:00,2025-09-06 16:00:00,"VFR",15,13,88,130,10,32200,29.93,NA,"FEW  ft; FEW  ft; SCT  ft; BKN  ft","CYYJ 062000Z 13010KT 20SM FEW005 FEW010 SCT220 BKN250 15/13 A2993 RMK SF1SF1CC3CI2 SF TR SF TR SLP136",2025-09-06 20:41:47.677147,2025-09-06 16:41:47.677147
"CYLW",2025-09-06 20:35:00,2025-09-06 16:35:00,"VFR",25,11,42,0,0,14500,29.88,NA,"CLR  ft","CYLW 062035Z AUTO 00000KT 9SM CLR 25/11 A2988 RMK SLP116 DENSITY ALT 3000FT",2025-09-06 20:41:47.746946,2025-09-06 16:41:47.746946
"CYXS",2025-09-06 20:00:00,2025-09-06 16:00:00,"VFR",19,12,64,0,2,14500,29.94,NA,"CLR  ft","CYXS 062000Z AUTO VRB02KT 9SM CLR 19/12 A2994 RMK SLP150 DENSITY ALT 3300FT",2025-09-06 20:41:47.812973,2025-09-06 16:41:47.812973
"CYXT",2025-09-06 20:00:00,2025-09-06 16:00:00,"VFR",21,16,73,0,3,32200,29.91,NA,"FEW  ft","CYXT 062000Z VRB03KT 20SM FEW210 21/16 A2991 RMK CI1 FU SLP132 DENSITY ALT 1600FT",2025-09-06 20:41:47.878969,2025-09-06 16:41:47.878969
"CYQQ",2025-09-06 20:00:00,2025-09-06 16:00:00,"VFR",22,16,69,60,5,19300,29.9,NA,"FEW  ft","CYQQ 062000Z 06005KT 12SM FEW250 22/16 A2990 RMK CI2 DENSITY ALT 1185FT FU SLP125",2025-09-06 20:41:47.945029,2025-09-06 16:41:47.945029
"CYYC",2025-09-06 20:00:00,2025-09-06 16:00:00,"VFR",23,8,38,170,7,9999,29.98,NA,"SKC  ft","CYYC 062000Z 17007KT 120V180 10SM SKC 23/08 A2998 RMK FU SLP151 DENSITY ALT 5400FT",2025-09-06 20:41:48.013091,2025-09-06 16:41:48.013091
"CYEG",2025-09-06 20:00:00,2025-09-06 16:00:00,"VFR",22,7,38,0,0,32200,29.93,NA,"FEW  ft; BKN  ft","CYEG 062000Z 00000KT 20SM FEW140 BKN250 22/07 A2993 RMK AC1CI4 SLP142 DENSITY ALT 3800FT",2025-09-06 20:41:48.080775,2025-09-06 16:41:48.080775
"CYMM",2025-09-06 20:00:00,2025-09-06 16:00:00,"VFR",23,6,33,120,8,14500,29.91,NA,"CLR  ft","CYMM 062000Z AUTO 12008KT 090V150 9SM CLR 23/06 A2991 RMK SLP138 DENSITY ALT 2500FT",2025-09-06 20:41:48.150575,2025-09-06 16:41:48.150575
"CYQF",2025-09-06 20:00:00,2025-09-06 16:00:00,"VFR",23,6,33,160,4,14500,29.96,NA,"CLR  ft","CYQF 062000Z AUTO 16004KT 110V190 9SM CLR 23/06 A2996 RMK SLP154 DENSITY ALT 4600FT",2025-09-06 20:41:48.218025,2025-09-06 16:41:48.218025
"CYXE",2025-09-06 20:00:00,2025-09-06 16:00:00,"VFR",19,4,37,130,8,24100,30.1,NA,"SCT  ft","CYXE 062000Z 13008KT 070V200 15SM SCT300 19/04 A3010 RMK CI3 SLP208 DENSITY ALT 2300FT",2025-09-06 20:41:48.284837,2025-09-06 16:41:48.284837
"CYQR",2025-09-06 20:00:00,2025-09-06 16:00:00,"VFR",17,1,34,0,3,24100,30.13,NA,"FEW  ft; FEW  ft","CYQR 062000Z VRB03KT 15SM FEW060 FEW250 17/01 A3013 RMK CF1CI1 CF TR CI TR SLP223 DENSITY ALT 2300FT",2025-09-06 20:41:48.35118,2025-09-06 16:41:48.35118
"CYWG",2025-09-06 20:00:00,2025-09-06 16:00:00,"VFR",14,4,51,340,11,24100,30.08,NA,"BKN  ft; BKN  ft","CYWG 062000Z 34011G19KT 300V010 15SM BKN040 BKN070 14/04 A3008 RMK SC5AC1 TCU ASOCTD SLP195",2025-09-06 20:41:48.418193,2025-09-06 16:41:48.418193
"CYBR",2025-09-06 20:00:00,2025-09-06 16:00:00,"VFR",12,5,63,20,7,24100,30.14,NA,"FEW  ft; BKN  ft","CYBR 062000Z 02007KT 15SM FEW032 BKN055 12/05 A3014 RMK CU2SC5 SLP223",2025-09-06 20:41:48.484947,2025-09-06 16:41:48.484947
"CYUL",2025-09-06 20:00:00,2025-09-06 16:00:00,"VFR",16,13,83,230,7,24100,29.92,NA,"FEW  ft; BKN  ft; BKN  ft","CYUL 062000Z 23007KT 15SM FEW018 BKN130 BKN220 16/13 A2992 RMK CF2AC4CC1 SLP136",2025-09-06 20:41:48.553161,2025-09-06 16:41:48.553161
"CYHU",2025-09-06 20:00:00,2025-09-06 16:00:00,"VFR",15,12,82,210,7,14500,29.93,NA,"OVC  ft","CYHU 062000Z AUTO 21007KT 9SM OVC110 15/12 A2993 RMK SLP136",2025-09-06 20:41:48.621397,2025-09-06 16:41:48.621397
"CYQB",2025-09-06 20:30:00,2025-09-06 16:30:00,"VFR",13,12,94,240,9,9999,29.93,NA,"FEW  ft; FEW  ft; BKN  ft; OVC  ft","CYQB 062030Z 24009KT 10SM SHRA FEW014 FEW026 BKN048 OVC072 13/12 A2993 RMK SF1SC1SC4AC2 VIS LWR E CVCTV CLD EMBD SLP140",2025-09-06 20:41:48.690452,2025-09-06 16:41:48.690452
"CYVO",2025-09-06 20:21:00,2025-09-06 16:21:00,"VFR",11,9,88,260,6,24100,29.83,NA,"FEW  ft; BKN  ft","CYVO 062021Z 26006KT 15SM FEW039 BKN050 11/09 A2983 RMK CU1SC6 SLP114",2025-09-06 20:41:48.757773,2025-09-06 16:41:48.757773
"CYUY",2025-09-06 20:00:00,2025-09-06 16:00:00,"VFR",13,5,59,280,9,24100,29.82,NA,"SCT  ft; BKN  ft; BKN  ft","CYUY 062000Z 28009KT 250V330 15SM SCT035 BKN062 BKN220 13/05 A2982 RMK CU4SC2CI1 SLP108 DENSITY ALT 1200FT",2025-09-06 20:41:48.825193,2025-09-06 16:41:48.825193
"CYZV",2025-09-06 20:00:00,2025-09-06 16:00:00,"VFR",17,9,59,230,16,48300,29.8,NA,"FEW  ft; OVC  ft","CYZV 062000Z 23016G24KT 30SM FEW050 OVC150 17/09 A2980 RMK SC2AC6 SLP093 DENSITY ALT 600FT",2025-09-06 20:41:48.892117,2025-09-06 16:41:48.892117
"CYBC",2025-09-06 20:00:00,2025-09-06 16:00:00,"VFR",14,10,77,240,19,14500,29.87,NA,"OVC  ft","CYBC 062000Z AUTO 24019G26KT 9SM OVC066 14/10 A2987 RMK SLP117",2025-09-06 20:41:48.957144,2025-09-06 16:41:48.957144
"CYRJ",2025-09-06 20:00:00,2025-09-06 16:00:00,"VFR",15,10,72,230,9,64400,29.84,NA,"FEW  ft; BKN  ft","CYRJ 062000Z 23009G15KT 180V250 40SM FEW027 BKN094 15/10 A2984 RMK SC1AC6 SLP110 DENSITY ALT 900FT",2025-09-06 20:41:48.986931,2025-09-06 16:41:48.986931
"CYHZ",2025-09-06 20:00:00,2025-09-06 16:00:00,"VFR",26,18,61,200,13,24100,30.06,NA,"FEW  ft; BKN  ft","CYHZ 062000Z 20013G19KT 15SM FEW032 BKN250 26/18 A3006 RMK CU1CS5 CU TR CI ASOCTD SLP179 DENSITY ALT 1800FT",2025-09-06 20:41:49.055853,2025-09-06 16:41:49.055853
"CYYG",2025-09-06 20:00:00,2025-09-06 16:00:00,"VFR",27,19,62,190,11,24100,29.97,NA,"SKC  ft","CYYG 062000Z 19011KT 15SM SKC 27/19 A2997 RMK SLP149 DENSITY ALT 1600FT",2025-09-06 20:41:49.123864,2025-09-06 16:41:49.123864
"CYQM",2025-09-06 20:00:00,2025-09-06 16:00:00,"VFR",28,19,58,220,18,24100,29.93,NA,"FEW  ft; BKN  ft; BKN  ft","CYQM 062000Z 22018G24KT 15SM FEW035 BKN220 BKN240 28/19 A2993 RMK CU2CI3CI1 SLP137 DENSITY ALT 1800FT",2025-09-06 20:41:49.194092,2025-09-06 16:41:49.194092
"CYFC",2025-09-06 20:00:00,2025-09-06 16:00:00,"VFR",24,19,74,190,9,14500,29.9,NA,"BKN  ft","CYFC 062000Z AUTO 19009KT 160V220 9SM BKN091 24/19 A2990 RMK SLP128 DENSITY ALT 1200FT",2025-09-06 20:41:49.261858,2025-09-06 16:41:49.261858
"CYYT",2025-09-06 20:00:00,2025-09-06 16:00:00,"VFR",22,13,57,240,11,24100,30.14,NA,"SCT  ft; SCT  ft; SCT  ft","CYYT 062000Z 24011KT 15SM SCT034 SCT140 SCT240 22/13 A3014 RMK SC3AC1CI1 AC TR SLP211 DENSITY ALT 1200FT",2025-09-06 20:41:49.288993,2025-09-06 16:41:49.288993
"CYQY",2025-09-06 20:00:00,2025-09-06 16:00:00,"VFR",27,19,62,220,8,24100,30.04,NA,"BKN  ft","CYQY 062000Z 22008G17KT 15SM BKN230 27/19 A3004 RMK CI6 SLP175 DENSITY ALT 1500FT",2025-09-06 20:41:49.357775,2025-09-06 16:41:49.357775
"CYXY",2025-09-06 20:00:00,2025-09-06 16:00:00,"VFR",16,10,68,360,4,64400,29.95,NA,"SCT  ft; BKN  ft; BKN  ft","CYXY 062000Z 36004KT 240V020 40SM SCT040TCU BKN075 BKN240 16/10 A2995 RMK TCU3AC3CI1 SLP157 DENSITY ALT 3000FT",2025-09-06 20:41:49.427082,2025-09-06 16:41:49.427082
"CYZF",2025-09-06 20:00:00,2025-09-06 16:00:00,"VFR",14,8,67,150,12,24100,29.79,NA,"SCT  ft; BKN  ft; BKN  ft","CYZF 062000Z 15012G18KT 15SM SCT110 BKN150 BKN240 14/08 A2979 RMK AS3AC3CI1 SLP098 DENSITY ALT 1000FT",2025-09-06 20:41:49.499438,2025-09-06 16:41:49.499438
"CYFB",2025-09-06 20:00:00,2025-09-06 16:00:00,"IFR",2,1,93,120,15,8000,29.63,NA,"BKN  ft; OVC  ft","CYFB 062000Z 12015G23KT 5SM -RASN BR BKN008 OVC018 02/01 A2963 RMK SC7SC1 SLP038",2025-09-06 20:41:49.570546,2025-09-06 16:41:49.570546
"CYRT",2025-09-06 20:00:00,2025-09-06 16:00:00,"VFR",8,1,62,360,16,24100,29.9,NA,"BKN  ft; BKN  ft","CYRT 062000Z 36016G22KT 15SM BKN033 BKN080 08/01 A2990 RMK SC5AC2 SLP129",2025-09-06 20:41:49.640869,2025-09-06 16:41:49.640869
"CYBK",2025-09-06 20:00:00,2025-09-06 16:00:00,"VFR",9,0,54,350,11,40200,30,NA,"FEW  ft; BKN  ft","CYBK 062000Z 35011KT 25SM FEW033 BKN045 09/M00 A3000 RMK SC1SC7 SC TR SLP161",2025-09-06 20:41:49.710602,2025-09-06 16:41:49.710602
"CYRB",2025-09-06 20:00:00,2025-09-06 16:00:00,"VFR",0,-3,80,150,17,40200,30.03,NA,"SCT  ft","CYRB 062000Z 15017KT 25SM SCT010 M00/M03 A3003 RMK ST4 SLP177",2025-09-06 20:41:49.793625,2025-09-06 16:41:49.793625
"CYCO",2025-09-06 20:15:00,2025-09-06 16:15:00,"IFR",11,11,100,270,13,3200,29.7,NA,"OVC  ft","CYCO 062015Z 27013G18KT 2SM -RA FU OVC018 11/11 A2970 RMK FU2SC6 SLP062",2025-09-06 20:41:49.865545,2025-09-06 16:41:49.865545
"CYER",2025-09-06 21:00:00,2025-09-06 17:00:00,"MVFR",8,4,76,330,14,14500,29.79,NA,"SCT  ft; OVC  ft","CYER 062100Z AUTO 33014G26KT 9SM SCT023 OVC029 08/04 A2979 RMK SLP092",2025-09-06 21:21:18.870452,2025-09-06 17:21:18.870452
"CYAT",2025-09-06 21:07:00,2025-09-06 17:07:00,"MVFR",11,8,82,280,6,14500,29.7,NA,"OVC  ft","CYAT 062107Z AUTO 28006KT 240V300 9SM OVC026 11/08 A2970 RMK SLP060",2025-09-06 21:21:18.951315,2025-09-06 17:21:18.951315
"CYMO",2025-09-06 21:00:00,2025-09-06 17:00:00,"VFR",12,9,82,260,6,14500,29.75,NA,"FEW  ft; BKN  ft; OVC  ft","CYMO 062100Z AUTO 26006KT 240V300 9SM FEW020 BKN047 OVC091 12/09 A2975 RMK SLP078",2025-09-06 21:21:19.023398,2025-09-06 17:21:19.023398
"CYPL",2025-09-06 21:12:00,2025-09-06 17:12:00,"MVFR",6,5,93,320,8,14500,29.91,NA,"SCT  ft; BKN  ft; BKN  ft; OVC  ft","CYPL 062112Z AUTO 32008G19KT 280V040 9SM SCT014 BKN027 BKN040 OVC068 06/05 A2991 RMK SLP144",2025-09-06 21:21:19.095823,2025-09-06 17:21:19.095823
"CYQT",2025-09-06 21:00:00,2025-09-06 17:00:00,"VFR",13,6,63,270,10,32200,29.91,NA,"SCT  ft; BKN  ft; BKN  ft","CYQT 062100Z 27010G18KT 20SM SCT050 BKN080 BKN260 13/06 A2991 RMK SC4AC2CI1 SLP137",2025-09-06 21:21:19.173251,2025-09-06 17:21:19.173251
"CYAM",2025-09-06 21:00:00,2025-09-06 17:00:00,"VFR",12,6,67,310,12,32200,29.92,NA,"SCT  ft; SCT  ft; BKN  ft; BKN  ft","CYAM 062100Z 31012G20KT 20SM SCT027 SCT044 BKN170 BKN210 12/06 A2992 RMK CU3SC1AC1CI2 SLP138",2025-09-06 21:21:19.248939,2025-09-06 17:21:19.248939
"CYTS",2025-09-06 21:00:00,2025-09-06 17:00:00,"VFR",10,7,82,210,4,24100,29.84,NA,"BKN  ft","CYTS 062100Z 21004KT 15SM -SHRA BKN048 10/07 A2984 RMK SC7 CVCTV CLD EMBD SLP115",2025-09-06 21:21:19.32846,2025-09-06 17:21:19.32846
"CYSB",2025-09-06 21:00:00,2025-09-06 17:00:00,"MVFR",13,7,67,210,12,32200,29.87,NA,"BKN  ft; BKN  ft; OVC  ft","CYSB 062100Z 21012G18KT 20SM BKN024 BKN081 OVC100 13/07 A2987 RMK SC5AC2AC1 SLP124",2025-09-06 21:21:19.402588,2025-09-06 17:21:19.402588
"CYYB",2025-09-06 21:00:00,2025-09-06 17:00:00,"VFR",14,8,67,250,9,48300,29.88,NA,"SCT  ft; OVC  ft","CYYB 062100Z 25009KT 30SM SCT040 OVC090 14/08 A2988 RMK SC4AC4 SLP127",2025-09-06 21:21:19.476348,2025-09-06 17:21:19.476348
"CYOW",2025-09-06 21:00:00,2025-09-06 17:00:00,"VFR",20,7,43,250,9,24100,29.9,NA,"SCT  ft; BKN  ft","CYOW 062100Z 25009G15KT 180V280 15SM SCT060 BKN250 20/07 A2990 RMK CU4CI1 SLP127 DENSITY ALT 1200FT",2025-09-06 21:21:19.552172,2025-09-06 17:21:19.552172
"CYGK",2025-09-06 21:00:00,2025-09-06 17:00:00,"VFR",18,11,64,190,18,24100,29.94,NA,"FEW  ft; SCT  ft; BKN  ft","CYGK 062100Z 19018G23KT 15SM FEW030 SCT070 BKN250 18/11 A2994 RMK SC2AC2CI1 SLP142 DENSITY ALT 800FT",2025-09-06 21:21:19.629555,2025-09-06 17:21:19.629555
"CYQG",2025-09-06 21:00:00,2025-09-06 17:00:00,"VFR",18,6,46,310,12,14500,30,NA,"BKN  ft","CYQG 062100Z AUTO 31012G20KT 9SM BKN091 18/06 A3000 RMK SLP161 DENSITY ALT 1100FT",2025-09-06 21:21:19.704245,2025-09-06 17:21:19.704245
"CYVV",2025-09-06 21:00:00,2025-09-06 17:00:00,"MVFR",13,10,82,240,9,6400,29.94,NA,"OVC  ft","CYVV 062100Z 24009G18KT 4SM -SHRA OVC023 13/10 A2994 RMK SC8 CVCTV CLD EMBD SLP142",2025-09-06 21:21:19.780801,2025-09-06 17:21:19.780801
"CYYZ",2025-09-06 21:00:00,2025-09-06 17:00:00,"VFR",18,6,46,290,14,24100,29.94,NA,"FEW  ft; BKN  ft","CYYZ 062100Z 29014G19KT 15SM FEW060 BKN082 18/06 A2994 RMK CF2AC5 SLP141 DENSITY ALT 1100FT",2025-09-06 21:21:19.855535,2025-09-06 17:21:19.855535
"CYQA",2025-09-06 21:00:00,2025-09-06 17:00:00,"VFR",15,8,63,260,6,14500,29.93,NA,"FEW  ft; OVC  ft","CYQA 062100Z AUTO 26006G17KT 240V320 9SM FEW030 OVC066 15/08 A2993 RMK SLP142",2025-09-06 21:21:19.930469,2025-09-06 17:21:19.930469
"CYVR",2025-09-06 21:00:00,2025-09-06 17:00:00,"VFR",23,17,69,120,8,24100,29.91,NA,"FEW  ft; BKN  ft","CYVR 062100Z 12008KT 15SM FEW160 BKN220 23/17 A2991 RMK AC1CI5 SLP130 DENSITY ALT 1000FT",2025-09-06 21:21:20.004679,2025-09-06 17:21:20.004679
"CYYJ",2025-09-06 21:00:00,2025-09-06 17:00:00,"VFR",16,14,88,110,8,32200,29.91,NA,"FEW  ft; FEW  ft; BKN  ft","CYYJ 062100Z 11008KT 20SM VCFG FEW003 FEW010 BKN250 16/14 A2991 RMK SF1SF1CI7 SF TR SF TR VIS NE - E 3 SLP132",2025-09-06 21:21:20.079725,2025-09-06 17:21:20.079725
"CYLW",2025-09-06 21:17:00,2025-09-06 17:17:00,"VFR",26,11,39,360,3,14500,29.87,NA,"CLR  ft","CYLW 062117Z AUTO 36003KT 310V030 9SM CLR 26/11 A2987 RMK SLP111 DENSITY ALT 3200FT",2025-09-06 21:21:20.157438,2025-09-06 17:21:20.157438
"CYXS",2025-09-06 21:00:00,2025-09-06 17:00:00,"VFR",21,13,60,0,0,14500,29.94,NA,"CLR  ft","CYXS 062100Z AUTO 00000KT 9SM CLR 21/13 A2994 RMK SLP149 DENSITY ALT 3500FT",2025-09-06 21:21:20.230607,2025-09-06 17:21:20.230607
"CYXT",2025-09-06 21:00:00,2025-09-06 17:00:00,"VFR",23,16,65,0,2,32200,29.9,NA,"FEW  ft","CYXT 062100Z VRB02KT 20SM FEW210 23/16 A2990 RMK CI1 CI TR FU SLP127 DENSITY ALT 1900FT",2025-09-06 21:21:20.303383,2025-09-06 17:21:20.303383
"CYQQ",2025-09-06 21:00:00,2025-09-06 17:00:00,"VFR",23,16,65,90,7,19300,29.9,NA,"FEW  ft","CYQQ 062100Z 09007KT 12SM FEW250 23/16 A2990 RMK CI2 DENSITY ALT 1333FT CONTRAILS FU SLP123",2025-09-06 21:21:20.376348,2025-09-06 17:21:20.376348
"CYYC",2025-09-06 21:00:00,2025-09-06 17:00:00,"VFR",25,8,34,180,5,9999,29.98,NA,"SKC  ft","CYYC 062100Z 18005KT 10SM SKC 25/08 A2998 RMK FU SLP151 DENSITY ALT 5500FT",2025-09-06 21:21:20.409014,2025-09-06 17:21:20.409014
"CYEG",2025-09-06 21:00:00,2025-09-06 17:00:00,"VFR",24,7,34,140,4,32200,29.93,NA,"FEW  ft; BKN  ft","CYEG 062100Z 14004KT 20SM FEW140 BKN250 24/07 A2993 RMK AC1CI4 SLP141 DENSITY ALT 4000FT",2025-09-06 21:21:20.482559,2025-09-06 17:21:20.482559
"CYMM",2025-09-06 21:00:00,2025-09-06 17:00:00,"VFR",24,7,34,130,11,14500,29.89,NA,"CLR  ft","CYMM 062100Z AUTO 13011KT 9SM CLR 24/07 A2989 RMK SLP130 DENSITY ALT 2700FT",2025-09-06 21:21:20.559143,2025-09-06 17:21:20.559143
"CYQF",2025-09-06 21:00:00,2025-09-06 17:00:00,"VFR",25,6,30,170,4,12900,29.96,NA,"CLR  ft","CYQF 062100Z AUTO 17004KT 110V200 8SM CLR 25/06 A2996 RMK SLP151 DENSITY ALT 4800FT",2025-09-06 21:21:20.631596,2025-09-06 17:21:20.631596
"CYXE",2025-09-06 21:00:00,2025-09-06 17:00:00,"VFR",20,4,35,140,6,24100,30.09,NA,"FEW  ft","CYXE 062100Z 14006KT 070V220 15SM FEW300 20/04 A3009 RMK CI1 SLP203 DENSITY ALT 2400FT",2025-09-06 21:21:20.705625,2025-09-06 17:21:20.705625
"CYQR",2025-09-06 21:00:00,2025-09-06 17:00:00,"VFR",17,0,32,110,6,24100,30.12,NA,"FEW  ft","CYQR 062100Z 11006KT 070V160 15SM FEW250 17/00 A3012 RMK CI1 CI TR SLP218 DENSITY ALT 2400FT",2025-09-06 21:21:20.77861,2025-09-06 17:21:20.77861
"CYWG",2025-09-06 21:00:00,2025-09-06 17:00:00,"VFR",14,5,55,350,14,22500,30.09,NA,"SCT  ft; SCT  ft","CYWG 062100Z 35014G20KT 14SM SCT055TCU SCT065 14/05 A3009 RMK TCU3SC1 SC TR DIST SH NE-E AND NW SLP198",2025-09-06 21:21:20.815612,2025-09-06 17:21:20.815612
"CYBR",2025-09-06 21:00:00,2025-09-06 17:00:00,"VFR",13,4,55,350,4,24100,30.14,NA,"FEW  ft; BKN  ft","CYBR 062100Z 35004KT 15SM FEW044 BKN055 13/04 A3014 RMK CU2SC5 SLP224",2025-09-06 21:21:20.888815,2025-09-06 17:21:20.888815
"CYUL",2025-09-06 21:00:00,2025-09-06 17:00:00,"VFR",16,13,83,230,5,24100,29.92,NA,"SCT  ft; SCT  ft; BKN  ft; BKN  ft","CYUL 062100Z 23005KT 15SM SCT020 SCT045 BKN130 BKN230 16/13 A2992 RMK SC3SC1AC2CC1 SLP134",2025-09-06 21:21:20.966025,2025-09-06 17:21:20.966025
"CYHU",2025-09-06 21:04:00,2025-09-06 17:04:00,"MVFR",15,13,88,230,5,14500,29.93,NA,"BKN  ft; BKN  ft; BKN  ft","CYHU 062104Z AUTO 23005KT 160V240 9SM BKN018 BKN025 BKN030 15/13 A2993 RMK SLP136",2025-09-06 21:21:21.038926,2025-09-06 17:21:21.038926
"CYQB",2025-09-06 21:00:00,2025-09-06 17:00:00,"VFR",14,12,88,210,8,40200,29.93,NA,"FEW  ft; SCT  ft; OVC  ft","CYQB 062100Z 21008KT 25SM -SHRA FEW012 SCT025 OVC120 14/12 A2993 RMK SC1SC3AC4 CVCTV CLD EMBD SLP138",2025-09-06 21:21:21.112749,2025-09-06 17:21:21.112749
"CYVO",2025-09-06 21:00:00,2025-09-06 17:00:00,"VFR",12,9,82,230,5,24100,29.84,NA,"SCT  ft; BKN  ft; BKN  ft","CYVO 062100Z 23005KT 15SM SCT048TCU BKN065 BKN170 12/09 A2984 RMK TCU3SC2AC2 SLP117",2025-09-06 21:21:21.185406,2025-09-06 17:21:21.185406
"CYUY",2025-09-06 21:00:00,2025-09-06 17:00:00,"VFR",11,7,77,290,7,24100,29.84,NA,"SCT  ft; BKN  ft; BKN  ft","CYUY 062100Z 29007KT 15SM -SHRA SCT035 BKN062 BKN120 11/07 A2984 RMK CU3SC2AC2 SLP116",2025-09-06 21:21:21.257686,2025-09-06 17:21:21.257686
"CYZV",2025-09-06 21:00:00,2025-09-06 17:00:00,"VFR",16,9,63,230,16,48300,29.82,NA,"FEW  ft; SCT  ft; OVC  ft","CYZV 062100Z 23016G25KT 30SM FEW064 SCT140 OVC250 16/09 A2982 RMK CU1AC2CI5 SLP103 DENSITY ALT 500FT",2025-09-06 21:21:21.331471,2025-09-06 17:21:21.331471
"CYBC",2025-09-06 21:00:00,2025-09-06 17:00:00,"VFR",13,10,82,230,14,14500,29.86,NA,"BKN  ft","CYBC 062100Z AUTO 23014G22KT 9SM BKN110 13/10 A2986 RMK SLP116",2025-09-06 21:21:21.40375,2025-09-06 17:21:21.40375
"CYRJ",2025-09-06 21:00:00,2025-09-06 17:00:00,"VFR",15,9,68,230,13,40200,29.84,NA,"FEW  ft; BKN  ft","CYRJ 062100Z 23013KT 200V260 25SM -SHRA FEW025 BKN055 15/09 A2984 RMK SC1SC6 CVCTV CLD EMBD SLP111 DENSITY ALT 900FT",2025-09-06 21:21:21.48073,2025-09-06 17:21:21.48073
"CYHZ",2025-09-06 21:00:00,2025-09-06 17:00:00,"VFR",25,17,61,210,14,24100,30.04,NA,"FEW  ft; BKN  ft","CYHZ 062100Z 21014G20KT 15SM FEW032 BKN250 25/17 A3004 RMK CU1CI7 CU TR SLP173 DENSITY ALT 1700FT",2025-09-06 21:21:21.557868,2025-09-06 17:21:21.557868
"CYYG",2025-09-06 21:00:00,2025-09-06 17:00:00,"VFR",28,18,55,190,11,24100,29.95,NA,"SKC  ft","CYYG 062100Z 19011KT 15SM SKC 28/18 A2995 RMK SLP145 DENSITY ALT 1700FT",2025-09-06 21:21:21.632342,2025-09-06 17:21:21.632342
"CYQM",2025-09-06 21:00:00,2025-09-06 17:00:00,"VFR",26,18,61,210,19,24100,29.93,NA,"FEW  ft; SCT  ft; BKN  ft","CYQM 062100Z 21019G28KT 15SM FEW030 SCT220 BKN240 26/18 A2993 RMK SC1CS3CI1 CU ASOCTD SLP135 DENSITY ALT 1600FT",2025-09-06 21:21:21.706075,2025-09-06 17:21:21.706075
"CYFC",2025-09-06 21:00:00,2025-09-06 17:00:00,"VFR",24,19,74,180,13,14500,29.88,NA,"CLR  ft","CYFC 062100Z AUTO 18013G18KT 9SM CLR 24/19 A2988 RMK LTNG DIST W SLP119 DENSITY ALT 1200FT",2025-09-06 21:21:21.779753,2025-09-06 17:21:21.779753
"CYYT",2025-09-06 21:00:00,2025-09-06 17:00:00,"VFR",20,14,69,240,8,24100,30.15,NA,"FEW  ft; SCT  ft","CYYT 062100Z 24008KT 15SM FEW028 SCT240 20/14 A3015 RMK SC2CI2 SLP213 DENSITY ALT 1000FT",2025-09-06 21:21:21.851841,2025-09-06 17:21:21.851841
"CYQY",2025-09-06 21:00:00,2025-09-06 17:00:00,"VFR",25,19,69,210,13,24100,30.04,NA,"SCT  ft","CYQY 062100Z 21013KT 15SM SCT230 25/19 A3004 RMK CI7 SLP175 DENSITY ALT 1400FT",2025-09-06 21:21:21.926028,2025-09-06 17:21:21.926028
"CYXY",2025-09-06 21:00:00,2025-09-06 17:00:00,"VFR",17,10,64,350,4,64400,29.94,NA,"FEW  ft; SCT  ft; BKN  ft; BKN  ft","CYXY 062100Z 35004KT 280V080 40SM FEW045TCU SCT075 BKN200 BKN260 17/10 A2994 RMK TCU2AC2CI1CI1 SLP151 DENSITY ALT 3200FT",2025-09-06 21:21:21.999529,2025-09-06 17:21:21.999529
"CYZF",2025-09-06 21:00:00,2025-09-06 17:00:00,"VFR",16,8,59,130,12,24100,29.79,NA,"FEW  ft; BKN  ft; BKN  ft","CYZF 062100Z 13012KT 15SM FEW150 BKN190 BKN240 16/08 A2979 RMK AC1AC5CI1 SLP099 DENSITY ALT 1100FT",2025-09-06 21:21:22.071519,2025-09-06 17:21:22.071519
"CYFB",2025-09-06 21:00:00,2025-09-06 17:00:00,"IFR",2,1,93,130,13,9700,29.62,NA,"BKN  ft; BKN  ft; OVC  ft","CYFB 062100Z 13013G19KT 6SM -RASN BR BKN009 BKN015 OVC021 02/01 A2962 RMK ST5SC2SC1 SLP035",2025-09-06 21:21:22.146644,2025-09-06 17:21:22.146644
"CYRT",2025-09-06 21:00:00,2025-09-06 17:00:00,"VFR",8,1,62,10,18,24100,29.9,NA,"BKN  ft; BKN  ft","CYRT 062100Z 01018KT 15SM BKN031 BKN078 08/01 A2990 RMK SC5AC2 SLP130",2025-09-06 21:21:22.217452,2025-09-06 17:21:22.217452
"CYBK",2025-09-06 21:00:00,2025-09-06 17:00:00,"VFR",8,0,57,350,11,40200,29.99,NA,"BKN  ft","CYBK 062100Z 35011KT 25SM BKN048 08/00 A2999 RMK SC7 SLP160",2025-09-06 21:21:22.290835,2025-09-06 17:21:22.290835
"CYRB",2025-09-06 21:00:00,2025-09-06 17:00:00,"VFR",0,-2,87,140,13,48300,30.02,NA,"SCT  ft","CYRB 062100Z 14013KT 30SM SCT013 00/M02 A3002 RMK ST4 SLP175",2025-09-06 21:21:22.376423,2025-09-06 17:21:22.376423
"CYCO",2025-09-06 21:00:00,2025-09-06 17:00:00,"MVFR",6,6,100,340,11,24100,29.76,NA,"FEW  ft; OVC  ft","CYCO 062100Z 34011KT 15SM FEW005 OVC019 06/06 A2976 RMK ST2SC6 SLP081",2025-09-06 21:21:22.448501,2025-09-06 17:21:22.448501
"CYER",2025-09-06 21:00:00,2025-09-06 17:00:00,"MVFR",8,4,76,330,14,14500,29.79,NA,"SCT  ft; OVC  ft","CYER 062100Z AUTO 33014G26KT 9SM SCT023 OVC029 08/04 A2979 RMK SLP092",2025-09-06 21:41:53.241946,2025-09-06 17:41:53.241946
"CYAT",2025-09-06 21:07:00,2025-09-06 17:07:00,"MVFR",11,8,82,280,6,14500,29.7,NA,"OVC  ft","CYAT 062107Z AUTO 28006KT 240V300 9SM OVC026 11/08 A2970 RMK SLP060",2025-09-06 21:41:53.385345,2025-09-06 17:41:53.385345
"CYMO",2025-09-06 21:00:00,2025-09-06 17:00:00,"VFR",12,9,82,260,6,14500,29.75,NA,"FEW  ft; BKN  ft; OVC  ft","CYMO 062100Z AUTO 26006KT 240V300 9SM FEW020 BKN047 OVC091 12/09 A2975 RMK SLP078",2025-09-06 21:41:53.481667,2025-09-06 17:41:53.481667
"CYPL",2025-09-06 21:12:00,2025-09-06 17:12:00,"MVFR",6,5,93,320,8,14500,29.91,NA,"SCT  ft; BKN  ft; BKN  ft; OVC  ft","CYPL 062112Z AUTO 32008G19KT 280V040 9SM SCT014 BKN027 BKN040 OVC068 06/05 A2991 RMK SLP144",2025-09-06 21:41:53.579147,2025-09-06 17:41:53.579147
"CYQT",2025-09-06 21:00:00,2025-09-06 17:00:00,"VFR",13,6,63,270,10,32200,29.91,NA,"SCT  ft; BKN  ft; BKN  ft","CYQT 062100Z 27010G18KT 20SM SCT050 BKN080 BKN260 13/06 A2991 RMK SC4AC2CI1 SLP137",2025-09-06 21:41:53.716028,2025-09-06 17:41:53.716028
"CYAM",2025-09-06 21:00:00,2025-09-06 17:00:00,"VFR",12,6,67,310,12,32200,29.92,NA,"SCT  ft; SCT  ft; BKN  ft; BKN  ft","CYAM 062100Z 31012G20KT 20SM SCT027 SCT044 BKN170 BKN210 12/06 A2992 RMK CU3SC1AC1CI2 SLP138",2025-09-06 21:41:53.809665,2025-09-06 17:41:53.809665
"CYTS",2025-09-06 21:28:00,2025-09-06 17:28:00,"VFR",11,7,77,0,2,24100,29.84,NA,"BKN  ft; BKN  ft","CYTS 062128Z VRB02KT 15SM BKN060 BKN082 11/07 A2984 RMK SC5AC2 SLP115",2025-09-06 21:41:53.945418,2025-09-06 17:41:53.945418
"CYSB",2025-09-06 21:00:00,2025-09-06 17:00:00,"MVFR",13,7,67,210,12,32200,29.87,NA,"BKN  ft; BKN  ft; OVC  ft","CYSB 062100Z 21012G18KT 20SM BKN024 BKN081 OVC100 13/07 A2987 RMK SC5AC2AC1 SLP124",2025-09-06 21:41:54.041566,2025-09-06 17:41:54.041566
"CYYB",2025-09-06 21:00:00,2025-09-06 17:00:00,"VFR",14,8,67,250,9,48300,29.88,NA,"SCT  ft; OVC  ft","CYYB 062100Z 25009KT 30SM SCT040 OVC090 14/08 A2988 RMK SC4AC4 SLP127",2025-09-06 21:41:54.136082,2025-09-06 17:41:54.136082
"CYOW",2025-09-06 21:00:00,2025-09-06 17:00:00,"VFR",20,7,43,250,9,24100,29.9,NA,"SCT  ft; BKN  ft","CYOW 062100Z 25009G15KT 180V280 15SM SCT060 BKN250 20/07 A2990 RMK CU4CI1 SLP127 DENSITY ALT 1200FT",2025-09-06 21:41:54.232673,2025-09-06 17:41:54.232673
"CYGK",2025-09-06 21:00:00,2025-09-06 17:00:00,"VFR",18,11,64,190,18,24100,29.94,NA,"FEW  ft; SCT  ft; BKN  ft","CYGK 062100Z 19018G23KT 15SM FEW030 SCT070 BKN250 18/11 A2994 RMK SC2AC2CI1 SLP142 DENSITY ALT 800FT",2025-09-06 21:41:54.331592,2025-09-06 17:41:54.331592
"CYQG",2025-09-06 21:00:00,2025-09-06 17:00:00,"VFR",18,6,46,310,12,14500,30,NA,"BKN  ft","CYQG 062100Z AUTO 31012G20KT 9SM BKN091 18/06 A3000 RMK SLP161 DENSITY ALT 1100FT",2025-09-06 21:41:54.467507,2025-09-06 17:41:54.467507
"CYVV",2025-09-06 21:28:00,2025-09-06 17:28:00,"MVFR",13,10,82,250,8,24100,29.94,NA,"OVC  ft","CYVV 062128Z 25008KT 15SM OVC025 13/10 A2994 RMK SC8 SLP142",2025-09-06 21:41:54.562966,2025-09-06 17:41:54.562966
"CYYZ",2025-09-06 21:00:00,2025-09-06 17:00:00,"VFR",18,6,46,290,14,24100,29.94,NA,"FEW  ft; BKN  ft","CYYZ 062100Z 29014G19KT 15SM FEW060 BKN082 18/06 A2994 RMK CF2AC5 SLP141 DENSITY ALT 1100FT",2025-09-06 21:41:54.658588,2025-09-06 17:41:54.658588
"CYQA",2025-09-06 21:00:00,2025-09-06 17:00:00,"VFR",15,8,63,260,6,14500,29.93,NA,"FEW  ft; OVC  ft","CYQA 062100Z AUTO 26006G17KT 240V320 9SM FEW030 OVC066 15/08 A2993 RMK SLP142",2025-09-06 21:41:54.753453,2025-09-06 17:41:54.753453
"CYVR",2025-09-06 21:00:00,2025-09-06 17:00:00,"VFR",23,17,69,120,8,24100,29.91,NA,"FEW  ft; BKN  ft","CYVR 062100Z 12008KT 15SM FEW160 BKN220 23/17 A2991 RMK AC1CI5 SLP130 DENSITY ALT 1000FT",2025-09-06 21:41:54.847158,2025-09-06 17:41:54.847158
"CYYJ",2025-09-06 21:00:00,2025-09-06 17:00:00,"VFR",16,14,88,110,8,32200,29.91,NA,"FEW  ft; FEW  ft; BKN  ft","CYYJ 062100Z 11008KT 20SM VCFG FEW003 FEW010 BKN250 16/14 A2991 RMK SF1SF1CI7 SF TR SF TR VIS NE - E 3 SLP132",2025-09-06 21:41:54.94457,2025-09-06 17:41:54.94457
"CYLW",2025-09-06 21:17:00,2025-09-06 17:17:00,"VFR",26,11,39,360,3,14500,29.87,NA,"CLR  ft","CYLW 062117Z AUTO 36003KT 310V030 9SM CLR 26/11 A2987 RMK SLP111 DENSITY ALT 3200FT",2025-09-06 21:41:55.044438,2025-09-06 17:41:55.044438
"CYXS",2025-09-06 21:00:00,2025-09-06 17:00:00,"VFR",21,13,60,0,0,14500,29.94,NA,"CLR  ft","CYXS 062100Z AUTO 00000KT 9SM CLR 21/13 A2994 RMK SLP149 DENSITY ALT 3500FT",2025-09-06 21:41:55.139497,2025-09-06 17:41:55.139497
"CYXT",2025-09-06 21:00:00,2025-09-06 17:00:00,"VFR",23,16,65,0,2,32200,29.9,NA,"FEW  ft","CYXT 062100Z VRB02KT 20SM FEW210 23/16 A2990 RMK CI1 CI TR FU SLP127 DENSITY ALT 1900FT",2025-09-06 21:41:55.23506,2025-09-06 17:41:55.23506
"CYQQ",2025-09-06 21:00:00,2025-09-06 17:00:00,"VFR",23,16,65,90,7,19300,29.9,NA,"FEW  ft","CYQQ 062100Z 09007KT 12SM FEW250 23/16 A2990 RMK CI2 DENSITY ALT 1333FT CONTRAILS FU SLP123",2025-09-06 21:41:55.330223,2025-09-06 17:41:55.330223
"CYYC",2025-09-06 21:00:00,2025-09-06 17:00:00,"VFR",25,8,34,180,5,9999,29.98,NA,"SKC  ft","CYYC 062100Z 18005KT 10SM SKC 25/08 A2998 RMK FU SLP151 DENSITY ALT 5500FT",2025-09-06 21:41:55.426945,2025-09-06 17:41:55.426945
"CYEG",2025-09-06 21:00:00,2025-09-06 17:00:00,"VFR",24,7,34,140,4,32200,29.93,NA,"FEW  ft; BKN  ft","CYEG 062100Z 14004KT 20SM FEW140 BKN250 24/07 A2993 RMK AC1CI4 SLP141 DENSITY ALT 4000FT",2025-09-06 21:41:55.521985,2025-09-06 17:41:55.521985
"CYMM",2025-09-06 21:00:00,2025-09-06 17:00:00,"VFR",24,7,34,130,11,14500,29.89,NA,"CLR  ft","CYMM 062100Z AUTO 13011KT 9SM CLR 24/07 A2989 RMK SLP130 DENSITY ALT 2700FT",2025-09-06 21:41:55.657981,2025-09-06 17:41:55.657981
"CYQF",2025-09-06 21:00:00,2025-09-06 17:00:00,"VFR",25,6,30,170,4,12900,29.96,NA,"CLR  ft","CYQF 062100Z AUTO 17004KT 110V200 8SM CLR 25/06 A2996 RMK SLP151 DENSITY ALT 4800FT",2025-09-06 21:41:55.753983,2025-09-06 17:41:55.753983
"CYXE",2025-09-06 21:00:00,2025-09-06 17:00:00,"VFR",20,4,35,140,6,24100,30.09,NA,"FEW  ft","CYXE 062100Z 14006KT 070V220 15SM FEW300 20/04 A3009 RMK CI1 SLP203 DENSITY ALT 2400FT",2025-09-06 21:41:55.847552,2025-09-06 17:41:55.847552
"CYQR",2025-09-06 21:00:00,2025-09-06 17:00:00,"VFR",17,0,32,110,6,24100,30.12,NA,"FEW  ft","CYQR 062100Z 11006KT 070V160 15SM FEW250 17/00 A3012 RMK CI1 CI TR SLP218 DENSITY ALT 2400FT",2025-09-06 21:41:55.943148,2025-09-06 17:41:55.943148
"CYWG",2025-09-06 21:00:00,2025-09-06 17:00:00,"VFR",14,5,55,350,14,22500,30.09,NA,"SCT  ft; SCT  ft","CYWG 062100Z 35014G20KT 14SM SCT055TCU SCT065 14/05 A3009 RMK TCU3SC1 SC TR DIST SH NE-E AND NW SLP198",2025-09-06 21:41:56.040089,2025-09-06 17:41:56.040089
"CYBR",2025-09-06 21:00:00,2025-09-06 17:00:00,"VFR",13,4,55,350,4,24100,30.14,NA,"FEW  ft; BKN  ft","CYBR 062100Z 35004KT 15SM FEW044 BKN055 13/04 A3014 RMK CU2SC5 SLP224",2025-09-06 21:41:56.135242,2025-09-06 17:41:56.135242
"CYUL",2025-09-06 21:00:00,2025-09-06 17:00:00,"VFR",16,13,83,230,5,24100,29.92,NA,"SCT  ft; SCT  ft; BKN  ft; BKN  ft","CYUL 062100Z 23005KT 15SM SCT020 SCT045 BKN130 BKN230 16/13 A2992 RMK SC3SC1AC2CC1 SLP134",2025-09-06 21:41:56.231518,2025-09-06 17:41:56.231518
"CYHU",2025-09-06 21:20:00,2025-09-06 17:20:00,"MVFR",16,14,88,180,6,14500,29.92,NA,"FEW  ft; SCT  ft; BKN  ft; BKN  ft","CYHU 062120Z AUTO 18006KT 9SM FEW016 SCT021 BKN029 BKN180 16/14 A2992 RMK SLP134 DENSITY ALT 300FT",2025-09-06 21:41:56.328655,2025-09-06 17:41:56.328655
"CYQB",2025-09-06 21:31:00,2025-09-06 17:31:00,"VFR",13,12,94,220,9,40200,29.93,NA,"FEW  ft; SCT  ft; OVC  ft","CYQB 062131Z 22009KT 25SM FEW012 SCT038 OVC120 13/12 A2993 RMK SF1SC2AC5 SLP140",2025-09-06 21:41:56.422466,2025-09-06 17:41:56.422466
"CYVO",2025-09-06 21:00:00,2025-09-06 17:00:00,"VFR",12,9,82,230,5,24100,29.84,NA,"SCT  ft; BKN  ft; BKN  ft","CYVO 062100Z 23005KT 15SM SCT048TCU BKN065 BKN170 12/09 A2984 RMK TCU3SC2AC2 SLP117",2025-09-06 21:41:56.518403,2025-09-06 17:41:56.518403
"CYUY",2025-09-06 21:00:00,2025-09-06 17:00:00,"VFR",11,7,77,290,7,24100,29.84,NA,"SCT  ft; BKN  ft; BKN  ft","CYUY 062100Z 29007KT 15SM -SHRA SCT035 BKN062 BKN120 11/07 A2984 RMK CU3SC2AC2 SLP116",2025-09-06 21:41:56.613582,2025-09-06 17:41:56.613582
"CYZV",2025-09-06 21:00:00,2025-09-06 17:00:00,"VFR",16,9,63,230,16,48300,29.82,NA,"FEW  ft; SCT  ft; OVC  ft","CYZV 062100Z 23016G25KT 30SM FEW064 SCT140 OVC250 16/09 A2982 RMK CU1AC2CI5 SLP103 DENSITY ALT 500FT",2025-09-06 21:41:56.754921,2025-09-06 17:41:56.754921
"CYBC",2025-09-06 21:00:00,2025-09-06 17:00:00,"VFR",13,10,82,230,14,14500,29.86,NA,"BKN  ft","CYBC 062100Z AUTO 23014G22KT 9SM BKN110 13/10 A2986 RMK SLP116",2025-09-06 21:41:56.850825,2025-09-06 17:41:56.850825
"CYRJ",2025-09-06 21:24:00,2025-09-06 17:24:00,"VFR",14,10,77,230,8,40200,29.84,NA,"FEW  ft; BKN  ft","CYRJ 062124Z 23008KT 180V250 25SM -SHRA FEW030 BKN054 14/10 A2984 RMK SC1SC6 SLP110",2025-09-06 21:41:56.949033,2025-09-06 17:41:56.949033
"CYHZ",2025-09-06 21:00:00,2025-09-06 17:00:00,"VFR",25,17,61,210,14,24100,30.04,NA,"FEW  ft; BKN  ft","CYHZ 062100Z 21014G20KT 15SM FEW032 BKN250 25/17 A3004 RMK CU1CI7 CU TR SLP173 DENSITY ALT 1700FT",2025-09-06 21:41:57.08441,2025-09-06 17:41:57.08441
"CYYG",2025-09-06 21:00:00,2025-09-06 17:00:00,"VFR",28,18,55,190,11,24100,29.95,NA,"SKC  ft","CYYG 062100Z 19011KT 15SM SKC 28/18 A2995 RMK SLP145 DENSITY ALT 1700FT",2025-09-06 21:41:57.179618,2025-09-06 17:41:57.179618
"CYQM",2025-09-06 21:00:00,2025-09-06 17:00:00,"VFR",26,18,61,210,19,24100,29.93,NA,"FEW  ft; SCT  ft; BKN  ft","CYQM 062100Z 21019G28KT 15SM FEW030 SCT220 BKN240 26/18 A2993 RMK SC1CS3CI1 CU ASOCTD SLP135 DENSITY ALT 1600FT",2025-09-06 21:41:57.277882,2025-09-06 17:41:57.277882
"CYFC",2025-09-06 21:00:00,2025-09-06 17:00:00,"VFR",24,19,74,180,13,14500,29.88,NA,"CLR  ft","CYFC 062100Z AUTO 18013G18KT 9SM CLR 24/19 A2988 RMK LTNG DIST W SLP119 DENSITY ALT 1200FT",2025-09-06 21:41:57.374803,2025-09-06 17:41:57.374803
"CYYT",2025-09-06 21:00:00,2025-09-06 17:00:00,"VFR",20,14,69,240,8,24100,30.15,NA,"FEW  ft; SCT  ft","CYYT 062100Z 24008KT 15SM FEW028 SCT240 20/14 A3015 RMK SC2CI2 SLP213 DENSITY ALT 1000FT",2025-09-06 21:41:57.526879,2025-09-06 17:41:57.526879
"CYQY",2025-09-06 21:00:00,2025-09-06 17:00:00,"VFR",25,19,69,210,13,24100,30.04,NA,"SCT  ft","CYQY 062100Z 21013KT 15SM SCT230 25/19 A3004 RMK CI7 SLP175 DENSITY ALT 1400FT",2025-09-06 21:41:57.625785,2025-09-06 17:41:57.625785
"CYXY",2025-09-06 21:00:00,2025-09-06 17:00:00,"VFR",17,10,64,350,4,64400,29.94,NA,"FEW  ft; SCT  ft; BKN  ft; BKN  ft","CYXY 062100Z 35004KT 280V080 40SM FEW045TCU SCT075 BKN200 BKN260 17/10 A2994 RMK TCU2AC2CI1CI1 SLP151 DENSITY ALT 3200FT",2025-09-06 21:41:57.72482,2025-09-06 17:41:57.72482
"CYZF",2025-09-06 21:00:00,2025-09-06 17:00:00,"VFR",16,8,59,130,12,24100,29.79,NA,"FEW  ft; BKN  ft; BKN  ft","CYZF 062100Z 13012KT 15SM FEW150 BKN190 BKN240 16/08 A2979 RMK AC1AC5CI1 SLP099 DENSITY ALT 1100FT",2025-09-06 21:41:57.823927,2025-09-06 17:41:57.823927
"CYFB",2025-09-06 21:34:00,2025-09-06 17:34:00,"MVFR",2,1,93,110,13,9700,29.62,NA,"OVC  ft","CYFB 062134Z 11013KT 6SM -SNRA BR OVC010 02/01 A2962 RMK SC8 VIS N LWR SLP034",2025-09-06 21:41:57.924719,2025-09-06 17:41:57.924719
"CYRT",2025-09-06 21:00:00,2025-09-06 17:00:00,"VFR",8,1,62,10,18,24100,29.9,NA,"BKN  ft; BKN  ft","CYRT 062100Z 01018KT 15SM BKN031 BKN078 08/01 A2990 RMK SC5AC2 SLP130",2025-09-06 21:41:58.024672,2025-09-06 17:41:58.024672
"CYBK",2025-09-06 21:00:00,2025-09-06 17:00:00,"VFR",8,0,57,350,11,40200,29.99,NA,"BKN  ft","CYBK 062100Z 35011KT 25SM BKN048 08/00 A2999 RMK SC7 SLP160",2025-09-06 21:41:58.123007,2025-09-06 17:41:58.123007
"CYRB",2025-09-06 21:00:00,2025-09-06 17:00:00,"VFR",0,-2,87,140,13,48300,30.02,NA,"SCT  ft","CYRB 062100Z 14013KT 30SM SCT013 00/M02 A3002 RMK ST4 SLP175",2025-09-06 21:41:58.276875,2025-09-06 17:41:58.276875
"CYCO",2025-09-06 21:00:00,2025-09-06 17:00:00,"MVFR",6,6,100,340,11,24100,29.76,NA,"FEW  ft; OVC  ft","CYCO 062100Z 34011KT 15SM FEW005 OVC019 06/06 A2976 RMK ST2SC6 SLP081",2025-09-06 21:41:58.37761,2025-09-06 17:41:58.37761
"CYER",2025-09-06 22:00:00,2025-09-06 18:00:00,"VFR",8,4,76,330,12,14500,29.81,NA,"FEW  ft; OVC  ft","CYER 062200Z AUTO 33012G25KT 9SM FEW025 OVC032 08/04 A2981 RMK SLP098",2025-09-06 22:23:56.346304,2025-09-06 18:23:56.346304
"CYAT",2025-09-06 22:00:00,2025-09-06 18:00:00,"VFR",11,8,82,360,4,14500,29.71,NA,"SCT  ft; BKN  ft; OVC  ft","CYAT 062200Z AUTO 36004KT 9SM SCT032 BKN039 OVC050 11/08 A2971 RMK SLP064",2025-09-06 22:23:56.406136,2025-09-06 18:23:56.406136
"CYMO",2025-09-06 22:00:00,2025-09-06 18:00:00,"VFR",11,9,88,290,2,14500,29.77,NA,"OVC  ft","CYMO 062200Z AUTO 29002KT 9SM OVC091 11/09 A2977 RMK SLP084",2025-09-06 22:23:56.496707,2025-09-06 18:23:56.496707
"CYPL",2025-09-06 22:07:00,2025-09-06 18:07:00,"MVFR",6,5,93,330,7,14500,29.93,NA,"SCT  ft; BKN  ft; BKN  ft; OVC  ft","CYPL 062207Z AUTO 33007G17KT 290V010 9SM -RA SCT013 BKN018 BKN026 OVC066 06/05 A2993 RMK SLP150",2025-09-06 22:23:56.583978,2025-09-06 18:23:56.583978
"CYQT",2025-09-06 22:00:00,2025-09-06 18:00:00,"VFR",13,6,63,290,9,32200,29.92,NA,"SCT  ft; BKN  ft; BKN  ft","CYQT 062200Z 29009KT 20SM SCT055 BKN100 BKN200 13/06 A2992 RMK SC3AC2CI2 SLP139",2025-09-06 22:23:56.675962,2025-09-06 18:23:56.675962
"CYAM",2025-09-06 22:00:00,2025-09-06 18:00:00,"VFR",12,4,58,290,13,32200,29.94,NA,"SCT  ft; SCT  ft; BKN  ft; BKN  ft","CYAM 062200Z 29013G20KT 20SM SCT027 SCT150 BKN180 BKN220 12/04 A2994 RMK CU3AC1AC2CI1 SLP144",2025-09-06 22:23:56.76725,2025-09-06 18:23:56.76725
"CYTS",2025-09-06 22:00:00,2025-09-06 18:00:00,"VFR",11,6,72,240,4,24100,29.84,NA,"BKN  ft","CYTS 062200Z 24004KT 200V270 15SM BKN048 11/06 A2984 RMK SC5 SLP114",2025-09-06 22:23:56.8526,2025-09-06 18:23:56.8526
"CYSB",2025-09-06 22:00:00,2025-09-06 18:00:00,"VFR",12,7,72,230,8,32200,29.87,NA,"SCT  ft; BKN  ft; OVC  ft","CYSB 062200Z 23008KT 20SM SCT025 BKN075 OVC100 12/07 A2987 RMK SC3AC2AC3 SLP125",2025-09-06 22:23:56.939912,2025-09-06 18:23:56.939912
"CYYB",2025-09-06 22:00:00,2025-09-06 18:00:00,"VFR",12,9,82,270,5,48300,29.89,NA,"SCT  ft; OVC  ft","CYYB 062200Z 27005KT 30SM SCT035 OVC090 12/09 A2989 RMK CU4AC4 SLP129",2025-09-06 22:23:57.025765,2025-09-06 18:23:57.025765
"CYOW",2025-09-06 22:00:00,2025-09-06 18:00:00,"VFR",19,7,46,230,8,24100,29.9,NA,"BKN  ft; BKN  ft","CYOW 062200Z 23008KT 15SM BKN073 BKN250 19/07 A2990 RMK CU5CI1 SLP127 DENSITY ALT 1000FT",2025-09-06 22:23:57.114925,2025-09-06 18:23:57.114925
"CYGK",2025-09-06 22:00:00,2025-09-06 18:00:00,"VFR",18,10,60,200,15,24100,29.93,NA,"FEW  ft; SCT  ft; BKN  ft","CYGK 062200Z 20015KT 15SM FEW038 SCT080 BKN250 18/10 A2993 RMK SC2AC2CI1 SLP139 DENSITY ALT 700FT",2025-09-06 22:23:57.202315,2025-09-06 18:23:57.202315
"CYQG",2025-09-06 22:00:00,2025-09-06 18:00:00,"VFR",18,7,49,260,11,14500,30,NA,"OVC  ft","CYQG 062200Z AUTO 26011KT 9SM OVC091 18/07 A3000 RMK SLP161 DENSITY ALT 1100FT",2025-09-06 22:23:57.288694,2025-09-06 18:23:57.288694
"CYVV",2025-09-06 22:00:00,2025-09-06 18:00:00,"VFR",13,10,82,230,8,24100,29.94,NA,"SCT  ft; OVC  ft","CYVV 062200Z 23008KT 15SM SCT025 OVC061 13/10 A2994 RMK CU3SC5 SLP142",2025-09-06 22:23:57.377708,2025-09-06 18:23:57.377708
"CYYZ",2025-09-06 22:00:00,2025-09-06 18:00:00,"VFR",18,6,46,280,14,24100,29.95,NA,"BKN  ft","CYYZ 062200Z 28014KT 15SM BKN080 18/06 A2995 RMK AC7 SLP144 DENSITY ALT 1000FT",2025-09-06 22:23:57.462318,2025-09-06 18:23:57.462318
"CYQA",2025-09-06 22:00:00,2025-09-06 18:00:00,"VFR",14,7,63,290,7,14500,29.93,NA,"FEW  ft; OVC  ft","CYQA 062200Z AUTO 29007G16KT 240V310 9SM FEW034 OVC071 14/07 A2993 RMK SLP142",2025-09-06 22:23:57.545871,2025-09-06 18:23:57.545871
"CYVR",2025-09-06 22:00:00,2025-09-06 18:00:00,"VFR",22,16,69,150,8,24100,29.9,NA,"FEW  ft; BKN  ft","CYVR 062200Z 15008KT 15SM FEW160 BKN220 22/16 A2990 RMK AC1CI5 HZ SLP126 DENSITY ALT 1000FT",2025-09-06 22:23:57.627586,2025-09-06 18:23:57.627586
"CYYJ",2025-09-06 22:00:00,2025-09-06 18:00:00,"VFR",16,14,88,120,4,32200,29.91,NA,"SCT  ft; BKN  ft","CYYJ 062200Z 12004KT 080V140 20SM SCT160 BKN250 16/14 A2991 RMK AC4CS3 SLP129 DENSITY ALT 300FT",2025-09-06 22:23:57.709661,2025-09-06 18:23:57.709661
"CYLW",2025-09-06 22:00:00,2025-09-06 18:00:00,"VFR",27,11,37,340,3,12900,29.86,NA,"CLR  ft","CYLW 062200Z AUTO 34003KT 260V050 8SM CLR 27/11 A2986 RMK SLP109 DENSITY ALT 3200FT",2025-09-06 22:23:57.796395,2025-09-06 18:23:57.796395
"CYXS",2025-09-06 22:00:00,2025-09-06 18:00:00,"VFR",21,13,60,20,5,12900,29.93,NA,"CLR  ft","CYXS 062200Z AUTO 02005KT 8SM CLR 21/13 A2993 RMK SLP146 DENSITY ALT 3500FT",2025-09-06 22:23:57.878428,2025-09-06 18:23:57.878428
"CYXT",2025-09-06 22:00:00,2025-09-06 18:00:00,"VFR",25,16,57,210,4,32200,29.89,NA,"FEW  ft","CYXT 062200Z 21004KT 200V330 20SM FEW210 25/16 A2989 RMK CI1 CI TR FU SLP124 DENSITY ALT 2100FT",2025-09-06 22:23:57.959436,2025-09-06 18:23:57.959436
"CYQQ",2025-09-06 22:00:00,2025-09-06 18:00:00,"VFR",23,17,69,140,9,19300,29.9,NA,"FEW  ft; SCT  ft","CYQQ 062200Z 14009KT 12SM FEW040 SCT250 23/17 A2990 RMK FU1CI2 DENSITY ALT 1318FT SLP123",2025-09-06 22:23:58.039583,2025-09-06 18:23:58.039583
"CYYC",2025-09-06 22:00:00,2025-09-06 18:00:00,"VFR",26,8,32,150,6,9999,29.98,NA,"SKC  ft","CYYC 062200Z 15006KT 120V190 10SM SKC 26/08 A2998 RMK FU SLP149 DENSITY ALT 5600FT",2025-09-06 22:23:58.12166,2025-09-06 18:23:58.12166
"CYEG",2025-09-06 22:00:00,2025-09-06 18:00:00,"VFR",25,7,32,0,3,32200,29.92,NA,"FEW  ft; SCT  ft","CYEG 062200Z VRB03KT 20SM FEW140 SCT250 25/07 A2992 RMK AC1CI3 AC TR SLP139 DENSITY ALT 4100FT",2025-09-06 22:23:58.205446,2025-09-06 18:23:58.205446
"CYMM",2025-09-06 22:00:00,2025-09-06 18:00:00,"VFR",25,8,34,120,12,14500,29.87,NA,"CLR  ft","CYMM 062200Z AUTO 12012KT 9SM CLR 25/08 A2987 RMK SLP124 DENSITY ALT 2700FT",2025-09-06 22:23:58.288907,2025-09-06 18:23:58.288907
"CYQF",2025-09-06 22:00:00,2025-09-06 18:00:00,"VFR",26,5,26,140,6,14500,29.95,NA,"CLR  ft","CYQF 062200Z AUTO 14006KT 100V230 9SM CLR 26/05 A2995 RMK SLP148 DENSITY ALT 4900FT",2025-09-06 22:23:58.37271,2025-09-06 18:23:58.37271
"CYXE",2025-09-06 22:00:00,2025-09-06 18:00:00,"VFR",20,3,33,120,8,24100,30.07,NA,"FEW  ft","CYXE 062200Z 12008KT 060V160 15SM FEW300 20/03 A3007 RMK CI1 SLP198 DENSITY ALT 2500FT",2025-09-06 22:23:58.45568,2025-09-06 18:23:58.45568
"CYQR",2025-09-06 22:00:00,2025-09-06 18:00:00,"VFR",18,1,32,0,5,24100,30.11,NA,"FEW  ft","CYQR 062200Z VRB05KT 15SM FEW250 18/01 A3011 RMK CI1 CI TR SLP215 DENSITY ALT 2600FT",2025-09-06 22:23:58.539469,2025-09-06 18:23:58.539469
"CYWG",2025-09-06 22:00:00,2025-09-06 18:00:00,"VFR",13,5,59,340,9,22500,30.1,NA,"SCT  ft; BKN  ft; BKN  ft","CYWG 062200Z 34009KT 14SM -SHRA SCT050TCU BKN060 BKN070 13/05 A3010 RMK TCU3SC1AC3 SC TR SLP202",2025-09-06 22:23:58.622796,2025-09-06 18:23:58.622796
"CYBR",2025-09-06 22:00:00,2025-09-06 18:00:00,"VFR",13,4,55,350,5,24100,30.14,NA,"FEW  ft; BKN  ft","CYBR 062200Z 35005KT 310V020 15SM FEW044 BKN055 13/04 A3014 RMK CU2SC5 SLP223",2025-09-06 22:23:58.668185,2025-09-06 18:23:58.668185
"CYUL",2025-09-06 22:00:00,2025-09-06 18:00:00,"VFR",17,13,77,230,5,24100,29.94,NA,"SCT  ft; SCT  ft; BKN  ft; BKN  ft","CYUL 062200Z 23005KT 15SM SCT025 SCT040 BKN070 BKN250 17/13 A2994 RMK SC3CU1AC1CI1 SLP140 DENSITY ALT 400FT",2025-09-06 22:23:58.749422,2025-09-06 18:23:58.749422
"CYHU",2025-09-06 22:00:00,2025-09-06 18:00:00,"VFR",15,13,88,170,6,14500,29.94,NA,"SCT  ft; SCT  ft; BKN  ft; BKN  ft","CYHU 062200Z AUTO 17006KT 9SM SCT023 SCT029 BKN034 BKN041 15/13 A2994 RMK SLP141",2025-09-06 22:23:58.834669,2025-09-06 18:23:58.834669
"CYQB",2025-09-06 22:00:00,2025-09-06 18:00:00,"VFR",14,12,88,220,8,40200,29.93,NA,"FEW  ft; BKN  ft; BKN  ft","CYQB 062200Z 22008KT 25SM FEW015 BKN120 BKN160 14/12 A2993 RMK SC1AC4AC2 SLP139",2025-09-06 22:23:58.919615,2025-09-06 18:23:58.919615
"CYVO",2025-09-06 22:00:00,2025-09-06 18:00:00,"VFR",11,9,88,260,7,19300,29.86,NA,"SCT  ft; BKN  ft; BKN  ft","CYVO 062200Z 26007KT 12SM -SHRA SCT035TCU BKN060 BKN170 11/09 A2986 RMK TCU3SC3AC1 SLP123",2025-09-06 22:23:59.002698,2025-09-06 18:23:59.002698
"CYUY",2025-09-06 22:00:00,2025-09-06 18:00:00,"VFR",12,7,72,250,7,24100,29.85,NA,"SCT  ft; BKN  ft","CYUY 062200Z 25007KT 15SM -SHRA SCT045 BKN100 12/07 A2985 RMK CU3AC4 SLP119",2025-09-06 22:23:59.084705,2025-09-06 18:23:59.084705
"CYZV",2025-09-06 22:00:00,2025-09-06 18:00:00,"VFR",16,9,63,230,14,48300,29.82,NA,"FEW  ft; FEW  ft; BKN  ft","CYZV 062200Z 23014G20KT 30SM FEW064 FEW080 BKN120 16/09 A2982 RMK CU1AC1AC5 SLP102 DENSITY ALT 500FT",2025-09-06 22:23:59.166871,2025-09-06 18:23:59.166871
"CYBC",2025-09-06 22:00:00,2025-09-06 18:00:00,"VFR",12,10,88,240,13,14500,29.86,NA,"OVC  ft","CYBC 062200Z AUTO 24013KT 9SM OVC120 12/10 A2986 RMK SLP116",2025-09-06 22:23:59.249787,2025-09-06 18:23:59.249787
"CYRJ",2025-09-06 22:00:00,2025-09-06 18:00:00,"VFR",15,10,72,220,6,64400,29.84,NA,"FEW  ft; BKN  ft","CYRJ 062200Z 22006KT 190V250 40SM FEW025 BKN110 15/10 A2984 RMK SC1AC7 SC TR SLP110 DENSITY ALT 800FT",2025-09-06 22:23:59.335545,2025-09-06 18:23:59.335545
"CYHZ",2025-09-06 22:17:00,2025-09-06 18:17:00,"VFR",23,19,78,210,14,24100,30.03,NA,"FEW  ft; FEW  ft; BKN  ft; OVC  ft","CYHZ 062217Z 21014G24KT 15SM FEW009 FEW020 BKN320 OVC360 23/19 A3003 RMK SF1SC1CI5CI3 SF TR SC TR SLP170 DENSITY ALT 1400FT",2025-09-06 22:23:59.41987,2025-09-06 18:23:59.41987
"CYYG",2025-09-06 22:00:00,2025-09-06 18:00:00,"VFR",26,18,61,180,11,24100,29.94,NA,"BKN  ft","CYYG 062200Z 18011KT 15SM BKN250 26/18 A2994 RMK CI7 SLP141 DENSITY ALT 1500FT",2025-09-06 22:23:59.501655,2025-09-06 18:23:59.501655
"CYQM",2025-09-06 22:00:00,2025-09-06 18:00:00,"VFR",25,15,54,210,16,24100,29.92,NA,"SCT  ft; BKN  ft","CYQM 062200Z 21016G21KT 15SM SCT230 BKN250 25/15 A2992 RMK CS3CI3 SLP134 DENSITY ALT 1500FT",2025-09-06 22:23:59.585869,2025-09-06 18:23:59.585869
"CYFC",2025-09-06 22:18:00,2025-09-06 18:18:00,"MVFR",22,19,83,180,10,14500,29.89,NA,"BKN  ft","CYFC 062218Z AUTO 18010G20KT 9SM BKN020 22/19 A2989 RMK SLP124 DENSITY ALT 1000FT",2025-09-06 22:23:59.668603,2025-09-06 18:23:59.668603
"CYYT",2025-09-06 22:00:00,2025-09-06 18:00:00,"VFR",19,14,73,230,6,24100,30.15,NA,"FEW  ft; BKN  ft","CYYT 062200Z 23006KT 15SM FEW030 BKN240 19/14 A3015 RMK SC1CI4 SLP212 DENSITY ALT 800FT",2025-09-06 22:23:59.751747,2025-09-06 18:23:59.751747
"CYQY",2025-09-06 22:00:00,2025-09-06 18:00:00,"VFR",22,20,88,190,12,24100,30.05,NA,"BKN  ft","CYQY 062200Z 19012KT 15SM BKN230 22/20 A3005 RMK CI6 SLP177 DENSITY ALT 1000FT",2025-09-06 22:23:59.834748,2025-09-06 18:23:59.834748
"CYXY",2025-09-06 22:00:00,2025-09-06 18:00:00,"VFR",19,9,52,350,4,64400,29.93,NA,"FEW  ft; SCT  ft; BKN  ft","CYXY 062200Z 35004KT 320V020 40SM FEW050TCU SCT080 BKN260 19/09 A2993 RMK TCU2AC1CI4 SLP147 DENSITY ALT 3300FT",2025-09-06 22:23:59.875935,2025-09-06 18:23:59.875935
"CYZF",2025-09-06 22:00:00,2025-09-06 18:00:00,"VFR",17,8,56,150,9,24100,29.8,NA,"FEW  ft; BKN  ft; BKN  ft","CYZF 062200Z 15009G16KT 15SM FEW100 BKN170 BKN240 17/08 A2980 RMK AC1AC5CI1 SLP100 DENSITY ALT 1200FT",2025-09-06 22:23:59.958764,2025-09-06 18:23:59.958764
"CYFB",2025-09-06 22:00:00,2025-09-06 18:00:00,"MVFR",2,1,93,120,9,9700,29.62,NA,"OVC  ft","CYFB 062200Z 12009KT 6SM -RASN BR OVC010 02/01 A2962 RMK SC8 VIS N 3 CIG RAG SLP033",2025-09-06 22:24:00.042628,2025-09-06 18:24:00.042628
"CYRT",2025-09-06 22:00:00,2025-09-06 18:00:00,"VFR",8,1,62,20,18,24100,29.9,NA,"BKN  ft; BKN  ft","CYRT 062200Z 02018G23KT 15SM BKN036 BKN078 08/01 A2990 RMK SC5AC1 SLP129",2025-09-06 22:24:00.126767,2025-09-06 18:24:00.126767
"CYBK",2025-09-06 22:00:00,2025-09-06 18:00:00,"VFR",8,1,62,20,9,40200,29.99,NA,"BKN  ft","CYBK 062200Z 02009KT 25SM BKN041 08/01 A2999 RMK SC7 SLP160",2025-09-06 22:24:00.212489,2025-09-06 18:24:00.212489
"CYRB",2025-09-06 22:00:00,2025-09-06 18:00:00,"MVFR",0,-2,87,140,13,48300,30.02,NA,"BKN  ft","CYRB 062200Z 14013KT 30SM BKN015 00/M02 A3002 RMK ST5 SLP174",2025-09-06 22:24:00.308798,2025-09-06 18:24:00.308798
"CYCO",2025-09-06 22:00:00,2025-09-06 18:00:00,"MVFR",8,7,93,340,11,24100,29.8,NA,"FEW  ft; BKN  ft; BKN  ft","CYCO 062200Z 34011KT 15SM FEW005 BKN019 BKN140 08/07 A2980 RMK ST1SC6AC1 AC TR SLP094",2025-09-06 22:24:00.394946,2025-09-06 18:24:00.394946
"CYER",2025-09-06 22:00:00,2025-09-06 18:00:00,"VFR",8,4,76,330,12,14500,29.81,NA,"FEW  ft; OVC  ft","CYER 062200Z AUTO 33012G25KT 9SM FEW025 OVC032 08/04 A2981 RMK SLP098",2025-09-06 22:41:55.786392,2025-09-06 18:41:55.786392
"CYAT",2025-09-06 22:00:00,2025-09-06 18:00:00,"VFR",11,8,82,360,4,14500,29.71,NA,"SCT  ft; BKN  ft; OVC  ft","CYAT 062200Z AUTO 36004KT 9SM SCT032 BKN039 OVC050 11/08 A2971 RMK SLP064",2025-09-06 22:41:55.892154,2025-09-06 18:41:55.892154
"CYMO",2025-09-06 22:00:00,2025-09-06 18:00:00,"VFR",11,9,88,290,2,14500,29.77,NA,"OVC  ft","CYMO 062200Z AUTO 29002KT 9SM OVC091 11/09 A2977 RMK SLP084",2025-09-06 22:41:55.992494,2025-09-06 18:41:55.992494
"CYPL",2025-09-06 22:36:00,2025-09-06 18:36:00,"MVFR",6,5,93,320,10,8000,29.93,NA,"SCT  ft; BKN  ft; BKN  ft; OVC  ft","CYPL 062236Z AUTO 32010G16KT 280V010 5SM -RA BR SCT015 BKN019 BKN025 OVC029 06/05 A2993 RMK SLP153",2025-09-06 22:41:56.088814,2025-09-06 18:41:56.088814
"CYQT",2025-09-06 22:00:00,2025-09-06 18:00:00,"VFR",13,6,63,290,9,32200,29.92,NA,"SCT  ft; BKN  ft; BKN  ft","CYQT 062200Z 29009KT 20SM SCT055 BKN100 BKN200 13/06 A2992 RMK SC3AC2CI2 SLP139",2025-09-06 22:41:56.192198,2025-09-06 18:41:56.192198
"CYAM",2025-09-06 22:00:00,2025-09-06 18:00:00,"VFR",12,4,58,290,13,32200,29.94,NA,"SCT  ft; SCT  ft; BKN  ft; BKN  ft","CYAM 062200Z 29013G20KT 20SM SCT027 SCT150 BKN180 BKN220 12/04 A2994 RMK CU3AC1AC2CI1 SLP144",2025-09-06 22:41:56.290206,2025-09-06 18:41:56.290206
"CYTS",2025-09-06 22:00:00,2025-09-06 18:00:00,"VFR",11,6,72,240,4,24100,29.84,NA,"BKN  ft","CYTS 062200Z 24004KT 200V270 15SM BKN048 11/06 A2984 RMK SC5 SLP114",2025-09-06 22:41:56.386571,2025-09-06 18:41:56.386571
"CYSB",2025-09-06 22:00:00,2025-09-06 18:00:00,"VFR",12,7,72,230,8,32200,29.87,NA,"SCT  ft; BKN  ft; OVC  ft","CYSB 062200Z 23008KT 20SM SCT025 BKN075 OVC100 12/07 A2987 RMK SC3AC2AC3 SLP125",2025-09-06 22:41:56.483703,2025-09-06 18:41:56.483703
"CYYB",2025-09-06 22:00:00,2025-09-06 18:00:00,"VFR",12,9,82,270,5,48300,29.89,NA,"SCT  ft; OVC  ft","CYYB 062200Z 27005KT 30SM SCT035 OVC090 12/09 A2989 RMK CU4AC4 SLP129",2025-09-06 22:41:56.623131,2025-09-06 18:41:56.623131
"CYOW",2025-09-06 22:00:00,2025-09-06 18:00:00,"VFR",19,7,46,230,8,24100,29.9,NA,"BKN  ft; BKN  ft","CYOW 062200Z 23008KT 15SM BKN073 BKN250 19/07 A2990 RMK CU5CI1 SLP127 DENSITY ALT 1000FT",2025-09-06 22:41:56.721469,2025-09-06 18:41:56.721469
"CYGK",2025-09-06 22:00:00,2025-09-06 18:00:00,"VFR",18,10,60,200,15,24100,29.93,NA,"FEW  ft; SCT  ft; BKN  ft","CYGK 062200Z 20015KT 15SM FEW038 SCT080 BKN250 18/10 A2993 RMK SC2AC2CI1 SLP139 DENSITY ALT 700FT",2025-09-06 22:41:56.825733,2025-09-06 18:41:56.825733
"CYQG",2025-09-06 22:00:00,2025-09-06 18:00:00,"VFR",18,7,49,260,11,14500,30,NA,"OVC  ft","CYQG 062200Z AUTO 26011KT 9SM OVC091 18/07 A3000 RMK SLP161 DENSITY ALT 1100FT",2025-09-06 22:41:56.923142,2025-09-06 18:41:56.923142
"CYVV",2025-09-06 22:00:00,2025-09-06 18:00:00,"VFR",13,10,82,230,8,24100,29.94,NA,"SCT  ft; OVC  ft","CYVV 062200Z 23008KT 15SM SCT025 OVC061 13/10 A2994 RMK CU3SC5 SLP142",2025-09-06 22:41:57.060627,2025-09-06 18:41:57.060627
"CYYZ",2025-09-06 22:00:00,2025-09-06 18:00:00,"VFR",18,6,46,280,14,24100,29.95,NA,"BKN  ft","CYYZ 062200Z 28014KT 15SM BKN080 18/06 A2995 RMK AC7 SLP144 DENSITY ALT 1000FT",2025-09-06 22:41:57.155027,2025-09-06 18:41:57.155027
"CYQA",2025-09-06 22:00:00,2025-09-06 18:00:00,"VFR",14,7,63,290,7,14500,29.93,NA,"FEW  ft; OVC  ft","CYQA 062200Z AUTO 29007G16KT 240V310 9SM FEW034 OVC071 14/07 A2993 RMK SLP142",2025-09-06 22:41:57.255131,2025-09-06 18:41:57.255131
"CYVR",2025-09-06 22:00:00,2025-09-06 18:00:00,"VFR",22,16,69,150,8,24100,29.9,NA,"FEW  ft; BKN  ft","CYVR 062200Z 15008KT 15SM FEW160 BKN220 22/16 A2990 RMK AC1CI5 HZ SLP126 DENSITY ALT 1000FT",2025-09-06 22:41:57.390167,2025-09-06 18:41:57.390167
"CYYJ",2025-09-06 22:00:00,2025-09-06 18:00:00,"VFR",16,14,88,120,4,32200,29.91,NA,"SCT  ft; BKN  ft","CYYJ 062200Z 12004KT 080V140 20SM SCT160 BKN250 16/14 A2991 RMK AC4CS3 SLP129 DENSITY ALT 300FT",2025-09-06 22:41:57.486413,2025-09-06 18:41:57.486413
"CYLW",2025-09-06 22:00:00,2025-09-06 18:00:00,"VFR",27,11,37,340,3,12900,29.86,NA,"CLR  ft","CYLW 062200Z AUTO 34003KT 260V050 8SM CLR 27/11 A2986 RMK SLP109 DENSITY ALT 3200FT",2025-09-06 22:41:57.584927,2025-09-06 18:41:57.584927
"CYXS",2025-09-06 22:00:00,2025-09-06 18:00:00,"VFR",21,13,60,20,5,12900,29.93,NA,"CLR  ft","CYXS 062200Z AUTO 02005KT 8SM CLR 21/13 A2993 RMK SLP146 DENSITY ALT 3500FT",2025-09-06 22:41:57.67616,2025-09-06 18:41:57.67616
"CYXT",2025-09-06 22:00:00,2025-09-06 18:00:00,"VFR",25,16,57,210,4,32200,29.89,NA,"FEW  ft","CYXT 062200Z 21004KT 200V330 20SM FEW210 25/16 A2989 RMK CI1 CI TR FU SLP124 DENSITY ALT 2100FT",2025-09-06 22:41:57.772495,2025-09-06 18:41:57.772495
"CYQQ",2025-09-06 22:00:00,2025-09-06 18:00:00,"VFR",23,17,69,140,9,19300,29.9,NA,"FEW  ft; SCT  ft","CYQQ 062200Z 14009KT 12SM FEW040 SCT250 23/17 A2990 RMK FU1CI2 DENSITY ALT 1318FT SLP123",2025-09-06 22:41:57.904671,2025-09-06 18:41:57.904671
"CYYC",2025-09-06 22:00:00,2025-09-06 18:00:00,"VFR",26,8,32,150,6,9999,29.98,NA,"SKC  ft","CYYC 062200Z 15006KT 120V190 10SM SKC 26/08 A2998 RMK FU SLP149 DENSITY ALT 5600FT",2025-09-06 22:41:57.997669,2025-09-06 18:41:57.997669
"CYEG",2025-09-06 22:00:00,2025-09-06 18:00:00,"VFR",25,7,32,0,3,32200,29.92,NA,"FEW  ft; SCT  ft","CYEG 062200Z VRB03KT 20SM FEW140 SCT250 25/07 A2992 RMK AC1CI3 AC TR SLP139 DENSITY ALT 4100FT",2025-09-06 22:41:58.091904,2025-09-06 18:41:58.091904
"CYMM",2025-09-06 22:00:00,2025-09-06 18:00:00,"VFR",25,8,34,120,12,14500,29.87,NA,"CLR  ft","CYMM 062200Z AUTO 12012KT 9SM CLR 25/08 A2987 RMK SLP124 DENSITY ALT 2700FT",2025-09-06 22:41:58.226729,2025-09-06 18:41:58.226729
"CYQF",2025-09-06 22:00:00,2025-09-06 18:00:00,"VFR",26,5,26,140,6,14500,29.95,NA,"CLR  ft","CYQF 062200Z AUTO 14006KT 100V230 9SM CLR 26/05 A2995 RMK SLP148 DENSITY ALT 4900FT",2025-09-06 22:41:58.362434,2025-09-06 18:41:58.362434
"CYXE",2025-09-06 22:00:00,2025-09-06 18:00:00,"VFR",20,3,33,120,8,24100,30.07,NA,"FEW  ft","CYXE 062200Z 12008KT 060V160 15SM FEW300 20/03 A3007 RMK CI1 SLP198 DENSITY ALT 2500FT",2025-09-06 22:41:58.456549,2025-09-06 18:41:58.456549
"CYQR",2025-09-06 22:00:00,2025-09-06 18:00:00,"VFR",18,1,32,0,5,24100,30.11,NA,"FEW  ft","CYQR 062200Z VRB05KT 15SM FEW250 18/01 A3011 RMK CI1 CI TR SLP215 DENSITY ALT 2600FT",2025-09-06 22:41:58.554674,2025-09-06 18:41:58.554674
"CYWG",2025-09-06 22:26:00,2025-09-06 18:26:00,"VFR",13,5,59,330,12,24100,30.1,NA,"FEW  ft; SCT  ft; SCT  ft; BKN  ft","CYWG 062226Z 33012KT 15SM FEW040TCU SCT065 SCT075 BKN095 13/05 A3010 RMK TCU2SC1AC1AC1 SLP203",2025-09-06 22:41:58.695764,2025-09-06 18:41:58.695764
"CYBR",2025-09-06 22:00:00,2025-09-06 18:00:00,"VFR",13,4,55,350,5,24100,30.14,NA,"FEW  ft; BKN  ft","CYBR 062200Z 35005KT 310V020 15SM FEW044 BKN055 13/04 A3014 RMK CU2SC5 SLP223",2025-09-06 22:41:58.830882,2025-09-06 18:41:58.830882
"CYUL",2025-09-06 22:00:00,2025-09-06 18:00:00,"VFR",17,13,77,230,5,24100,29.94,NA,"SCT  ft; SCT  ft; BKN  ft; BKN  ft","CYUL 062200Z 23005KT 15SM SCT025 SCT040 BKN070 BKN250 17/13 A2994 RMK SC3CU1AC1CI1 SLP140 DENSITY ALT 400FT",2025-09-06 22:41:58.925005,2025-09-06 18:41:58.925005
"CYHU",2025-09-06 22:00:00,2025-09-06 18:00:00,"VFR",15,13,88,170,6,14500,29.94,NA,"SCT  ft; SCT  ft; BKN  ft; BKN  ft","CYHU 062200Z AUTO 17006KT 9SM SCT023 SCT029 BKN034 BKN041 15/13 A2994 RMK SLP141",2025-09-06 22:41:59.025032,2025-09-06 18:41:59.025032
"CYQB",2025-09-06 22:00:00,2025-09-06 18:00:00,"VFR",14,12,88,220,8,40200,29.93,NA,"FEW  ft; BKN  ft; BKN  ft","CYQB 062200Z 22008KT 25SM FEW015 BKN120 BKN160 14/12 A2993 RMK SC1AC4AC2 SLP139",2025-09-06 22:41:59.121609,2025-09-06 18:41:59.121609
"CYVO",2025-09-06 22:00:00,2025-09-06 18:00:00,"VFR",11,9,88,260,7,19300,29.86,NA,"SCT  ft; BKN  ft; BKN  ft","CYVO 062200Z 26007KT 12SM -SHRA SCT035TCU BKN060 BKN170 11/09 A2986 RMK TCU3SC3AC1 SLP123",2025-09-06 22:41:59.221188,2025-09-06 18:41:59.221188
"CYUY",2025-09-06 22:00:00,2025-09-06 18:00:00,"VFR",12,7,72,250,7,24100,29.85,NA,"SCT  ft; BKN  ft","CYUY 062200Z 25007KT 15SM -SHRA SCT045 BKN100 12/07 A2985 RMK CU3AC4 SLP119",2025-09-06 22:41:59.352827,2025-09-06 18:41:59.352827
"CYZV",2025-09-06 22:00:00,2025-09-06 18:00:00,"VFR",16,9,63,230,14,48300,29.82,NA,"FEW  ft; FEW  ft; BKN  ft","CYZV 062200Z 23014G20KT 30SM FEW064 FEW080 BKN120 16/09 A2982 RMK CU1AC1AC5 SLP102 DENSITY ALT 500FT",2025-09-06 22:41:59.444469,2025-09-06 18:41:59.444469
"CYBC",2025-09-06 22:00:00,2025-09-06 18:00:00,"VFR",12,10,88,240,13,14500,29.86,NA,"OVC  ft","CYBC 062200Z AUTO 24013KT 9SM OVC120 12/10 A2986 RMK SLP116",2025-09-06 22:41:59.53528,2025-09-06 18:41:59.53528
"CYRJ",2025-09-06 22:00:00,2025-09-06 18:00:00,"VFR",15,10,72,220,6,64400,29.84,NA,"FEW  ft; BKN  ft","CYRJ 062200Z 22006KT 190V250 40SM FEW025 BKN110 15/10 A2984 RMK SC1AC7 SC TR SLP110 DENSITY ALT 800FT",2025-09-06 22:41:59.629427,2025-09-06 18:41:59.629427
"CYHZ",2025-09-06 22:17:00,2025-09-06 18:17:00,"VFR",23,19,78,210,14,24100,30.03,NA,"FEW  ft; FEW  ft; BKN  ft; OVC  ft","CYHZ 062217Z 21014G24KT 15SM FEW009 FEW020 BKN320 OVC360 23/19 A3003 RMK SF1SC1CI5CI3 SF TR SC TR SLP170 DENSITY ALT 1400FT",2025-09-06 22:41:59.723738,2025-09-06 18:41:59.723738
"CYYG",2025-09-06 22:00:00,2025-09-06 18:00:00,"VFR",26,18,61,180,11,24100,29.94,NA,"BKN  ft","CYYG 062200Z 18011KT 15SM BKN250 26/18 A2994 RMK CI7 SLP141 DENSITY ALT 1500FT",2025-09-06 22:41:59.815963,2025-09-06 18:41:59.815963
"CYQM",2025-09-06 22:00:00,2025-09-06 18:00:00,"VFR",25,15,54,210,16,24100,29.92,NA,"SCT  ft; BKN  ft","CYQM 062200Z 21016G21KT 15SM SCT230 BKN250 25/15 A2992 RMK CS3CI3 SLP134 DENSITY ALT 1500FT",2025-09-06 22:41:59.908287,2025-09-06 18:41:59.908287
"CYFC",2025-09-06 22:18:00,2025-09-06 18:18:00,"MVFR",22,19,83,180,10,14500,29.89,NA,"BKN  ft","CYFC 062218Z AUTO 18010G20KT 9SM BKN020 22/19 A2989 RMK SLP124 DENSITY ALT 1000FT",2025-09-06 22:41:59.999532,2025-09-06 18:41:59.999532
"CYYT",2025-09-06 22:00:00,2025-09-06 18:00:00,"VFR",19,14,73,230,6,24100,30.15,NA,"FEW  ft; BKN  ft","CYYT 062200Z 23006KT 15SM FEW030 BKN240 19/14 A3015 RMK SC1CI4 SLP212 DENSITY ALT 800FT",2025-09-06 22:42:00.135308,2025-09-06 18:42:00.135308
"CYQY",2025-09-06 22:00:00,2025-09-06 18:00:00,"VFR",22,20,88,190,12,24100,30.05,NA,"BKN  ft","CYQY 062200Z 19012KT 15SM BKN230 22/20 A3005 RMK CI6 SLP177 DENSITY ALT 1000FT",2025-09-06 22:42:00.230763,2025-09-06 18:42:00.230763
"CYXY",2025-09-06 22:00:00,2025-09-06 18:00:00,"VFR",19,9,52,350,4,64400,29.93,NA,"FEW  ft; SCT  ft; BKN  ft","CYXY 062200Z 35004KT 320V020 40SM FEW050TCU SCT080 BKN260 19/09 A2993 RMK TCU2AC1CI4 SLP147 DENSITY ALT 3300FT",2025-09-06 22:42:00.322569,2025-09-06 18:42:00.322569
"CYZF",2025-09-06 22:00:00,2025-09-06 18:00:00,"VFR",17,8,56,150,9,24100,29.8,NA,"FEW  ft; BKN  ft; BKN  ft","CYZF 062200Z 15009G16KT 15SM FEW100 BKN170 BKN240 17/08 A2980 RMK AC1AC5CI1 SLP100 DENSITY ALT 1200FT",2025-09-06 22:42:00.457425,2025-09-06 18:42:00.457425
"CYFB",2025-09-06 22:00:00,2025-09-06 18:00:00,"MVFR",2,1,93,120,9,9700,29.62,NA,"OVC  ft","CYFB 062200Z 12009KT 6SM -RASN BR OVC010 02/01 A2962 RMK SC8 VIS N 3 CIG RAG SLP033",2025-09-06 22:42:00.596632,2025-09-06 18:42:00.596632
"CYRT",2025-09-06 22:00:00,2025-09-06 18:00:00,"VFR",8,1,62,20,18,24100,29.9,NA,"BKN  ft; BKN  ft","CYRT 062200Z 02018G23KT 15SM BKN036 BKN078 08/01 A2990 RMK SC5AC1 SLP129",2025-09-06 22:42:00.697372,2025-09-06 18:42:00.697372
"CYBK",2025-09-06 22:00:00,2025-09-06 18:00:00,"VFR",8,1,62,20,9,40200,29.99,NA,"BKN  ft","CYBK 062200Z 02009KT 25SM BKN041 08/01 A2999 RMK SC7 SLP160",2025-09-06 22:42:00.797449,2025-09-06 18:42:00.797449
"CYRB",2025-09-06 22:00:00,2025-09-06 18:00:00,"MVFR",0,-2,87,140,13,48300,30.02,NA,"BKN  ft","CYRB 062200Z 14013KT 30SM BKN015 00/M02 A3002 RMK ST5 SLP174",2025-09-06 22:42:00.907107,2025-09-06 18:42:00.907107
"CYCO",2025-09-06 22:00:00,2025-09-06 18:00:00,"MVFR",8,7,93,340,11,24100,29.8,NA,"FEW  ft; BKN  ft; BKN  ft","CYCO 062200Z 34011KT 15SM FEW005 BKN019 BKN140 08/07 A2980 RMK ST1SC6AC1 AC TR SLP094",2025-09-06 22:42:01.009973,2025-09-06 18:42:01.009973
"CYER",2025-09-06 23:00:00,2025-09-06 19:00:00,"VFR",8,4,76,330,16,14500,29.83,NA,"OVC  ft","CYER 062300Z AUTO 33016G24KT 9SM OVC032 08/04 A2983 RMK SLP104",2025-09-06 23:22:35.574978,2025-09-06 19:22:35.574978
"CYAT",2025-09-06 23:08:00,2025-09-06 19:08:00,"VFR",11,9,88,0,2,14500,29.73,NA,"FEW  ft; SCT  ft; BKN  ft; OVC  ft","CYAT 062308Z AUTO VRB02KT 9SM -RA FEW031 SCT042 BKN049 OVC060 11/09 A2973 RMK SLP070",2025-09-06 23:22:35.677027,2025-09-06 19:22:35.677027
"CYMO",2025-09-06 23:00:00,2025-09-06 19:00:00,"VFR",12,9,82,180,2,14500,29.78,NA,"BKN  ft","CYMO 062300Z AUTO 18002KT 9SM BKN091 12/09 A2978 RMK SLP087",2025-09-06 23:22:35.815371,2025-09-06 19:22:35.815371
"CYPL",2025-09-06 23:18:00,2025-09-06 19:18:00,"VFR",6,5,93,340,7,14500,29.95,NA,"SCT  ft; SCT  ft; BKN  ft; OVC  ft","CYPL 062318Z AUTO 34007G17KT 290V020 9SM SCT021 SCT036 BKN060 OVC079 06/05 A2995 RMK SLP158",2025-09-06 23:22:35.914374,2025-09-06 19:22:35.914374
"CYQT",2025-09-06 23:15:00,2025-09-06 19:15:00,"VFR",12,5,63,320,12,32200,29.94,NA,"BKN  ft; OVC  ft","CYQT 062315Z 32012G19KT 20SM -SHRA BKN046 OVC180 12/05 A2994 RMK SC5AC3 CU ASOCTD SLP148",2025-09-06 23:22:36.05851,2025-09-06 19:22:36.05851
"CYAM",2025-09-06 23:00:00,2025-09-06 19:00:00,"VFR",12,5,63,300,14,32200,29.94,NA,"BKN  ft; BKN  ft; BKN  ft","CYAM 062300Z 30014G19KT 20SM BKN033 BKN047 BKN180 12/05 A2994 RMK CU5SC1AC1 SLP146",2025-09-06 23:22:36.159775,2025-09-06 19:22:36.159775
"CYTS",2025-09-06 23:00:00,2025-09-06 19:00:00,"VFR",11,7,77,190,4,24100,29.84,NA,"BKN  ft; BKN  ft","CYTS 062300Z 19004KT 15SM BKN046 BKN100 11/07 A2984 RMK SC5AC2 SLP115",2025-09-06 23:22:36.253671,2025-09-06 19:22:36.253671
"CYSB",2025-09-06 23:00:00,2025-09-06 19:00:00,"VFR",11,7,77,230,8,32200,29.88,NA,"SCT  ft; BKN  ft; OVC  ft","CYSB 062300Z 23008KT 20SM SCT023 BKN071 OVC100 11/07 A2988 RMK SC4AC3AC1 SLP127",2025-09-06 23:22:36.347405,2025-09-06 19:22:36.347405
"CYYB",2025-09-06 23:00:00,2025-09-06 19:00:00,"VFR",12,8,77,240,6,48300,29.89,NA,"SCT  ft; OVC  ft","CYYB 062300Z 24006KT 30SM SCT035 OVC090 12/08 A2989 RMK SC4AC4 SLP129",2025-09-06 23:22:36.44514,2025-09-06 19:22:36.44514
"CYOW",2025-09-06 23:00:00,2025-09-06 19:00:00,"VFR",18,8,52,340,6,24100,29.9,NA,"SCT  ft; BKN  ft","CYOW 062300Z 34006KT 290V360 15SM SCT060 BKN082 18/08 A2990 RMK SC4AC2 SLP128 DENSITY ALT 900FT",2025-09-06 23:22:36.54327,2025-09-06 19:22:36.54327
"CYGK",2025-09-06 23:00:00,2025-09-06 19:00:00,"VFR",18,10,60,220,10,24100,29.94,NA,"FEW  ft; SCT  ft; BKN  ft","CYGK 062300Z 22010KT 15SM FEW038 SCT080 BKN250 18/10 A2994 RMK ST1AC3CI2 ST TR SLP141 DENSITY ALT 700FT",2025-09-06 23:22:36.642497,2025-09-06 19:22:36.642497
"CYQG",2025-09-06 23:00:00,2025-09-06 19:00:00,"VFR",17,7,52,300,5,14500,30,NA,"FEW  ft; OVC  ft","CYQG 062300Z AUTO 30005KT 250V320 9SM FEW060 OVC087 17/07 A3000 RMK SLP161 DENSITY ALT 1000FT",2025-09-06 23:22:36.777274,2025-09-06 19:22:36.777274
"CYVV",2025-09-06 23:00:00,2025-09-06 19:00:00,"MVFR",13,12,94,210,4,24100,29.93,NA,"BKN  ft; OVC  ft","CYVV 062300Z 21004KT 15SM VCSH BKN024 OVC071 13/12 A2993 RMK CU7AC1 DIST SH E-S SLP140",2025-09-06 23:22:36.872576,2025-09-06 19:22:36.872576
"CYYZ",2025-09-06 23:00:00,2025-09-06 19:00:00,"VFR",17,6,49,280,10,24100,29.95,NA,"BKN  ft","CYYZ 062300Z 28010KT 15SM BKN080 17/06 A2995 RMK AC7 SLP145 DENSITY ALT 900FT",2025-09-06 23:22:36.965857,2025-09-06 19:22:36.965857
"CYQA",2025-09-06 23:00:00,2025-09-06 19:00:00,"VFR",14,8,67,260,3,14500,29.93,NA,"OVC  ft","CYQA 062300Z AUTO 26003KT 230V300 9SM OVC071 14/08 A2993 RMK SLP139",2025-09-06 23:22:37.059202,2025-09-06 19:22:37.059202
"CYVR",2025-09-06 23:00:00,2025-09-06 19:00:00,"VFR",23,17,69,140,8,24100,29.9,NA,"FEW  ft; BKN  ft","CYVR 062300Z 14008KT 15SM FEW160 BKN220 23/17 A2990 RMK AC2CI5 HZ SLP126 DENSITY ALT 1100FT",2025-09-06 23:22:37.151346,2025-09-06 19:22:37.151346
"CYYJ",2025-09-06 23:00:00,2025-09-06 19:00:00,"VFR",15,13,88,80,3,48300,29.91,NA,"BKN  ft; OVC  ft","CYYJ 062300Z 08003KT 060V130 30SM BKN160 OVC250 15/13 A2991 RMK AC5CS3 SLP129",2025-09-06 23:22:37.282587,2025-09-06 19:22:37.282587
"CYLW",2025-09-06 23:00:00,2025-09-06 19:00:00,"VFR",27,11,37,350,4,12900,29.85,NA,"CLR  ft","CYLW 062300Z AUTO 35004KT 320V050 8SM CLR 27/11 A2985 RMK SLP105 DENSITY ALT 3200FT",2025-09-06 23:22:37.378632,2025-09-06 19:22:37.378632
"CYXS",2025-09-06 23:00:00,2025-09-06 19:00:00,"VFR",20,13,64,330,4,12900,29.93,NA,"CLR  ft","CYXS 062300Z AUTO 33004KT 8SM CLR 20/13 A2993 RMK SLP145 DENSITY ALT 3400FT",2025-09-06 23:22:37.470853,2025-09-06 19:22:37.470853
"CYXT",2025-09-06 23:00:00,2025-09-06 19:00:00,"VFR",26,16,54,150,4,32200,29.88,NA,"FEW  ft","CYXT 062300Z 15004KT 100V190 20SM FEW210 26/16 A2988 RMK CI1 CI TR FU SLP119 DENSITY ALT 2300FT",2025-09-06 23:22:37.565582,2025-09-06 19:22:37.565582
"CYQQ",2025-09-06 23:00:00,2025-09-06 19:00:00,"VFR",22,17,73,150,8,19300,29.89,NA,"FEW  ft; BKN  ft","CYQQ 062300Z 15008KT 12SM FEW040 BKN240 22/17 A2989 RMK FU2CI4 DENSITY ALT 1250FT CIG PDMTLY TRANSPARENT SLP120",2025-09-06 23:22:37.657829,2025-09-06 19:22:37.657829
"CYYC",2025-09-06 23:00:00,2025-09-06 19:00:00,"VFR",26,8,32,140,5,9999,29.97,NA,"FEW  ft","CYYC 062300Z 14005KT 10SM FEW250 26/08 A2997 RMK CI1 CI TR FU SLP148 DENSITY ALT 5600FT",2025-09-06 23:22:37.750676,2025-09-06 19:22:37.750676
"CYEG",2025-09-06 23:00:00,2025-09-06 19:00:00,"VFR",25,7,32,260,3,32200,29.92,NA,"FEW  ft","CYEG 062300Z 26003KT 190V310 20SM FEW250 25/07 A2992 RMK CI2 SLP138 DENSITY ALT 4100FT",2025-09-06 23:22:37.84101,2025-09-06 19:22:37.84101
"CYMM",2025-09-06 23:00:00,2025-09-06 19:00:00,"VFR",26,6,28,200,6,14500,29.86,NA,"CLR  ft","CYMM 062300Z AUTO 20006KT 180V240 9SM CLR 26/06 A2986 RMK SLP121 DENSITY ALT 2800FT",2025-09-06 23:22:37.938571,2025-09-06 19:22:37.938571
"CYQF",2025-09-06 23:00:00,2025-09-06 19:00:00,"VFR",26,6,28,240,6,14500,29.94,NA,"CLR  ft","CYQF 062300Z AUTO 24006KT 120V270 9SM CLR 26/06 A2994 RMK SLP146 DENSITY ALT 5000FT",2025-09-06 23:22:38.032641,2025-09-06 19:22:38.032641
"CYXE",2025-09-06 23:00:00,2025-09-06 19:00:00,"VFR",20,3,33,160,5,24100,30.06,NA,"FEW  ft","CYXE 062300Z 16005KT 090V210 15SM FEW300 20/03 A3006 RMK CI2 SLP195 DENSITY ALT 2500FT",2025-09-06 23:22:38.129063,2025-09-06 19:22:38.129063
"CYQR",2025-09-06 23:00:00,2025-09-06 19:00:00,"VFR",19,1,30,120,5,24100,30.1,NA,"FEW  ft","CYQR 062300Z 12005KT 15SM FEW250 19/01 A3010 RMK CI1 CI TR SLP212 DENSITY ALT 2600FT",2025-09-06 23:22:38.221919,2025-09-06 19:22:38.221919
"CYWG",2025-09-06 23:00:00,2025-09-06 19:00:00,"VFR",13,4,55,350,10,22500,30.11,NA,"FEW  ft; FEW  ft; SCT  ft; BKN  ft","CYWG 062300Z 35010G18KT 14SM FEW032 FEW037TCU SCT042 BKN052 BKN077 13/04 A3011 RMK CF1TCU1SC3SC1AC2 CF TR DIST SH NE AND E SLP206",2025-09-06 23:22:38.331609,2025-09-06 19:22:38.331609
"CYBR",2025-09-06 23:00:00,2025-09-06 19:00:00,"VFR",13,4,55,10,7,24100,30.14,NA,"FEW  ft; BKN  ft","CYBR 062300Z 01007KT 15SM FEW042 BKN050 13/04 A3014 RMK CU2SC5 SLP224",2025-09-06 23:22:38.424639,2025-09-06 19:22:38.424639
"CYUL",2025-09-06 23:00:00,2025-09-06 19:00:00,"VFR",17,12,73,230,7,24100,29.93,NA,"FEW  ft; SCT  ft; BKN  ft","CYUL 062300Z 23007KT 15SM FEW025 SCT080 BKN250 17/12 A2993 RMK CF1AC3CI1 SLP139 DENSITY ALT 400FT",2025-09-06 23:22:38.522333,2025-09-06 19:22:38.522333
"CYHU",2025-09-06 23:09:00,2025-09-06 19:09:00,"MVFR",15,14,94,150,5,14500,29.94,NA,"BKN  ft","CYHU 062309Z AUTO 15005KT 9SM BKN021 15/14 A2994 RMK SLP142",2025-09-06 23:22:38.6148,2025-09-06 19:22:38.6148
"CYQB",2025-09-06 23:00:00,2025-09-06 19:00:00,"MVFR",13,12,94,250,3,40200,29.95,NA,"BKN  ft; BKN  ft; BKN  ft; BKN  ft","CYQB 062300Z 25003KT 25SM BKN017 BKN035 BKN170 BKN230 13/12 A2995 RMK SC5SC1AC2CI1 SC TR CI TR SLP144",2025-09-06 23:22:38.708051,2025-09-06 19:22:38.708051
"CYVO",2025-09-06 23:00:00,2025-09-06 19:00:00,"VFR",11,9,88,220,3,24100,29.85,NA,"FEW  ft; SCT  ft; BKN  ft; BKN  ft","CYVO 062300Z 22003KT 15SM FEW034 SCT055 BKN100 BKN180 11/09 A2985 RMK CU2SC2AC2AC1 SLP122",2025-09-06 23:22:38.842181,2025-09-06 19:22:38.842181
"CYUY",2025-09-06 23:00:00,2025-09-06 19:00:00,"VFR",11,7,77,230,4,24100,29.85,NA,"FEW  ft; BKN  ft","CYUY 062300Z 23004KT 15SM FEW045 BKN095 11/07 A2985 RMK CU1AC7 CU TR SLP119",2025-09-06 23:22:38.938993,2025-09-06 19:22:38.938993
"CYZV",2025-09-06 23:00:00,2025-09-06 19:00:00,"VFR",15,10,72,230,14,48300,29.81,NA,"FEW  ft; FEW  ft; BKN  ft","CYZV 062300Z 23014G25KT 30SM FEW064 FEW120 BKN140 15/10 A2981 RMK CU1AC1AC6 CU TR SLP099 DENSITY ALT 400FT",2025-09-06 23:22:39.076723,2025-09-06 19:22:39.076723
"CYBC",2025-09-06 23:06:00,2025-09-06 19:06:00,"MVFR",12,10,88,230,14,14500,29.87,NA,"BKN  ft; BKN  ft; OVC  ft","CYBC 062306Z AUTO 23014G21KT 9SM BKN014 BKN150 OVC180 12/10 A2987 RMK SLP117",2025-09-06 23:22:39.174085,2025-09-06 19:22:39.174085
"CYRJ",2025-09-06 23:00:00,2025-09-06 19:00:00,"VFR",14,9,72,230,8,40200,29.85,NA,"FEW  ft; FEW  ft; SCT  ft","CYRJ 062300Z 23008KT 25SM FEW020 FEW050 SCT100 14/09 A2985 RMK SC1SC1AC4 SC TR SC TR SLP113",2025-09-06 23:22:39.270102,2025-09-06 19:22:39.270102
"CYHZ",2025-09-06 23:00:00,2025-09-06 19:00:00,"MVFR",21,20,94,200,14,24100,30.05,NA,"FEW  ft; BKN  ft; BKN  ft; OVC  ft","CYHZ 062300Z 20014G23KT 15SM FEW009 BKN011 BKN320 OVC360 21/20 A3005 RMK SF1SC5CI1CI1 SLP179 DENSITY ALT 1200FT",2025-09-06 23:22:39.363416,2025-09-06 19:22:39.363416
"CYYG",2025-09-06 23:00:00,2025-09-06 19:00:00,"VFR",25,18,65,180,10,24100,29.96,NA,"FEW  ft; BKN  ft","CYYG 062300Z 18010KT 15SM FEW025 BKN250 25/18 A2996 RMK SC1CI7 SC TR SLP146 DENSITY ALT 1300FT",2025-09-06 23:22:39.497164,2025-09-06 19:22:39.497164
"CYQM",2025-09-06 23:00:00,2025-09-06 19:00:00,"VFR",24,17,65,220,13,24100,29.94,NA,"BKN  ft","CYQM 062300Z 22013G21KT 15SM BKN250 24/17 A2994 RMK CI6 SLP140 DENSITY ALT 1400FT",2025-09-06 23:22:39.593647,2025-09-06 19:22:39.593647
"CYFC",2025-09-06 23:00:00,2025-09-06 19:00:00,"MVFR",22,19,83,200,11,14500,29.91,NA,"OVC  ft","CYFC 062300Z AUTO 20011G18KT 9SM OVC016 22/19 A2991 RMK SLP129 DENSITY ALT 900FT",2025-09-06 23:22:39.689382,2025-09-06 19:22:39.689382
"CYYT",2025-09-06 23:00:00,2025-09-06 19:00:00,"VFR",18,14,78,230,12,24100,30.15,NA,"FEW  ft; BKN  ft","CYYT 062300Z 23012KT 15SM FEW020 BKN240 18/14 A3015 RMK SC1CI4 SLP214 DENSITY ALT 700FT",2025-09-06 23:22:39.784422,2025-09-06 19:22:39.784422
"CYQY",2025-09-06 23:00:00,2025-09-06 19:00:00,"VFR",21,20,94,210,11,24100,30.05,NA,"SCT  ft","CYQY 062300Z 21011G16KT 15SM SCT230 21/20 A3005 RMK CI3 SLP176 DENSITY ALT 800FT",2025-09-06 23:22:39.883476,2025-09-06 19:22:39.883476
"CYXY",2025-09-06 23:00:00,2025-09-06 19:00:00,"VFR",20,8,46,280,4,64400,29.91,NA,"FEW  ft; SCT  ft; BKN  ft","CYXY 062300Z 28004KT 160V310 40SM FEW055 SCT085 BKN260 20/08 A2991 RMK CU2AC1CI4 TCU ASOCTD SLP141 DENSITY ALT 3400FT",2025-09-06 23:22:39.975675,2025-09-06 19:22:39.975675
"CYZF",2025-09-06 23:00:00,2025-09-06 19:00:00,"VFR",17,8,56,160,10,24100,29.8,NA,"FEW  ft; BKN  ft; BKN  ft","CYZF 062300Z 16010KT 15SM FEW100 BKN170 BKN240 17/08 A2980 RMK AC1AC5CI1 SLP100 DENSITY ALT 1300FT",2025-09-06 23:22:40.068208,2025-09-06 19:22:40.068208
"CYFB",2025-09-06 23:00:00,2025-09-06 19:00:00,"IFR",2,0,87,130,11,6400,29.61,NA,"BKN  ft; OVC  ft","CYFB 062300Z 13011KT 4SM -SNRA BR BKN008 OVC015 02/00 A2961 RMK ST6SC2 VIS N 2 SLP031",2025-09-06 23:22:40.199877,2025-09-06 19:22:40.199877
"CYRT",2025-09-06 23:00:00,2025-09-06 19:00:00,"VFR",8,0,57,10,18,24100,29.91,NA,"FEW  ft; SCT  ft","CYRT 062300Z 01018G25KT 15SM FEW035 SCT072 08/00 A2991 RMK SC1AC3 SLP131",2025-09-06 23:22:40.293296,2025-09-06 19:22:40.293296
"CYBK",2025-09-06 23:00:00,2025-09-06 19:00:00,"VFR",8,1,62,360,8,40200,29.99,NA,"BKN  ft","CYBK 062300Z 36008G20KT 330V050 25SM BKN040 08/01 A2999 RMK SC7 SLP159",2025-09-06 23:22:40.424494,2025-09-06 19:22:40.424494
"CYRB",2025-09-06 23:00:00,2025-09-06 19:00:00,"MVFR",0,-1,93,140,11,48300,30.01,NA,"BKN  ft","CYRB 062300Z 14011KT 30SM BKN015 M00/M01 A3001 RMK ST5 SLP170",2025-09-06 23:22:40.527724,2025-09-06 19:22:40.527724
"CYCO",2025-09-06 23:00:00,2025-09-06 19:00:00,"MVFR",8,6,87,340,10,24100,29.84,NA,"FEW  ft; BKN  ft; BKN  ft","CYCO 062300Z 34010KT 15SM FEW006 BKN020 BKN130 08/06 A2984 RMK ST1SC6AC1 AC TR SLP109",2025-09-06 23:22:40.619652,2025-09-06 19:22:40.619652
"CYER",2025-09-06 23:00:00,2025-09-06 19:00:00,"VFR",8,4,76,330,16,14500,29.83,NA,"OVC  ft","CYER 062300Z AUTO 33016G24KT 9SM OVC032 08/04 A2983 RMK SLP104",2025-09-06 23:41:53.404866,2025-09-06 19:41:53.404866
"CYAT",2025-09-06 23:08:00,2025-09-06 19:08:00,"VFR",11,9,88,0,2,14500,29.73,NA,"FEW  ft; SCT  ft; BKN  ft; OVC  ft","CYAT 062308Z AUTO VRB02KT 9SM -RA FEW031 SCT042 BKN049 OVC060 11/09 A2973 RMK SLP070",2025-09-06 23:41:53.485547,2025-09-06 19:41:53.485547
"CYMO",2025-09-06 23:00:00,2025-09-06 19:00:00,"VFR",12,9,82,180,2,14500,29.78,NA,"BKN  ft","CYMO 062300Z AUTO 18002KT 9SM BKN091 12/09 A2978 RMK SLP087",2025-09-06 23:41:53.516935,2025-09-06 19:41:53.516935
"CYPL",2025-09-06 23:18:00,2025-09-06 19:18:00,"VFR",6,5,93,340,7,14500,29.95,NA,"SCT  ft; SCT  ft; BKN  ft; OVC  ft","CYPL 062318Z AUTO 34007G17KT 290V020 9SM SCT021 SCT036 BKN060 OVC079 06/05 A2995 RMK SLP158",2025-09-06 23:41:53.588227,2025-09-06 19:41:53.588227
"CYQT",2025-09-06 23:15:00,2025-09-06 19:15:00,"VFR",12,5,63,320,12,32200,29.94,NA,"BKN  ft; OVC  ft","CYQT 062315Z 32012G19KT 20SM -SHRA BKN046 OVC180 12/05 A2994 RMK SC5AC3 CU ASOCTD SLP148",2025-09-06 23:41:53.623465,2025-09-06 19:41:53.623465
"CYAM",2025-09-06 23:00:00,2025-09-06 19:00:00,"VFR",12,5,63,300,14,32200,29.94,NA,"BKN  ft; BKN  ft; BKN  ft","CYAM 062300Z 30014G19KT 20SM BKN033 BKN047 BKN180 12/05 A2994 RMK CU5SC1AC1 SLP146",2025-09-06 23:41:53.694299,2025-09-06 19:41:53.694299
"CYTS",2025-09-06 23:00:00,2025-09-06 19:00:00,"VFR",11,7,77,190,4,24100,29.84,NA,"BKN  ft; BKN  ft","CYTS 062300Z 19004KT 15SM BKN046 BKN100 11/07 A2984 RMK SC5AC2 SLP115",2025-09-06 23:41:53.767094,2025-09-06 19:41:53.767094
"CYSB",2025-09-06 23:36:00,2025-09-06 19:36:00,"VFR",11,8,82,230,6,24100,29.88,NA,"SCT  ft; OVC  ft","CYSB 062336Z 23006KT 15SM -SHRA SCT023 OVC070 11/08 A2988 RMK SC4AC4 SLP128",2025-09-06 23:41:53.840352,2025-09-06 19:41:53.840352
"CYYB",2025-09-06 23:00:00,2025-09-06 19:00:00,"VFR",12,8,77,240,6,48300,29.89,NA,"SCT  ft; OVC  ft","CYYB 062300Z 24006KT 30SM SCT035 OVC090 12/08 A2989 RMK SC4AC4 SLP129",2025-09-06 23:41:53.913962,2025-09-06 19:41:53.913962
"CYOW",2025-09-06 23:00:00,2025-09-06 19:00:00,"VFR",18,8,52,340,6,24100,29.9,NA,"SCT  ft; BKN  ft","CYOW 062300Z 34006KT 290V360 15SM SCT060 BKN082 18/08 A2990 RMK SC4AC2 SLP128 DENSITY ALT 900FT",2025-09-06 23:41:53.987196,2025-09-06 19:41:53.987196
"CYGK",2025-09-06 23:00:00,2025-09-06 19:00:00,"VFR",18,10,60,220,10,24100,29.94,NA,"FEW  ft; SCT  ft; BKN  ft","CYGK 062300Z 22010KT 15SM FEW038 SCT080 BKN250 18/10 A2994 RMK ST1AC3CI2 ST TR SLP141 DENSITY ALT 700FT",2025-09-06 23:41:54.062356,2025-09-06 19:41:54.062356
"CYQG",2025-09-06 23:00:00,2025-09-06 19:00:00,"VFR",17,7,52,300,5,14500,30,NA,"FEW  ft; OVC  ft","CYQG 062300Z AUTO 30005KT 250V320 9SM FEW060 OVC087 17/07 A3000 RMK SLP161 DENSITY ALT 1000FT",2025-09-06 23:41:54.099972,2025-09-06 19:41:54.099972
"CYVV",2025-09-06 23:00:00,2025-09-06 19:00:00,"MVFR",13,12,94,210,4,24100,29.93,NA,"BKN  ft; OVC  ft","CYVV 062300Z 21004KT 15SM VCSH BKN024 OVC071 13/12 A2993 RMK CU7AC1 DIST SH E-S SLP140",2025-09-06 23:41:54.169183,2025-09-06 19:41:54.169183
"CYYZ",2025-09-06 23:00:00,2025-09-06 19:00:00,"VFR",17,6,49,280,10,24100,29.95,NA,"BKN  ft","CYYZ 062300Z 28010KT 15SM BKN080 17/06 A2995 RMK AC7 SLP145 DENSITY ALT 900FT",2025-09-06 23:41:54.240165,2025-09-06 19:41:54.240165
"CYQA",2025-09-06 23:00:00,2025-09-06 19:00:00,"VFR",14,8,67,260,3,14500,29.93,NA,"OVC  ft","CYQA 062300Z AUTO 26003KT 230V300 9SM OVC071 14/08 A2993 RMK SLP139",2025-09-06 23:41:54.311001,2025-09-06 19:41:54.311001
"CYVR",2025-09-06 23:00:00,2025-09-06 19:00:00,"VFR",23,17,69,140,8,24100,29.9,NA,"FEW  ft; BKN  ft","CYVR 062300Z 14008KT 15SM FEW160 BKN220 23/17 A2990 RMK AC2CI5 HZ SLP126 DENSITY ALT 1100FT",2025-09-06 23:41:54.384254,2025-09-06 19:41:54.384254
"CYYJ",2025-09-06 23:00:00,2025-09-06 19:00:00,"VFR",15,13,88,80,3,48300,29.91,NA,"BKN  ft; OVC  ft","CYYJ 062300Z 08003KT 060V130 30SM BKN160 OVC250 15/13 A2991 RMK AC5CS3 SLP129",2025-09-06 23:41:54.456015,2025-09-06 19:41:54.456015
"CYLW",2025-09-06 23:00:00,2025-09-06 19:00:00,"VFR",27,11,37,350,4,12900,29.85,NA,"CLR  ft","CYLW 062300Z AUTO 35004KT 320V050 8SM CLR 27/11 A2985 RMK SLP105 DENSITY ALT 3200FT",2025-09-06 23:41:54.530084,2025-09-06 19:41:54.530084
"CYXS",2025-09-06 23:00:00,2025-09-06 19:00:00,"VFR",20,13,64,330,4,12900,29.93,NA,"CLR  ft","CYXS 062300Z AUTO 33004KT 8SM CLR 20/13 A2993 RMK SLP145 DENSITY ALT 3400FT",2025-09-06 23:41:54.602103,2025-09-06 19:41:54.602103
"CYXT",2025-09-06 23:00:00,2025-09-06 19:00:00,"VFR",26,16,54,150,4,32200,29.88,NA,"FEW  ft","CYXT 062300Z 15004KT 100V190 20SM FEW210 26/16 A2988 RMK CI1 CI TR FU SLP119 DENSITY ALT 2300FT",2025-09-06 23:41:54.673187,2025-09-06 19:41:54.673187
"CYQQ",2025-09-06 23:00:00,2025-09-06 19:00:00,"VFR",22,17,73,150,8,19300,29.89,NA,"FEW  ft; BKN  ft","CYQQ 062300Z 15008KT 12SM FEW040 BKN240 22/17 A2989 RMK FU2CI4 DENSITY ALT 1250FT CIG PDMTLY TRANSPARENT SLP120",2025-09-06 23:41:54.745222,2025-09-06 19:41:54.745222
"CYYC",2025-09-06 23:00:00,2025-09-06 19:00:00,"VFR",26,8,32,140,5,9999,29.97,NA,"FEW  ft","CYYC 062300Z 14005KT 10SM FEW250 26/08 A2997 RMK CI1 CI TR FU SLP148 DENSITY ALT 5600FT",2025-09-06 23:41:54.816604,2025-09-06 19:41:54.816604
"CYEG",2025-09-06 23:00:00,2025-09-06 19:00:00,"VFR",25,7,32,260,3,32200,29.92,NA,"FEW  ft","CYEG 062300Z 26003KT 190V310 20SM FEW250 25/07 A2992 RMK CI2 SLP138 DENSITY ALT 4100FT",2025-09-06 23:41:54.889413,2025-09-06 19:41:54.889413
"CYMM",2025-09-06 23:00:00,2025-09-06 19:00:00,"VFR",26,6,28,200,6,14500,29.86,NA,"CLR  ft","CYMM 062300Z AUTO 20006KT 180V240 9SM CLR 26/06 A2986 RMK SLP121 DENSITY ALT 2800FT",2025-09-06 23:41:54.96303,2025-09-06 19:41:54.96303
"CYQF",2025-09-06 23:00:00,2025-09-06 19:00:00,"VFR",26,6,28,240,6,14500,29.94,NA,"CLR  ft","CYQF 062300Z AUTO 24006KT 120V270 9SM CLR 26/06 A2994 RMK SLP146 DENSITY ALT 5000FT",2025-09-06 23:41:55.035172,2025-09-06 19:41:55.035172
"CYXE",2025-09-06 23:00:00,2025-09-06 19:00:00,"VFR",20,3,33,160,5,24100,30.06,NA,"FEW  ft","CYXE 062300Z 16005KT 090V210 15SM FEW300 20/03 A3006 RMK CI2 SLP195 DENSITY ALT 2500FT",2025-09-06 23:41:55.107016,2025-09-06 19:41:55.107016
"CYQR",2025-09-06 23:00:00,2025-09-06 19:00:00,"VFR",19,1,30,120,5,24100,30.1,NA,"FEW  ft","CYQR 062300Z 12005KT 15SM FEW250 19/01 A3010 RMK CI1 CI TR SLP212 DENSITY ALT 2600FT",2025-09-06 23:41:55.179057,2025-09-06 19:41:55.179057
"CYWG",2025-09-06 23:00:00,2025-09-06 19:00:00,"VFR",13,4,55,350,10,22500,30.11,NA,"FEW  ft; FEW  ft; SCT  ft; BKN  ft","CYWG 062300Z 35010G18KT 14SM FEW032 FEW037TCU SCT042 BKN052 BKN077 13/04 A3011 RMK CF1TCU1SC3SC1AC2 CF TR DIST SH NE AND E SLP206",2025-09-06 23:41:55.249199,2025-09-06 19:41:55.249199
"CYBR",2025-09-06 23:00:00,2025-09-06 19:00:00,"VFR",13,4,55,10,7,24100,30.14,NA,"FEW  ft; BKN  ft","CYBR 062300Z 01007KT 15SM FEW042 BKN050 13/04 A3014 RMK CU2SC5 SLP224",2025-09-06 23:41:55.31931,2025-09-06 19:41:55.31931
"CYUL",2025-09-06 23:00:00,2025-09-06 19:00:00,"VFR",17,12,73,230,7,24100,29.93,NA,"FEW  ft; SCT  ft; BKN  ft","CYUL 062300Z 23007KT 15SM FEW025 SCT080 BKN250 17/12 A2993 RMK CF1AC3CI1 SLP139 DENSITY ALT 400FT",2025-09-06 23:41:55.393313,2025-09-06 19:41:55.393313
"CYHU",2025-09-06 23:23:00,2025-09-06 19:23:00,"VFR",14,13,94,150,4,14500,29.94,NA,"SCT  ft","CYHU 062323Z AUTO 15004KT 9SM SCT021 14/13 A2994 RMK SLP140",2025-09-06 23:41:55.465851,2025-09-06 19:41:55.465851
"CYQB",2025-09-06 23:00:00,2025-09-06 19:00:00,"MVFR",13,12,94,250,3,40200,29.95,NA,"BKN  ft; BKN  ft; BKN  ft; BKN  ft","CYQB 062300Z 25003KT 25SM BKN017 BKN035 BKN170 BKN230 13/12 A2995 RMK SC5SC1AC2CI1 SC TR CI TR SLP144",2025-09-06 23:41:55.501091,2025-09-06 19:41:55.501091
"CYVO",2025-09-06 23:00:00,2025-09-06 19:00:00,"VFR",11,9,88,220,3,24100,29.85,NA,"FEW  ft; SCT  ft; BKN  ft; BKN  ft","CYVO 062300Z 22003KT 15SM FEW034 SCT055 BKN100 BKN180 11/09 A2985 RMK CU2SC2AC2AC1 SLP122",2025-09-06 23:41:55.571843,2025-09-06 19:41:55.571843
"CYUY",2025-09-06 23:00:00,2025-09-06 19:00:00,"VFR",11,7,77,230,4,24100,29.85,NA,"FEW  ft; BKN  ft","CYUY 062300Z 23004KT 15SM FEW045 BKN095 11/07 A2985 RMK CU1AC7 CU TR SLP119",2025-09-06 23:41:55.643148,2025-09-06 19:41:55.643148
"CYZV",2025-09-06 23:00:00,2025-09-06 19:00:00,"VFR",15,10,72,230,14,48300,29.81,NA,"FEW  ft; FEW  ft; BKN  ft","CYZV 062300Z 23014G25KT 30SM FEW064 FEW120 BKN140 15/10 A2981 RMK CU1AC1AC6 CU TR SLP099 DENSITY ALT 400FT",2025-09-06 23:41:55.713169,2025-09-06 19:41:55.713169
"CYBC",2025-09-06 23:06:00,2025-09-06 19:06:00,"MVFR",12,10,88,230,14,14500,29.87,NA,"BKN  ft; BKN  ft; OVC  ft","CYBC 062306Z AUTO 23014G21KT 9SM BKN014 BKN150 OVC180 12/10 A2987 RMK SLP117",2025-09-06 23:41:55.78514,2025-09-06 19:41:55.78514
"CYRJ",2025-09-06 23:00:00,2025-09-06 19:00:00,"VFR",14,9,72,230,8,40200,29.85,NA,"FEW  ft; FEW  ft; SCT  ft","CYRJ 062300Z 23008KT 25SM FEW020 FEW050 SCT100 14/09 A2985 RMK SC1SC1AC4 SC TR SC TR SLP113",2025-09-06 23:41:55.857816,2025-09-06 19:41:55.857816
"CYHZ",2025-09-06 23:21:00,2025-09-06 19:21:00,"IFR",21,20,94,210,16,24100,30.07,NA,"BKN  ft; OVC  ft","CYHZ 062321Z 21016G23KT 15SM BKN009 OVC320 21/20 A3007 RMK SC7CI1 SLP184 DENSITY ALT 1200FT",2025-09-06 23:41:55.929911,2025-09-06 19:41:55.929911
"CYYG",2025-09-06 23:00:00,2025-09-06 19:00:00,"VFR",25,18,65,180,10,24100,29.96,NA,"FEW  ft; BKN  ft","CYYG 062300Z 18010KT 15SM FEW025 BKN250 25/18 A2996 RMK SC1CI7 SC TR SLP146 DENSITY ALT 1300FT",2025-09-06 23:41:55.999223,2025-09-06 19:41:55.999223
"CYQM",2025-09-06 23:00:00,2025-09-06 19:00:00,"VFR",24,17,65,220,13,24100,29.94,NA,"BKN  ft","CYQM 062300Z 22013G21KT 15SM BKN250 24/17 A2994 RMK CI6 SLP140 DENSITY ALT 1400FT",2025-09-06 23:41:56.072321,2025-09-06 19:41:56.072321
"CYFC",2025-09-06 23:00:00,2025-09-06 19:00:00,"MVFR",22,19,83,200,11,14500,29.91,NA,"OVC  ft","CYFC 062300Z AUTO 20011G18KT 9SM OVC016 22/19 A2991 RMK SLP129 DENSITY ALT 900FT",2025-09-06 23:41:56.143223,2025-09-06 19:41:56.143223
"CYYT",2025-09-06 23:00:00,2025-09-06 19:00:00,"VFR",18,14,78,230,12,24100,30.15,NA,"FEW  ft; BKN  ft","CYYT 062300Z 23012KT 15SM FEW020 BKN240 18/14 A3015 RMK SC1CI4 SLP214 DENSITY ALT 700FT",2025-09-06 23:41:56.215201,2025-09-06 19:41:56.215201
"CYQY",2025-09-06 23:00:00,2025-09-06 19:00:00,"VFR",21,20,94,210,11,24100,30.05,NA,"SCT  ft","CYQY 062300Z 21011G16KT 15SM SCT230 21/20 A3005 RMK CI3 SLP176 DENSITY ALT 800FT",2025-09-06 23:41:56.289101,2025-09-06 19:41:56.289101
"CYXY",2025-09-06 23:00:00,2025-09-06 19:00:00,"VFR",20,8,46,280,4,64400,29.91,NA,"FEW  ft; SCT  ft; BKN  ft","CYXY 062300Z 28004KT 160V310 40SM FEW055 SCT085 BKN260 20/08 A2991 RMK CU2AC1CI4 TCU ASOCTD SLP141 DENSITY ALT 3400FT",2025-09-06 23:41:56.361465,2025-09-06 19:41:56.361465
"CYZF",2025-09-06 23:00:00,2025-09-06 19:00:00,"VFR",17,8,56,160,10,24100,29.8,NA,"FEW  ft; BKN  ft; BKN  ft","CYZF 062300Z 16010KT 15SM FEW100 BKN170 BKN240 17/08 A2980 RMK AC1AC5CI1 SLP100 DENSITY ALT 1300FT",2025-09-06 23:41:56.433537,2025-09-06 19:41:56.433537
"CYFB",2025-09-06 23:00:00,2025-09-06 19:00:00,"IFR",2,0,87,130,11,6400,29.61,NA,"BKN  ft; OVC  ft","CYFB 062300Z 13011KT 4SM -SNRA BR BKN008 OVC015 02/00 A2961 RMK ST6SC2 VIS N 2 SLP031",2025-09-06 23:41:56.504145,2025-09-06 19:41:56.504145
"CYRT",2025-09-06 23:00:00,2025-09-06 19:00:00,"VFR",8,0,57,10,18,24100,29.91,NA,"FEW  ft; SCT  ft","CYRT 062300Z 01018G25KT 15SM FEW035 SCT072 08/00 A2991 RMK SC1AC3 SLP131",2025-09-06 23:41:56.577488,2025-09-06 19:41:56.577488
"CYBK",2025-09-06 23:00:00,2025-09-06 19:00:00,"VFR",8,1,62,360,8,40200,29.99,NA,"BKN  ft","CYBK 062300Z 36008G20KT 330V050 25SM BKN040 08/01 A2999 RMK SC7 SLP159",2025-09-06 23:41:56.651161,2025-09-06 19:41:56.651161
"CYRB",2025-09-06 23:00:00,2025-09-06 19:00:00,"MVFR",0,-1,93,140,11,48300,30.01,NA,"BKN  ft","CYRB 062300Z 14011KT 30SM BKN015 M00/M01 A3001 RMK ST5 SLP170",2025-09-06 23:41:56.733356,2025-09-06 19:41:56.733356
"CYCO",2025-09-06 23:00:00,2025-09-06 19:00:00,"MVFR",8,6,87,340,10,24100,29.84,NA,"FEW  ft; BKN  ft; BKN  ft","CYCO 062300Z 34010KT 15SM FEW006 BKN020 BKN130 08/06 A2984 RMK ST1SC6AC1 AC TR SLP109",2025-09-06 23:41:56.80625,2025-09-06 19:41:56.80625
"CYER",2025-09-07 01:00:00,2025-09-06 21:00:00,"MVFR",7,4,81,340,9,14500,29.86,NA,"BKN  ft; OVC  ft","CYER 070100Z AUTO 34009G17KT 9SM BKN030 OVC038 07/04 A2986 RMK SLP113",2025-09-07 02:04:14.048265,2025-09-06 22:04:14.048265
"CYAT",2025-09-07 01:00:00,2025-09-06 21:00:00,"VFR",9,8,94,250,5,14500,29.76,NA,"FEW  ft; BKN  ft; BKN  ft","CYAT 070100Z AUTO 25005KT 9SM FEW030 BKN050 BKN076 09/08 A2976 RMK SLP078",2025-09-07 02:04:14.102534,2025-09-06 22:04:14.102534
"CYMO",2025-09-07 01:00:00,2025-09-06 21:00:00,"VFR",9,6,82,250,6,14500,29.81,NA,"SCT  ft","CYMO 070100Z AUTO 25006KT 9SM SCT055 09/06 A2981 RMK SLP096",2025-09-07 02:04:14.187249,2025-09-06 22:04:14.187249
"CYPL",2025-09-07 01:47:00,2025-09-06 21:47:00,"MVFR",6,6,100,320,5,14500,29.98,NA,"BKN  ft; OVC  ft","CYPL 070147Z AUTO 32005KT 290V350 9SM BKN014 OVC020 06/06 A2998 RMK SLP169",2025-09-07 02:04:14.272783,2025-09-06 22:04:14.272783
"CYQT",2025-09-07 01:00:00,2025-09-06 21:00:00,"VFR",9,6,82,260,3,24100,29.97,NA,"FEW  ft; OVC  ft","CYQT 070100Z 26003KT 15SM FEW065 OVC090 09/06 A2997 RMK SC2AC6 SLP157",2025-09-07 02:04:14.362511,2025-09-06 22:04:14.362511
"CYAM",2025-09-07 01:00:00,2025-09-06 21:00:00,"VFR",9,4,71,320,6,32200,29.96,NA,"FEW  ft; SCT  ft; BKN  ft","CYAM 070100Z 32006KT 20SM FEW032 SCT057 BKN220 09/04 A2996 RMK SC2SC1CI4 SLP151",2025-09-07 02:04:14.410038,2025-09-06 22:04:14.410038
"CYTS",2025-09-07 01:00:00,2025-09-06 21:00:00,"VFR",9,8,94,280,3,24100,29.86,NA,"BKN  ft","CYTS 070100Z 28003KT 15SM BKN054 09/08 A2986 RMK SC7 SLP122",2025-09-07 02:04:14.496237,2025-09-06 22:04:14.496237
"CYSB",2025-09-07 01:39:00,2025-09-06 21:39:00,"VFR",9,8,94,210,2,24100,29.9,NA,"SCT  ft; OVC  ft","CYSB 070139Z 21002KT 15SM SCT048 OVC063 09/08 A2990 RMK CU3SC5 SLP133",2025-09-07 02:04:14.581915,2025-09-06 22:04:14.581915
"CYYB",2025-09-07 01:00:00,2025-09-06 21:00:00,"VFR",11,8,82,250,6,24100,29.9,NA,"SCT  ft; BKN  ft; OVC  ft","CYYB 070100Z 25006KT 15SM SCT026 BKN049 OVC080 11/08 A2990 RMK SC4SC2AC2 SLP134",2025-09-07 02:04:14.66756,2025-09-06 22:04:14.66756
"CYOW",2025-09-07 01:00:00,2025-09-06 21:00:00,"VFR",16,8,59,320,5,24100,29.95,NA,"BKN  ft; BKN  ft","CYOW 070100Z 32005KT 15SM BKN060 BKN080 16/08 A2995 RMK SC5AC2 SLP145 DENSITY ALT 600FT",2025-09-07 02:04:14.757976,2025-09-06 22:04:14.757976
"CYGK",2025-09-07 01:00:00,2025-09-06 21:00:00,"VFR",17,10,64,220,7,24100,29.98,NA,"SCT  ft; BKN  ft","CYGK 070100Z 22007KT 15SM SCT090 BKN250 17/10 A2998 RMK AC4CI1 SLP156",2025-09-07 02:04:14.849849,2025-09-06 22:04:14.849849
"CYQG",2025-09-07 01:00:00,2025-09-06 21:00:00,"VFR",16,8,59,330,9,14500,30.03,NA,"BKN  ft; OVC  ft","CYQG 070100Z AUTO 33009KT 9SM BKN060 OVC078 16/08 A3003 RMK SLP171",2025-09-07 02:04:14.896722,2025-09-06 22:04:14.896722
"CYVV",2025-09-07 01:00:00,2025-09-06 21:00:00,"MVFR",11,11,100,310,3,12900,29.95,NA,"FEW  ft; BKN  ft; OVC  ft","CYVV 070100Z 31003KT 230V350 8SM -SHRA FEW011 BKN024 OVC053 11/11 A2995 RMK SF2CU4SC2 SLP146",2025-09-07 02:04:14.983761,2025-09-06 22:04:14.983761
"CYYZ",2025-09-07 01:55:00,2025-09-06 21:55:00,"VFR",16,7,55,260,10,24100,29.98,NA,"BKN  ft","CYYZ 070155Z 26010KT 15SM BKN090 16/07 A2998 RMK AC7 SLP154 DENSITY ALT 800FT",2025-09-07 02:04:15.030909,2025-09-06 22:04:15.030909
"CYQA",2025-09-07 01:00:00,2025-09-06 21:00:00,"VFR",11,11,100,170,2,14500,29.95,NA,"BKN  ft; OVC  ft","CYQA 070100Z AUTO 17002KT 9SM BKN040 OVC050 11/11 A2995 RMK SLP148",2025-09-07 02:04:15.117808,2025-09-06 22:04:15.117808
"CYVR",2025-09-07 01:36:00,2025-09-06 21:36:00,"VFR",19,18,94,130,8,19300,29.89,NA,"FEW  ft; OVC  ft","CYVR 070136Z 13008KT 12SM FEW055 OVC095 19/18 A2989 RMK SC1AC7 HZ SLP125 DENSITY ALT 600FT",2025-09-07 02:04:15.205669,2025-09-06 22:04:15.205669
"CYYJ",2025-09-07 01:00:00,2025-09-06 21:00:00,"VFR",14,13,94,160,5,48300,29.91,NA,"BKN  ft; OVC  ft","CYYJ 070100Z 16005KT 090V180 30SM BKN140 OVC250 14/13 A2991 RMK AC5CI3 SLP129",2025-09-07 02:04:15.294842,2025-09-06 22:04:15.294842
"CYLW",2025-09-07 01:00:00,2025-09-06 21:00:00,"VFR",25,15,54,200,3,9700,29.84,NA,"CLR  ft","CYLW 070100Z AUTO 20003KT 170V280 6SM HZ CLR 25/15 A2984 RMK SLP105 DENSITY ALT 3000FT",2025-09-07 02:04:15.344843,2025-09-06 22:04:15.344843
"CYXS",2025-09-07 01:49:00,2025-09-06 21:49:00,"MVFR",18,14,78,240,3,8000,29.92,NA,"FEW  ft","CYXS 070149Z AUTO 24003KT 190V250 5SM HZ FEW150 18/14 A2992 RMK SLP145 DENSITY ALT 3200FT",2025-09-07 02:04:15.431713,2025-09-06 22:04:15.431713
"CYXT",2025-09-07 01:00:00,2025-09-06 21:00:00,"VFR",26,15,51,170,8,32200,29.87,NA,"FEW  ft","CYXT 070100Z 17008KT 20SM FEW210 26/15 A2987 RMK CI1 CI TR FU SLP117 DENSITY ALT 2200FT",2025-09-07 02:04:15.517522,2025-09-06 22:04:15.517522
"CYQQ",2025-09-07 01:00:00,2025-09-06 21:00:00,"VFR",21,16,73,140,7,9999,29.89,NA,"FEW  ft; FEW  ft; SCT  ft; BKN  ft","CYQQ 070100Z 14007KT 10SM FEW040 FEW060 SCT200 BKN240 21/16 A2989 RMK FU2CU1CI1CI4 DENSITY ALT 1111FT CIG PDMTLY TRANSPARENT CC ASOCTD SLP122",2025-09-07 02:04:15.60374,2025-09-06 22:04:15.60374
"CYYC",2025-09-07 01:00:00,2025-09-06 21:00:00,"VFR",24,6,31,150,10,9999,29.96,NA,"FEW  ft","CYYC 070100Z 15010KT 10SM FEW250 24/06 A2996 RMK CI1 FU SLP148 DENSITY ALT 5500FT",2025-09-07 02:04:15.696015,2025-09-06 22:04:15.696015
"CYEG",2025-09-07 01:00:00,2025-09-06 21:00:00,"VFR",24,8,36,360,3,32200,29.91,NA,"SCT  ft","CYEG 070100Z 36003KT 20SM SCT250 24/08 A2991 RMK CI4 SLP136 DENSITY ALT 4000FT",2025-09-07 02:04:15.741266,2025-09-06 22:04:15.741266
"CYMM",2025-09-07 01:00:00,2025-09-06 21:00:00,"VFR",23,8,38,210,3,14500,29.84,NA,"CLR  ft","CYMM 070100Z AUTO 21003KT 9SM CLR 23/08 A2984 RMK ICE MISG SLP117 DENSITY ALT 2600FT",2025-09-07 02:04:15.829865,2025-09-06 22:04:15.829865
"CYQF",2025-09-07 01:00:00,2025-09-06 21:00:00,"VFR",25,6,30,0,0,11300,29.93,NA,"CLR  ft","CYQF 070100Z AUTO 00000KT 7SM CLR 25/06 A2993 RMK SLP147 DENSITY ALT 4800FT",2025-09-07 02:04:15.875516,2025-09-06 22:04:15.875516
"CYXE",2025-09-07 01:00:00,2025-09-06 21:00:00,"VFR",18,4,40,120,5,24100,30.05,NA,"FEW  ft","CYXE 070100Z 12005KT 15SM FEW300 18/04 A3005 RMK CI1 SLP191 DENSITY ALT 2200FT",2025-09-07 02:04:15.960557,2025-09-06 22:04:15.960557
"CYQR",2025-09-07 01:00:00,2025-09-06 21:00:00,"VFR",15,1,39,130,8,24100,30.1,NA,"FEW  ft","CYQR 070100Z 13008KT 15SM FEW250 15/01 A3010 RMK CI1 CI TR SLP212 DENSITY ALT 2200FT",2025-09-07 02:04:16.046568,2025-09-06 22:04:16.046568
"CYWG",2025-09-07 01:00:00,2025-09-06 21:00:00,"VFR",9,5,76,320,6,24100,30.13,NA,"FEW  ft; FEW  ft; BKN  ft","CYWG 070100Z 32006KT 15SM FEW015 FEW030 BKN075 09/05 A3013 RMK CU1SC1AC6 CU TR SC TR SLP213",2025-09-07 02:04:16.132834,2025-09-06 22:04:16.132834
"CYBR",2025-09-07 01:00:00,2025-09-06 21:00:00,"VFR",12,5,63,70,2,24100,30.15,NA,"BKN  ft","CYBR 070100Z 07002KT 15SM BKN050 12/05 A3015 RMK SC7 SLP226",2025-09-07 02:04:16.220742,2025-09-06 22:04:16.220742
"CYUL",2025-09-07 01:00:00,2025-09-06 21:00:00,"VFR",16,13,83,180,7,24100,29.97,NA,"BKN  ft","CYUL 070100Z 18007KT 15SM BKN250 16/13 A2997 RMK CI5 SLP150",2025-09-07 02:04:16.269148,2025-09-06 22:04:16.269148
"CYHU",2025-09-07 01:00:00,2025-09-06 21:00:00,"VFR",13,13,100,170,5,14500,29.96,NA,"CLR  ft","CYHU 070100Z AUTO 17005KT 9SM CLR 13/13 A2996 RMK SLP150",2025-09-07 02:04:16.354678,2025-09-06 22:04:16.354678
"CYQB",2025-09-07 01:00:00,2025-09-06 21:00:00,"MVFR",11,11,100,0,0,24100,29.95,NA,"SCT  ft; OVC  ft","CYQB 070100Z 00000KT 15SM SCT011 OVC029 11/11 A2995 RMK SF3SC5 SLP147",2025-09-07 02:04:16.440673,2025-09-06 22:04:16.440673
"CYVO",2025-09-07 01:00:00,2025-09-06 21:00:00,"VFR",10,9,94,0,0,24100,29.87,NA,"FEW  ft; BKN  ft","CYVO 070100Z 00000KT 15SM FEW055 BKN090 10/09 A2987 RMK SC2AC4 SLP128",2025-09-07 02:04:16.526608,2025-09-06 22:04:16.526608
"CYUY",2025-09-07 01:00:00,2025-09-06 21:00:00,"VFR",10,7,82,190,3,24100,29.87,NA,"BKN  ft","CYUY 070100Z 19003KT 15SM BKN093 10/07 A2987 RMK AC7 SLP124",2025-09-07 02:04:16.613701,2025-09-06 22:04:16.613701
"CYZV",2025-09-07 01:00:00,2025-09-06 21:00:00,"VFR",13,11,88,220,14,24100,29.84,NA,"FEW  ft; BKN  ft","CYZV 070100Z 22014G20KT 15SM FEW110 BKN170 13/11 A2984 RMK AC2AC5 SLP107",2025-09-07 02:04:16.70071,2025-09-06 22:04:16.70071
"CYBC",2025-09-07 01:00:00,2025-09-06 21:00:00,"IFR",12,11,94,230,16,14500,29.87,NA,"OVC  ft","CYBC 070100Z AUTO 23016G22KT 9SM OVC007 12/11 A2987 RMK SLP118",2025-09-07 02:04:16.787762,2025-09-06 22:04:16.787762
"CYRJ",2025-09-07 01:00:00,2025-09-06 21:00:00,"VFR",12,9,82,230,7,40200,29.88,NA,"FEW  ft","CYRJ 070100Z 23007KT 25SM FEW090 12/09 A2988 RMK AC1 SLP123",2025-09-07 02:04:16.836797,2025-09-06 22:04:16.836797
"CYHZ",2025-09-07 01:30:00,2025-09-06 21:30:00,"VFR",20,19,94,200,11,24100,30.05,NA,"FEW  ft; SCT  ft; BKN  ft; OVC  ft","CYHZ 070130Z 20011G17KT 15SM FEW009 SCT038 BKN320 OVC360 20/19 A3005 RMK SC1SC3CI2CI2 SLP177 DENSITY ALT 1100FT",2025-09-07 02:04:16.883581,2025-09-06 22:04:16.883581
"CYYG",2025-09-07 01:00:00,2025-09-06 21:00:00,"VFR",23,18,74,200,12,24100,29.97,NA,"FEW  ft","CYYG 070100Z 20012KT 15SM FEW040 23/18 A2997 RMK SC2 SLP150 DENSITY ALT 1100FT",2025-09-07 02:04:16.970295,2025-09-06 22:04:16.970295
"CYQM",2025-09-07 01:00:00,2025-09-06 21:00:00,"VFR",23,18,74,210,10,24100,29.93,NA,"FEW  ft; BKN  ft","CYQM 070100Z 21010G16KT 15SM FEW035 BKN250 23/18 A2993 RMK SC1CI6 SC TR SLP136 DENSITY ALT 1200FT",2025-09-07 02:04:17.057977,2025-09-06 22:04:17.057977
"CYFC",2025-09-07 01:47:00,2025-09-06 21:47:00,"MVFR",15,15,100,320,3,14500,29.94,NA,"SCT  ft; OVC  ft","CYFC 070147Z AUTO 32003KT 230V350 9SM -RA SCT009 OVC017 15/15 A2994 RMK PCPN 1.8MM PAST HR SLP141",2025-09-07 02:04:17.143517,2025-09-06 22:04:17.143517
"CYYT",2025-09-07 01:00:00,2025-09-06 21:00:00,"VFR",17,16,94,220,15,24100,30.12,NA,"FEW  ft; BKN  ft","CYYT 070100Z 22015G21KT 15SM FEW220 BKN240 17/16 A3012 RMK CI1CI5 SLP204",2025-09-07 02:04:17.229446,2025-09-06 22:04:17.229446
"CYQY",2025-09-07 01:00:00,2025-09-06 21:00:00,"VFR",20,19,94,210,13,24100,30.06,NA,"SCT  ft","CYQY 070100Z 21013G21KT 15SM SCT230 20/19 A3006 RMK CI3 SLP181 DENSITY ALT 700FT",2025-09-07 02:04:17.317351,2025-09-06 22:04:17.317351
"CYXY",2025-09-07 01:00:00,2025-09-06 21:00:00,"VFR",19,9,52,350,4,64400,29.88,NA,"FEW  ft; SCT  ft; BKN  ft","CYXY 070100Z 35004KT 40SM FEW060 SCT140 BKN260 19/09 A2988 RMK CU2AC1CI3 TCU ASOCTD SLP132 DENSITY ALT 3400FT",2025-09-07 02:04:17.363966,2025-09-06 22:04:17.363966
"CYZF",2025-09-07 01:00:00,2025-09-06 21:00:00,"VFR",16,8,59,0,2,24100,29.8,NA,"SCT  ft; BKN  ft; BKN  ft","CYZF 070100Z VRB02KT 15SM SCT100 BKN170 BKN240 16/08 A2980 RMK AC3AC3CI1 SLP101 DENSITY ALT 1100FT",2025-09-07 02:04:17.449919,2025-09-06 22:04:17.449919
"CYFB",2025-09-07 01:00:00,2025-09-06 21:00:00,"MVFR",2,1,93,150,8,9700,29.6,NA,"OVC  ft","CYFB 070100Z 15008KT 6SM -RASN BR OVC013 02/01 A2960 RMK SC8 SLP029",2025-09-07 02:04:17.53473,2025-09-06 22:04:17.53473
"CYRT",2025-09-07 01:00:00,2025-09-06 21:00:00,"VFR",5,2,81,20,10,24100,29.91,NA,"FEW  ft; FEW  ft","CYRT 070100Z 02010KT 15SM FEW051 FEW077 05/02 A2991 RMK SC1AC1 SLP134",2025-09-07 02:04:17.581689,2025-09-06 22:04:17.581689
"CYBK",2025-09-07 01:00:00,2025-09-06 21:00:00,"VFR",5,1,76,330,6,40200,29.99,NA,"BKN  ft; BKN  ft","CYBK 070100Z 33006KT 25SM BKN038 BKN210 05/01 A2999 RMK SC6CI1 CI TR SLP158",2025-09-07 02:04:17.665912,2025-09-06 22:04:17.665912
"CYRB",2025-09-07 01:48:00,2025-09-06 21:48:00,"MVFR",0,-2,87,150,14,48300,29.95,NA,"OVC  ft","CYRB 070148Z 15014KT 30SM OVC012 M00/M02 A2995 RMK ST8 SLP153",2025-09-07 02:04:17.728037,2025-09-06 22:04:17.728037
"CYCO",2025-09-07 01:00:00,2025-09-06 21:00:00,"VFR",7,3,76,330,17,24100,29.91,NA,"SCT  ft; SCT  ft; BKN  ft","CYCO 070100Z 33017G22KT 15SM SCT028 SCT120 BKN240 07/03 A2991 RMK SC3AC1CI4 AC TR SLP132",2025-09-07 02:04:17.81571,2025-09-06 22:04:17.81571
"CYER",2025-09-07 02:49:00,2025-09-06 22:49:00,"MVFR",6,5,93,300,8,14500,29.86,NA,"FEW  ft; SCT  ft; BKN  ft; OVC  ft","CYER 070249Z AUTO 30008G15KT 9SM FEW017 SCT021 BKN027 OVC036 06/05 A2986 RMK SLP113",2025-09-07 03:07:53.524211,2025-09-06 23:07:53.524211
"CYAT",2025-09-07 02:00:00,2025-09-06 22:00:00,"VFR",8,7,93,250,4,14500,29.76,NA,"OVC  ft","CYAT 070200Z AUTO 25004KT 9SM OVC081 08/07 A2976 RMK SLP081",2025-09-07 03:07:53.577376,2025-09-06 23:07:53.577376
"CYMO",2025-09-07 02:00:00,2025-09-06 22:00:00,"VFR",7,5,87,230,6,14500,29.81,NA,"CLR  ft","CYMO 070200Z AUTO 23006KT 9SM CLR 07/05 A2981 RMK SLP096",2025-09-07 03:07:53.662796,2025-09-06 23:07:53.662796
"CYPL",2025-09-07 02:39:00,2025-09-06 22:39:00,"MVFR",6,6,100,320,8,14500,29.99,NA,"FEW  ft; BKN  ft; OVC  ft","CYPL 070239Z AUTO 32008G16KT 280V350 9SM FEW008 BKN012 OVC020 06/06 A2999 RMK SLP173",2025-09-07 03:07:53.748021,2025-09-06 23:07:53.748021
"CYQT",2025-09-07 02:00:00,2025-09-06 22:00:00,"VFR",8,6,87,250,3,24100,29.98,NA,"OVC  ft","CYQT 070200Z 25003KT 15SM OVC100 08/06 A2998 RMK AC8 SLP161",2025-09-07 03:07:53.805221,2025-09-06 23:07:53.805221
"CYAM",2025-09-07 02:00:00,2025-09-06 22:00:00,"VFR",10,5,71,290,8,32200,29.96,NA,"FEW  ft; FEW  ft; BKN  ft","CYAM 070200Z 29008KT 20SM FEW032 FEW150 BKN190 10/05 A2996 RMK SC1AC1AC5 SC TR SLP151",2025-09-07 03:07:53.896423,2025-09-06 23:07:53.896423
"CYTS",2025-09-07 02:00:00,2025-09-06 22:00:00,"VFR",9,7,87,220,3,24100,29.86,NA,"BKN  ft","CYTS 070200Z 22003KT 15SM BKN049 09/07 A2986 RMK SC7 SLP122",2025-09-07 03:07:53.984263,2025-09-06 23:07:53.984263
"CYSB",2025-09-07 02:00:00,2025-09-06 22:00:00,"VFR",9,8,94,230,3,24100,29.9,NA,"FEW  ft; OVC  ft","CYSB 070200Z 23003KT 15SM FEW010 OVC042 09/08 A2990 RMK SC2SC6 SLP135",2025-09-07 03:07:54.075543,2025-09-06 23:07:54.075543
"CYYB",2025-09-07 02:55:00,2025-09-06 22:55:00,"MVFR",11,10,94,250,5,14500,29.91,NA,"BKN  ft; OVC  ft","CYYB 070255Z AUTO 25005KT 9SM -RA BKN020 OVC027 11/10 A2991 RMK SLP137",2025-09-07 03:07:54.165591,2025-09-06 23:07:54.165591
"CYOW",2025-09-07 02:00:00,2025-09-06 22:00:00,"VFR",15,9,68,250,5,24100,29.96,NA,"BKN  ft","CYOW 070200Z 25005KT 15SM BKN085 15/09 A2996 RMK AC6 SLP150",2025-09-07 03:07:54.255106,2025-09-06 23:07:54.255106
"CYGK",2025-09-07 02:00:00,2025-09-06 22:00:00,"VFR",17,10,64,220,6,24100,29.99,NA,"BKN  ft; BKN  ft","CYGK 070200Z 22006KT 15SM BKN090 BKN250 17/10 A2999 RMK AC5CI1 SLP156",2025-09-07 03:07:54.347929,2025-09-06 23:07:54.347929
"CYQG",2025-09-07 02:00:00,2025-09-06 22:00:00,"VFR",15,7,59,300,10,14500,30.05,NA,"FEW  ft","CYQG 070200Z AUTO 30010G15KT 9SM FEW086 15/07 A3005 RMK SLP178",2025-09-07 03:07:54.433383,2025-09-06 23:07:54.433383
"CYVV",2025-09-07 02:00:00,2025-09-06 22:00:00,"MVFR",11,11,100,280,3,9999,29.96,NA,"OVC  ft","CYVV 070200Z 28003KT 250V340 10SM -SHRA OVC029 11/11 A2996 RMK CU8 SLP152",2025-09-07 03:07:54.522165,2025-09-06 23:07:54.522165
"CYYZ",2025-09-07 02:00:00,2025-09-06 22:00:00,"VFR",16,7,55,270,7,24100,29.98,NA,"BKN  ft","CYYZ 070200Z 27007KT 15SM BKN090 16/07 A2998 RMK AC7 SLP154",2025-09-07 03:07:54.610569,2025-09-06 23:07:54.610569
"CYQA",2025-09-07 03:03:00,2025-09-06 23:03:00,"VFR",11,10,94,190,5,14500,29.95,NA,"FEW  ft; BKN  ft; BKN  ft; OVC  ft","CYQA 070303Z AUTO 19005KT 9SM FEW046 BKN055 BKN068 OVC089 11/10 A2995 RMK SLP148",2025-09-07 03:07:54.697926,2025-09-06 23:07:54.697926
"CYVR",2025-09-07 02:00:00,2025-09-06 22:00:00,"VFR",19,18,94,110,5,9999,29.89,NA,"FEW  ft; BKN  ft; OVC  ft","CYVR 070200Z 11005KT 10SM FEW060 BKN098 OVC160 19/18 A2989 RMK SC1AC6AS1 HZ SLP124 DENSITY ALT 600FT",2025-09-07 03:07:54.78922,2025-09-06 23:07:54.78922
"CYYJ",2025-09-07 02:36:00,2025-09-06 22:36:00,"VFR",13,13,100,110,5,32200,29.9,NA,"SCT  ft; BKN  ft; BKN  ft","CYYJ 070236Z 11005KT 20SM -RA SCT100 BKN140 BKN250 13/13 A2990 RMK AC3AC3CI1 SLP127",2025-09-07 03:07:54.879039,2025-09-06 23:07:54.879039
"CYLW",2025-09-07 02:00:00,2025-09-06 22:00:00,"VFR",22,14,61,80,3,11300,29.84,NA,"CLR  ft","CYLW 070200Z AUTO 08003KT 7SM CLR 22/14 A2984 RMK SLP106 DENSITY ALT 2700FT",2025-09-07 03:07:54.930871,2025-09-06 23:07:54.930871
"CYXS",2025-09-07 02:46:00,2025-09-06 22:46:00,"MVFR",15,13,88,250,4,8000,29.91,NA,"FEW  ft","CYXS 070246Z AUTO 25004KT 5SM BR FEW170 15/13 A2991 RMK SLP142 DENSITY ALT 2800FT",2025-09-07 03:07:55.02022,2025-09-06 23:07:55.02022
"CYXT",2025-09-07 02:00:00,2025-09-06 22:00:00,"VFR",24,16,61,160,9,32200,29.86,NA,"FEW  ft","CYXT 070200Z 16009KT 20SM FEW210 24/16 A2986 RMK CI1 CI TR FU SLP116 DENSITY ALT 2000FT",2025-09-07 03:07:55.105103,2025-09-06 23:07:55.105103
"CYQQ",2025-09-07 02:00:00,2025-09-06 22:00:00,"VFR",20,16,78,160,6,19300,29.89,NA,"FEW  ft; FEW  ft; SCT  ft; BKN  ft","CYQQ 070200Z 16006KT 12SM FEW040 FEW060 SCT170 BKN240 20/16 A2989 RMK FU2SC1AC2CI3 DENSITY ALT 1007FT CIG PDMTLY TRANSPARENT SLP123",2025-09-07 03:07:55.192612,2025-09-06 23:07:55.192612
"CYYC",2025-09-07 02:00:00,2025-09-06 22:00:00,"VFR",22,5,33,150,7,9999,29.96,NA,"FEW  ft; FEW  ft","CYYC 070200Z 15007KT 10SM FEW120 FEW250 22/05 A2996 RMK AC1CI2 AC TR VIRGA W / FU SLP151 DENSITY ALT 5200FT",2025-09-07 03:07:55.276661,2025-09-06 23:07:55.276661
"CYEG",2025-09-07 02:00:00,2025-09-06 22:00:00,"VFR",20,8,46,40,4,32200,29.9,NA,"SCT  ft","CYEG 070200Z 04004KT 20SM SCT250 20/08 A2990 RMK CI4 SLP137 DENSITY ALT 3600FT",2025-09-07 03:07:55.364061,2025-09-06 23:07:55.364061
"CYMM",2025-09-07 02:00:00,2025-09-06 22:00:00,"VFR",20,8,46,200,6,14500,29.84,NA,"CLR  ft","CYMM 070200Z AUTO 20006KT 9SM CLR 20/08 A2984 RMK SLP115 DENSITY ALT 2300FT",2025-09-07 03:07:55.411636,2025-09-06 23:07:55.411636
"CYQF",2025-09-07 02:00:00,2025-09-06 22:00:00,"VFR",20,9,49,0,0,14500,29.93,NA,"CLR  ft","CYQF 070200Z AUTO 00000KT 9SM CLR 20/09 A2993 RMK SLP149 DENSITY ALT 4200FT",2025-09-07 03:07:55.502045,2025-09-06 23:07:55.502045
"CYXE",2025-09-07 02:00:00,2025-09-06 22:00:00,"VFR",14,4,51,100,9,24100,30.05,NA,"FEW  ft","CYXE 070200Z 10009KT 15SM FEW300 14/04 A3005 RMK CI1 SLP193",2025-09-07 03:07:55.589113,2025-09-06 23:07:55.589113
"CYQR",2025-09-07 02:00:00,2025-09-06 22:00:00,"VFR",12,2,51,120,8,24100,30.1,NA,"FEW  ft","CYQR 070200Z 12008KT 15SM FEW250 12/02 A3010 RMK CI1 CI TR SLP213",2025-09-07 03:07:55.682035,2025-09-06 23:07:55.682035
"CYWG",2025-09-07 02:00:00,2025-09-06 22:00:00,"VFR",9,6,82,310,5,24100,30.15,NA,"BKN  ft","CYWG 070200Z 31005KT 15SM BKN073 09/06 A3015 RMK AC7 SLP217",2025-09-07 03:07:55.734548,2025-09-06 23:07:55.734548
"CYBR",2025-09-07 02:00:00,2025-09-06 22:00:00,"VFR",8,5,82,80,5,24100,30.16,NA,"BKN  ft","CYBR 070200Z 08005KT 15SM BKN050 08/05 A3016 RMK SC7 SLP231",2025-09-07 03:07:55.819983,2025-09-06 23:07:55.819983
"CYUL",2025-09-07 02:00:00,2025-09-06 22:00:00,"VFR",16,12,77,200,8,24100,29.97,NA,"SCT  ft; BKN  ft","CYUL 070200Z 20008KT 15SM SCT043 BKN075 16/12 A2997 RMK CF3AC3 SLP151",2025-09-07 03:07:55.911494,2025-09-06 23:07:55.911494
"CYHU",2025-09-07 02:00:00,2025-09-06 22:00:00,"VFR",13,13,100,180,6,14500,29.97,NA,"CLR  ft","CYHU 070200Z AUTO 18006KT 9SM CLR 13/13 A2997 RMK SLP152",2025-09-07 03:07:55.998179,2025-09-06 23:07:55.998179
"CYQB",2025-09-07 02:00:00,2025-09-06 22:00:00,"MVFR",12,11,94,0,0,24100,29.97,NA,"FEW  ft; OVC  ft","CYQB 070200Z 00000KT 15SM FEW011 OVC030 12/11 A2997 RMK SF3SC5 SLP151",2025-09-07 03:07:56.086307,2025-09-06 23:07:56.086307
"CYVO",2025-09-07 02:00:00,2025-09-06 22:00:00,"VFR",10,9,94,0,2,24100,29.88,NA,"BKN  ft","CYVO 070200Z VRB02KT 15SM BKN090 10/09 A2988 RMK AC6 LAST STFD OBS/NXT 071000Z SLP130",2025-09-07 03:07:56.173171,2025-09-06 23:07:56.173171
"CYUY",2025-09-07 02:00:00,2025-09-06 22:00:00,"VFR",10,7,82,140,2,24100,29.86,NA,"BKN  ft","CYUY 070200Z 14002KT 15SM BKN048 10/07 A2986 RMK SC7 SLP123",2025-09-07 03:07:56.257758,2025-09-06 23:07:56.257758
"CYZV",2025-09-07 02:00:00,2025-09-06 22:00:00,"VFR",13,11,88,240,10,24100,29.85,NA,"BKN  ft","CYZV 070200Z 24010G19KT 15SM BKN190 13/11 A2985 RMK AC7 SLP110",2025-09-07 03:07:56.345022,2025-09-06 23:07:56.345022
"CYBC",2025-09-07 02:28:00,2025-09-06 22:28:00,"VFR",12,10,88,250,16,14500,29.87,NA,"SCT  ft","CYBC 070228Z AUTO 25016G21KT 9SM SCT007 12/10 A2987 RMK SLP119",2025-09-07 03:07:56.434838,2025-09-06 23:07:56.434838
"CYRJ",2025-09-07 02:29:00,2025-09-06 22:29:00,"VFR",11,10,94,240,7,40200,29.9,NA,"BKN  ft","CYRJ 070229Z 24007KT 25SM BKN052 11/10 A2990 RMK SC7 SLP133",2025-09-07 03:07:56.521906,2025-09-06 23:07:56.521906
"CYHZ",2025-09-07 02:00:00,2025-09-06 22:00:00,"VFR",20,19,94,190,10,24100,30.05,NA,"FEW  ft; BKN  ft; BKN  ft; OVC  ft","CYHZ 070200Z 19010KT 15SM FEW009 BKN039 BKN320 OVC350 20/19 A3005 RMK SF2SC4CI1CI1 SLP176 DENSITY ALT 1100FT",2025-09-07 03:07:56.566324,2025-09-06 23:07:56.566324
"CYYG",2025-09-07 02:00:00,2025-09-06 22:00:00,"VFR",21,19,88,190,10,24100,29.97,NA,"BKN  ft","CYYG 070200Z 19010KT 15SM BKN260 21/19 A2997 RMK CI5 SLP149 DENSITY ALT 900FT",2025-09-07 03:07:56.652168,2025-09-06 23:07:56.652168
"CYQM",2025-09-07 02:00:00,2025-09-06 22:00:00,"VFR",23,18,74,200,12,24100,29.94,NA,"FEW  ft; SCT  ft; BKN  ft","CYQM 070200Z 20012G18KT 15SM FEW030 SCT042 BKN250 23/18 A2994 RMK SC2SC2CI3 SLP139 DENSITY ALT 1200FT",2025-09-07 03:07:56.738862,2025-09-06 23:07:56.738862
"CYFC",2025-09-07 02:55:00,2025-09-06 22:55:00,"MVFR",15,14,94,0,2,14500,29.94,NA,"OVC  ft","CYFC 070255Z AUTO VRB02KT 9SM OVC023 15/14 A2994 RMK SLP141",2025-09-07 03:07:56.825074,2025-09-06 23:07:56.825074
"CYYT",2025-09-07 02:44:00,2025-09-06 22:44:00,"VFR",17,17,100,240,14,24100,30.14,NA,"FEW  ft; BKN  ft","CYYT 070244Z 24014KT 15SM FEW003 BKN240 17/17 A3014 RMK SF2CI3 SLP208",2025-09-07 03:07:56.911123,2025-09-06 23:07:56.911123
"CYQY",2025-09-07 02:00:00,2025-09-06 22:00:00,"VFR",20,19,94,220,12,24100,30.05,NA,"FEW  ft","CYQY 070200Z 22012G18KT 15SM FEW230 20/19 A3005 RMK CI2 SLP178 DENSITY ALT 700FT",2025-09-07 03:07:57.001541,2025-09-06 23:07:57.001541
"CYXY",2025-09-07 02:00:00,2025-09-06 22:00:00,"VFR",19,9,52,320,4,64400,29.87,NA,"FEW  ft; FEW  ft; BKN  ft","CYXY 070200Z 32004KT 220V340 40SM FEW060 FEW080 BKN260 19/09 A2987 RMK CU1AC1CI4 TCU ASOCTD SLP130 DENSITY ALT 3400FT",2025-09-07 03:07:57.086172,2025-09-06 23:07:57.086172
"CYZF",2025-09-07 02:00:00,2025-09-06 22:00:00,"VFR",15,8,63,310,5,24100,29.81,NA,"SCT  ft; BKN  ft; BKN  ft","CYZF 070200Z 31005KT 15SM SCT100 BKN170 BKN240 15/08 A2981 RMK AC4AC2CI1 SLP105 DENSITY ALT 900FT",2025-09-07 03:07:57.170137,2025-09-06 23:07:57.170137
"CYFB",2025-09-07 02:00:00,2025-09-06 22:00:00,"MVFR",2,1,93,130,5,9999,29.59,NA,"BKN  ft; OVC  ft","CYFB 070200Z 13005KT 090V160 10SM -RA BKN015 OVC029 02/01 A2959 RMK SC5SC3 SLP026",2025-09-07 03:07:57.256531,2025-09-06 23:07:57.256531
"CYRT",2025-09-07 02:00:00,2025-09-06 22:00:00,"VFR",4,1,81,10,9,24100,29.92,NA,"FEW  ft","CYRT 070200Z 01009KT 15SM FEW055 04/01 A2992 RMK SC1 SLP136",2025-09-07 03:07:57.342366,2025-09-06 23:07:57.342366
"CYBK",2025-09-07 02:00:00,2025-09-06 22:00:00,"VFR",5,1,76,330,5,32200,29.98,NA,"BKN  ft","CYBK 070200Z 33005KT 20SM BKN041 05/01 A2998 RMK SC5 SLP156",2025-09-07 03:07:57.429879,2025-09-06 23:07:57.429879
"CYRB",2025-09-07 02:00:00,2025-09-06 22:00:00,"MVFR",0,-2,87,140,14,48300,29.95,NA,"OVC  ft","CYRB 070200Z 14014KT 30SM OVC012 M00/M02 A2995 RMK ST8 SLP152",2025-09-07 03:07:57.494079,2025-09-06 23:07:57.494079
"CYCO",2025-09-07 02:00:00,2025-09-06 22:00:00,"VFR",5,1,76,330,21,24100,29.93,NA,"FEW  ft; FEW  ft; FEW  ft; SCT  ft","CYCO 070200Z 33021G28KT 15SM FEW018 FEW031 FEW150 SCT280 05/01 A2993 RMK CF1SC1AC1CI2 CF TR SLP140",2025-09-07 03:07:57.585299,2025-09-06 23:07:57.585299
"CYER",2025-09-07 03:34:00,2025-09-06 23:34:00,"MVFR",6,6,100,300,7,8000,29.86,NA,"FEW  ft; BKN  ft; BKN  ft; OVC  ft","CYER 070334Z AUTO 30007KT 5SM BR FEW016 BKN021 BKN026 OVC035 06/06 A2986 RMK SLP114",2025-09-07 03:38:07.119688,2025-09-06 23:38:07.119688
"CYAT",2025-09-07 03:00:00,2025-09-06 23:00:00,"VFR",8,7,93,260,5,14500,29.77,NA,"FEW  ft; OVC  ft","CYAT 070300Z AUTO 26005KT 9SM FEW038 OVC046 08/07 A2977 RMK SLP084",2025-09-07 03:38:07.175294,2025-09-06 23:38:07.175294
"CYMO",2025-09-07 03:00:00,2025-09-06 23:00:00,"VFR",6,5,93,250,6,14500,29.81,NA,"BKN  ft","CYMO 070300Z AUTO 25006KT 9SM BKN091 06/05 A2981 RMK SLP098",2025-09-07 03:38:07.261306,2025-09-06 23:38:07.261306
"CYPL",2025-09-07 03:00:00,2025-09-06 23:00:00,"MVFR",7,6,93,330,8,14500,29.99,NA,"OVC  ft","CYPL 070300Z AUTO 33008G19KT 280V360 9SM OVC014 07/06 A2999 RMK SLP174",2025-09-07 03:38:07.346303,2025-09-06 23:38:07.346303
"CYQT",2025-09-07 03:24:00,2025-09-06 23:24:00,"VFR",9,5,76,330,7,24100,30.01,NA,"SCT  ft; OVC  ft","CYQT 070324Z 33007G18KT 310V030 15SM -SHRA SCT026 OVC042 09/05 A3001 RMK SC3SC5 CVCTV CLD EMBD SLP168",2025-09-07 03:38:07.434889,2025-09-06 23:38:07.434889
"CYAM",2025-09-07 03:00:00,2025-09-06 23:00:00,"VFR",10,4,67,270,7,32200,29.96,NA,"SCT  ft; BKN  ft","CYAM 070300Z 27007KT 20SM SCT140 BKN220 10/04 A2996 RMK AC3CI4 SLP153",2025-09-07 03:38:07.48069,2025-09-06 23:38:07.48069
"CYTS",2025-09-07 03:27:00,2025-09-06 23:27:00,"VFR",8,7,93,280,3,24100,29.87,NA,"OVC  ft","CYTS 070327Z 28003KT 15SM -SHRA OVC041 08/07 A2987 RMK SC8 CVCTV CLD EMBD SLP126",2025-09-07 03:38:07.566787,2025-09-06 23:38:07.566787
"CYSB",2025-09-07 03:00:00,2025-09-06 23:00:00,"VFR",8,8,100,0,2,24100,29.9,NA,"BKN  ft; OVC  ft","CYSB 070300Z VRB02KT 15SM BKN037 OVC130 08/08 A2990 RMK SC6AC2 SLP136",2025-09-07 03:38:07.651119,2025-09-06 23:38:07.651119
"CYYB",2025-09-07 03:00:00,2025-09-06 23:00:00,"MVFR",11,10,94,250,4,14500,29.91,NA,"BKN  ft; OVC  ft","CYYB 070300Z AUTO 25004KT 9SM -RA BKN020 OVC029 11/10 A2991 RMK SLP138",2025-09-07 03:38:07.697899,2025-09-06 23:38:07.697899
"CYOW",2025-09-07 03:00:00,2025-09-06 23:00:00,"VFR",15,9,68,230,4,24100,29.97,NA,"FEW  ft; BKN  ft; BKN  ft","CYOW 070300Z 23004KT 220V290 15SM FEW063 BKN070 BKN085 15/09 A2997 RMK SC2AC3AC1 SLP153",2025-09-07 03:38:07.785966,2025-09-06 23:38:07.785966
"CYGK",2025-09-07 03:00:00,2025-09-06 23:00:00,"VFR",17,10,64,250,4,24100,29.98,NA,"BKN  ft; BKN  ft","CYGK 070300Z 25004KT 15SM BKN080 BKN250 17/10 A2998 RMK AC5CI1 LAST STFD OBS/ NXT 071000Z SLP155",2025-09-07 03:38:07.876637,2025-09-06 23:38:07.876637
"CYQG",2025-09-07 03:00:00,2025-09-06 23:00:00,"VFR",14,7,63,320,6,14500,30.06,NA,"OVC  ft","CYQG 070300Z AUTO 32006KT 9SM OVC081 14/07 A3006 RMK SLP181",2025-09-07 03:38:07.963343,2025-09-06 23:38:07.963343
"CYVV",2025-09-07 03:00:00,2025-09-06 23:00:00,"MVFR",11,11,100,320,5,9700,29.97,NA,"FEW  ft; OVC  ft","CYVV 070300Z 32005KT 250V050 6SM -SHRA BR FEW011 OVC018 11/11 A2997 RMK SF2CU6 SLP155",2025-09-07 03:38:08.051132,2025-09-06 23:38:08.051132
"CYYZ",2025-09-07 03:18:00,2025-09-06 23:18:00,"VFR",14,8,67,280,8,24100,30,NA,"BKN  ft; BKN  ft","CYYZ 070318Z 28008KT 15SM -RA BKN058 BKN070 14/08 A3000 RMK SC5AC2 SLP161",2025-09-07 03:38:08.139111,2025-09-06 23:38:08.139111
"CYQA",2025-09-07 03:03:00,2025-09-06 23:03:00,"VFR",11,10,94,190,5,14500,29.95,NA,"FEW  ft; BKN  ft; BKN  ft; OVC  ft","CYQA 070303Z AUTO 19005KT 9SM FEW046 BKN055 BKN068 OVC089 11/10 A2995 RMK SLP148",2025-09-07 03:38:08.184881,2025-09-06 23:38:08.184881
"CYVR",2025-09-07 03:00:00,2025-09-06 23:00:00,"VFR",19,18,94,100,5,19300,29.9,NA,"BKN  ft; OVC  ft; OVC  ft","CYVR 070300Z 10005KT 12SM BKN100 OVC130 OVC160 19/18 A2990 RMK AC5AC3AS1 AS TR HZ SLP126 DENSITY ALT 500FT",2025-09-07 03:38:08.270808,2025-09-06 23:38:08.270808
"CYYJ",2025-09-07 03:00:00,2025-09-06 23:00:00,"VFR",14,13,94,70,7,32200,29.9,NA,"FEW  ft; BKN  ft; BKN  ft","CYYJ 070300Z 07007KT 20SM FEW100 BKN130 BKN190 14/13 A2990 RMK AC2AC3AC2 SLP126",2025-09-07 03:38:08.357872,2025-09-06 23:38:08.357872
"CYLW",2025-09-07 03:00:00,2025-09-06 23:00:00,"VFR",19,14,73,0,2,9700,29.85,NA,"CLR  ft","CYLW 070300Z AUTO VRB02KT 6SM HZ CLR 19/14 A2985 RMK SLP111 DENSITY ALT 2400FT",2025-09-07 03:38:08.445999,2025-09-06 23:38:08.445999
"CYXS",2025-09-07 03:00:00,2025-09-06 23:00:00,"MVFR",15,14,94,0,2,8000,29.9,NA,"CLR  ft","CYXS 070300Z AUTO VRB02KT 5SM BR CLR 15/14 A2990 RMK SLP138 DENSITY ALT 2900FT",2025-09-07 03:38:08.534128,2025-09-06 23:38:08.534128
"CYXT",2025-09-07 03:00:00,2025-09-06 23:00:00,"VFR",21,16,73,230,3,32200,29.87,NA,"SKC  ft","CYXT 070300Z 23003KT 160V250 20SM SKC 21/16 A2987 RMK SLP119 DENSITY ALT 1700FT",2025-09-07 03:38:08.619636,2025-09-06 23:38:08.619636
"CYQQ",2025-09-07 03:00:00,2025-09-06 23:00:00,"VFR",20,16,78,100,7,19300,29.9,NA,"FEW  ft; BKN  ft; BKN  ft","CYQQ 070300Z 10007KT 12SM FEW040 BKN190 BKN210 20/16 A2990 RMK FU1AC4CI2 DENSITY ALT 952FT SLP124",2025-09-07 03:38:08.705897,2025-09-06 23:38:08.705897
"CYYC",2025-09-07 03:00:00,2025-09-06 23:00:00,"VFR",19,4,37,170,5,9999,29.98,NA,"FEW  ft; SCT  ft","CYYC 070300Z 17005KT 10SM FEW120 SCT250 19/04 A2998 RMK AC1CI2 FU SLP156 DENSITY ALT 4900FT",2025-09-07 03:38:08.79177,2025-09-06 23:38:08.79177
"CYEG",2025-09-07 03:00:00,2025-09-06 23:00:00,"VFR",16,7,55,0,2,32200,29.91,NA,"SCT  ft","CYEG 070300Z VRB02KT 20SM SCT250 16/07 A2991 RMK CI3 SLP138 DENSITY ALT 3100FT",2025-09-07 03:38:08.877077,2025-09-06 23:38:08.877077
"CYMM",2025-09-07 03:00:00,2025-09-06 23:00:00,"VFR",18,7,49,200,6,14500,29.84,NA,"CLR  ft","CYMM 070300Z AUTO 20006KT 9SM CLR 18/07 A2984 RMK SLP116 DENSITY ALT 1900FT",2025-09-07 03:38:08.964422,2025-09-06 23:38:08.964422
"CYQF",2025-09-07 03:00:00,2025-09-06 23:00:00,"VFR",18,6,46,0,0,14500,29.94,NA,"CLR  ft","CYQF 070300Z AUTO 00000KT 9SM CLR 18/06 A2994 RMK SLP152 DENSITY ALT 4000FT",2025-09-07 03:38:09.051967,2025-09-06 23:38:09.051967
"CYXE",2025-09-07 03:00:00,2025-09-06 23:00:00,"VFR",14,3,48,120,10,24100,30.06,NA,"FEW  ft","CYXE 070300Z 12010G16KT 15SM FEW300 14/03 A3006 RMK CI1 SLP192",2025-09-07 03:38:09.137838,2025-09-06 23:38:09.137838
"CYQR",2025-09-07 03:00:00,2025-09-06 23:00:00,"VFR",12,2,51,110,9,24100,30.11,NA,"FEW  ft","CYQR 070300Z 11009KT 15SM FEW250 12/02 A3011 RMK CI1 CI TR SLP212",2025-09-07 03:38:09.221749,2025-09-06 23:38:09.221749
"CYWG",2025-09-07 03:00:00,2025-09-06 23:00:00,"VFR",8,6,87,310,4,24100,30.16,NA,"BKN  ft","CYWG 070300Z 31004KT 15SM BKN073 08/06 A3016 RMK AC7 SLP221",2025-09-07 03:38:09.307886,2025-09-06 23:38:09.307886
"CYBR",2025-09-07 03:00:00,2025-09-06 23:00:00,"VFR",7,5,87,80,6,24100,30.17,NA,"BKN  ft","CYBR 070300Z 08006KT 15SM BKN050 07/05 A3017 RMK SC5 LAST STFD OBS/NEXT 071200Z SLP234",2025-09-07 03:38:09.395006,2025-09-06 23:38:09.395006
"CYUL",2025-09-07 03:00:00,2025-09-06 23:00:00,"VFR",16,12,77,220,9,24100,29.97,NA,"SCT  ft","CYUL 070300Z 22009KT 15SM SCT090 16/12 A2997 RMK AC4 SLP151",2025-09-07 03:38:09.485322,2025-09-06 23:38:09.485322
"CYHU",2025-09-07 03:00:00,2025-09-06 23:00:00,"VFR",12,12,100,190,3,14500,29.97,NA,"CLR  ft","CYHU 070300Z AUTO 19003KT 9SM CLR 12/12 A2997 RMK SLP152",2025-09-07 03:38:09.570869,2025-09-06 23:38:09.570869
"CYQB",2025-09-07 03:00:00,2025-09-06 23:00:00,"MVFR",11,11,100,0,0,24100,29.98,NA,"FEW  ft; OVC  ft","CYQB 070300Z 00000KT 15SM FEW010 OVC024 11/11 A2998 RMK SF2SC6 SLP154",2025-09-07 03:38:09.656052,2025-09-06 23:38:09.656052
"CYVO",2025-09-07 03:00:00,2025-09-06 23:00:00,"VFR",9,8,94,200,2,14500,29.88,NA,"OVC  ft","CYVO 070300Z AUTO 20002KT 9SM OVC100 09/08 A2988 RMK SLP132",2025-09-07 03:38:09.743006,2025-09-06 23:38:09.743006
"CYUY",2025-09-07 03:19:00,2025-09-06 23:19:00,"VFR",9,8,94,0,2,24100,29.88,NA,"OVC  ft","CYUY 070319Z VRB02KT 15SM -SHRA OVC040 09/08 A2988 RMK SC8 CVCTV CLD EMBD SLP128",2025-09-07 03:38:09.830184,2025-09-06 23:38:09.830184
"CYZV",2025-09-07 03:00:00,2025-09-06 23:00:00,"VFR",13,10,82,270,6,24100,29.85,NA,"FEW  ft; SCT  ft; BKN  ft","CYZV 070300Z 27006KT 15SM FEW070 SCT190 BKN240 13/10 A2985 RMK AC1AC3CI2 SLP111",2025-09-07 03:38:09.917273,2025-09-06 23:38:09.917273
"CYBC",2025-09-07 03:00:00,2025-09-06 23:00:00,"VFR",11,10,94,240,14,14500,29.89,NA,"CLR  ft","CYBC 070300Z AUTO 24014G19KT 9SM CLR 11/10 A2989 RMK SLP123",2025-09-07 03:38:10.003099,2025-09-06 23:38:10.003099
"CYRJ",2025-09-07 03:33:00,2025-09-06 23:33:00,"VFR",11,10,94,250,5,40200,29.91,NA,"SCT  ft; BKN  ft","CYRJ 070333Z 25005KT 25SM SCT043 BKN065 11/10 A2991 RMK SC3SC4 SLP136",2025-09-07 03:38:10.053364,2025-09-06 23:38:10.053364
"CYHZ",2025-09-07 03:00:00,2025-09-06 23:00:00,"VFR",20,19,94,170,7,24100,30.04,NA,"FEW  ft; FEW  ft; SCT  ft; OVC  ft","CYHZ 070300Z 17007KT 15SM FEW008 FEW043 SCT110 OVC300 20/19 A3004 RMK SF1SC1AC3CI4 SF TR SLP175 DENSITY ALT 1100FT",2025-09-07 03:38:10.139756,2025-09-06 23:38:10.139756
"CYYG",2025-09-07 03:00:00,2025-09-06 23:00:00,"VFR",21,19,88,190,15,24100,29.95,NA,"BKN  ft","CYYG 070300Z 19015KT 15SM BKN260 21/19 A2995 RMK CI6 SLP144 DENSITY ALT 1000FT",2025-09-07 03:38:10.227398,2025-09-06 23:38:10.227398
"CYQM",2025-09-07 03:00:00,2025-09-06 23:00:00,"VFR",23,18,74,210,12,24100,29.92,NA,"SCT  ft; BKN  ft; BKN  ft; BKN  ft","CYQM 070300Z 21012G21KT 15SM SCT029 BKN043 BKN150 BKN190 23/18 A2992 RMK SC3SC3AC1AC1 AC TR SLP134 DENSITY ALT 1200FT",2025-09-07 03:38:10.313113,2025-09-06 23:38:10.313113
"CYFC",2025-09-07 03:34:00,2025-09-06 23:34:00,"VFR",15,14,94,310,3,9700,29.95,NA,"SCT  ft; BKN  ft; OVC  ft","CYFC 070334Z AUTO 31003KT 6SM -RA BR SCT027 BKN037 OVC048 15/14 A2995 RMK SLP143",2025-09-07 03:38:10.400135,2025-09-06 23:38:10.400135
"CYYT",2025-09-07 03:00:00,2025-09-06 23:00:00,"VFR",17,17,100,240,13,24100,30.13,NA,"SCT  ft; BKN  ft","CYYT 070300Z 24013KT 15SM SCT004 BKN240 17/17 A3013 RMK SF4CI1 SLP206",2025-09-07 03:38:10.486071,2025-09-06 23:38:10.486071
"CYQY",2025-09-07 03:00:00,2025-09-06 23:00:00,"VFR",21,20,94,230,11,24100,30.05,NA,"SCT  ft","CYQY 070300Z 23011G19KT 15SM SCT230 21/20 A3005 RMK CI3 SLP178 DENSITY ALT 800FT",2025-09-07 03:38:10.576248,2025-09-06 23:38:10.576248
"CYXY",2025-09-07 03:00:00,2025-09-06 23:00:00,"VFR",18,9,56,340,3,64400,29.87,NA,"FEW  ft; SCT  ft; BKN  ft","CYXY 070300Z 34003KT 40SM FEW065 SCT140 BKN260 18/09 A2987 RMK SC2AC2CI2 SLP130 DENSITY ALT 3300FT",2025-09-07 03:38:10.665025,2025-09-06 23:38:10.665025
"CYZF",2025-09-07 03:00:00,2025-09-06 23:00:00,"VFR",15,8,63,320,6,24100,29.82,NA,"SCT  ft; BKN  ft; BKN  ft","CYZF 070300Z 32006KT 15SM SCT100 BKN170 BKN240 15/08 A2982 RMK AC3AC2CI1 SLP107 DENSITY ALT 900FT",2025-09-07 03:38:10.751904,2025-09-06 23:38:10.751904
"CYFB",2025-09-07 03:00:00,2025-09-06 23:00:00,"VFR",3,0,81,70,4,24100,29.57,NA,"FEW  ft; OVC  ft","CYFB 070300Z 07004KT 15SM FEW025 OVC041 03/00 A2957 RMK SC2SC6 SLP019",2025-09-07 03:38:10.838972,2025-09-06 23:38:10.838972
"CYRT",2025-09-07 03:00:00,2025-09-06 23:00:00,"VFR",4,2,87,10,8,24100,29.92,NA,"SCT  ft","CYRT 070300Z 01008KT 15SM SCT033 04/02 A2992 RMK SC3 SLP136",2025-09-07 03:38:10.927978,2025-09-06 23:38:10.927978
"CYBK",2025-09-07 03:00:00,2025-09-06 23:00:00,"VFR",2,-1,81,340,6,24100,29.98,NA,"FEW  ft","CYBK 070300Z 34006KT 15SM FEW040 02/M01 A2998 RMK SC1 SLP155",2025-09-07 03:38:11.015537,2025-09-06 23:38:11.015537
"CYRB",2025-09-07 03:26:00,2025-09-06 23:26:00,"MVFR",0,-2,87,150,19,48300,29.93,NA,"OVC  ft","CYRB 070326Z 15019KT 30SM OVC015 M00/M02 A2993 RMK ST8 SLP142",2025-09-07 03:38:11.11569,2025-09-06 23:38:11.11569
"CYCO",2025-09-07 03:00:00,2025-09-06 23:00:00,"VFR",4,1,81,330,20,24100,29.97,NA,"FEW  ft; FEW  ft; FEW  ft","CYCO 070300Z 33020KT 15SM FEW016 FEW030 FEW180 04/01 A2997 RMK CU1SC1AC1 CU TR SLP152",2025-09-07 03:38:11.162764,2025-09-06 23:38:11.162764
"CYER",2025-09-07 03:40:00,2025-09-06 23:40:00,"IFR",6,6,100,310,6,3200,29.86,NA,"FEW  ft; BKN  ft; OVC  ft","CYER 070340Z AUTO 31006KT 2SM -RA BR FEW011 BKN019 OVC024 06/06 A2986 RMK SLP114",2025-09-07 03:50:40.200005,2025-09-06 23:50:40.200005
"CYAT",2025-09-07 03:00:00,2025-09-06 23:00:00,"VFR",8,7,93,260,5,14500,29.77,NA,"FEW  ft; OVC  ft","CYAT 070300Z AUTO 26005KT 9SM FEW038 OVC046 08/07 A2977 RMK SLP084",2025-09-07 03:50:40.280925,2025-09-06 23:50:40.280925
"CYMO",2025-09-07 03:00:00,2025-09-06 23:00:00,"VFR",6,5,93,250,6,14500,29.81,NA,"BKN  ft","CYMO 070300Z AUTO 25006KT 9SM BKN091 06/05 A2981 RMK SLP098",2025-09-07 03:50:40.356148,2025-09-06 23:50:40.356148
"CYPL",2025-09-07 03:00:00,2025-09-06 23:00:00,"MVFR",7,6,93,330,8,14500,29.99,NA,"OVC  ft","CYPL 070300Z AUTO 33008G19KT 280V360 9SM OVC014 07/06 A2999 RMK SLP174",2025-09-07 03:50:40.427989,2025-09-06 23:50:40.427989
"CYQT",2025-09-07 03:24:00,2025-09-06 23:24:00,"VFR",9,5,76,330,7,24100,30.01,NA,"SCT  ft; OVC  ft","CYQT 070324Z 33007G18KT 310V030 15SM -SHRA SCT026 OVC042 09/05 A3001 RMK SC3SC5 CVCTV CLD EMBD SLP168",2025-09-07 03:50:40.508258,2025-09-06 23:50:40.508258
"CYAM",2025-09-07 03:00:00,2025-09-06 23:00:00,"VFR",10,4,67,270,7,32200,29.96,NA,"SCT  ft; BKN  ft","CYAM 070300Z 27007KT 20SM SCT140 BKN220 10/04 A2996 RMK AC3CI4 SLP153",2025-09-07 03:50:40.580241,2025-09-06 23:50:40.580241
"CYTS",2025-09-07 03:27:00,2025-09-06 23:27:00,"VFR",8,7,93,280,3,24100,29.87,NA,"OVC  ft","CYTS 070327Z 28003KT 15SM -SHRA OVC041 08/07 A2987 RMK SC8 CVCTV CLD EMBD SLP126",2025-09-07 03:50:40.651893,2025-09-06 23:50:40.651893
"CYSB",2025-09-07 03:00:00,2025-09-06 23:00:00,"VFR",8,8,100,0,2,24100,29.9,NA,"BKN  ft; OVC  ft","CYSB 070300Z VRB02KT 15SM BKN037 OVC130 08/08 A2990 RMK SC6AC2 SLP136",2025-09-07 03:50:40.729846,2025-09-06 23:50:40.729846
"CYYB",2025-09-07 03:43:00,2025-09-06 23:43:00,"MVFR",10,10,100,240,6,8000,29.92,NA,"FEW  ft; BKN  ft; OVC  ft","CYYB 070343Z AUTO 24006KT 5SM RA BR FEW009 BKN014 OVC018 10/10 A2992 RMK PCPN 1.5MM PAST HR SLP139",2025-09-07 03:50:40.804219,2025-09-06 23:50:40.804219
"CYOW",2025-09-07 03:44:00,2025-09-06 23:44:00,"VFR",14,9,72,220,4,24100,29.97,NA,"BKN  ft","CYOW 070344Z 22004KT 15SM -RA BKN075 14/09 A2997 RMK AC6 SLP152",2025-09-07 03:50:40.875889,2025-09-06 23:50:40.875889
"CYGK",2025-09-07 03:00:00,2025-09-06 23:00:00,"VFR",17,10,64,250,4,24100,29.98,NA,"BKN  ft; BKN  ft","CYGK 070300Z 25004KT 15SM BKN080 BKN250 17/10 A2998 RMK AC5CI1 LAST STFD OBS/ NXT 071000Z SLP155",2025-09-07 03:50:40.95092,2025-09-06 23:50:40.95092
"CYQG",2025-09-07 03:00:00,2025-09-06 23:00:00,"VFR",14,7,63,320,6,14500,30.06,NA,"OVC  ft","CYQG 070300Z AUTO 32006KT 9SM OVC081 14/07 A3006 RMK SLP181",2025-09-07 03:50:41.022115,2025-09-06 23:50:41.022115
"CYVV",2025-09-07 03:00:00,2025-09-06 23:00:00,"MVFR",11,11,100,320,5,9700,29.97,NA,"FEW  ft; OVC  ft","CYVV 070300Z 32005KT 250V050 6SM -SHRA BR FEW011 OVC018 11/11 A2997 RMK SF2CU6 SLP155",2025-09-07 03:50:41.094186,2025-09-06 23:50:41.094186
"CYYZ",2025-09-07 03:43:00,2025-09-06 23:43:00,"VFR",14,8,67,290,6,24100,29.99,NA,"SCT  ft; BKN  ft","CYYZ 070343Z 29006KT 15SM SCT075 BKN090 14/08 A2999 RMK AC3AC4 SLP160",2025-09-07 03:50:41.17188,2025-09-06 23:50:41.17188
"CYQA",2025-09-07 03:03:00,2025-09-06 23:03:00,"VFR",11,10,94,190,5,14500,29.95,NA,"FEW  ft; BKN  ft; BKN  ft; OVC  ft","CYQA 070303Z AUTO 19005KT 9SM FEW046 BKN055 BKN068 OVC089 11/10 A2995 RMK SLP148",2025-09-07 03:50:41.24603,2025-09-06 23:50:41.24603
"CYVR",2025-09-07 03:00:00,2025-09-06 23:00:00,"VFR",19,18,94,100,5,19300,29.9,NA,"BKN  ft; OVC  ft; OVC  ft","CYVR 070300Z 10005KT 12SM BKN100 OVC130 OVC160 19/18 A2990 RMK AC5AC3AS1 AS TR HZ SLP126 DENSITY ALT 500FT",2025-09-07 03:50:41.319062,2025-09-06 23:50:41.319062
"CYYJ",2025-09-07 03:00:00,2025-09-06 23:00:00,"VFR",14,13,94,70,7,32200,29.9,NA,"FEW  ft; BKN  ft; BKN  ft","CYYJ 070300Z 07007KT 20SM FEW100 BKN130 BKN190 14/13 A2990 RMK AC2AC3AC2 SLP126",2025-09-07 03:50:41.390378,2025-09-06 23:50:41.390378
"CYLW",2025-09-07 03:00:00,2025-09-06 23:00:00,"VFR",19,14,73,0,2,9700,29.85,NA,"CLR  ft","CYLW 070300Z AUTO VRB02KT 6SM HZ CLR 19/14 A2985 RMK SLP111 DENSITY ALT 2400FT",2025-09-07 03:50:41.463792,2025-09-06 23:50:41.463792
"CYXS",2025-09-07 03:00:00,2025-09-06 23:00:00,"MVFR",15,14,94,0,2,8000,29.9,NA,"CLR  ft","CYXS 070300Z AUTO VRB02KT 5SM BR CLR 15/14 A2990 RMK SLP138 DENSITY ALT 2900FT",2025-09-07 03:50:41.540231,2025-09-06 23:50:41.540231
"CYXT",2025-09-07 03:00:00,2025-09-06 23:00:00,"VFR",21,16,73,230,3,32200,29.87,NA,"SKC  ft","CYXT 070300Z 23003KT 160V250 20SM SKC 21/16 A2987 RMK SLP119 DENSITY ALT 1700FT",2025-09-07 03:50:41.614137,2025-09-06 23:50:41.614137
"CYQQ",2025-09-07 03:00:00,2025-09-06 23:00:00,"VFR",20,16,78,100,7,19300,29.9,NA,"FEW  ft; BKN  ft; BKN  ft","CYQQ 070300Z 10007KT 12SM FEW040 BKN190 BKN210 20/16 A2990 RMK FU1AC4CI2 DENSITY ALT 952FT SLP124",2025-09-07 03:50:41.686732,2025-09-06 23:50:41.686732
"CYYC",2025-09-07 03:00:00,2025-09-06 23:00:00,"VFR",19,4,37,170,5,9999,29.98,NA,"FEW  ft; SCT  ft","CYYC 070300Z 17005KT 10SM FEW120 SCT250 19/04 A2998 RMK AC1CI2 FU SLP156 DENSITY ALT 4900FT",2025-09-07 03:50:41.762645,2025-09-06 23:50:41.762645
"CYEG",2025-09-07 03:00:00,2025-09-06 23:00:00,"VFR",16,7,55,0,2,32200,29.91,NA,"SCT  ft","CYEG 070300Z VRB02KT 20SM SCT250 16/07 A2991 RMK CI3 SLP138 DENSITY ALT 3100FT",2025-09-07 03:50:41.792659,2025-09-06 23:50:41.792659
"CYMM",2025-09-07 03:00:00,2025-09-06 23:00:00,"VFR",18,7,49,200,6,14500,29.84,NA,"CLR  ft","CYMM 070300Z AUTO 20006KT 9SM CLR 18/07 A2984 RMK SLP116 DENSITY ALT 1900FT",2025-09-07 03:50:41.86587,2025-09-06 23:50:41.86587
"CYQF",2025-09-07 03:00:00,2025-09-06 23:00:00,"VFR",18,6,46,0,0,14500,29.94,NA,"CLR  ft","CYQF 070300Z AUTO 00000KT 9SM CLR 18/06 A2994 RMK SLP152 DENSITY ALT 4000FT",2025-09-07 03:50:41.938833,2025-09-06 23:50:41.938833
"CYXE",2025-09-07 03:00:00,2025-09-06 23:00:00,"VFR",14,3,48,120,10,24100,30.06,NA,"FEW  ft","CYXE 070300Z 12010G16KT 15SM FEW300 14/03 A3006 RMK CI1 SLP192",2025-09-07 03:50:42.009122,2025-09-06 23:50:42.009122
"CYQR",2025-09-07 03:00:00,2025-09-06 23:00:00,"VFR",12,2,51,110,9,24100,30.11,NA,"FEW  ft","CYQR 070300Z 11009KT 15SM FEW250 12/02 A3011 RMK CI1 CI TR SLP212",2025-09-07 03:50:42.083787,2025-09-06 23:50:42.083787
"CYWG",2025-09-07 03:00:00,2025-09-06 23:00:00,"VFR",8,6,87,310,4,24100,30.16,NA,"BKN  ft","CYWG 070300Z 31004KT 15SM BKN073 08/06 A3016 RMK AC7 SLP221",2025-09-07 03:50:42.15662,2025-09-06 23:50:42.15662
"CYBR",2025-09-07 03:00:00,2025-09-06 23:00:00,"VFR",7,5,87,80,6,24100,30.17,NA,"BKN  ft","CYBR 070300Z 08006KT 15SM BKN050 07/05 A3017 RMK SC5 LAST STFD OBS/NEXT 071200Z SLP234",2025-09-07 03:50:42.231218,2025-09-06 23:50:42.231218
"CYUL",2025-09-07 03:00:00,2025-09-06 23:00:00,"VFR",16,12,77,220,9,24100,29.97,NA,"SCT  ft","CYUL 070300Z 22009KT 15SM SCT090 16/12 A2997 RMK AC4 SLP151",2025-09-07 03:50:42.304794,2025-09-06 23:50:42.304794
"CYHU",2025-09-07 03:00:00,2025-09-06 23:00:00,"VFR",12,12,100,190,3,14500,29.97,NA,"CLR  ft","CYHU 070300Z AUTO 19003KT 9SM CLR 12/12 A2997 RMK SLP152",2025-09-07 03:50:42.377846,2025-09-06 23:50:42.377846
"CYQB",2025-09-07 03:00:00,2025-09-06 23:00:00,"MVFR",11,11,100,0,0,24100,29.98,NA,"FEW  ft; OVC  ft","CYQB 070300Z 00000KT 15SM FEW010 OVC024 11/11 A2998 RMK SF2SC6 SLP154",2025-09-07 03:50:42.448759,2025-09-06 23:50:42.448759
"CYVO",2025-09-07 03:00:00,2025-09-06 23:00:00,"VFR",9,8,94,200,2,14500,29.88,NA,"OVC  ft","CYVO 070300Z AUTO 20002KT 9SM OVC100 09/08 A2988 RMK SLP132",2025-09-07 03:50:42.518998,2025-09-06 23:50:42.518998
"CYUY",2025-09-07 03:19:00,2025-09-06 23:19:00,"VFR",9,8,94,0,2,24100,29.88,NA,"OVC  ft","CYUY 070319Z VRB02KT 15SM -SHRA OVC040 09/08 A2988 RMK SC8 CVCTV CLD EMBD SLP128",2025-09-07 03:50:42.590797,2025-09-06 23:50:42.590797
"CYZV",2025-09-07 03:00:00,2025-09-06 23:00:00,"VFR",13,10,82,270,6,24100,29.85,NA,"FEW  ft; SCT  ft; BKN  ft","CYZV 070300Z 27006KT 15SM FEW070 SCT190 BKN240 13/10 A2985 RMK AC1AC3CI2 SLP111",2025-09-07 03:50:42.660764,2025-09-06 23:50:42.660764
"CYBC",2025-09-07 03:00:00,2025-09-06 23:00:00,"VFR",11,10,94,240,14,14500,29.89,NA,"CLR  ft","CYBC 070300Z AUTO 24014G19KT 9SM CLR 11/10 A2989 RMK SLP123",2025-09-07 03:50:42.73362,2025-09-06 23:50:42.73362
"CYRJ",2025-09-07 03:33:00,2025-09-06 23:33:00,"VFR",11,10,94,250,5,40200,29.91,NA,"SCT  ft; BKN  ft","CYRJ 070333Z 25005KT 25SM SCT043 BKN065 11/10 A2991 RMK SC3SC4 SLP136",2025-09-07 03:50:42.807817,2025-09-06 23:50:42.807817
"CYHZ",2025-09-07 03:37:00,2025-09-06 23:37:00,"IFR",20,19,94,170,7,24100,30.02,NA,"BKN  ft; OVC  ft","CYHZ 070337Z 17007KT 15SM BKN005 OVC027 20/19 A3002 RMK ST7SC1 SLP168 DENSITY ALT 1100FT",2025-09-07 03:50:42.880927,2025-09-06 23:50:42.880927
"CYYG",2025-09-07 03:00:00,2025-09-06 23:00:00,"VFR",21,19,88,190,15,24100,29.95,NA,"BKN  ft","CYYG 070300Z 19015KT 15SM BKN260 21/19 A2995 RMK CI6 SLP144 DENSITY ALT 1000FT",2025-09-07 03:50:42.952195,2025-09-06 23:50:42.952195
"CYQM",2025-09-07 03:00:00,2025-09-06 23:00:00,"VFR",23,18,74,210,12,24100,29.92,NA,"SCT  ft; BKN  ft; BKN  ft; BKN  ft","CYQM 070300Z 21012G21KT 15SM SCT029 BKN043 BKN150 BKN190 23/18 A2992 RMK SC3SC3AC1AC1 AC TR SLP134 DENSITY ALT 1200FT",2025-09-07 03:50:43.024941,2025-09-06 23:50:43.024941
"CYFC",2025-09-07 03:42:00,2025-09-06 23:42:00,"VFR",15,14,94,250,3,14500,29.96,NA,"SCT  ft; BKN  ft; OVC  ft","CYFC 070342Z AUTO 25003KT 230V320 9SM SCT029 BKN037 OVC048 15/14 A2996 RMK PRESRR SLP146",2025-09-07 03:50:43.097547,2025-09-06 23:50:43.097547
"CYYT",2025-09-07 03:00:00,2025-09-06 23:00:00,"VFR",17,17,100,240,13,24100,30.13,NA,"SCT  ft; BKN  ft","CYYT 070300Z 24013KT 15SM SCT004 BKN240 17/17 A3013 RMK SF4CI1 SLP206",2025-09-07 03:50:43.169032,2025-09-06 23:50:43.169032
"CYQY",2025-09-07 03:00:00,2025-09-06 23:00:00,"VFR",21,20,94,230,11,24100,30.05,NA,"SCT  ft","CYQY 070300Z 23011G19KT 15SM SCT230 21/20 A3005 RMK CI3 SLP178 DENSITY ALT 800FT",2025-09-07 03:50:43.242228,2025-09-06 23:50:43.242228
"CYXY",2025-09-07 03:00:00,2025-09-06 23:00:00,"VFR",18,9,56,340,3,64400,29.87,NA,"FEW  ft; SCT  ft; BKN  ft","CYXY 070300Z 34003KT 40SM FEW065 SCT140 BKN260 18/09 A2987 RMK SC2AC2CI2 SLP130 DENSITY ALT 3300FT",2025-09-07 03:50:43.31574,2025-09-06 23:50:43.31574
"CYZF",2025-09-07 03:00:00,2025-09-06 23:00:00,"VFR",15,8,63,320,6,24100,29.82,NA,"SCT  ft; BKN  ft; BKN  ft","CYZF 070300Z 32006KT 15SM SCT100 BKN170 BKN240 15/08 A2982 RMK AC3AC2CI1 SLP107 DENSITY ALT 900FT",2025-09-07 03:50:43.388076,2025-09-06 23:50:43.388076
"CYFB",2025-09-07 03:00:00,2025-09-06 23:00:00,"VFR",3,0,81,70,4,24100,29.57,NA,"FEW  ft; OVC  ft","CYFB 070300Z 07004KT 15SM FEW025 OVC041 03/00 A2957 RMK SC2SC6 SLP019",2025-09-07 03:50:43.418474,2025-09-06 23:50:43.418474
"CYRT",2025-09-07 03:00:00,2025-09-06 23:00:00,"VFR",4,2,87,10,8,24100,29.92,NA,"SCT  ft","CYRT 070300Z 01008KT 15SM SCT033 04/02 A2992 RMK SC3 SLP136",2025-09-07 03:50:43.488681,2025-09-06 23:50:43.488681
"CYBK",2025-09-07 03:00:00,2025-09-06 23:00:00,"VFR",2,-1,81,340,6,24100,29.98,NA,"FEW  ft","CYBK 070300Z 34006KT 15SM FEW040 02/M01 A2998 RMK SC1 SLP155",2025-09-07 03:50:43.560911,2025-09-06 23:50:43.560911
"CYRB",2025-09-07 03:26:00,2025-09-06 23:26:00,"MVFR",0,-2,87,150,19,48300,29.93,NA,"OVC  ft","CYRB 070326Z 15019KT 30SM OVC015 M00/M02 A2993 RMK ST8 SLP142",2025-09-07 03:50:43.642951,2025-09-06 23:50:43.642951
"CYCO",2025-09-07 03:00:00,2025-09-06 23:00:00,"VFR",4,1,81,330,20,24100,29.97,NA,"FEW  ft; FEW  ft; FEW  ft","CYCO 070300Z 33020KT 15SM FEW016 FEW030 FEW180 04/01 A2997 RMK CU1SC1AC1 CU TR SLP152",2025-09-07 03:50:43.673158,2025-09-06 23:50:43.673158
"CYER",2025-09-07 04:19:00,2025-09-07 00:19:00,"IFR",6,6,100,310,6,9700,29.86,NA,"OVC  ft","CYER 070419Z AUTO 31006KT 280V350 6SM -RA BR OVC009 06/06 A2986 RMK SLP115",2025-09-07 04:29:47.846708,2025-09-07 00:29:47.846708
"CYAT",2025-09-07 04:00:00,2025-09-07,"VFR",8,7,93,280,5,14500,29.78,NA,"BKN  ft; BKN  ft; OVC  ft","CYAT 070400Z AUTO 28005KT 9SM BKN046 BKN055 OVC075 08/07 A2978 RMK SLP086",2025-09-07 04:29:47.95814,2025-09-07 00:29:47.95814
"CYMO",2025-09-07 04:00:00,2025-09-07,"VFR",5,4,93,260,5,14500,29.82,NA,"BKN  ft","CYMO 070400Z AUTO 26005KT 9SM BKN096 05/04 A2982 RMK SLP099",2025-09-07 04:29:48.023942,2025-09-07 00:29:48.023942
"CYPL",2025-09-07 04:00:00,2025-09-07,"MVFR",7,5,87,340,7,14500,30.01,NA,"BKN  ft; OVC  ft","CYPL 070400Z AUTO 34007G18KT 300V030 9SM BKN016 OVC022 07/05 A3001 RMK SLP179",2025-09-07 04:29:48.089114,2025-09-07 00:29:48.089114
"CYQT",2025-09-07 04:00:00,2025-09-07,"VFR",9,6,82,310,5,24100,30.01,NA,"FEW  ft; OVC  ft","CYQT 070400Z 31005KT 15SM -SHRA FEW025 OVC047 09/06 A3001 RMK SC2SC6 CVCTV CLD EMBD SLP170",2025-09-07 04:29:48.155958,2025-09-07 00:29:48.155958
"CYAM",2025-09-07 04:00:00,2025-09-07,"VFR",9,6,82,240,6,32200,29.97,NA,"FEW  ft; BKN  ft; OVC  ft","CYAM 070400Z 24006KT 20SM FEW061 BKN190 OVC220 09/06 A2997 RMK SC1AS4CI3 SLP154",2025-09-07 04:29:48.219295,2025-09-07 00:29:48.219295
"CYTS",2025-09-07 04:00:00,2025-09-07,"MVFR",8,7,93,0,0,24100,29.88,NA,"OVC  ft","CYTS 070400Z 00000KT 15SM -SHRA OVC030 08/07 A2988 RMK SC8 CVCTV CLD EMBD SLP128",2025-09-07 04:29:48.283424,2025-09-07 00:29:48.283424
"CYSB",2025-09-07 04:00:00,2025-09-07,"VFR",8,8,100,290,2,24100,29.91,NA,"SCT  ft; OVC  ft","CYSB 070400Z 29002KT 15SM SCT037 OVC140 08/08 A2991 RMK SC3AC5 SLP137",2025-09-07 04:29:48.348243,2025-09-07 00:29:48.348243
"CYYB",2025-09-07 04:13:00,2025-09-07 00:13:00,"MVFR",10,10,100,250,3,12900,29.92,NA,"FEW  ft; SCT  ft; BKN  ft; OVC  ft","CYYB 070413Z AUTO 25003KT 230V290 8SM -RA FEW009 SCT015 BKN026 OVC042 10/10 A2992 RMK SLP141",2025-09-07 04:29:48.453146,2025-09-07 00:29:48.453146
"CYOW",2025-09-07 04:00:00,2025-09-07,"VFR",14,10,77,160,4,24100,29.97,NA,"BKN  ft","CYOW 070400Z 16004KT 150V220 15SM BKN067 14/10 A2997 RMK AC6 SLP151",2025-09-07 04:29:48.517851,2025-09-07 00:29:48.517851
"CYGK",2025-09-07 03:00:00,2025-09-06 23:00:00,"VFR",17,10,64,250,4,24100,29.98,NA,"BKN  ft; BKN  ft","CYGK 070300Z 25004KT 15SM BKN080 BKN250 17/10 A2998 RMK AC5CI1 LAST STFD OBS/ NXT 071000Z SLP155",2025-09-07 04:29:48.58304,2025-09-07 00:29:48.58304
"CYQG",2025-09-07 04:00:00,2025-09-07,"VFR",13,7,67,290,4,14500,30.06,NA,"BKN  ft","CYQG 070400Z AUTO 29004KT 9SM BKN081 13/07 A3006 RMK SLP183",2025-09-07 04:29:48.646271,2025-09-07 00:29:48.646271
"CYVV",2025-09-07 04:09:00,2025-09-07 00:09:00,"MVFR",11,11,100,290,3,9999,29.98,NA,"OVC  ft","CYVV 070409Z 29003KT 260V330 10SM OVC026 11/11 A2998 RMK CU8 SLP157",2025-09-07 04:29:48.711599,2025-09-07 00:29:48.711599
"CYYZ",2025-09-07 04:00:00,2025-09-07,"VFR",14,9,72,280,7,24100,29.99,NA,"BKN  ft","CYYZ 070400Z 28007KT 15SM BKN075 14/09 A2999 RMK AC7 SLP159",2025-09-07 04:29:48.77765,2025-09-07 00:29:48.77765
"CYQA",2025-09-07 04:00:00,2025-09-07,"VFR",11,10,94,190,4,14500,29.95,NA,"OVC  ft","CYQA 070400Z AUTO 19004KT 9SM OVC049 11/10 A2995 RMK SLP147",2025-09-07 04:29:48.840622,2025-09-07 00:29:48.840622
"CYVR",2025-09-07 04:00:00,2025-09-07,"VFR",18,16,88,110,9,19300,29.91,NA,"BKN  ft; OVC  ft","CYVR 070400Z 11009KT 12SM BKN096 OVC160 18/16 A2991 RMK AC7AS1 HZ SLP132 DENSITY ALT 400FT",2025-09-07 04:29:48.903647,2025-09-07 00:29:48.903647
"CYYJ",2025-09-07 04:00:00,2025-09-07,"VFR",13,12,94,120,4,32200,29.91,NA,"FEW  ft; BKN  ft; BKN  ft","CYYJ 070400Z 12004KT 20SM FEW100 BKN130 BKN250 13/12 A2991 RMK AC1AC4CI2 SLP130",2025-09-07 04:29:49.009015,2025-09-07 00:29:49.009015
"CYLW",2025-09-07 04:00:00,2025-09-07,"VFR",17,12,73,30,2,9700,29.87,NA,"CLR  ft","CYLW 070400Z AUTO 03002KT 6SM HZ CLR 17/12 A2987 RMK SLP114 DENSITY ALT 2100FT",2025-09-07 04:29:49.074197,2025-09-07 00:29:49.074197
"CYXS",2025-09-07 04:17:00,2025-09-07 00:17:00,"VFR",15,14,94,260,6,9700,29.91,NA,"BKN  ft; BKN  ft","CYXS 070417Z AUTO 26006KT 6SM BR BKN150 BKN170 15/14 A2991 RMK SLP141 DENSITY ALT 2900FT",2025-09-07 04:29:49.137297,2025-09-07 00:29:49.137297
"CYXT",2025-09-07 04:00:00,2025-09-07,"VFR",19,16,83,180,9,32200,29.89,NA,"SKC  ft","CYXT 070400Z 18009KT 20SM SKC 19/16 A2989 RMK SLP125 DENSITY ALT 1500FT",2025-09-07 04:29:49.200273,2025-09-07 00:29:49.200273
"CYQQ",2025-09-07 04:00:00,2025-09-07,"VFR",20,16,78,0,0,19300,29.9,NA,"FEW  ft; SCT  ft; BKN  ft","CYQQ 070400Z 00000KT 12SM FEW040 SCT160 BKN200 20/16 A2990 RMK FU1AC2CI4 DENSITY ALT 926FT SLP126",2025-09-07 04:29:49.302228,2025-09-07 00:29:49.302228
"CYYC",2025-09-07 04:00:00,2025-09-07,"VFR",19,4,37,160,6,9999,29.98,NA,"FEW  ft","CYYC 070400Z 16006KT 10SM FEW120 19/04 A2998 RMK AC1 AC TR SLP152 DENSITY ALT 4800FT",2025-09-07 04:29:49.405747,2025-09-07 00:29:49.405747
"CYEG",2025-09-07 04:00:00,2025-09-07,"VFR",12,8,77,170,3,32200,29.91,NA,"BKN  ft","CYEG 070400Z 17003KT 20SM BKN220 12/08 A2991 RMK CI5 SLP140 DENSITY ALT 2600FT",2025-09-07 04:29:49.469289,2025-09-07 00:29:49.469289
"CYMM",2025-09-07 04:00:00,2025-09-07,"VFR",16,6,52,190,6,14500,29.84,NA,"FEW  ft","CYMM 070400Z AUTO 19006KT 9SM FEW170 16/06 A2984 RMK SLP116 DENSITY ALT 1700FT",2025-09-07 04:29:49.534058,2025-09-07 00:29:49.534058
"CYQF",2025-09-07 04:26:00,2025-09-07 00:26:00,"IFR",13,7,67,150,4,3600,29.95,NA,"CLR  ft","CYQF 070426Z AUTO 15004KT 2 1/4SM HZ CLR 13/07 A2995 RMK SLP154 DENSITY ALT 3500FT",2025-09-07 04:29:49.595555,2025-09-07 00:29:49.595555
"CYXE",2025-09-07 04:00:00,2025-09-07,"VFR",13,3,51,130,9,24100,30.05,NA,"SKC  ft","CYXE 070400Z 13009KT 15SM SKC 13/03 A3005 RMK SLP190",2025-09-07 04:29:49.658138,2025-09-07 00:29:49.658138
"CYQR",2025-09-07 04:00:00,2025-09-07,"VFR",10,2,58,120,10,24100,30.11,NA,"SKC  ft","CYQR 070400Z 12010KT 15SM SKC 10/02 A3011 RMK SLP213",2025-09-07 04:29:49.72083,2025-09-07 00:29:49.72083
"CYWG",2025-09-07 04:00:00,2025-09-07,"VFR",8,6,87,340,5,24100,30.17,NA,"BKN  ft","CYWG 070400Z 34005KT 15SM BKN073 08/06 A3017 RMK AC7 SLP225",2025-09-07 04:29:49.783596,2025-09-07 00:29:49.783596
"CYBR",2025-09-07 04:00:00,2025-09-07,"VFR",7,5,87,80,2,14500,30.19,NA,"SCT  ft","CYBR 070400Z AUTO 08002KT 9SM SCT048 07/05 A3019 RMK SLP239",2025-09-07 04:29:49.845555,2025-09-07 00:29:49.845555
"CYUL",2025-09-07 04:00:00,2025-09-07,"VFR",15,12,82,210,11,24100,29.97,NA,"SCT  ft","CYUL 070400Z 21011KT 15SM SCT120 15/12 A2997 RMK AC3 SLP152",2025-09-07 04:29:49.910824,2025-09-07 00:29:49.910824
"CYHU",2025-09-07 04:00:00,2025-09-07,"VFR",12,11,94,200,4,14500,29.98,NA,"CLR  ft","CYHU 070400Z AUTO 20004KT 9SM CLR 12/11 A2998 RMK SLP154",2025-09-07 04:29:49.972806,2025-09-07 00:29:49.972806
"CYQB",2025-09-07 04:00:00,2025-09-07,"MVFR",12,11,94,0,2,24100,29.98,NA,"FEW  ft; OVC  ft","CYQB 070400Z VRB02KT 15SM FEW010 OVC016 12/11 A2998 RMK SF2SC6 SLP155",2025-09-07 04:29:50.035592,2025-09-07 00:29:50.035592
"CYVO",2025-09-07 04:00:00,2025-09-07,"VFR",9,8,94,180,3,14500,29.89,NA,"OVC  ft","CYVO 070400Z AUTO 18003KT 9SM OVC096 09/08 A2989 RMK SLP133",2025-09-07 04:29:50.097099,2025-09-07 00:29:50.097099
"CYUY",2025-09-07 04:00:00,2025-09-07,"VFR",9,8,94,260,3,24100,29.88,NA,"OVC  ft","CYUY 070400Z 26003KT 210V270 15SM OVC032 09/08 A2988 RMK SC8 SLP128",2025-09-07 04:29:50.158284,2025-09-07 00:29:50.158284
"CYZV",2025-09-07 04:00:00,2025-09-07,"VFR",12,10,88,300,4,24100,29.85,NA,"SCT  ft; SCT  ft; BKN  ft","CYZV 070400Z 30004KT 240V340 15SM SCT070 SCT190 BKN240 12/10 A2985 RMK AC3AC1CI1 SLP112",2025-09-07 04:29:50.219488,2025-09-07 00:29:50.219488
"CYBC",2025-09-07 04:00:00,2025-09-07,"VFR",10,9,94,230,11,14500,29.89,NA,"CLR  ft","CYBC 070400Z AUTO 23011KT 9SM CLR 10/09 A2989 RMK SLP125",2025-09-07 04:29:50.281024,2025-09-07 00:29:50.281024
"CYRJ",2025-09-07 04:00:00,2025-09-07,"VFR",11,11,100,240,7,40200,29.91,NA,"FEW  ft; BKN  ft","CYRJ 070400Z 24007KT 25SM FEW047 BKN072 11/11 A2991 RMK SC2AC5 SLP133",2025-09-07 04:29:50.345572,2025-09-07 00:29:50.345572
"CYHZ",2025-09-07 04:00:00,2025-09-07,"LIFR",20,20,100,170,8,19300,30.01,NA,"OVC  ft","CYHZ 070400Z 17008KT 12SM OVC004 20/20 A3001 RMK ST8 SLP164 DENSITY ALT 1100FT",2025-09-07 04:29:50.448896,2025-09-07 00:29:50.448896
"CYYG",2025-09-07 04:00:00,2025-09-07,"VFR",21,19,88,190,13,24100,29.94,NA,"BKN  ft","CYYG 070400Z 19013G20KT 15SM BKN230 21/19 A2994 RMK CI6 SLP142 DENSITY ALT 1000FT",2025-09-07 04:29:50.510763,2025-09-07 00:29:50.510763
"CYQM",2025-09-07 04:00:00,2025-09-07,"VFR",22,18,78,210,11,24100,29.91,NA,"FEW  ft; BKN  ft; BKN  ft; BKN  ft","CYQM 070400Z 21011G18KT 15SM FEW025 BKN110 BKN150 BKN200 22/18 A2991 RMK SC1AC4AC2CI1 CI TR SLP129 DENSITY ALT 1200FT",2025-09-07 04:29:50.571972,2025-09-07 00:29:50.571972
"CYFC",2025-09-07 04:25:00,2025-09-07 00:25:00,"MVFR",15,14,94,0,2,4800,29.96,NA,"FEW  ft; SCT  ft; OVC  ft","CYFC 070425Z AUTO VRB02KT 3SM -RA BR FEW014 SCT029 OVC037 15/14 A2996 RMK SLP148",2025-09-07 04:29:50.633276,2025-09-07 00:29:50.633276
"CYYT",2025-09-07 04:00:00,2025-09-07,"VFR",17,17,100,240,12,24100,30.12,NA,"SCT  ft; BKN  ft","CYYT 070400Z 24012KT 15SM SCT003 BKN240 17/17 A3012 RMK SF3CI2 SLP204 DENSITY ALT 700FT",2025-09-07 04:29:50.694,2025-09-07 00:29:50.694
"CYQY",2025-09-07 04:00:00,2025-09-07,"VFR",21,20,94,240,10,24100,30.04,NA,"SCT  ft; BKN  ft","CYQY 070400Z 24010KT 15SM SCT013 BKN230 21/20 A3004 RMK SC4CI1 SLP173 DENSITY ALT 800FT",2025-09-07 04:29:50.759912,2025-09-07 00:29:50.759912
"CYXY",2025-09-07 04:00:00,2025-09-07,"VFR",17,10,64,0,2,64400,29.87,NA,"FEW  ft; BKN  ft","CYXY 070400Z VRB02KT 40SM FEW082 BKN240 17/10 A2987 RMK AC2CI4 SLP132 DENSITY ALT 3100FT",2025-09-07 04:29:50.821377,2025-09-07 00:29:50.821377
"CYZF",2025-09-07 04:00:00,2025-09-07,"VFR",14,8,67,330,7,24100,29.83,NA,"FEW  ft; BKN  ft; BKN  ft","CYZF 070400Z 33007KT 15SM FEW100 BKN190 BKN240 14/08 A2983 RMK AC2AC3CI1 SLP110",2025-09-07 04:29:50.886884,2025-09-07 00:29:50.886884
"CYFB",2025-09-07 04:00:00,2025-09-07,"VFR",3,1,87,130,2,24100,29.56,NA,"FEW  ft; OVC  ft","CYFB 070400Z 13002KT 15SM FEW025 OVC041 03/01 A2956 RMK SC2SC6 SLP015",2025-09-07 04:29:50.952525,2025-09-07 00:29:50.952525
"CYRT",2025-09-07 04:00:00,2025-09-07,"VFR",3,2,93,350,8,24100,29.91,NA,"FEW  ft","CYRT 070400Z 35008KT 15SM FEW029 03/02 A2991 RMK SC2 SLP134",2025-09-07 04:29:51.015232,2025-09-07 00:29:51.015232
"CYBK",2025-09-07 04:00:00,2025-09-07,"VFR",2,-1,81,340,5,24100,29.97,NA,"FEW  ft","CYBK 070400Z 34005KT 15SM FEW040 02/M01 A2997 RMK SC1 SC TR SLP152",2025-09-07 04:29:51.08065,2025-09-07 00:29:51.08065
"CYRB",2025-09-07 04:00:00,2025-09-07,"MVFR",-1,-2,93,150,17,40200,29.92,NA,"OVC  ft","CYRB 070400Z 15017KT 25SM OVC013 M01/M02 A2992 RMK ST8 SLP139",2025-09-07 04:29:51.157049,2025-09-07 00:29:51.157049
"CYCO",2025-09-07 04:00:00,2025-09-07,"VFR",3,0,81,300,12,24100,29.99,NA,"FEW  ft; FEW  ft","CYCO 070400Z 30012G21KT 15SM FEW010 FEW030 03/00 A2999 RMK ST1SC1 ST TR SLP160",2025-09-07 04:29:51.224387,2025-09-07 00:29:51.224387
"CYER",2025-09-07 04:34:00,2025-09-07 00:34:00,"MVFR",6,6,100,300,9,8000,29.86,NA,"BKN  ft; BKN  ft; OVC  ft","CYER 070434Z AUTO 30009KT 5SM -RA BR BKN011 BKN017 OVC025 06/06 A2986 RMK SLP115",2025-09-07 04:44:23.570665,2025-09-07 00:44:23.570665
"CYAT",2025-09-07 04:00:00,2025-09-07,"VFR",8,7,93,280,5,14500,29.78,NA,"BKN  ft; BKN  ft; OVC  ft","CYAT 070400Z AUTO 28005KT 9SM BKN046 BKN055 OVC075 08/07 A2978 RMK SLP086",2025-09-07 04:44:23.671381,2025-09-07 00:44:23.671381
"CYMO",2025-09-07 04:00:00,2025-09-07,"VFR",5,4,93,260,5,14500,29.82,NA,"BKN  ft","CYMO 070400Z AUTO 26005KT 9SM BKN096 05/04 A2982 RMK SLP099",2025-09-07 04:44:23.764177,2025-09-07 00:44:23.764177
"CYPL",2025-09-07 04:39:00,2025-09-07 00:39:00,"VFR",6,5,93,330,5,14500,30.02,NA,"SCT  ft; BKN  ft; OVC  ft","CYPL 070439Z AUTO 33005KT 290V030 9SM SCT023 BKN036 OVC060 06/05 A3002 RMK SLP182",2025-09-07 04:44:23.855707,2025-09-07 00:44:23.855707
"CYQT",2025-09-07 04:00:00,2025-09-07,"VFR",9,6,82,310,5,24100,30.01,NA,"FEW  ft; OVC  ft","CYQT 070400Z 31005KT 15SM -SHRA FEW025 OVC047 09/06 A3001 RMK SC2SC6 CVCTV CLD EMBD SLP170",2025-09-07 04:44:23.990211,2025-09-07 00:44:23.990211
"CYAM",2025-09-07 04:00:00,2025-09-07,"VFR",9,6,82,240,6,32200,29.97,NA,"FEW  ft; BKN  ft; OVC  ft","CYAM 070400Z 24006KT 20SM FEW061 BKN190 OVC220 09/06 A2997 RMK SC1AS4CI3 SLP154",2025-09-07 04:44:24.080048,2025-09-07 00:44:24.080048
"CYTS",2025-09-07 04:00:00,2025-09-07,"MVFR",8,7,93,0,0,24100,29.88,NA,"OVC  ft","CYTS 070400Z 00000KT 15SM -SHRA OVC030 08/07 A2988 RMK SC8 CVCTV CLD EMBD SLP128",2025-09-07 04:44:24.172111,2025-09-07 00:44:24.172111
"CYSB",2025-09-07 04:00:00,2025-09-07,"VFR",8,8,100,290,2,24100,29.91,NA,"SCT  ft; OVC  ft","CYSB 070400Z 29002KT 15SM SCT037 OVC140 08/08 A2991 RMK SC3AC5 SLP137",2025-09-07 04:44:24.266258,2025-09-07 00:44:24.266258
"CYYB",2025-09-07 04:31:00,2025-09-07 00:31:00,"MVFR",10,10,100,240,5,14500,29.92,NA,"FEW  ft; SCT  ft; BKN  ft; OVC  ft","CYYB 070431Z AUTO 24005KT 9SM -RA FEW011 SCT016 BKN023 OVC043 10/10 A2992 RMK PCPN 1.0MM PAST HR SLP141",2025-09-07 04:44:24.399615,2025-09-07 00:44:24.399615
"CYOW",2025-09-07 04:00:00,2025-09-07,"VFR",14,10,77,160,4,24100,29.97,NA,"BKN  ft","CYOW 070400Z 16004KT 150V220 15SM BKN067 14/10 A2997 RMK AC6 SLP151",2025-09-07 04:44:24.491784,2025-09-07 00:44:24.491784
"CYGK",2025-09-07 03:00:00,2025-09-06 23:00:00,"VFR",17,10,64,250,4,24100,29.98,NA,"BKN  ft; BKN  ft","CYGK 070300Z 25004KT 15SM BKN080 BKN250 17/10 A2998 RMK AC5CI1 LAST STFD OBS/ NXT 071000Z SLP155",2025-09-07 04:44:24.585198,2025-09-07 00:44:24.585198
"CYQG",2025-09-07 04:00:00,2025-09-07,"VFR",13,7,67,290,4,14500,30.06,NA,"BKN  ft","CYQG 070400Z AUTO 29004KT 9SM BKN081 13/07 A3006 RMK SLP183",2025-09-07 04:44:24.676203,2025-09-07 00:44:24.676203
"CYVV",2025-09-07 04:09:00,2025-09-07 00:09:00,"MVFR",11,11,100,290,3,9999,29.98,NA,"OVC  ft","CYVV 070409Z 29003KT 260V330 10SM OVC026 11/11 A2998 RMK CU8 SLP157",2025-09-07 04:44:24.768193,2025-09-07 00:44:24.768193
"CYYZ",2025-09-07 04:00:00,2025-09-07,"VFR",14,9,72,280,7,24100,29.99,NA,"BKN  ft","CYYZ 070400Z 28007KT 15SM BKN075 14/09 A2999 RMK AC7 SLP159",2025-09-07 04:44:24.85932,2025-09-07 00:44:24.85932
"CYQA",2025-09-07 04:32:00,2025-09-07 00:32:00,"MVFR",11,10,94,0,2,14500,29.95,NA,"BKN  ft; BKN  ft; OVC  ft","CYQA 070432Z AUTO VRB02KT 9SM -RA BKN020 BKN049 OVC066 11/10 A2995 RMK SLP150",2025-09-07 04:44:24.950054,2025-09-07 00:44:24.950054
"CYVR",2025-09-07 04:00:00,2025-09-07,"VFR",18,16,88,110,9,19300,29.91,NA,"BKN  ft; OVC  ft","CYVR 070400Z 11009KT 12SM BKN096 OVC160 18/16 A2991 RMK AC7AS1 HZ SLP132 DENSITY ALT 400FT",2025-09-07 04:44:25.041164,2025-09-07 00:44:25.041164
"CYYJ",2025-09-07 04:00:00,2025-09-07,"VFR",13,12,94,120,4,32200,29.91,NA,"FEW  ft; BKN  ft; BKN  ft","CYYJ 070400Z 12004KT 20SM FEW100 BKN130 BKN250 13/12 A2991 RMK AC1AC4CI2 SLP130",2025-09-07 04:44:25.133022,2025-09-07 00:44:25.133022
"CYLW",2025-09-07 04:00:00,2025-09-07,"VFR",17,12,73,30,2,9700,29.87,NA,"CLR  ft","CYLW 070400Z AUTO 03002KT 6SM HZ CLR 17/12 A2987 RMK SLP114 DENSITY ALT 2100FT",2025-09-07 04:44:25.265699,2025-09-07 00:44:25.265699
"CYXS",2025-09-07 04:33:00,2025-09-07 00:33:00,"MVFR",15,14,94,0,0,8000,29.91,NA,"FEW  ft; BKN  ft","CYXS 070433Z AUTO 00000KT 5SM BR FEW140 BKN180 15/14 A2991 RMK SLP142 DENSITY ALT 2900FT",2025-09-07 04:44:25.357589,2025-09-07 00:44:25.357589
"CYXT",2025-09-07 04:00:00,2025-09-07,"VFR",19,16,83,180,9,32200,29.89,NA,"SKC  ft","CYXT 070400Z 18009KT 20SM SKC 19/16 A2989 RMK SLP125 DENSITY ALT 1500FT",2025-09-07 04:44:25.448299,2025-09-07 00:44:25.448299
"CYQQ",2025-09-07 04:00:00,2025-09-07,"VFR",20,16,78,0,0,19300,29.9,NA,"FEW  ft; SCT  ft; BKN  ft","CYQQ 070400Z 00000KT 12SM FEW040 SCT160 BKN200 20/16 A2990 RMK FU1AC2CI4 DENSITY ALT 926FT SLP126",2025-09-07 04:44:25.57895,2025-09-07 00:44:25.57895
"CYYC",2025-09-07 04:00:00,2025-09-07,"VFR",19,4,37,160,6,9999,29.98,NA,"FEW  ft","CYYC 070400Z 16006KT 10SM FEW120 19/04 A2998 RMK AC1 AC TR SLP152 DENSITY ALT 4800FT",2025-09-07 04:44:25.710607,2025-09-07 00:44:25.710607
"CYEG",2025-09-07 04:00:00,2025-09-07,"VFR",12,8,77,170,3,32200,29.91,NA,"BKN  ft","CYEG 070400Z 17003KT 20SM BKN220 12/08 A2991 RMK CI5 SLP140 DENSITY ALT 2600FT",2025-09-07 04:44:25.804074,2025-09-07 00:44:25.804074
"CYMM",2025-09-07 04:00:00,2025-09-07,"VFR",16,6,52,190,6,14500,29.84,NA,"FEW  ft","CYMM 070400Z AUTO 19006KT 9SM FEW170 16/06 A2984 RMK SLP116 DENSITY ALT 1700FT",2025-09-07 04:44:25.896886,2025-09-07 00:44:25.896886
"CYQF",2025-09-07 04:30:00,2025-09-07 00:30:00,"MVFR",14,7,63,140,4,4800,29.95,NA,"CLR  ft","CYQF 070430Z AUTO 14004KT 3SM HZ CLR 14/07 A2995 RMK SLP153 DENSITY ALT 3500FT",2025-09-07 04:44:25.98823,2025-09-07 00:44:25.98823
"CYXE",2025-09-07 04:00:00,2025-09-07,"VFR",13,3,51,130,9,24100,30.05,NA,"SKC  ft","CYXE 070400Z 13009KT 15SM SKC 13/03 A3005 RMK SLP190",2025-09-07 04:44:26.079977,2025-09-07 00:44:26.079977
"CYQR",2025-09-07 04:00:00,2025-09-07,"VFR",10,2,58,120,10,24100,30.11,NA,"SKC  ft","CYQR 070400Z 12010KT 15SM SKC 10/02 A3011 RMK SLP213",2025-09-07 04:44:26.171547,2025-09-07 00:44:26.171547
"CYWG",2025-09-07 04:00:00,2025-09-07,"VFR",8,6,87,340,5,24100,30.17,NA,"BKN  ft","CYWG 070400Z 34005KT 15SM BKN073 08/06 A3017 RMK AC7 SLP225",2025-09-07 04:44:26.266927,2025-09-07 00:44:26.266927
"CYBR",2025-09-07 04:00:00,2025-09-07,"VFR",7,5,87,80,2,14500,30.19,NA,"SCT  ft","CYBR 070400Z AUTO 08002KT 9SM SCT048 07/05 A3019 RMK SLP239",2025-09-07 04:44:26.402291,2025-09-07 00:44:26.402291
"CYUL",2025-09-07 04:00:00,2025-09-07,"VFR",15,12,82,210,11,24100,29.97,NA,"SCT  ft","CYUL 070400Z 21011KT 15SM SCT120 15/12 A2997 RMK AC3 SLP152",2025-09-07 04:44:26.498943,2025-09-07 00:44:26.498943
"CYHU",2025-09-07 04:00:00,2025-09-07,"VFR",12,11,94,200,4,14500,29.98,NA,"CLR  ft","CYHU 070400Z AUTO 20004KT 9SM CLR 12/11 A2998 RMK SLP154",2025-09-07 04:44:26.596442,2025-09-07 00:44:26.596442
"CYQB",2025-09-07 04:00:00,2025-09-07,"MVFR",12,11,94,0,2,24100,29.98,NA,"FEW  ft; OVC  ft","CYQB 070400Z VRB02KT 15SM FEW010 OVC016 12/11 A2998 RMK SF2SC6 SLP155",2025-09-07 04:44:26.693878,2025-09-07 00:44:26.693878
"CYVO",2025-09-07 04:00:00,2025-09-07,"VFR",9,8,94,180,3,14500,29.89,NA,"OVC  ft","CYVO 070400Z AUTO 18003KT 9SM OVC096 09/08 A2989 RMK SLP133",2025-09-07 04:44:26.789563,2025-09-07 00:44:26.789563
"CYUY",2025-09-07 04:00:00,2025-09-07,"VFR",9,8,94,260,3,24100,29.88,NA,"OVC  ft","CYUY 070400Z 26003KT 210V270 15SM OVC032 09/08 A2988 RMK SC8 SLP128",2025-09-07 04:44:26.883096,2025-09-07 00:44:26.883096
"CYZV",2025-09-07 04:00:00,2025-09-07,"VFR",12,10,88,300,4,24100,29.85,NA,"SCT  ft; SCT  ft; BKN  ft","CYZV 070400Z 30004KT 240V340 15SM SCT070 SCT190 BKN240 12/10 A2985 RMK AC3AC1CI1 SLP112",2025-09-07 04:44:26.976427,2025-09-07 00:44:26.976427
"CYBC",2025-09-07 04:00:00,2025-09-07,"VFR",10,9,94,230,11,14500,29.89,NA,"CLR  ft","CYBC 070400Z AUTO 23011KT 9SM CLR 10/09 A2989 RMK SLP125",2025-09-07 04:44:27.068532,2025-09-07 00:44:27.068532
"CYRJ",2025-09-07 04:00:00,2025-09-07,"VFR",11,11,100,240,7,40200,29.91,NA,"FEW  ft; BKN  ft","CYRJ 070400Z 24007KT 25SM FEW047 BKN072 11/11 A2991 RMK SC2AC5 SLP133",2025-09-07 04:44:27.164639,2025-09-07 00:44:27.164639
"CYHZ",2025-09-07 04:29:00,2025-09-07 00:29:00,"LIFR",21,20,94,180,10,19300,30,NA,"OVC  ft","CYHZ 070429Z 18010KT 12SM -DZ OVC004 21/20 A3000 RMK ST8 SLP162 DENSITY ALT 1200FT",2025-09-07 04:44:27.256677,2025-09-07 00:44:27.256677
"CYYG",2025-09-07 04:00:00,2025-09-07,"VFR",21,19,88,190,13,24100,29.94,NA,"BKN  ft","CYYG 070400Z 19013G20KT 15SM BKN230 21/19 A2994 RMK CI6 SLP142 DENSITY ALT 1000FT",2025-09-07 04:44:27.347741,2025-09-07 00:44:27.347741
"CYQM",2025-09-07 04:00:00,2025-09-07,"VFR",22,18,78,210,11,24100,29.91,NA,"FEW  ft; BKN  ft; BKN  ft; BKN  ft","CYQM 070400Z 21011G18KT 15SM FEW025 BKN110 BKN150 BKN200 22/18 A2991 RMK SC1AC4AC2CI1 CI TR SLP129 DENSITY ALT 1200FT",2025-09-07 04:44:27.439065,2025-09-07 00:44:27.439065
"CYFC",2025-09-07 04:25:00,2025-09-07 00:25:00,"MVFR",15,14,94,0,2,4800,29.96,NA,"FEW  ft; SCT  ft; OVC  ft","CYFC 070425Z AUTO VRB02KT 3SM -RA BR FEW014 SCT029 OVC037 15/14 A2996 RMK SLP148",2025-09-07 04:44:27.570194,2025-09-07 00:44:27.570194
"CYYT",2025-09-07 04:39:00,2025-09-07 00:39:00,"LIFR",17,17,100,250,12,19300,30.12,NA,"BKN  ft; BKN  ft","CYYT 070439Z 25012KT 12SM BKN003 BKN240 17/17 A3012 RMK SF5CI1 SLP203",2025-09-07 04:44:27.665334,2025-09-07 00:44:27.665334
"CYQY",2025-09-07 04:31:00,2025-09-07 00:31:00,"MVFR",21,20,94,230,9,24100,30.03,NA,"BKN  ft","CYQY 070431Z 23009G16KT 15SM BKN011 21/20 A3003 RMK SC6 SLP171 DENSITY ALT 800FT",2025-09-07 04:44:27.760164,2025-09-07 00:44:27.760164
"CYXY",2025-09-07 04:00:00,2025-09-07,"VFR",17,10,64,0,2,64400,29.87,NA,"FEW  ft; BKN  ft","CYXY 070400Z VRB02KT 40SM FEW082 BKN240 17/10 A2987 RMK AC2CI4 SLP132 DENSITY ALT 3100FT",2025-09-07 04:44:27.852963,2025-09-07 00:44:27.852963
"CYZF",2025-09-07 04:00:00,2025-09-07,"VFR",14,8,67,330,7,24100,29.83,NA,"FEW  ft; BKN  ft; BKN  ft","CYZF 070400Z 33007KT 15SM FEW100 BKN190 BKN240 14/08 A2983 RMK AC2AC3CI1 SLP110",2025-09-07 04:44:27.945495,2025-09-07 00:44:27.945495
"CYFB",2025-09-07 04:00:00,2025-09-07,"VFR",3,1,87,130,2,24100,29.56,NA,"FEW  ft; OVC  ft","CYFB 070400Z 13002KT 15SM FEW025 OVC041 03/01 A2956 RMK SC2SC6 SLP015",2025-09-07 04:44:28.03738,2025-09-07 00:44:28.03738
"CYRT",2025-09-07 04:00:00,2025-09-07,"VFR",3,2,93,350,8,24100,29.91,NA,"FEW  ft","CYRT 070400Z 35008KT 15SM FEW029 03/02 A2991 RMK SC2 SLP134",2025-09-07 04:44:28.168998,2025-09-07 00:44:28.168998
"CYBK",2025-09-07 04:00:00,2025-09-07,"VFR",2,-1,81,340,5,24100,29.97,NA,"FEW  ft","CYBK 070400Z 34005KT 15SM FEW040 02/M01 A2997 RMK SC1 SC TR SLP152",2025-09-07 04:44:28.260214,2025-09-07 00:44:28.260214
"CYRB",2025-09-07 04:00:00,2025-09-07,"MVFR",-1,-2,93,150,17,40200,29.92,NA,"OVC  ft","CYRB 070400Z 15017KT 25SM OVC013 M01/M02 A2992 RMK ST8 SLP139",2025-09-07 04:44:28.362392,2025-09-07 00:44:28.362392
"CYCO",2025-09-07 04:00:00,2025-09-07,"VFR",3,0,81,300,12,24100,29.99,NA,"FEW  ft; FEW  ft","CYCO 070400Z 30012G21KT 15SM FEW010 FEW030 03/00 A2999 RMK ST1SC1 ST TR SLP160",2025-09-07 04:44:28.45622,2025-09-07 00:44:28.45622
"CYER",2025-09-07 05:00:00,2025-09-07 01:00:00,"MVFR",6,6,100,300,6,14500,29.86,NA,"BKN  ft; BKN  ft; OVC  ft","CYER 070500Z AUTO 30006KT 9SM BKN013 BKN018 OVC026 06/06 A2986 RMK SLP115",2025-09-07 05:25:32.422253,2025-09-07 01:25:32.422253
"CYAT",2025-09-07 05:00:00,2025-09-07 01:00:00,"VFR",8,7,93,290,5,14500,29.79,NA,"SCT  ft; BKN  ft; OVC  ft","CYAT 070500Z AUTO 29005KT 9SM SCT026 BKN060 OVC078 08/07 A2979 RMK SLP090",2025-09-07 05:25:32.522808,2025-09-07 01:25:32.522808
"CYMO",2025-09-07 05:00:00,2025-09-07 01:00:00,"VFR",7,6,93,230,6,14500,29.82,NA,"OVC  ft","CYMO 070500Z AUTO 23006KT 9SM OVC050 07/06 A2982 RMK SLP101",2025-09-07 05:25:32.626816,2025-09-07 01:25:32.626816
"CYPL",2025-09-07 05:00:00,2025-09-07 01:00:00,"VFR",6,5,93,320,5,14500,30.02,NA,"BKN  ft; BKN  ft","CYPL 070500Z AUTO 32005KT 280V020 9SM BKN034 BKN043 06/05 A3002 RMK SLP183",2025-09-07 05:25:32.722274,2025-09-07 01:25:32.722274
"CYQT",2025-09-07 05:00:00,2025-09-07 01:00:00,"VFR",8,6,87,290,5,24100,30.03,NA,"FEW  ft; BKN  ft; OVC  ft","CYQT 070500Z 29005KT 15SM FEW045 BKN065 OVC100 08/06 A3003 RMK SC2SC4AC2 SLP176",2025-09-07 05:25:32.818907,2025-09-07 01:25:32.818907
"CYAM",2025-09-07 05:00:00,2025-09-07 01:00:00,"VFR",9,6,82,240,5,32200,29.97,NA,"FEW  ft; SCT  ft; SCT  ft; OVC  ft","CYAM 070500Z 24005KT 20SM FEW046 SCT091 SCT150 OVC190 09/06 A2997 RMK SC1AC3AC1AC4 SC TR SLP155",2025-09-07 05:25:32.913381,2025-09-07 01:25:32.913381
"CYTS",2025-09-07 05:00:00,2025-09-07 01:00:00,"VFR",8,7,93,250,3,24100,29.88,NA,"BKN  ft; OVC  ft","CYTS 070500Z 25003KT 15SM BKN044 OVC089 08/07 A2988 RMK SC5AC3 SLP131",2025-09-07 05:25:33.005719,2025-09-07 01:25:33.005719
"CYSB",2025-09-07 05:00:00,2025-09-07 01:00:00,"VFR",8,7,93,260,3,24100,29.92,NA,"SCT  ft; OVC  ft","CYSB 070500Z 26003KT 15SM SCT022 OVC039 08/07 A2992 RMK SC3SC5 SLP142",2025-09-07 05:25:33.099964,2025-09-07 01:25:33.099964
"CYYB",2025-09-07 05:08:00,2025-09-07 01:08:00,"VFR",10,9,94,200,7,14500,29.92,NA,"SCT  ft; BKN  ft; BKN  ft; OVC  ft","CYYB 070508Z AUTO 20007KT 9SM -RA SCT013 BKN046 BKN060 OVC071 10/09 A2992 RMK SLP140",2025-09-07 05:25:33.193555,2025-09-07 01:25:33.193555
"CYOW",2025-09-07 05:00:00,2025-09-07 01:00:00,"VFR",14,10,77,170,3,24100,29.97,NA,"FEW  ft; BKN  ft","CYOW 070500Z 17003KT 15SM FEW064 BKN085 14/10 A2997 RMK SC1AC5 SLP151",2025-09-07 05:25:33.2937,2025-09-07 01:25:33.2937
"CYGK",2025-09-07 03:00:00,2025-09-06 23:00:00,"VFR",17,10,64,250,4,24100,29.98,NA,"BKN  ft; BKN  ft","CYGK 070300Z 25004KT 15SM BKN080 BKN250 17/10 A2998 RMK AC5CI1 LAST STFD OBS/ NXT 071000Z SLP155",2025-09-07 05:25:33.402801,2025-09-07 01:25:33.402801
"CYQG",2025-09-07 05:00:00,2025-09-07 01:00:00,"VFR",12,7,72,290,2,14500,30.07,NA,"CLR  ft","CYQG 070500Z AUTO 29002KT 9SM CLR 12/07 A3007 RMK SLP185",2025-09-07 05:25:33.537757,2025-09-07 01:25:33.537757
"CYVV",2025-09-07 05:00:00,2025-09-07 01:00:00,"VFR",10,10,100,180,4,9999,29.99,NA,"SCT  ft; OVC  ft","CYVV 070500Z 18004KT 10SM SCT028 OVC049 10/10 A2999 RMK CU4SC4 SLP160",2025-09-07 05:25:33.637116,2025-09-07 01:25:33.637116
"CYYZ",2025-09-07 05:00:00,2025-09-07 01:00:00,"VFR",14,8,67,240,7,24100,29.99,NA,"BKN  ft","CYYZ 070500Z 24007KT 15SM BKN080 14/08 A2999 RMK AC7 SLP159",2025-09-07 05:25:33.736146,2025-09-07 01:25:33.736146
"CYQA",2025-09-07 05:19:00,2025-09-07 01:19:00,"IFR",11,10,94,220,6,3600,29.95,NA,"SCT  ft; SCT  ft; BKN  ft; OVC  ft","CYQA 070519Z AUTO 22006KT 2 1/4SM RA BR SCT007 SCT012 BKN021 OVC041 11/10 A2995 RMK PCPN 0.5MM PAST HR SLP149",2025-09-07 05:25:33.835896,2025-09-07 01:25:33.835896
"CYVR",2025-09-07 05:00:00,2025-09-07 01:00:00,"VFR",17,16,94,90,6,19300,29.92,NA,"BKN  ft; OVC  ft","CYVR 070500Z 09006KT 12SM BKN100 OVC170 17/16 A2992 RMK AC7AS1 HZ SLP133 DENSITY ALT 300FT",2025-09-07 05:25:33.933886,2025-09-07 01:25:33.933886
"CYYJ",2025-09-07 05:00:00,2025-09-07 01:00:00,"VFR",13,12,94,120,3,32200,29.91,NA,"FEW  ft; SCT  ft; BKN  ft","CYYJ 070500Z 12003KT 080V140 20SM FEW100 SCT130 BKN240 13/12 A2991 RMK AC1AC2CI4 SLP132",2025-09-07 05:25:34.034534,2025-09-07 01:25:34.034534
"CYLW",2025-09-07 05:00:00,2025-09-07 01:00:00,"VFR",16,11,72,0,2,9700,29.87,NA,"CLR  ft","CYLW 070500Z AUTO VRB02KT 6SM HZ CLR 16/11 A2987 RMK SLP116 DENSITY ALT 1900FT",2025-09-07 05:25:34.134132,2025-09-07 01:25:34.134132
"CYXS",2025-09-07 05:00:00,2025-09-07 01:00:00,"MVFR",13,13,100,80,2,8000,29.91,NA,"SCT  ft; BKN  ft","CYXS 070500Z AUTO 08002KT 5SM BR SCT150 BKN180 13/13 A2991 RMK SLP142 DENSITY ALT 2600FT",2025-09-07 05:25:34.232681,2025-09-07 01:25:34.232681
"CYXT",2025-09-07 05:00:00,2025-09-07 01:00:00,"VFR",17,15,88,160,8,24100,29.9,NA,"SKC  ft","CYXT 070500Z 16008KT 15SM SKC 17/15 A2990 RMK FU SLP131 DENSITY ALT 1200FT",2025-09-07 05:25:34.369774,2025-09-07 01:25:34.369774
"CYQQ",2025-09-07 05:00:00,2025-09-07 01:00:00,"VFR",20,16,78,0,0,19300,29.92,NA,"BKN  ft; BKN  ft","CYQQ 070500Z 00000KT 12SM BKN150 BKN180 20/16 A2992 RMK AC5AC2 DENSITY ALT 889FT SLP132",2025-09-07 05:25:34.468767,2025-09-07 01:25:34.468767
"CYYC",2025-09-07 05:00:00,2025-09-07 01:00:00,"VFR",18,4,40,200,4,9999,29.98,NA,"FEW  ft; FEW  ft","CYYC 070500Z 20004KT 10SM FEW120 FEW250 18/04 A2998 RMK AC1CI2 AC TR CONTRAILS SLP148 DENSITY ALT 4800FT",2025-09-07 05:25:34.564153,2025-09-07 01:25:34.564153
"CYEG",2025-09-07 05:00:00,2025-09-07 01:00:00,"VFR",9,7,87,220,3,32200,29.91,NA,"BKN  ft","CYEG 070500Z 22003KT 20SM BKN220 09/07 A2991 RMK CI6 SLP141",2025-09-07 05:25:34.663425,2025-09-07 01:25:34.663425
"CYMM",2025-09-07 05:00:00,2025-09-07 01:00:00,"VFR",14,6,59,180,6,14500,29.84,NA,"CLR  ft","CYMM 070500Z AUTO 18006KT 9SM CLR 14/06 A2984 RMK SLP115 DENSITY ALT 1500FT",2025-09-07 05:25:34.758164,2025-09-07 01:25:34.758164
"CYQF",2025-09-07 05:12:00,2025-09-07 01:12:00,"VFR",12,6,67,160,3,9700,29.95,NA,"CLR  ft","CYQF 070512Z AUTO 16003KT 6SM HZ CLR 12/06 A2995 RMK SLP155 DENSITY ALT 3400FT",2025-09-07 05:25:34.850721,2025-09-07 01:25:34.850721
"CYXE",2025-09-07 05:00:00,2025-09-07 01:00:00,"VFR",12,2,51,130,10,24100,30.05,NA,"SKC  ft","CYXE 070500Z 13010KT 15SM SKC 12/02 A3005 RMK SLP190",2025-09-07 05:25:34.984595,2025-09-07 01:25:34.984595
"CYQR",2025-09-07 05:00:00,2025-09-07 01:00:00,"VFR",9,2,62,130,12,24100,30.12,NA,"SKC  ft","CYQR 070500Z 13012G17KT 15SM SKC 09/02 A3012 RMK SLP216",2025-09-07 05:25:35.078509,2025-09-07 01:25:35.078509
"CYWG",2025-09-07 05:00:00,2025-09-07 01:00:00,"VFR",5,4,93,290,4,24100,30.18,NA,"FEW  ft","CYWG 070500Z 29004KT 15SM FEW070 05/04 A3018 RMK AC2 SLP228",2025-09-07 05:25:35.172641,2025-09-07 01:25:35.172641
"CYBR",2025-09-07 05:00:00,2025-09-07 01:00:00,"VFR",3,2,93,20,3,14500,30.19,NA,"CLR  ft","CYBR 070500Z AUTO 02003KT 9SM CLR 03/02 A3019 RMK SLP241",2025-09-07 05:25:35.265739,2025-09-07 01:25:35.265739
"CYUL",2025-09-07 05:00:00,2025-09-07 01:00:00,"VFR",15,11,77,240,11,24100,29.97,NA,"BKN  ft","CYUL 070500Z 24011G18KT 15SM BKN090 15/11 A2997 RMK AC5 SLP152",2025-09-07 05:25:35.362801,2025-09-07 01:25:35.362801
"CYHU",2025-09-07 05:00:00,2025-09-07 01:00:00,"VFR",11,11,100,160,5,14500,29.98,NA,"CLR  ft","CYHU 070500Z AUTO 16005KT 9SM CLR 11/11 A2998 RMK SLP154",2025-09-07 05:25:35.457577,2025-09-07 01:25:35.457577
"CYQB",2025-09-07 05:00:00,2025-09-07 01:00:00,"MVFR",13,12,94,210,3,24100,29.99,NA,"FEW  ft; OVC  ft","CYQB 070500Z 21003KT 15SM FEW010 OVC018 13/12 A2999 RMK SF2SC6 SLP158",2025-09-07 05:25:35.553778,2025-09-07 01:25:35.553778
"CYVO",2025-09-07 05:12:00,2025-09-07 01:12:00,"VFR",9,8,94,160,4,14500,29.88,NA,"SCT  ft; OVC  ft","CYVO 070512Z AUTO 16004KT 9SM SCT055 OVC095 09/08 A2988 RMK SLP132",2025-09-07 05:25:35.690993,2025-09-07 01:25:35.690993
"CYUY",2025-09-07 05:00:00,2025-09-07 01:00:00,"VFR",9,7,87,0,0,24100,29.87,NA,"OVC  ft","CYUY 070500Z 00000KT 15SM OVC038 09/07 A2987 RMK SC8 SLP126",2025-09-07 05:25:35.828919,2025-09-07 01:25:35.828919
"CYZV",2025-09-07 05:00:00,2025-09-07 01:00:00,"VFR",10,9,94,260,5,24100,29.86,NA,"FEW  ft; SCT  ft; BKN  ft","CYZV 070500Z 26005KT 15SM FEW070 SCT190 BKN240 10/09 A2986 RMK AC1AC2CS3 SLP115",2025-09-07 05:25:35.923556,2025-09-07 01:25:35.923556
"CYBC",2025-09-07 05:04:00,2025-09-07 01:04:00,"VFR",9,9,100,230,6,14500,29.9,NA,"FEW  ft; SCT  ft","CYBC 070504Z AUTO 23006KT 9SM FEW004 SCT066 09/09 A2990 RMK SLP129",2025-09-07 05:25:36.019108,2025-09-07 01:25:36.019108
"CYRJ",2025-09-07 05:00:00,2025-09-07 01:00:00,"VFR",11,10,94,240,6,40200,29.9,NA,"FEW  ft; BKN  ft","CYRJ 070500Z 24006KT 25SM FEW015 BKN057 11/10 A2990 RMK SC1SC7 SC TR SLP132",2025-09-07 05:25:36.117456,2025-09-07 01:25:36.117456
"CYHZ",2025-09-07 05:00:00,2025-09-07 01:00:00,"LIFR",20,20,100,190,7,9999,30,NA,"OVC  ft","CYHZ 070500Z 19007KT 10SM -DZ OVC004 20/20 A3000 RMK ST8 SLP162 DENSITY ALT 1200FT",2025-09-07 05:25:36.210331,2025-09-07 01:25:36.210331
"CYYG",2025-09-07 05:00:00,2025-09-07 01:00:00,"VFR",21,19,88,190,12,24100,29.93,NA,"FEW  ft; FEW  ft; BKN  ft","CYYG 070500Z 19012G18KT 15SM FEW040 FEW140 BKN230 21/19 A2993 RMK SC1AC2CI4 SC TR SLP138 DENSITY ALT 1000FT",2025-09-07 05:25:36.303356,2025-09-07 01:25:36.303356
"CYQM",2025-09-07 05:00:00,2025-09-07 01:00:00,"VFR",22,18,78,210,12,24100,29.9,NA,"FEW  ft; SCT  ft; BKN  ft; BKN  ft","CYQM 070500Z 21012KT 15SM FEW021 SCT042 BKN095 BKN130 22/18 A2990 RMK SC2SC1AC4AC1 AC TR SLP126 DENSITY ALT 1200FT",2025-09-07 05:25:36.399151,2025-09-07 01:25:36.399151
"CYFC",2025-09-07 05:00:00,2025-09-07 01:00:00,"VFR",14,14,100,230,2,14500,29.96,NA,"OVC  ft","CYFC 070500Z AUTO 23002KT 9SM OVC033 14/14 A2996 RMK PCPN 0.5MM PAST HR SLP147",2025-09-07 05:25:36.495764,2025-09-07 01:25:36.495764
"CYYT",2025-09-07 05:00:00,2025-09-07 01:00:00,"VFR",17,17,100,250,11,24100,30.12,NA,"FEW  ft; SCT  ft","CYYT 070500Z 25011KT 15SM FEW003 SCT240 17/17 A3012 RMK SF1CI3 SF TR SLP201",2025-09-07 05:25:36.590493,2025-09-07 01:25:36.590493
"CYQY",2025-09-07 05:00:00,2025-09-07 01:00:00,"MVFR",20,20,100,240,8,24100,30.03,NA,"BKN  ft","CYQY 070500Z 24008KT 15SM BKN011 20/20 A3003 RMK SC6 SLP170 DENSITY ALT 800FT",2025-09-07 05:25:36.728297,2025-09-07 01:25:36.728297
"CYXY",2025-09-07 05:00:00,2025-09-07 01:00:00,"VFR",14,10,77,260,5,24100,29.88,NA,"FEW  ft; BKN  ft","CYXY 070500Z 26005KT 15SM FEW082 BKN240 14/10 A2988 RMK AC2CI3 SLP136 DENSITY ALT 2900FT",2025-09-07 05:25:36.825826,2025-09-07 01:25:36.825826
"CYZF",2025-09-07 05:00:00,2025-09-07 01:00:00,"VFR",14,9,72,330,9,24100,29.84,NA,"FEW  ft; BKN  ft","CYZF 070500Z 33009KT 15SM FEW092 BKN130 14/09 A2984 RMK AC1AC6 SLP114",2025-09-07 05:25:36.925424,2025-09-07 01:25:36.925424
"CYFB",2025-09-07 05:00:00,2025-09-07 01:00:00,"VFR",3,0,81,0,0,24100,29.55,NA,"OVC  ft","CYFB 070500Z 00000KT 15SM OVC041 03/M00 A2955 RMK SC8 SLP011",2025-09-07 05:25:37.020982,2025-09-07 01:25:37.020982
"CYRT",2025-09-07 05:00:00,2025-09-07 01:00:00,"VFR",3,2,93,360,8,24100,29.91,NA,"FEW  ft","CYRT 070500Z 36008KT 15SM FEW029 03/02 A2991 RMK SC1 SLP134",2025-09-07 05:25:37.112268,2025-09-07 01:25:37.112268
"CYBK",2025-09-07 05:00:00,2025-09-07 01:00:00,"VFR",1,-1,87,340,5,24100,29.96,NA,"SKC  ft","CYBK 070500Z 34005KT 15SM SKC 01/M01 A2996 RMK SLP150",2025-09-07 05:25:37.204997,2025-09-07 01:25:37.204997
"CYRB",2025-09-07 05:00:00,2025-09-07 01:00:00,"MVFR",-1,-2,93,140,18,40200,29.9,NA,"BKN  ft","CYRB 070500Z 14018KT 25SM BKN012 M01/M02 A2990 RMK ST7 SLP134",2025-09-07 05:25:37.310852,2025-09-07 01:25:37.310852
"CYCO",2025-09-07 05:00:00,2025-09-07 01:00:00,"MVFR",3,0,81,330,17,24100,30.02,NA,"BKN  ft","CYCO 070500Z 33017G23KT 15SM BKN019 03/M00 A3002 RMK SC6 SLP168",2025-09-07 05:25:37.402165,2025-09-07 01:25:37.402165
"CYER",2025-09-07 05:25:00,2025-09-07 01:25:00,"VFR",6,6,100,290,8,14500,29.86,NA,"SCT  ft; SCT  ft; OVC  ft","CYER 070525Z AUTO 29008G15KT 9SM SCT013 SCT033 OVC043 06/06 A2986 RMK SLP114",2025-09-07 05:42:18.92317,2025-09-07 01:42:18.92317
"CYAT",2025-09-07 05:00:00,2025-09-07 01:00:00,"VFR",8,7,93,290,5,14500,29.79,NA,"SCT  ft; BKN  ft; OVC  ft","CYAT 070500Z AUTO 29005KT 9SM SCT026 BKN060 OVC078 08/07 A2979 RMK SLP090",2025-09-07 05:42:19.026793,2025-09-07 01:42:19.026793
"CYMO",2025-09-07 05:00:00,2025-09-07 01:00:00,"VFR",7,6,93,230,6,14500,29.82,NA,"OVC  ft","CYMO 070500Z AUTO 23006KT 9SM OVC050 07/06 A2982 RMK SLP101",2025-09-07 05:42:19.164741,2025-09-07 01:42:19.164741
"CYPL",2025-09-07 05:00:00,2025-09-07 01:00:00,"VFR",6,5,93,320,5,14500,30.02,NA,"BKN  ft; BKN  ft","CYPL 070500Z AUTO 32005KT 280V020 9SM BKN034 BKN043 06/05 A3002 RMK SLP183",2025-09-07 05:42:19.262523,2025-09-07 01:42:19.262523
"CYQT",2025-09-07 05:00:00,2025-09-07 01:00:00,"VFR",8,6,87,290,5,24100,30.03,NA,"FEW  ft; BKN  ft; OVC  ft","CYQT 070500Z 29005KT 15SM FEW045 BKN065 OVC100 08/06 A3003 RMK SC2SC4AC2 SLP176",2025-09-07 05:42:19.399338,2025-09-07 01:42:19.399338
"CYAM",2025-09-07 05:00:00,2025-09-07 01:00:00,"VFR",9,6,82,240,5,32200,29.97,NA,"FEW  ft; SCT  ft; SCT  ft; OVC  ft","CYAM 070500Z 24005KT 20SM FEW046 SCT091 SCT150 OVC190 09/06 A2997 RMK SC1AC3AC1AC4 SC TR SLP155",2025-09-07 05:42:19.493952,2025-09-07 01:42:19.493952
"CYTS",2025-09-07 05:00:00,2025-09-07 01:00:00,"VFR",8,7,93,250,3,24100,29.88,NA,"BKN  ft; OVC  ft","CYTS 070500Z 25003KT 15SM BKN044 OVC089 08/07 A2988 RMK SC5AC3 SLP131",2025-09-07 05:42:19.62899,2025-09-07 01:42:19.62899
"CYSB",2025-09-07 05:00:00,2025-09-07 01:00:00,"VFR",8,7,93,260,3,24100,29.92,NA,"SCT  ft; OVC  ft","CYSB 070500Z 26003KT 15SM SCT022 OVC039 08/07 A2992 RMK SC3SC5 SLP142",2025-09-07 05:42:19.766584,2025-09-07 01:42:19.766584
"CYYB",2025-09-07 05:32:00,2025-09-07 01:32:00,"VFR",9,9,100,200,6,14500,29.91,NA,"FEW  ft; SCT  ft; OVC  ft","CYYB 070532Z AUTO 20006KT 9SM -RA FEW016 SCT027 OVC042 09/09 A2991 RMK SLP139",2025-09-07 05:42:19.9041,2025-09-07 01:42:19.9041
"CYOW",2025-09-07 05:00:00,2025-09-07 01:00:00,"VFR",14,10,77,170,3,24100,29.97,NA,"FEW  ft; BKN  ft","CYOW 070500Z 17003KT 15SM FEW064 BKN085 14/10 A2997 RMK SC1AC5 SLP151",2025-09-07 05:42:19.997707,2025-09-07 01:42:19.997707
"CYGK",2025-09-07 03:00:00,2025-09-06 23:00:00,"VFR",17,10,64,250,4,24100,29.98,NA,"BKN  ft; BKN  ft","CYGK 070300Z 25004KT 15SM BKN080 BKN250 17/10 A2998 RMK AC5CI1 LAST STFD OBS/ NXT 071000Z SLP155",2025-09-07 05:42:20.091947,2025-09-07 01:42:20.091947
"CYQG",2025-09-07 05:00:00,2025-09-07 01:00:00,"VFR",12,7,72,290,2,14500,30.07,NA,"CLR  ft","CYQG 070500Z AUTO 29002KT 9SM CLR 12/07 A3007 RMK SLP185",2025-09-07 05:42:20.224458,2025-09-07 01:42:20.224458
"CYVV",2025-09-07 05:00:00,2025-09-07 01:00:00,"VFR",10,10,100,180,4,9999,29.99,NA,"SCT  ft; OVC  ft","CYVV 070500Z 18004KT 10SM SCT028 OVC049 10/10 A2999 RMK CU4SC4 SLP160",2025-09-07 05:42:20.356735,2025-09-07 01:42:20.356735
"CYYZ",2025-09-07 05:00:00,2025-09-07 01:00:00,"VFR",14,8,67,240,7,24100,29.99,NA,"BKN  ft","CYYZ 070500Z 24007KT 15SM BKN080 14/08 A2999 RMK AC7 SLP159",2025-09-07 05:42:20.45522,2025-09-07 01:42:20.45522
"CYQA",2025-09-07 05:36:00,2025-09-07 01:36:00,"IFR",11,10,94,230,5,9700,29.95,NA,"BKN  ft; BKN  ft; BKN  ft; OVC  ft","CYQA 070536Z AUTO 23005KT 6SM -RA BR BKN005 BKN009 BKN021 OVC039 11/10 A2995 RMK PCPN 0.5MM PAST HR SLP149",2025-09-07 05:42:20.554794,2025-09-07 01:42:20.554794
"CYVR",2025-09-07 05:00:00,2025-09-07 01:00:00,"VFR",17,16,94,90,6,19300,29.92,NA,"BKN  ft; OVC  ft","CYVR 070500Z 09006KT 12SM BKN100 OVC170 17/16 A2992 RMK AC7AS1 HZ SLP133 DENSITY ALT 300FT",2025-09-07 05:42:20.691941,2025-09-07 01:42:20.691941
"CYYJ",2025-09-07 05:00:00,2025-09-07 01:00:00,"VFR",13,12,94,120,3,32200,29.91,NA,"FEW  ft; SCT  ft; BKN  ft","CYYJ 070500Z 12003KT 080V140 20SM FEW100 SCT130 BKN240 13/12 A2991 RMK AC1AC2CI4 SLP132",2025-09-07 05:42:20.788289,2025-09-07 01:42:20.788289
"CYLW",2025-09-07 05:00:00,2025-09-07 01:00:00,"VFR",16,11,72,0,2,9700,29.87,NA,"CLR  ft","CYLW 070500Z AUTO VRB02KT 6SM HZ CLR 16/11 A2987 RMK SLP116 DENSITY ALT 1900FT",2025-09-07 05:42:20.924782,2025-09-07 01:42:20.924782
"CYXS",2025-09-07 05:00:00,2025-09-07 01:00:00,"MVFR",13,13,100,80,2,8000,29.91,NA,"SCT  ft; BKN  ft","CYXS 070500Z AUTO 08002KT 5SM BR SCT150 BKN180 13/13 A2991 RMK SLP142 DENSITY ALT 2600FT",2025-09-07 05:42:21.022287,2025-09-07 01:42:21.022287
"CYXT",2025-09-07 05:00:00,2025-09-07 01:00:00,"VFR",17,15,88,160,8,24100,29.9,NA,"SKC  ft","CYXT 070500Z 16008KT 15SM SKC 17/15 A2990 RMK FU SLP131 DENSITY ALT 1200FT",2025-09-07 05:42:21.159125,2025-09-07 01:42:21.159125
"CYQQ",2025-09-07 05:00:00,2025-09-07 01:00:00,"VFR",20,16,78,0,0,19300,29.92,NA,"BKN  ft; BKN  ft","CYQQ 070500Z 00000KT 12SM BKN150 BKN180 20/16 A2992 RMK AC5AC2 DENSITY ALT 889FT SLP132",2025-09-07 05:42:21.294013,2025-09-07 01:42:21.294013
"CYYC",2025-09-07 05:00:00,2025-09-07 01:00:00,"VFR",18,4,40,200,4,9999,29.98,NA,"FEW  ft; FEW  ft","CYYC 070500Z 20004KT 10SM FEW120 FEW250 18/04 A2998 RMK AC1CI2 AC TR CONTRAILS SLP148 DENSITY ALT 4800FT",2025-09-07 05:42:21.388077,2025-09-07 01:42:21.388077
"CYEG",2025-09-07 05:00:00,2025-09-07 01:00:00,"VFR",9,7,87,220,3,32200,29.91,NA,"BKN  ft","CYEG 070500Z 22003KT 20SM BKN220 09/07 A2991 RMK CI6 SLP141",2025-09-07 05:42:21.483774,2025-09-07 01:42:21.483774
"CYMM",2025-09-07 05:00:00,2025-09-07 01:00:00,"VFR",14,6,59,180,6,14500,29.84,NA,"CLR  ft","CYMM 070500Z AUTO 18006KT 9SM CLR 14/06 A2984 RMK SLP115 DENSITY ALT 1500FT",2025-09-07 05:42:21.625479,2025-09-07 01:42:21.625479
"CYQF",2025-09-07 05:12:00,2025-09-07 01:12:00,"VFR",12,6,67,160,3,9700,29.95,NA,"CLR  ft","CYQF 070512Z AUTO 16003KT 6SM HZ CLR 12/06 A2995 RMK SLP155 DENSITY ALT 3400FT",2025-09-07 05:42:21.763345,2025-09-07 01:42:21.763345
"CYXE",2025-09-07 05:00:00,2025-09-07 01:00:00,"VFR",12,2,51,130,10,24100,30.05,NA,"SKC  ft","CYXE 070500Z 13010KT 15SM SKC 12/02 A3005 RMK SLP190",2025-09-07 05:42:21.900703,2025-09-07 01:42:21.900703
"CYQR",2025-09-07 05:00:00,2025-09-07 01:00:00,"VFR",9,2,62,130,12,24100,30.12,NA,"SKC  ft","CYQR 070500Z 13012G17KT 15SM SKC 09/02 A3012 RMK SLP216",2025-09-07 05:42:21.995682,2025-09-07 01:42:21.995682
"CYWG",2025-09-07 05:00:00,2025-09-07 01:00:00,"VFR",5,4,93,290,4,24100,30.18,NA,"FEW  ft","CYWG 070500Z 29004KT 15SM FEW070 05/04 A3018 RMK AC2 SLP228",2025-09-07 05:42:22.131334,2025-09-07 01:42:22.131334
"CYBR",2025-09-07 05:00:00,2025-09-07 01:00:00,"VFR",3,2,93,20,3,14500,30.19,NA,"CLR  ft","CYBR 070500Z AUTO 02003KT 9SM CLR 03/02 A3019 RMK SLP241",2025-09-07 05:42:22.229316,2025-09-07 01:42:22.229316
"CYUL",2025-09-07 05:00:00,2025-09-07 01:00:00,"VFR",15,11,77,240,11,24100,29.97,NA,"BKN  ft","CYUL 070500Z 24011G18KT 15SM BKN090 15/11 A2997 RMK AC5 SLP152",2025-09-07 05:42:22.36686,2025-09-07 01:42:22.36686
"CYHU",2025-09-07 05:00:00,2025-09-07 01:00:00,"VFR",11,11,100,160,5,14500,29.98,NA,"CLR  ft","CYHU 070500Z AUTO 16005KT 9SM CLR 11/11 A2998 RMK SLP154",2025-09-07 05:42:22.466702,2025-09-07 01:42:22.466702
"CYQB",2025-09-07 05:00:00,2025-09-07 01:00:00,"MVFR",13,12,94,210,3,24100,29.99,NA,"FEW  ft; OVC  ft","CYQB 070500Z 21003KT 15SM FEW010 OVC018 13/12 A2999 RMK SF2SC6 SLP158",2025-09-07 05:42:22.601982,2025-09-07 01:42:22.601982
"CYVO",2025-09-07 05:12:00,2025-09-07 01:12:00,"VFR",9,8,94,160,4,14500,29.88,NA,"SCT  ft; OVC  ft","CYVO 070512Z AUTO 16004KT 9SM SCT055 OVC095 09/08 A2988 RMK SLP132",2025-09-07 05:42:22.701767,2025-09-07 01:42:22.701767
"CYUY",2025-09-07 05:39:00,2025-09-07 01:39:00,"VFR",9,8,94,0,2,24100,29.87,NA,"OVC  ft","CYUY 070539Z VRB02KT 15SM -SHRA OVC035 09/08 A2987 RMK SC8 CVCTV CLD EMBD SLP125",2025-09-07 05:42:22.83531,2025-09-07 01:42:22.83531
"CYZV",2025-09-07 05:00:00,2025-09-07 01:00:00,"VFR",10,9,94,260,5,24100,29.86,NA,"FEW  ft; SCT  ft; BKN  ft","CYZV 070500Z 26005KT 15SM FEW070 SCT190 BKN240 10/09 A2986 RMK AC1AC2CS3 SLP115",2025-09-07 05:42:22.944336,2025-09-07 01:42:22.944336
"CYBC",2025-09-07 05:27:00,2025-09-07 01:27:00,"LIFR",10,9,94,240,7,14500,29.91,NA,"BKN  ft","CYBC 070527Z AUTO 24007KT 9SM BKN004 10/09 A2991 RMK SLP130",2025-09-07 05:42:23.04082,2025-09-07 01:42:23.04082
"CYRJ",2025-09-07 05:00:00,2025-09-07 01:00:00,"VFR",11,10,94,240,6,40200,29.9,NA,"FEW  ft; BKN  ft","CYRJ 070500Z 24006KT 25SM FEW015 BKN057 11/10 A2990 RMK SC1SC7 SC TR SLP132",2025-09-07 05:42:23.140938,2025-09-07 01:42:23.140938
"CYHZ",2025-09-07 05:20:00,2025-09-07 01:20:00,"IFR",21,20,94,200,11,9999,30,NA,"OVC  ft","CYHZ 070520Z 20011KT 10SM -DZ OVC005 21/20 A3000 RMK ST8 SLP162 DENSITY ALT 1200FT",2025-09-07 05:42:23.240226,2025-09-07 01:42:23.240226
"CYYG",2025-09-07 05:00:00,2025-09-07 01:00:00,"VFR",21,19,88,190,12,24100,29.93,NA,"FEW  ft; FEW  ft; BKN  ft","CYYG 070500Z 19012G18KT 15SM FEW040 FEW140 BKN230 21/19 A2993 RMK SC1AC2CI4 SC TR SLP138 DENSITY ALT 1000FT",2025-09-07 05:42:23.333167,2025-09-07 01:42:23.333167
"CYQM",2025-09-07 05:36:00,2025-09-07 01:36:00,"MVFR",21,19,88,260,11,19300,29.91,NA,"BKN  ft; BKN  ft; BKN  ft","CYQM 070536Z 26011G18KT 12SM -RA BKN024 BKN044 BKN086 21/19 A2991 RMK SC5SC1AC1 SLP129 DENSITY ALT 1000FT",2025-09-07 05:42:23.426493,2025-09-07 01:42:23.426493
"CYFC",2025-09-07 05:00:00,2025-09-07 01:00:00,"VFR",14,14,100,230,2,14500,29.96,NA,"OVC  ft","CYFC 070500Z AUTO 23002KT 9SM OVC033 14/14 A2996 RMK PCPN 0.5MM PAST HR SLP147",2025-09-07 05:42:23.523137,2025-09-07 01:42:23.523137
"CYYT",2025-09-07 05:00:00,2025-09-07 01:00:00,"VFR",17,17,100,250,11,24100,30.12,NA,"FEW  ft; SCT  ft","CYYT 070500Z 25011KT 15SM FEW003 SCT240 17/17 A3012 RMK SF1CI3 SF TR SLP201",2025-09-07 05:42:23.661924,2025-09-07 01:42:23.661924
"CYQY",2025-09-07 05:00:00,2025-09-07 01:00:00,"MVFR",20,20,100,240,8,24100,30.03,NA,"BKN  ft","CYQY 070500Z 24008KT 15SM BKN011 20/20 A3003 RMK SC6 SLP170 DENSITY ALT 800FT",2025-09-07 05:42:23.799376,2025-09-07 01:42:23.799376
"CYXY",2025-09-07 05:00:00,2025-09-07 01:00:00,"VFR",14,10,77,260,5,24100,29.88,NA,"FEW  ft; BKN  ft","CYXY 070500Z 26005KT 15SM FEW082 BKN240 14/10 A2988 RMK AC2CI3 SLP136 DENSITY ALT 2900FT",2025-09-07 05:42:23.93419,2025-09-07 01:42:23.93419
"CYZF",2025-09-07 05:00:00,2025-09-07 01:00:00,"VFR",14,9,72,330,9,24100,29.84,NA,"FEW  ft; BKN  ft","CYZF 070500Z 33009KT 15SM FEW092 BKN130 14/09 A2984 RMK AC1AC6 SLP114",2025-09-07 05:42:24.069467,2025-09-07 01:42:24.069467
"CYFB",2025-09-07 05:00:00,2025-09-07 01:00:00,"VFR",3,0,81,0,0,24100,29.55,NA,"OVC  ft","CYFB 070500Z 00000KT 15SM OVC041 03/M00 A2955 RMK SC8 SLP011",2025-09-07 05:42:24.165997,2025-09-07 01:42:24.165997
"CYRT",2025-09-07 05:00:00,2025-09-07 01:00:00,"VFR",3,2,93,360,8,24100,29.91,NA,"FEW  ft","CYRT 070500Z 36008KT 15SM FEW029 03/02 A2991 RMK SC1 SLP134",2025-09-07 05:42:24.258703,2025-09-07 01:42:24.258703
"CYBK",2025-09-07 05:00:00,2025-09-07 01:00:00,"VFR",1,-1,87,340,5,24100,29.96,NA,"SKC  ft","CYBK 070500Z 34005KT 15SM SKC 01/M01 A2996 RMK SLP150",2025-09-07 05:42:24.35383,2025-09-07 01:42:24.35383
"CYRB",2025-09-07 05:00:00,2025-09-07 01:00:00,"MVFR",-1,-2,93,140,18,40200,29.9,NA,"BKN  ft","CYRB 070500Z 14018KT 25SM BKN012 M01/M02 A2990 RMK ST7 SLP134",2025-09-07 05:42:24.457595,2025-09-07 01:42:24.457595
"CYCO",2025-09-07 05:00:00,2025-09-07 01:00:00,"MVFR",3,0,81,330,17,24100,30.02,NA,"BKN  ft","CYCO 070500Z 33017G23KT 15SM BKN019 03/M00 A3002 RMK SC6 SLP168",2025-09-07 05:42:24.595168,2025-09-07 01:42:24.595168
"CYER",2025-09-07 06:00:00,2025-09-07 02:00:00,"VFR",5,5,100,280,9,14500,29.85,NA,"BKN  ft","CYER 070600Z AUTO 28009KT 9SM BKN047 05/05 A2985 RMK SLP112",2025-09-07 06:34:53.757474,2025-09-07 02:34:53.757474
"CYAT",2025-09-07 06:00:00,2025-09-07 02:00:00,"VFR",8,7,93,300,4,14500,29.8,NA,"FEW  ft; BKN  ft; OVC  ft","CYAT 070600Z AUTO 30004KT 9SM FEW036 BKN081 OVC094 08/07 A2980 RMK SLP093",2025-09-07 06:34:53.808764,2025-09-07 02:34:53.808764
"CYMO",2025-09-07 06:00:00,2025-09-07 02:00:00,"VFR",7,6,93,240,6,14500,29.82,NA,"OVC  ft","CYMO 070600Z AUTO 24006KT 9SM OVC050 07/06 A2982 RMK SLP101",2025-09-07 06:34:53.893438,2025-09-07 02:34:53.893438
"CYPL",2025-09-07 06:29:00,2025-09-07 02:29:00,"MVFR",6,5,93,340,6,8000,30.04,NA,"SCT  ft; BKN  ft; OVC  ft","CYPL 070629Z AUTO 34006KT 280V010 5SM -RA BR SCT008 BKN012 OVC023 06/05 A3004 RMK SLP190",2025-09-07 06:34:53.979564,2025-09-07 02:34:53.979564
"CYQT",2025-09-07 06:00:00,2025-09-07 02:00:00,"VFR",8,6,87,300,6,24100,30.04,NA,"BKN  ft; OVC  ft","CYQT 070600Z 30006KT 15SM BKN035 OVC100 08/06 A3004 RMK SC6AC2 SLP178",2025-09-07 06:34:54.031809,2025-09-07 02:34:54.031809
"CYAM",2025-09-07 06:00:00,2025-09-07 02:00:00,"VFR",10,7,82,260,9,32200,29.97,NA,"FEW  ft; OVC  ft","CYAM 070600Z 26009KT 20SM FEW036 OVC070 10/07 A2997 RMK SC1AC7 SLP156",2025-09-07 06:34:54.119535,2025-09-07 02:34:54.119535
"CYTS",2025-09-07 06:00:00,2025-09-07 02:00:00,"VFR",7,6,93,250,3,24100,29.89,NA,"OVC  ft","CYTS 070600Z 25003KT 15SM OVC086 07/06 A2989 RMK AC8 SLP132",2025-09-07 06:34:54.202838,2025-09-07 02:34:54.202838
"CYSB",2025-09-07 06:00:00,2025-09-07 02:00:00,"VFR",7,7,100,260,4,24100,29.93,NA,"SCT  ft; OVC  ft","CYSB 070600Z 26004KT 15SM SCT026 OVC043 07/07 A2993 RMK SC3SC5 SLP143",2025-09-07 06:34:54.287545,2025-09-07 02:34:54.287545
"CYYB",2025-09-07 06:30:00,2025-09-07 02:30:00,"MVFR",9,9,100,260,4,14500,29.91,NA,"SCT  ft; OVC  ft","CYYB 070630Z AUTO 26004KT 9SM -RA SCT007 OVC018 09/09 A2991 RMK SLP139",2025-09-07 06:34:54.370087,2025-09-07 02:34:54.370087
"CYOW",2025-09-07 06:00:00,2025-09-07 02:00:00,"VFR",13,10,82,210,4,24100,29.96,NA,"BKN  ft","CYOW 070600Z CCA 21004KT 15SM BKN074 13/10 A2996 RMK AC5 SLP150",2025-09-07 06:34:54.457922,2025-09-07 02:34:54.457922
"CYGK",2025-09-07 03:00:00,2025-09-06 23:00:00,"VFR",17,10,64,250,4,24100,29.98,NA,"BKN  ft; BKN  ft","CYGK 070300Z 25004KT 15SM BKN080 BKN250 17/10 A2998 RMK AC5CI1 LAST STFD OBS/ NXT 071000Z SLP155",2025-09-07 06:34:54.544993,2025-09-07 02:34:54.544993
"CYQG",2025-09-07 06:00:00,2025-09-07 02:00:00,"VFR",10,7,82,230,3,14500,30.07,NA,"FEW  ft","CYQG 070600Z AUTO 23003KT 9SM FEW081 10/07 A3007 RMK SLP187",2025-09-07 06:34:54.627231,2025-09-07 02:34:54.627231
"CYVV",2025-09-07 06:00:00,2025-09-07 02:00:00,"VFR",10,10,100,250,3,9999,29.99,NA,"FEW  ft; SCT  ft; BKN  ft","CYVV 070600Z 25003KT 210V290 10SM FEW011 SCT033 BKN069 10/10 A2999 RMK SF1CU4AC3 SF TR SLP162",2025-09-07 06:34:54.67129,2025-09-07 02:34:54.67129
"CYYZ",2025-09-07 06:00:00,2025-09-07 02:00:00,"VFR",14,9,72,250,9,24100,29.99,NA,"FEW  ft; OVC  ft","CYYZ 070600Z 25009KT 15SM FEW060 OVC080 14/09 A2999 RMK SC1AC8 SC TR SLP158",2025-09-07 06:34:54.7555,2025-09-07 02:34:54.7555
"CYQA",2025-09-07 06:00:00,2025-09-07 02:00:00,"MVFR",11,10,94,250,4,14500,29.94,NA,"SCT  ft; BKN  ft; BKN  ft; OVC  ft","CYQA 070600Z AUTO 25004KT 9SM -RA SCT005 BKN013 BKN024 OVC066 11/10 A2994 RMK PCPN 0.5MM PAST HR SLP145",2025-09-07 06:34:54.839067,2025-09-07 02:34:54.839067
"CYVR",2025-09-07 06:00:00,2025-09-07 02:00:00,"VFR",17,15,88,120,7,19300,29.93,NA,"OVC  ft","CYVR 070600Z 12007KT 12SM OVC100 17/15 A2993 RMK AC8 HZ SLP139 DENSITY ALT 300FT",2025-09-07 06:34:54.922988,2025-09-07 02:34:54.922988
"CYYJ",2025-09-07 06:00:00,2025-09-07 02:00:00,"VFR",13,12,94,130,6,32200,29.94,NA,"FEW  ft; FEW  ft; BKN  ft","CYYJ 070600Z 13006KT 20SM FEW100 FEW130 BKN240 13/12 A2994 RMK AC1AC1CI3 SLP142",2025-09-07 06:34:55.006039,2025-09-07 02:34:55.006039
"CYLW",2025-09-07 06:00:00,2025-09-07 02:00:00,"VFR",15,11,77,50,3,9700,29.88,NA,"CLR  ft","CYLW 070600Z AUTO 05003KT 6SM HZ CLR 15/11 A2988 RMK SLP118 DENSITY ALT 1800FT",2025-09-07 06:34:55.091709,2025-09-07 02:34:55.091709
"CYXS",2025-09-07 06:08:00,2025-09-07 02:08:00,"MVFR",13,13,100,210,2,4800,29.91,NA,"FEW  ft","CYXS 070608Z AUTO 21002KT 3SM BR FEW150 13/13 A2991 RMK SLP141 DENSITY ALT 2600FT",2025-09-07 06:34:55.179716,2025-09-07 02:34:55.179716
"CYXT",2025-09-07 06:00:00,2025-09-07 02:00:00,"VFR",17,15,88,170,4,32200,29.92,NA,"SKC  ft","CYXT 070600Z 17004KT 20SM SKC 17/15 A2992 RMK SLP135 DENSITY ALT 1100FT",2025-09-07 06:34:55.264265,2025-09-07 02:34:55.264265
"CYQQ",2025-09-07 06:00:00,2025-09-07 02:00:00,"VFR",19,16,83,0,0,32200,29.93,NA,"BKN  ft; OVC  ft","CYQQ 070600Z 00000KT 20SM BKN170 OVC190 19/16 A2993 RMK AC6AC2 DENSITY ALT 832FT SLP134",2025-09-07 06:34:55.347509,2025-09-07 02:34:55.347509
"CYYC",2025-09-07 06:00:00,2025-09-07 02:00:00,"VFR",17,5,45,190,2,9999,29.97,NA,"FEW  ft","CYYC 070600Z 19002KT 10SM FEW120 17/05 A2997 RMK AC2 VIRGA OVRHD SLP144 DENSITY ALT 4600FT",2025-09-07 06:34:55.429938,2025-09-07 02:34:55.429938
"CYEG",2025-09-07 06:00:00,2025-09-07 02:00:00,"VFR",9,8,94,200,3,32200,29.91,NA,"BKN  ft","CYEG 070600Z 20003KT 20SM BKN220 09/08 A2991 RMK CI7 SLP137",2025-09-07 06:34:55.47295,2025-09-07 02:34:55.47295
"CYMM",2025-09-07 06:00:00,2025-09-07 02:00:00,"VFR",13,6,63,0,0,14500,29.84,NA,"CLR  ft","CYMM 070600Z AUTO 00000KT 9SM CLR 13/06 A2984 RMK SLP114",2025-09-07 06:34:55.557472,2025-09-07 02:34:55.557472
"CYQF",2025-09-07 06:00:00,2025-09-07 02:00:00,"VFR",11,5,67,0,2,11300,29.94,NA,"CLR  ft","CYQF 070600Z AUTO VRB02KT 7SM CLR 11/05 A2994 RMK SLP148 DENSITY ALT 3200FT",2025-09-07 06:34:55.642103,2025-09-07 02:34:55.642103
"CYXE",2025-09-07 06:00:00,2025-09-07 02:00:00,"VFR",10,3,62,130,8,24100,30.05,NA,"SKC  ft","CYXE 070600Z 13008KT 15SM SKC 10/03 A3005 RMK SLP189",2025-09-07 06:34:55.726993,2025-09-07 02:34:55.726993
"CYQR",2025-09-07 06:00:00,2025-09-07 02:00:00,"VFR",7,2,71,120,11,24100,30.12,NA,"SKC  ft","CYQR 070600Z 12011KT 15SM SKC 07/02 A3012 RMK SLP216",2025-09-07 06:34:55.811172,2025-09-07 02:34:55.811172
"CYWG",2025-09-07 06:00:00,2025-09-07 02:00:00,"VFR",4,4,100,270,4,24100,30.18,NA,"SKC  ft","CYWG 070600Z 27004KT 15SM SKC 04/04 A3018 RMK SLP229",2025-09-07 06:34:55.896789,2025-09-07 02:34:55.896789
"CYBR",2025-09-07 06:00:00,2025-09-07 02:00:00,"VFR",2,1,93,30,2,14500,30.19,NA,"CLR  ft","CYBR 070600Z AUTO 03002KT 9SM CLR 02/01 A3019 RMK SLP242",2025-09-07 06:34:55.980955,2025-09-07 02:34:55.980955
"CYUL",2025-09-07 06:00:00,2025-09-07 02:00:00,"VFR",13,10,82,310,3,24100,29.97,NA,"SCT  ft","CYUL 070600Z 31003KT 250V330 15SM SCT090 13/10 A2997 RMK AC4 SLP151",2025-09-07 06:34:56.068733,2025-09-07 02:34:56.068733
"CYHU",2025-09-07 06:00:00,2025-09-07 02:00:00,"VFR",11,10,94,160,5,14500,29.97,NA,"CLR  ft","CYHU 070600Z AUTO 16005KT 9SM CLR 11/10 A2997 RMK SLP152",2025-09-07 06:34:56.161057,2025-09-07 02:34:56.161057
"CYQB",2025-09-07 06:00:00,2025-09-07 02:00:00,"IFR",12,12,100,0,0,24100,29.99,NA,"OVC  ft","CYQB 070600Z 00000KT 15SM OVC007 12/12 A2999 RMK ST8 SLP158",2025-09-07 06:34:56.214862,2025-09-07 02:34:56.214862
"CYVO",2025-09-07 06:14:00,2025-09-07 02:14:00,"MVFR",9,8,94,180,5,14500,29.87,NA,"BKN  ft; BKN  ft; OVC  ft","CYVO 070614Z AUTO 18005KT 9SM -RA BKN026 BKN039 OVC091 09/08 A2987 RMK SLP130",2025-09-07 06:34:56.300755,2025-09-07 02:34:56.300755
"CYUY",2025-09-07 06:00:00,2025-09-07 02:00:00,"VFR",9,8,94,0,0,24100,29.87,NA,"OVC  ft","CYUY 070600Z 00000KT 15SM -SHRA OVC035 09/08 A2987 RMK SC8 CVCTV CLD EMBD SLP124",2025-09-07 06:34:56.388461,2025-09-07 02:34:56.388461
"CYZV",2025-09-07 06:00:00,2025-09-07 02:00:00,"VFR",10,9,94,290,3,24100,29.86,NA,"FEW  ft; FEW  ft; BKN  ft","CYZV 070600Z 29003KT 240V300 15SM FEW068 FEW200 BKN240 10/09 A2986 RMK AC1CI1CS3 SLP114",2025-09-07 06:34:56.474562,2025-09-07 02:34:56.474562
"CYBC",2025-09-07 06:00:00,2025-09-07 02:00:00,"VFR",9,9,100,240,10,14500,29.91,NA,"CLR  ft","CYBC 070600Z AUTO 24010KT 9SM CLR 09/09 A2991 RMK SLP130",2025-09-07 06:34:56.560206,2025-09-07 02:34:56.560206
"CYRJ",2025-09-07 06:00:00,2025-09-07 02:00:00,"VFR",11,10,94,240,7,40200,29.91,NA,"BKN  ft","CYRJ 070600Z 24007KT 25SM BKN057 11/10 A2991 RMK SC7 SLP133",2025-09-07 06:34:56.622117,2025-09-07 02:34:56.622117
"CYHZ",2025-09-07 06:16:00,2025-09-07 02:16:00,"LIFR",21,20,94,200,9,4000,29.99,NA,"OVC  ft","CYHZ 070616Z 20009KT 2 1/2SM -DZ BR OVC003 21/20 A2999 RMK ST8 SLP155 DENSITY ALT 1200FT",2025-09-07 06:34:56.706465,2025-09-07 02:34:56.706465
"CYYG",2025-09-07 06:00:00,2025-09-07 02:00:00,"VFR",21,19,88,200,13,24100,29.92,NA,"FEW  ft; BKN  ft","CYYG 070600Z 20013G19KT 15SM FEW030 BKN240 21/19 A2992 RMK SC1CI4 SLP135 DENSITY ALT 1000FT",2025-09-07 06:34:56.79221,2025-09-07 02:34:56.79221
"CYQM",2025-09-07 06:00:00,2025-09-07 02:00:00,"MVFR",17,17,100,310,10,19300,29.92,NA,"FEW  ft; BKN  ft; BKN  ft","CYQM 070600Z CCA 31010KT 12SM -RA FEW005 BKN016 BKN025 17/17 A2992 RMK ST1SC4SC2 SLP134 DENSITY ALT 600FT",2025-09-07 06:34:56.877341,2025-09-07 02:34:56.877341
"CYFC",2025-09-07 06:00:00,2025-09-07 02:00:00,"VFR",15,14,94,230,3,14500,29.96,NA,"OVC  ft","CYFC 070600Z AUTO 23003KT 9SM OVC036 15/14 A2996 RMK SLP146",2025-09-07 06:34:56.967177,2025-09-07 02:34:56.967177
"CYYT",2025-09-07 06:00:00,2025-09-07 02:00:00,"VFR",18,17,94,270,12,24100,30.11,NA,"FEW  ft; FEW  ft","CYYT 070600Z 27012KT 15SM FEW003 FEW240 18/17 A3011 RMK SF1CI2 SF TR SLP198 DENSITY ALT 700FT",2025-09-07 06:34:57.050035,2025-09-07 02:34:57.050035
"CYQY",2025-09-07 06:00:00,2025-09-07 02:00:00,"MVFR",20,20,100,220,7,24100,30.01,NA,"BKN  ft; BKN  ft","CYQY 070600Z 22007KT 15SM BKN012 BKN120 20/20 A3001 RMK SC5AC2 SLP163 DENSITY ALT 800FT",2025-09-07 06:34:57.135573,2025-09-07 02:34:57.135573
"CYXY",2025-09-07 06:00:00,2025-09-07 02:00:00,"VFR",13,8,72,240,3,24100,29.89,NA,"BKN  ft","CYXY 070600Z 24003KT 15SM BKN240 13/08 A2989 RMK CI5 SLP140 DENSITY ALT 2700FT",2025-09-07 06:34:57.219584,2025-09-07 02:34:57.219584
"CYZF",2025-09-07 06:00:00,2025-09-07 02:00:00,"VFR",14,11,82,350,10,9999,29.86,NA,"SCT  ft; BKN  ft","CYZF 070600Z 35010G16KT 10SM SCT110 BKN180 14/11 A2986 RMK AC3AC4 SLP121",2025-09-07 06:34:57.30608,2025-09-07 02:34:57.30608
"CYFB",2025-09-07 06:00:00,2025-09-07 02:00:00,"VFR",3,0,81,80,4,24100,29.55,NA,"BKN  ft","CYFB 070600Z 08004KT 060V210 15SM BKN045 03/00 A2955 RMK SC7 SLP010",2025-09-07 06:34:57.387186,2025-09-07 02:34:57.387186
"CYRT",2025-09-07 06:00:00,2025-09-07 02:00:00,"VFR",2,2,100,10,8,24100,29.92,NA,"SKC  ft","CYRT 070600Z 01008KT 15SM SKC 02/02 A2992 RMK SLP136",2025-09-07 06:34:57.434623,2025-09-07 02:34:57.434623
"CYBK",2025-09-07 06:00:00,2025-09-07 02:00:00,"VFR",0,-1,93,330,5,24100,29.96,NA,"SKC  ft","CYBK 070600Z 33005KT 15SM SKC 00/M01 A2996 RMK SLP149",2025-09-07 06:34:57.52197,2025-09-07 02:34:57.52197
"CYRB",2025-09-07 06:00:00,2025-09-07 02:00:00,"MVFR",-1,-2,93,140,18,40200,29.89,NA,"BKN  ft","CYRB 070600Z 14018KT 25SM BKN011 M01/M02 A2989 RMK ST7 SLP129",2025-09-07 06:34:57.605162,2025-09-07 02:34:57.605162
"CYCO",2025-09-07 06:00:00,2025-09-07 02:00:00,"MVFR",2,-1,81,320,12,24100,30.04,NA,"BKN  ft","CYCO 070600Z 32012KT 15SM BKN018 02/M01 A3004 RMK SC7 SLP175",2025-09-07 06:34:57.66017,2025-09-07 02:34:57.66017
"CYER",2025-09-07 06:00:00,2025-09-07 02:00:00,"VFR",5,5,100,280,9,14500,29.85,NA,"BKN  ft","CYER 070600Z AUTO 28009KT 9SM BKN047 05/05 A2985 RMK SLP112",2025-09-07 06:47:31.421081,2025-09-07 02:47:31.421081
"CYAT",2025-09-07 06:00:00,2025-09-07 02:00:00,"VFR",8,7,93,300,4,14500,29.8,NA,"FEW  ft; BKN  ft; OVC  ft","CYAT 070600Z AUTO 30004KT 9SM FEW036 BKN081 OVC094 08/07 A2980 RMK SLP093",2025-09-07 06:47:31.520832,2025-09-07 02:47:31.520832
"CYMO",2025-09-07 06:00:00,2025-09-07 02:00:00,"VFR",7,6,93,240,6,14500,29.82,NA,"OVC  ft","CYMO 070600Z AUTO 24006KT 9SM OVC050 07/06 A2982 RMK SLP101",2025-09-07 06:47:31.61439,2025-09-07 02:47:31.61439
"CYPL",2025-09-07 06:42:00,2025-09-07 02:42:00,"IFR",6,5,93,330,6,4800,30.04,NA,"BKN  ft; OVC  ft","CYPL 070642Z AUTO 33006KT 300V030 3SM -RA BR BKN006 OVC023 06/05 A3004 RMK SLP190",2025-09-07 06:47:31.706856,2025-09-07 02:47:31.706856
"CYQT",2025-09-07 06:00:00,2025-09-07 02:00:00,"VFR",8,6,87,300,6,24100,30.04,NA,"BKN  ft; OVC  ft","CYQT 070600Z 30006KT 15SM BKN035 OVC100 08/06 A3004 RMK SC6AC2 SLP178",2025-09-07 06:47:31.803037,2025-09-07 02:47:31.803037
"CYAM",2025-09-07 06:00:00,2025-09-07 02:00:00,"VFR",10,7,82,260,9,32200,29.97,NA,"FEW  ft; OVC  ft","CYAM 070600Z 26009KT 20SM FEW036 OVC070 10/07 A2997 RMK SC1AC7 SLP156",2025-09-07 06:47:31.894621,2025-09-07 02:47:31.894621
"CYTS",2025-09-07 06:00:00,2025-09-07 02:00:00,"VFR",7,6,93,250,3,24100,29.89,NA,"OVC  ft","CYTS 070600Z 25003KT 15SM OVC086 07/06 A2989 RMK AC8 SLP132",2025-09-07 06:47:31.985888,2025-09-07 02:47:31.985888
"CYSB",2025-09-07 06:00:00,2025-09-07 02:00:00,"VFR",7,7,100,260,4,24100,29.93,NA,"SCT  ft; OVC  ft","CYSB 070600Z 26004KT 15SM SCT026 OVC043 07/07 A2993 RMK SC3SC5 SLP143",2025-09-07 06:47:32.082351,2025-09-07 02:47:32.082351
"CYYB",2025-09-07 06:44:00,2025-09-07 02:44:00,"MVFR",9,9,100,260,3,14500,29.91,NA,"SCT  ft; OVC  ft","CYYB 070644Z AUTO 26003KT 210V290 9SM SCT007 OVC020 09/09 A2991 RMK SLP139",2025-09-07 06:47:32.180686,2025-09-07 02:47:32.180686
"CYOW",2025-09-07 06:00:00,2025-09-07 02:00:00,"VFR",13,10,82,210,4,24100,29.96,NA,"BKN  ft","CYOW 070600Z CCA 21004KT 15SM BKN074 13/10 A2996 RMK AC5 SLP150",2025-09-07 06:47:32.313133,2025-09-07 02:47:32.313133
"CYGK",2025-09-07 03:00:00,2025-09-06 23:00:00,"VFR",17,10,64,250,4,24100,29.98,NA,"BKN  ft; BKN  ft","CYGK 070300Z 25004KT 15SM BKN080 BKN250 17/10 A2998 RMK AC5CI1 LAST STFD OBS/ NXT 071000Z SLP155",2025-09-07 06:47:32.410329,2025-09-07 02:47:32.410329
"CYQG",2025-09-07 06:00:00,2025-09-07 02:00:00,"VFR",10,7,82,230,3,14500,30.07,NA,"FEW  ft","CYQG 070600Z AUTO 23003KT 9SM FEW081 10/07 A3007 RMK SLP187",2025-09-07 06:47:32.503783,2025-09-07 02:47:32.503783
"CYVV",2025-09-07 06:00:00,2025-09-07 02:00:00,"VFR",10,10,100,250,3,9999,29.99,NA,"FEW  ft; SCT  ft; BKN  ft","CYVV 070600Z 25003KT 210V290 10SM FEW011 SCT033 BKN069 10/10 A2999 RMK SF1CU4AC3 SF TR SLP162",2025-09-07 06:47:32.597974,2025-09-07 02:47:32.597974
"CYYZ",2025-09-07 06:00:00,2025-09-07 02:00:00,"VFR",14,9,72,250,9,24100,29.99,NA,"FEW  ft; OVC  ft","CYYZ 070600Z 25009KT 15SM FEW060 OVC080 14/09 A2999 RMK SC1AC8 SC TR SLP158",2025-09-07 06:47:32.699353,2025-09-07 02:47:32.699353
"CYQA",2025-09-07 06:00:00,2025-09-07 02:00:00,"MVFR",11,10,94,250,4,14500,29.94,NA,"SCT  ft; BKN  ft; BKN  ft; OVC  ft","CYQA 070600Z AUTO 25004KT 9SM -RA SCT005 BKN013 BKN024 OVC066 11/10 A2994 RMK PCPN 0.5MM PAST HR SLP145",2025-09-07 06:47:32.794502,2025-09-07 02:47:32.794502
"CYVR",2025-09-07 06:00:00,2025-09-07 02:00:00,"VFR",17,15,88,120,7,19300,29.93,NA,"OVC  ft","CYVR 070600Z 12007KT 12SM OVC100 17/15 A2993 RMK AC8 HZ SLP139 DENSITY ALT 300FT",2025-09-07 06:47:32.926627,2025-09-07 02:47:32.926627
"CYYJ",2025-09-07 06:00:00,2025-09-07 02:00:00,"VFR",13,12,94,130,6,32200,29.94,NA,"FEW  ft; FEW  ft; BKN  ft","CYYJ 070600Z 13006KT 20SM FEW100 FEW130 BKN240 13/12 A2994 RMK AC1AC1CI3 SLP142",2025-09-07 06:47:33.020225,2025-09-07 02:47:33.020225
"CYLW",2025-09-07 06:00:00,2025-09-07 02:00:00,"VFR",15,11,77,50,3,9700,29.88,NA,"CLR  ft","CYLW 070600Z AUTO 05003KT 6SM HZ CLR 15/11 A2988 RMK SLP118 DENSITY ALT 1800FT",2025-09-07 06:47:33.156879,2025-09-07 02:47:33.156879
"CYXS",2025-09-07 06:08:00,2025-09-07 02:08:00,"MVFR",13,13,100,210,2,4800,29.91,NA,"FEW  ft","CYXS 070608Z AUTO 21002KT 3SM BR FEW150 13/13 A2991 RMK SLP141 DENSITY ALT 2600FT",2025-09-07 06:47:33.291201,2025-09-07 02:47:33.291201
"CYXT",2025-09-07 06:00:00,2025-09-07 02:00:00,"VFR",17,15,88,170,4,32200,29.92,NA,"SKC  ft","CYXT 070600Z 17004KT 20SM SKC 17/15 A2992 RMK SLP135 DENSITY ALT 1100FT",2025-09-07 06:47:33.383067,2025-09-07 02:47:33.383067
"CYQQ",2025-09-07 06:00:00,2025-09-07 02:00:00,"VFR",19,16,83,0,0,32200,29.93,NA,"BKN  ft; OVC  ft","CYQQ 070600Z 00000KT 20SM BKN170 OVC190 19/16 A2993 RMK AC6AC2 DENSITY ALT 832FT SLP134",2025-09-07 06:47:33.476148,2025-09-07 02:47:33.476148
"CYYC",2025-09-07 06:00:00,2025-09-07 02:00:00,"VFR",17,5,45,190,2,9999,29.97,NA,"FEW  ft","CYYC 070600Z 19002KT 10SM FEW120 17/05 A2997 RMK AC2 VIRGA OVRHD SLP144 DENSITY ALT 4600FT",2025-09-07 06:47:33.569058,2025-09-07 02:47:33.569058
"CYEG",2025-09-07 06:00:00,2025-09-07 02:00:00,"VFR",9,8,94,200,3,32200,29.91,NA,"BKN  ft","CYEG 070600Z 20003KT 20SM BKN220 09/08 A2991 RMK CI7 SLP137",2025-09-07 06:47:33.665007,2025-09-07 02:47:33.665007
"CYMM",2025-09-07 06:00:00,2025-09-07 02:00:00,"VFR",13,6,63,0,0,14500,29.84,NA,"CLR  ft","CYMM 070600Z AUTO 00000KT 9SM CLR 13/06 A2984 RMK SLP114",2025-09-07 06:47:33.759392,2025-09-07 02:47:33.759392
"CYQF",2025-09-07 06:00:00,2025-09-07 02:00:00,"VFR",11,5,67,0,2,11300,29.94,NA,"CLR  ft","CYQF 070600Z AUTO VRB02KT 7SM CLR 11/05 A2994 RMK SLP148 DENSITY ALT 3200FT",2025-09-07 06:47:33.852304,2025-09-07 02:47:33.852304
"CYXE",2025-09-07 06:00:00,2025-09-07 02:00:00,"VFR",10,3,62,130,8,24100,30.05,NA,"SKC  ft","CYXE 070600Z 13008KT 15SM SKC 10/03 A3005 RMK SLP189",2025-09-07 06:47:33.944875,2025-09-07 02:47:33.944875
"CYQR",2025-09-07 06:00:00,2025-09-07 02:00:00,"VFR",7,2,71,120,11,24100,30.12,NA,"SKC  ft","CYQR 070600Z 12011KT 15SM SKC 07/02 A3012 RMK SLP216",2025-09-07 06:47:34.08185,2025-09-07 02:47:34.08185
"CYWG",2025-09-07 06:00:00,2025-09-07 02:00:00,"VFR",4,4,100,270,4,24100,30.18,NA,"SKC  ft","CYWG 070600Z 27004KT 15SM SKC 04/04 A3018 RMK SLP229",2025-09-07 06:47:34.214621,2025-09-07 02:47:34.214621
"CYBR",2025-09-07 06:00:00,2025-09-07 02:00:00,"VFR",2,1,93,30,2,14500,30.19,NA,"CLR  ft","CYBR 070600Z AUTO 03002KT 9SM CLR 02/01 A3019 RMK SLP242",2025-09-07 06:47:34.35053,2025-09-07 02:47:34.35053
"CYUL",2025-09-07 06:00:00,2025-09-07 02:00:00,"VFR",13,10,82,310,3,24100,29.97,NA,"SCT  ft","CYUL 070600Z 31003KT 250V330 15SM SCT090 13/10 A2997 RMK AC4 SLP151",2025-09-07 06:47:34.44696,2025-09-07 02:47:34.44696
"CYHU",2025-09-07 06:00:00,2025-09-07 02:00:00,"VFR",11,10,94,160,5,14500,29.97,NA,"CLR  ft","CYHU 070600Z AUTO 16005KT 9SM CLR 11/10 A2997 RMK SLP152",2025-09-07 06:47:34.544464,2025-09-07 02:47:34.544464
"CYQB",2025-09-07 06:00:00,2025-09-07 02:00:00,"IFR",12,12,100,0,0,24100,29.99,NA,"OVC  ft","CYQB 070600Z 00000KT 15SM OVC007 12/12 A2999 RMK ST8 SLP158",2025-09-07 06:47:34.63815,2025-09-07 02:47:34.63815
"CYVO",2025-09-07 06:14:00,2025-09-07 02:14:00,"MVFR",9,8,94,180,5,14500,29.87,NA,"BKN  ft; BKN  ft; OVC  ft","CYVO 070614Z AUTO 18005KT 9SM -RA BKN026 BKN039 OVC091 09/08 A2987 RMK SLP130",2025-09-07 06:47:34.732347,2025-09-07 02:47:34.732347
"CYUY",2025-09-07 06:00:00,2025-09-07 02:00:00,"VFR",9,8,94,0,0,24100,29.87,NA,"OVC  ft","CYUY 070600Z 00000KT 15SM -SHRA OVC035 09/08 A2987 RMK SC8 CVCTV CLD EMBD SLP124",2025-09-07 06:47:34.82687,2025-09-07 02:47:34.82687
"CYZV",2025-09-07 06:00:00,2025-09-07 02:00:00,"VFR",10,9,94,290,3,24100,29.86,NA,"FEW  ft; FEW  ft; BKN  ft","CYZV 070600Z 29003KT 240V300 15SM FEW068 FEW200 BKN240 10/09 A2986 RMK AC1CI1CS3 SLP114",2025-09-07 06:47:34.920141,2025-09-07 02:47:34.920141
"CYBC",2025-09-07 06:00:00,2025-09-07 02:00:00,"VFR",9,9,100,240,10,14500,29.91,NA,"CLR  ft","CYBC 070600Z AUTO 24010KT 9SM CLR 09/09 A2991 RMK SLP130",2025-09-07 06:47:35.054701,2025-09-07 02:47:35.054701
"CYRJ",2025-09-07 06:00:00,2025-09-07 02:00:00,"VFR",11,10,94,240,7,40200,29.91,NA,"BKN  ft","CYRJ 070600Z 24007KT 25SM BKN057 11/10 A2991 RMK SC7 SLP133",2025-09-07 06:47:35.149271,2025-09-07 02:47:35.149271
"CYHZ",2025-09-07 06:16:00,2025-09-07 02:16:00,"LIFR",21,20,94,200,9,4000,29.99,NA,"OVC  ft","CYHZ 070616Z 20009KT 2 1/2SM -DZ BR OVC003 21/20 A2999 RMK ST8 SLP155 DENSITY ALT 1200FT",2025-09-07 06:47:35.247271,2025-09-07 02:47:35.247271
"CYYG",2025-09-07 06:00:00,2025-09-07 02:00:00,"VFR",21,19,88,200,13,24100,29.92,NA,"FEW  ft; BKN  ft","CYYG 070600Z 20013G19KT 15SM FEW030 BKN240 21/19 A2992 RMK SC1CI4 SLP135 DENSITY ALT 1000FT",2025-09-07 06:47:35.341576,2025-09-07 02:47:35.341576
"CYQM",2025-09-07 06:00:00,2025-09-07 02:00:00,"MVFR",17,17,100,310,10,19300,29.92,NA,"FEW  ft; BKN  ft; BKN  ft","CYQM 070600Z CCA 31010KT 12SM -RA FEW005 BKN016 BKN025 17/17 A2992 RMK ST1SC4SC2 SLP134 DENSITY ALT 600FT",2025-09-07 06:47:35.435211,2025-09-07 02:47:35.435211
"CYFC",2025-09-07 06:00:00,2025-09-07 02:00:00,"VFR",15,14,94,230,3,14500,29.96,NA,"OVC  ft","CYFC 070600Z AUTO 23003KT 9SM OVC036 15/14 A2996 RMK SLP146",2025-09-07 06:47:35.528768,2025-09-07 02:47:35.528768
"CYYT",2025-09-07 06:00:00,2025-09-07 02:00:00,"VFR",18,17,94,270,12,24100,30.11,NA,"FEW  ft; FEW  ft","CYYT 070600Z 27012KT 15SM FEW003 FEW240 18/17 A3011 RMK SF1CI2 SF TR SLP198 DENSITY ALT 700FT",2025-09-07 06:47:35.621416,2025-09-07 02:47:35.621416
"CYQY",2025-09-07 06:00:00,2025-09-07 02:00:00,"MVFR",20,20,100,220,7,24100,30.01,NA,"BKN  ft; BKN  ft","CYQY 070600Z 22007KT 15SM BKN012 BKN120 20/20 A3001 RMK SC5AC2 SLP163 DENSITY ALT 800FT",2025-09-07 06:47:35.71484,2025-09-07 02:47:35.71484
"CYXY",2025-09-07 06:00:00,2025-09-07 02:00:00,"VFR",13,8,72,240,3,24100,29.89,NA,"BKN  ft","CYXY 070600Z 24003KT 15SM BKN240 13/08 A2989 RMK CI5 SLP140 DENSITY ALT 2700FT",2025-09-07 06:47:35.806819,2025-09-07 02:47:35.806819
"CYZF",2025-09-07 06:00:00,2025-09-07 02:00:00,"VFR",14,11,82,350,10,9999,29.86,NA,"SCT  ft; BKN  ft","CYZF 070600Z 35010G16KT 10SM SCT110 BKN180 14/11 A2986 RMK AC3AC4 SLP121",2025-09-07 06:47:35.939869,2025-09-07 02:47:35.939869
"CYFB",2025-09-07 06:00:00,2025-09-07 02:00:00,"VFR",3,0,81,80,4,24100,29.55,NA,"BKN  ft","CYFB 070600Z 08004KT 060V210 15SM BKN045 03/00 A2955 RMK SC7 SLP010",2025-09-07 06:47:36.035022,2025-09-07 02:47:36.035022
"CYRT",2025-09-07 06:00:00,2025-09-07 02:00:00,"VFR",2,2,100,10,8,24100,29.92,NA,"SKC  ft","CYRT 070600Z 01008KT 15SM SKC 02/02 A2992 RMK SLP136",2025-09-07 06:47:36.131842,2025-09-07 02:47:36.131842
"CYBK",2025-09-07 06:00:00,2025-09-07 02:00:00,"VFR",0,-1,93,330,5,24100,29.96,NA,"SKC  ft","CYBK 070600Z 33005KT 15SM SKC 00/M01 A2996 RMK SLP149",2025-09-07 06:47:36.225886,2025-09-07 02:47:36.225886
"CYRB",2025-09-07 06:00:00,2025-09-07 02:00:00,"MVFR",-1,-2,93,140,18,40200,29.89,NA,"BKN  ft","CYRB 070600Z 14018KT 25SM BKN011 M01/M02 A2989 RMK ST7 SLP129",2025-09-07 06:47:36.320487,2025-09-07 02:47:36.320487
"CYCO",2025-09-07 06:00:00,2025-09-07 02:00:00,"MVFR",2,-1,81,320,12,24100,30.04,NA,"BKN  ft","CYCO 070600Z 32012KT 15SM BKN018 02/M01 A3004 RMK SC7 SLP175",2025-09-07 06:47:36.47226,2025-09-07 02:47:36.47226
"CYER",2025-09-07 07:13:00,2025-09-07 03:13:00,"MVFR",5,5,100,280,12,11300,29.84,NA,"SCT  ft; OVC  ft","CYER 070713Z AUTO 28012G17KT 7SM -RA SCT015 OVC021 05/05 A2984 RMK SLP108",2025-09-07 07:22:54.52533,2025-09-07 03:22:54.52533
"CYAT",2025-09-07 07:00:00,2025-09-07 03:00:00,"MVFR",8,6,87,320,4,14500,29.81,NA,"BKN  ft; BKN  ft; OVC  ft","CYAT 070700Z AUTO 32004KT 9SM BKN015 BKN060 OVC075 08/06 A2981 RMK SLP098",2025-09-07 07:22:54.564561,2025-09-07 03:22:54.564561
"CYMO",2025-09-07 07:00:00,2025-09-07 03:00:00,"VFR",7,6,93,250,6,14500,29.83,NA,"OVC  ft","CYMO 070700Z AUTO 25006KT 9SM OVC100 07/06 A2983 RMK SLP103",2025-09-07 07:22:54.635118,2025-09-07 03:22:54.635118
"CYPL",2025-09-07 07:19:00,2025-09-07 03:19:00,"MVFR",5,5,100,320,5,14500,30.05,NA,"SCT  ft; BKN  ft; OVC  ft","CYPL 070719Z AUTO 32005KT 290V020 9SM SCT016 BKN029 OVC044 05/05 A3005 RMK SLP193",2025-09-07 07:22:54.709183,2025-09-07 03:22:54.709183
"CYQT",2025-09-07 07:00:00,2025-09-07 03:00:00,"VFR",8,5,82,310,8,24100,30.04,NA,"SCT  ft; OVC  ft","CYQT 070700Z 31008KT 15SM SCT032 OVC095 08/05 A3004 RMK SC3AC5 SLP180",2025-09-07 07:22:54.78583,2025-09-07 03:22:54.78583
"CYAM",2025-09-07 07:00:00,2025-09-07 03:00:00,"VFR",9,6,82,250,8,32200,29.97,NA,"FEW  ft; OVC  ft","CYAM 070700Z 25008KT 20SM FEW060 OVC089 09/06 A2997 RMK SC1AC8 SC TR SLP155",2025-09-07 07:22:54.860923,2025-09-07 03:22:54.860923
"CYTS",2025-09-07 07:00:00,2025-09-07 03:00:00,"VFR",6,6,100,270,3,24100,29.89,NA,"SCT  ft; BKN  ft","CYTS 070700Z 27003KT 15SM SCT083 BKN200 06/06 A2989 RMK AC4CI3 SLP132",2025-09-07 07:22:54.932535,2025-09-07 03:22:54.932535
"CYSB",2025-09-07 06:00:00,2025-09-07 02:00:00,"VFR",7,7,100,260,4,24100,29.93,NA,"SCT  ft; OVC  ft","CYSB 070600Z 26004KT 15SM SCT026 OVC043 07/07 A2993 RMK SC3SC5 SLP143",2025-09-07 07:22:55.005357,2025-09-07 03:22:55.005357
"CYYB",2025-09-07 07:02:00,2025-09-07 03:02:00,"MVFR",9,9,100,310,5,14500,29.9,NA,"SCT  ft; OVC  ft","CYYB 070702Z AUTO 31005KT 9SM -RA SCT007 OVC018 09/09 A2990 RMK SLP136",2025-09-07 07:22:55.079945,2025-09-07 03:22:55.079945
"CYOW",2025-09-07 07:00:00,2025-09-07 03:00:00,"VFR",13,10,82,210,3,24100,29.95,NA,"BKN  ft","CYOW 070700Z 21003KT 15SM BKN079 13/10 A2995 RMK AC6 SLP144",2025-09-07 07:22:55.152899,2025-09-07 03:22:55.152899
"CYGK",2025-09-07 03:00:00,2025-09-06 23:00:00,"VFR",17,10,64,250,4,24100,29.98,NA,"BKN  ft; BKN  ft","CYGK 070300Z 25004KT 15SM BKN080 BKN250 17/10 A2998 RMK AC5CI1 LAST STFD OBS/ NXT 071000Z SLP155",2025-09-07 07:22:55.22982,2025-09-07 03:22:55.22982
"CYQG",2025-09-07 07:00:00,2025-09-07 03:00:00,"VFR",8,7,93,0,0,14500,30.07,NA,"BKN  ft","CYQG 070700Z AUTO 00000KT 9SM BKN091 08/07 A3007 RMK SLP187",2025-09-07 07:22:55.303217,2025-09-07 03:22:55.303217
"CYVV",2025-09-07 07:00:00,2025-09-07 03:00:00,"VFR",10,7,82,300,4,24100,29.99,NA,"FEW  ft; SCT  ft; BKN  ft","CYVV 070700Z 30004KT 260V330 15SM FEW036 SCT076 BKN150 10/07 A2999 RMK CU2AC1AC4 SLP161",2025-09-07 07:22:55.37491,2025-09-07 03:22:55.37491
"CYYZ",2025-09-07 07:00:00,2025-09-07 03:00:00,"VFR",14,8,67,260,8,24100,29.98,NA,"FEW  ft; OVC  ft","CYYZ 070700Z 26008KT 15SM FEW080 OVC100 14/08 A2998 RMK AC1AC8 AC TR SLP153",2025-09-07 07:22:55.44806,2025-09-07 03:22:55.44806
"CYQA",2025-09-07 07:11:00,2025-09-07 03:11:00,"VFR",11,10,94,0,2,14500,29.94,NA,"FEW  ft; SCT  ft; BKN  ft; OVC  ft","CYQA 070711Z AUTO VRB02KT 9SM FEW014 SCT022 BKN045 OVC050 11/10 A2994 RMK SLP145",2025-09-07 07:22:55.520632,2025-09-07 03:22:55.520632
"CYVR",2025-09-07 07:00:00,2025-09-07 03:00:00,"VFR",16,15,94,110,11,24100,29.96,NA,"BKN  ft; BKN  ft","CYVR 070700Z 11011KT 15SM BKN100 BKN130 16/15 A2996 RMK AC5AC2 SLP148",2025-09-07 07:22:55.596068,2025-09-07 03:22:55.596068
"CYYJ",2025-09-07 07:00:00,2025-09-07 03:00:00,"VFR",13,12,94,150,5,32200,29.96,NA,"FEW  ft; SCT  ft","CYYJ 070700Z 15005KT 20SM FEW130 SCT250 13/12 A2996 RMK AC2CI1 SLP147",2025-09-07 07:22:55.668953,2025-09-07 03:22:55.668953
"CYLW",2025-09-07 07:00:00,2025-09-07 03:00:00,"VFR",14,11,82,0,0,9700,29.89,NA,"CLR  ft","CYLW 070700Z AUTO 00000KT 6SM HZ CLR 14/11 A2989 RMK SLP121 DENSITY ALT 1700FT",2025-09-07 07:22:55.744163,2025-09-07 03:22:55.744163
"CYXS",2025-09-07 07:14:00,2025-09-07 03:14:00,"IFR",11,11,100,0,0,2800,29.92,NA,"SCT  ft","CYXS 070714Z AUTO 00000KT 1 3/4SM BR SCT150 11/11 A2992 RMK SLP142",2025-09-07 07:22:55.818036,2025-09-07 03:22:55.818036
"CYXT",2025-09-07 07:00:00,2025-09-07 03:00:00,"VFR",16,15,94,180,4,32200,29.93,NA,"SKC  ft","CYXT 070700Z 18004KT 20SM SKC 16/15 A2993 RMK FU SLP140 DENSITY ALT 1000FT",2025-09-07 07:22:55.894009,2025-09-07 03:22:55.894009
"CYQQ",2025-09-07 07:00:00,2025-09-07 03:00:00,"VFR",18,16,88,320,4,24100,29.94,NA,"OVC  ft","CYQQ 070700Z 32004KT 15SM OVC160 18/16 A2994 RMK AC8 DENSITY ALT 714FT SLP139",2025-09-07 07:22:55.967212,2025-09-07 03:22:55.967212
"CYYC",2025-09-07 07:00:00,2025-09-07 03:00:00,"VFR",15,6,55,0,2,9999,29.96,NA,"BKN  ft","CYYC 070700Z VRB02KT 10SM BKN210 15/06 A2996 RMK CI6 SLP141 DENSITY ALT 4500FT",2025-09-07 07:22:56.041667,2025-09-07 03:22:56.041667
"CYEG",2025-09-07 07:00:00,2025-09-07 03:00:00,"VFR",7,7,100,190,4,32200,29.9,NA,"BKN  ft","CYEG 070700Z 19004KT 20SM BKN220 07/07 A2990 RMK CI6 SLP134",2025-09-07 07:22:56.116637,2025-09-07 03:22:56.116637
"CYMM",2025-09-07 07:00:00,2025-09-07 03:00:00,"VFR",12,6,67,0,0,14500,29.84,NA,"CLR  ft","CYMM 070700Z AUTO 00000KT 9SM CLR 12/06 A2984 RMK SLP112",2025-09-07 07:22:56.195426,2025-09-07 03:22:56.195426
"CYQF",2025-09-07 07:00:00,2025-09-07 03:00:00,"VFR",11,5,67,160,2,12900,29.94,NA,"CLR  ft","CYQF 070700Z AUTO 16002KT 8SM CLR 11/05 A2994 RMK SLP143 DENSITY ALT 3200FT",2025-09-07 07:22:56.270841,2025-09-07 03:22:56.270841
"CYXE",2025-09-07 07:00:00,2025-09-07 03:00:00,"VFR",8,2,66,150,7,24100,30.05,NA,"SKC  ft","CYXE 070700Z 15007KT 15SM SKC 08/02 A3005 RMK SLP189",2025-09-07 07:22:56.346009,2025-09-07 03:22:56.346009
"CYQR",2025-09-07 07:00:00,2025-09-07 03:00:00,"VFR",6,2,76,130,11,24100,30.11,NA,"SKC  ft","CYQR 070700Z 13011G17KT 15SM SKC 06/02 A3011 RMK SLP214",2025-09-07 07:22:56.418294,2025-09-07 03:22:56.418294
"CYWG",2025-09-07 07:02:00,2025-09-07 03:02:00,"VFR",2,2,100,270,5,24100,30.18,NA,"SKC  ft","CYWG 070702Z 27005KT 15SM SKC 02/02 A3018 RMK SLP230",2025-09-07 07:22:56.493088,2025-09-07 03:22:56.493088
"CYBR",2025-09-07 07:00:00,2025-09-07 03:00:00,"VFR",1,0,93,0,0,14500,30.2,NA,"CLR  ft","CYBR 070700Z AUTO 00000KT 9SM CLR 01/M00 A3020 RMK SLP244",2025-09-07 07:22:56.567883,2025-09-07 03:22:56.567883
"CYUL",2025-09-07 07:00:00,2025-09-07 03:00:00,"VFR",14,11,82,0,2,24100,29.95,NA,"BKN  ft","CYUL 070700Z VRB02KT 15SM BKN090 14/11 A2995 RMK AC5 SLP144",2025-09-07 07:22:56.646373,2025-09-07 03:22:56.646373
"CYHU",2025-09-07 07:00:00,2025-09-07 03:00:00,"VFR",10,9,94,150,4,14500,29.96,NA,"CLR  ft","CYHU 070700Z AUTO 15004KT 9SM CLR 10/09 A2996 RMK SLP147",2025-09-07 07:22:56.6848,2025-09-07 03:22:56.6848
"CYQB",2025-09-07 07:00:00,2025-09-07 03:00:00,"IFR",12,12,100,0,0,24100,29.97,NA,"OVC  ft","CYQB 070700Z 00000KT 15SM OVC009 12/12 A2997 RMK ST8 SLP151",2025-09-07 07:22:56.759217,2025-09-07 03:22:56.759217
"CYVO",2025-09-07 07:00:00,2025-09-07 03:00:00,"VFR",9,9,100,190,5,14500,29.86,NA,"BKN  ft; OVC  ft","CYVO 070700Z AUTO 19005KT 9SM -RA BKN045 OVC071 09/09 A2986 RMK SLP124",2025-09-07 07:22:56.834431,2025-09-07 03:22:56.834431
"CYUY",2025-09-07 07:00:00,2025-09-07 03:00:00,"VFR",9,9,100,290,3,24100,29.86,NA,"OVC  ft","CYUY 070700Z 29003KT 15SM -SHRA OVC035 09/09 A2986 RMK SC8 CVCTV CLD EMBD SLP122",2025-09-07 07:22:56.908542,2025-09-07 03:22:56.908542
"CYZV",2025-09-07 07:00:00,2025-09-07 03:00:00,"VFR",7,7,100,260,3,24100,29.87,NA,"FEW  ft; SCT  ft","CYZV 070700Z 26003KT 15SM FEW068 SCT240 07/07 A2987 RMK AC1CI3 AC TR SLP117",2025-09-07 07:22:56.949235,2025-09-07 03:22:56.949235
"CYBC",2025-09-07 07:00:00,2025-09-07 03:00:00,"VFR",8,8,100,250,5,14500,29.91,NA,"CLR  ft","CYBC 070700Z AUTO 25005KT 9SM CLR 08/08 A2991 RMK SLP131",2025-09-07 07:22:57.024118,2025-09-07 03:22:57.024118
"CYRJ",2025-09-07 07:00:00,2025-09-07 03:00:00,"VFR",11,10,94,220,9,40200,29.91,NA,"BKN  ft","CYRJ 070700Z 22009KT 25SM BKN060 11/10 A2991 RMK SC7 SLP133",2025-09-07 07:22:57.103283,2025-09-07 03:22:57.103283
"CYHZ",2025-09-07 07:00:00,2025-09-07 03:00:00,"LIFR",21,21,100,200,8,4000,29.97,NA,"OVC  ft","CYHZ 070700Z 20008KT 2 1/2SM -DZ BR OVC004 21/21 A2997 RMK ST8 SLP151 DENSITY ALT 1200FT",2025-09-07 07:22:57.180929,2025-09-07 03:22:57.180929
"CYYG",2025-09-07 07:00:00,2025-09-07 03:00:00,"MVFR",21,19,88,190,14,24100,29.91,NA,"BKN  ft; BKN  ft","CYYG 070700Z 19014KT 15SM BKN030 BKN240 21/19 A2991 RMK SC5CI1 SLP129 DENSITY ALT 1000FT",2025-09-07 07:22:57.255902,2025-09-07 03:22:57.255902
"CYQM",2025-09-07 07:00:00,2025-09-07 03:00:00,"MVFR",17,16,94,340,6,24100,29.93,NA,"FEW  ft; OVC  ft","CYQM 070700Z 34006KT 15SM FEW004 OVC017 17/16 A2993 RMK ST2SC6 SLP135 DENSITY ALT 500FT",2025-09-07 07:22:57.333243,2025-09-07 03:22:57.333243
"CYFC",2025-09-07 07:00:00,2025-09-07 03:00:00,"VFR",14,14,100,250,3,14500,29.96,NA,"BKN  ft; OVC  ft","CYFC 070700Z AUTO 25003KT 9SM BKN045 OVC055 14/14 A2996 RMK SLP146",2025-09-07 07:22:57.41,2025-09-07 03:22:57.41
"CYYT",2025-09-07 07:00:00,2025-09-07 03:00:00,"VFR",17,16,94,240,11,24100,30.09,NA,"FEW  ft; SCT  ft","CYYT 070700Z 24011KT 15SM FEW003 SCT220 17/16 A3009 RMK SF1CI3 SF TR SLP191 DENSITY ALT 700FT",2025-09-07 07:22:57.487119,2025-09-07 03:22:57.487119
"CYQY",2025-09-07 07:00:00,2025-09-07 03:00:00,"MVFR",20,20,100,230,6,24100,30,NA,"BKN  ft; BKN  ft","CYQY 070700Z 23006KT 15SM BKN011 BKN120 20/20 A3000 RMK SC5AC1 SLP162 DENSITY ALT 800FT",2025-09-07 07:22:57.56382,2025-09-07 03:22:57.56382
"CYXY",2025-09-07 07:00:00,2025-09-07 03:00:00,"VFR",11,7,77,250,4,24100,29.9,NA,"BKN  ft","CYXY 070700Z 25004KT 15SM BKN240 11/07 A2990 RMK CI5 SLP142",2025-09-07 07:22:57.643385,2025-09-07 03:22:57.643385
"CYZF",2025-09-07 07:00:00,2025-09-07 03:00:00,"VFR",13,11,88,340,10,9999,29.87,NA,"SCT  ft; BKN  ft","CYZF 070700Z 34010KT 10SM SCT020 BKN180 13/11 A2987 RMK SC4AC2 SLP125",2025-09-07 07:22:57.720487,2025-09-07 03:22:57.720487
"CYFB",2025-09-07 07:00:00,2025-09-07 03:00:00,"VFR",4,0,75,80,6,24100,29.55,NA,"BKN  ft","CYFB 070700Z 08006KT 15SM BKN045 04/M00 A2955 RMK SC7 SLP011",2025-09-07 07:22:57.796187,2025-09-07 03:22:57.796187
"CYRT",2025-09-07 07:00:00,2025-09-07 03:00:00,"VFR",2,1,93,340,8,24100,29.92,NA,"SKC  ft","CYRT 070700Z 34008KT 15SM SKC 02/01 A2992 RMK SLP135",2025-09-07 07:22:57.873217,2025-09-07 03:22:57.873217
"CYBK",2025-09-07 07:00:00,2025-09-07 03:00:00,"VFR",0,-2,87,340,5,24100,29.96,NA,"SKC  ft","CYBK 070700Z 34005KT 15SM SKC 00/M02 A2996 RMK SLP149",2025-09-07 07:22:57.952032,2025-09-07 03:22:57.952032
"CYRB",2025-09-07 07:00:00,2025-09-07 03:00:00,"MVFR",-1,-3,86,140,19,40200,29.87,NA,"OVC  ft","CYRB 070700Z 14019KT 25SM OVC011 M01/M03 A2987 RMK ST8 SLP124",2025-09-07 07:22:57.99236,2025-09-07 03:22:57.99236
"CYCO",2025-09-07 07:00:00,2025-09-07 03:00:00,"MVFR",2,-1,81,310,16,24100,30.06,NA,"BKN  ft","CYCO 070700Z 31016KT 15SM BKN019 02/M01 A3006 RMK SC6 SLP181",2025-09-07 07:22:58.080893,2025-09-07 03:22:58.080893
"CYER",2025-09-07 07:24:00,2025-09-07 03:24:00,"MVFR",5,5,100,280,12,14500,29.84,NA,"SCT  ft; BKN  ft; OVC  ft","CYER 070724Z AUTO 28012KT 9SM SCT015 BKN019 OVC024 05/05 A2984 RMK SLP108",2025-09-07 07:41:48.945136,2025-09-07 03:41:48.945136
"CYAT",2025-09-07 07:34:00,2025-09-07 03:34:00,"VFR",7,6,93,320,7,14500,29.82,NA,"FEW  ft; SCT  ft; BKN  ft; OVC  ft","CYAT 070734Z AUTO 32007KT 9SM FEW020 SCT025 BKN035 OVC081 07/06 A2982 RMK SLP100",2025-09-07 07:41:49.000698,2025-09-07 03:41:49.000698
"CYMO",2025-09-07 07:00:00,2025-09-07 03:00:00,"VFR",7,6,93,250,6,14500,29.83,NA,"OVC  ft","CYMO 070700Z AUTO 25006KT 9SM OVC100 07/06 A2983 RMK SLP103",2025-09-07 07:41:49.087562,2025-09-07 03:41:49.087562
"CYPL",2025-09-07 07:19:00,2025-09-07 03:19:00,"MVFR",5,5,100,320,5,14500,30.05,NA,"SCT  ft; BKN  ft; OVC  ft","CYPL 070719Z AUTO 32005KT 290V020 9SM SCT016 BKN029 OVC044 05/05 A3005 RMK SLP193",2025-09-07 07:41:49.18033,2025-09-07 03:41:49.18033
"CYQT",2025-09-07 07:00:00,2025-09-07 03:00:00,"VFR",8,5,82,310,8,24100,30.04,NA,"SCT  ft; OVC  ft","CYQT 070700Z 31008KT 15SM SCT032 OVC095 08/05 A3004 RMK SC3AC5 SLP180",2025-09-07 07:41:49.27514,2025-09-07 03:41:49.27514
"CYAM",2025-09-07 07:00:00,2025-09-07 03:00:00,"VFR",9,6,82,250,8,32200,29.97,NA,"FEW  ft; OVC  ft","CYAM 070700Z 25008KT 20SM FEW060 OVC089 09/06 A2997 RMK SC1AC8 SC TR SLP155",2025-09-07 07:41:49.320553,2025-09-07 03:41:49.320553
"CYTS",2025-09-07 07:00:00,2025-09-07 03:00:00,"VFR",6,6,100,270,3,24100,29.89,NA,"SCT  ft; BKN  ft","CYTS 070700Z 27003KT 15SM SCT083 BKN200 06/06 A2989 RMK AC4CI3 SLP132",2025-09-07 07:41:49.364217,2025-09-07 03:41:49.364217
"CYSB",2025-09-07 07:01:00,2025-09-07 03:01:00,"VFR",7,6,93,260,4,24100,29.92,NA,"FEW  ft; BKN  ft","CYSB 070701Z 26004KT 15SM FEW043 BKN190 07/06 A2992 RMK SC2CI5 SLP143",2025-09-07 07:41:49.455108,2025-09-07 03:41:49.455108
"CYYB",2025-09-07 07:38:00,2025-09-07 03:38:00,"IFR",9,9,100,270,4,6400,29.9,NA,"SCT  ft; BKN  ft; BKN  ft; OVC  ft","CYYB 070738Z AUTO 27004KT 240V320 4SM -RA BR SCT005 BKN009 BKN022 OVC028 09/09 A2990 RMK SLP135",2025-09-07 07:41:49.54695,2025-09-07 03:41:49.54695
"CYOW",2025-09-07 07:00:00,2025-09-07 03:00:00,"VFR",13,10,82,210,3,24100,29.95,NA,"BKN  ft","CYOW 070700Z 21003KT 15SM BKN079 13/10 A2995 RMK AC6 SLP144",2025-09-07 07:41:49.592546,2025-09-07 03:41:49.592546
"CYGK",2025-09-07 03:00:00,2025-09-06 23:00:00,"VFR",17,10,64,250,4,24100,29.98,NA,"BKN  ft; BKN  ft","CYGK 070300Z 25004KT 15SM BKN080 BKN250 17/10 A2998 RMK AC5CI1 LAST STFD OBS/ NXT 071000Z SLP155",2025-09-07 07:41:49.683472,2025-09-07 03:41:49.683472
"CYQG",2025-09-07 07:00:00,2025-09-07 03:00:00,"VFR",8,7,93,0,0,14500,30.07,NA,"BKN  ft","CYQG 070700Z AUTO 00000KT 9SM BKN091 08/07 A3007 RMK SLP187",2025-09-07 07:41:49.734808,2025-09-07 03:41:49.734808
"CYVV",2025-09-07 07:00:00,2025-09-07 03:00:00,"VFR",10,7,82,300,4,24100,29.99,NA,"FEW  ft; SCT  ft; BKN  ft","CYVV 070700Z 30004KT 260V330 15SM FEW036 SCT076 BKN150 10/07 A2999 RMK CU2AC1AC4 SLP161",2025-09-07 07:41:49.820232,2025-09-07 03:41:49.820232
"CYYZ",2025-09-07 07:00:00,2025-09-07 03:00:00,"VFR",14,8,67,260,8,24100,29.98,NA,"FEW  ft; OVC  ft","CYYZ 070700Z 26008KT 15SM FEW080 OVC100 14/08 A2998 RMK AC1AC8 AC TR SLP153",2025-09-07 07:41:49.909833,2025-09-07 03:41:49.909833
"CYQA",2025-09-07 07:11:00,2025-09-07 03:11:00,"VFR",11,10,94,0,2,14500,29.94,NA,"FEW  ft; SCT  ft; BKN  ft; OVC  ft","CYQA 070711Z AUTO VRB02KT 9SM FEW014 SCT022 BKN045 OVC050 11/10 A2994 RMK SLP145",2025-09-07 07:41:49.997138,2025-09-07 03:41:49.997138
"CYVR",2025-09-07 07:00:00,2025-09-07 03:00:00,"VFR",16,15,94,110,11,24100,29.96,NA,"BKN  ft; BKN  ft","CYVR 070700Z 11011KT 15SM BKN100 BKN130 16/15 A2996 RMK AC5AC2 SLP148",2025-09-07 07:41:50.088193,2025-09-07 03:41:50.088193
"CYYJ",2025-09-07 07:00:00,2025-09-07 03:00:00,"VFR",13,12,94,150,5,32200,29.96,NA,"FEW  ft; SCT  ft","CYYJ 070700Z 15005KT 20SM FEW130 SCT250 13/12 A2996 RMK AC2CI1 SLP147",2025-09-07 07:41:50.174708,2025-09-07 03:41:50.174708
"CYLW",2025-09-07 07:00:00,2025-09-07 03:00:00,"VFR",14,11,82,0,0,9700,29.89,NA,"CLR  ft","CYLW 070700Z AUTO 00000KT 6SM HZ CLR 14/11 A2989 RMK SLP121 DENSITY ALT 1700FT",2025-09-07 07:41:50.223774,2025-09-07 03:41:50.223774
"CYXS",2025-09-07 07:37:00,2025-09-07 03:37:00,"IFR",12,12,100,0,0,3200,29.92,NA,"FEW  ft","CYXS 070737Z AUTO 00000KT 2SM BR FEW150 12/12 A2992 RMK SLP142",2025-09-07 07:41:50.267463,2025-09-07 03:41:50.267463
"CYXT",2025-09-07 07:00:00,2025-09-07 03:00:00,"VFR",16,15,94,180,4,32200,29.93,NA,"SKC  ft","CYXT 070700Z 18004KT 20SM SKC 16/15 A2993 RMK FU SLP140 DENSITY ALT 1000FT",2025-09-07 07:41:50.353241,2025-09-07 03:41:50.353241
"CYQQ",2025-09-07 07:00:00,2025-09-07 03:00:00,"VFR",18,16,88,320,4,24100,29.94,NA,"OVC  ft","CYQQ 070700Z 32004KT 15SM OVC160 18/16 A2994 RMK AC8 DENSITY ALT 714FT SLP139",2025-09-07 07:41:50.444456,2025-09-07 03:41:50.444456
"CYYC",2025-09-07 07:00:00,2025-09-07 03:00:00,"VFR",15,6,55,0,2,9999,29.96,NA,"BKN  ft","CYYC 070700Z VRB02KT 10SM BKN210 15/06 A2996 RMK CI6 SLP141 DENSITY ALT 4500FT",2025-09-07 07:41:50.532004,2025-09-07 03:41:50.532004
"CYEG",2025-09-07 07:00:00,2025-09-07 03:00:00,"VFR",7,7,100,190,4,32200,29.9,NA,"BKN  ft","CYEG 070700Z 19004KT 20SM BKN220 07/07 A2990 RMK CI6 SLP134",2025-09-07 07:41:50.618356,2025-09-07 03:41:50.618356
"CYMM",2025-09-07 07:00:00,2025-09-07 03:00:00,"VFR",12,6,67,0,0,14500,29.84,NA,"CLR  ft","CYMM 070700Z AUTO 00000KT 9SM CLR 12/06 A2984 RMK SLP112",2025-09-07 07:41:50.706165,2025-09-07 03:41:50.706165
"CYQF",2025-09-07 07:00:00,2025-09-07 03:00:00,"VFR",11,5,67,160,2,12900,29.94,NA,"CLR  ft","CYQF 070700Z AUTO 16002KT 8SM CLR 11/05 A2994 RMK SLP143 DENSITY ALT 3200FT",2025-09-07 07:41:50.7528,2025-09-07 03:41:50.7528
"CYXE",2025-09-07 07:00:00,2025-09-07 03:00:00,"VFR",8,2,66,150,7,24100,30.05,NA,"SKC  ft","CYXE 070700Z 15007KT 15SM SKC 08/02 A3005 RMK SLP189",2025-09-07 07:41:50.838169,2025-09-07 03:41:50.838169
"CYQR",2025-09-07 07:00:00,2025-09-07 03:00:00,"VFR",6,2,76,130,11,24100,30.11,NA,"SKC  ft","CYQR 070700Z 13011G17KT 15SM SKC 06/02 A3011 RMK SLP214",2025-09-07 07:41:50.925609,2025-09-07 03:41:50.925609
"CYWG",2025-09-07 07:02:00,2025-09-07 03:02:00,"VFR",2,2,100,270,5,24100,30.18,NA,"SKC  ft","CYWG 070702Z 27005KT 15SM SKC 02/02 A3018 RMK SLP230",2025-09-07 07:41:51.011397,2025-09-07 03:41:51.011397
"CYBR",2025-09-07 07:00:00,2025-09-07 03:00:00,"VFR",1,0,93,0,0,14500,30.2,NA,"CLR  ft","CYBR 070700Z AUTO 00000KT 9SM CLR 01/M00 A3020 RMK SLP244",2025-09-07 07:41:51.098372,2025-09-07 03:41:51.098372
"CYUL",2025-09-07 07:00:00,2025-09-07 03:00:00,"VFR",14,11,82,0,2,24100,29.95,NA,"BKN  ft","CYUL 070700Z VRB02KT 15SM BKN090 14/11 A2995 RMK AC5 SLP144",2025-09-07 07:41:51.185008,2025-09-07 03:41:51.185008
"CYHU",2025-09-07 07:00:00,2025-09-07 03:00:00,"VFR",10,9,94,150,4,14500,29.96,NA,"CLR  ft","CYHU 070700Z AUTO 15004KT 9SM CLR 10/09 A2996 RMK SLP147",2025-09-07 07:41:51.237705,2025-09-07 03:41:51.237705
"CYQB",2025-09-07 07:00:00,2025-09-07 03:00:00,"IFR",12,12,100,0,0,24100,29.97,NA,"OVC  ft","CYQB 070700Z 00000KT 15SM OVC009 12/12 A2997 RMK ST8 SLP151",2025-09-07 07:41:51.324036,2025-09-07 03:41:51.324036
"CYVO",2025-09-07 07:33:00,2025-09-07 03:33:00,"MVFR",9,9,100,190,4,8000,29.86,NA,"FEW  ft; SCT  ft; OVC  ft","CYVO 070733Z AUTO 19004KT 5SM -RA BR FEW023 SCT029 OVC040 09/09 A2986 RMK SLP125",2025-09-07 07:41:51.410894,2025-09-07 03:41:51.410894
"CYUY",2025-09-07 07:00:00,2025-09-07 03:00:00,"VFR",9,9,100,290,3,24100,29.86,NA,"OVC  ft","CYUY 070700Z 29003KT 15SM -SHRA OVC035 09/09 A2986 RMK SC8 CVCTV CLD EMBD SLP122",2025-09-07 07:41:51.499635,2025-09-07 03:41:51.499635
"CYZV",2025-09-07 07:00:00,2025-09-07 03:00:00,"VFR",7,7,100,260,3,24100,29.87,NA,"FEW  ft; SCT  ft","CYZV 070700Z 26003KT 15SM FEW068 SCT240 07/07 A2987 RMK AC1CI3 AC TR SLP117",2025-09-07 07:41:51.588522,2025-09-07 03:41:51.588522
"CYBC",2025-09-07 07:35:00,2025-09-07 03:35:00,"MVFR",8,7,93,270,4,4800,29.91,NA,"FEW  ft","CYBC 070735Z AUTO 27004KT 3SM BR FEW002 08/07 A2991 RMK SLP132",2025-09-07 07:41:51.678561,2025-09-07 03:41:51.678561
"CYRJ",2025-09-07 07:00:00,2025-09-07 03:00:00,"VFR",11,10,94,220,9,40200,29.91,NA,"BKN  ft","CYRJ 070700Z 22009KT 25SM BKN060 11/10 A2991 RMK SC7 SLP133",2025-09-07 07:41:51.727587,2025-09-07 03:41:51.727587
"CYHZ",2025-09-07 07:00:00,2025-09-07 03:00:00,"LIFR",21,21,100,200,8,4000,29.97,NA,"OVC  ft","CYHZ 070700Z 20008KT 2 1/2SM -DZ BR OVC004 21/21 A2997 RMK ST8 SLP151 DENSITY ALT 1200FT",2025-09-07 07:41:51.813513,2025-09-07 03:41:51.813513
"CYYG",2025-09-07 07:00:00,2025-09-07 03:00:00,"MVFR",21,19,88,190,14,24100,29.91,NA,"BKN  ft; BKN  ft","CYYG 070700Z 19014KT 15SM BKN030 BKN240 21/19 A2991 RMK SC5CI1 SLP129 DENSITY ALT 1000FT",2025-09-07 07:41:51.904085,2025-09-07 03:41:51.904085
"CYQM",2025-09-07 07:00:00,2025-09-07 03:00:00,"MVFR",17,16,94,340,6,24100,29.93,NA,"FEW  ft; OVC  ft","CYQM 070700Z 34006KT 15SM FEW004 OVC017 17/16 A2993 RMK ST2SC6 SLP135 DENSITY ALT 500FT",2025-09-07 07:41:51.989085,2025-09-07 03:41:51.989085
"CYFC",2025-09-07 07:00:00,2025-09-07 03:00:00,"VFR",14,14,100,250,3,14500,29.96,NA,"BKN  ft; OVC  ft","CYFC 070700Z AUTO 25003KT 9SM BKN045 OVC055 14/14 A2996 RMK SLP146",2025-09-07 07:41:52.074162,2025-09-07 03:41:52.074162
"CYYT",2025-09-07 07:00:00,2025-09-07 03:00:00,"VFR",17,16,94,240,11,24100,30.09,NA,"FEW  ft; SCT  ft","CYYT 070700Z 24011KT 15SM FEW003 SCT220 17/16 A3009 RMK SF1CI3 SF TR SLP191 DENSITY ALT 700FT",2025-09-07 07:41:52.159723,2025-09-07 03:41:52.159723
"CYQY",2025-09-07 07:00:00,2025-09-07 03:00:00,"MVFR",20,20,100,230,6,24100,30,NA,"BKN  ft; BKN  ft","CYQY 070700Z 23006KT 15SM BKN011 BKN120 20/20 A3000 RMK SC5AC1 SLP162 DENSITY ALT 800FT",2025-09-07 07:41:52.256709,2025-09-07 03:41:52.256709
"CYXY",2025-09-07 07:00:00,2025-09-07 03:00:00,"VFR",11,7,77,250,4,24100,29.9,NA,"BKN  ft","CYXY 070700Z 25004KT 15SM BKN240 11/07 A2990 RMK CI5 SLP142",2025-09-07 07:41:52.302205,2025-09-07 03:41:52.302205
"CYZF",2025-09-07 07:00:00,2025-09-07 03:00:00,"VFR",13,11,88,340,10,9999,29.87,NA,"SCT  ft; BKN  ft","CYZF 070700Z 34010KT 10SM SCT020 BKN180 13/11 A2987 RMK SC4AC2 SLP125",2025-09-07 07:41:52.386355,2025-09-07 03:41:52.386355
"CYFB",2025-09-07 07:00:00,2025-09-07 03:00:00,"VFR",4,0,75,80,6,24100,29.55,NA,"BKN  ft","CYFB 070700Z 08006KT 15SM BKN045 04/M00 A2955 RMK SC7 SLP011",2025-09-07 07:41:52.475877,2025-09-07 03:41:52.475877
"CYRT",2025-09-07 07:00:00,2025-09-07 03:00:00,"VFR",2,1,93,340,8,24100,29.92,NA,"SKC  ft","CYRT 070700Z 34008KT 15SM SKC 02/01 A2992 RMK SLP135",2025-09-07 07:41:52.526289,2025-09-07 03:41:52.526289
"CYBK",2025-09-07 07:00:00,2025-09-07 03:00:00,"VFR",0,-2,87,340,5,24100,29.96,NA,"SKC  ft","CYBK 070700Z 34005KT 15SM SKC 00/M02 A2996 RMK SLP149",2025-09-07 07:41:52.578188,2025-09-07 03:41:52.578188
"CYRB",2025-09-07 07:00:00,2025-09-07 03:00:00,"MVFR",-1,-3,86,140,19,40200,29.87,NA,"OVC  ft","CYRB 070700Z 14019KT 25SM OVC011 M01/M03 A2987 RMK ST8 SLP124",2025-09-07 07:41:52.680067,2025-09-07 03:41:52.680067
"CYCO",2025-09-07 07:00:00,2025-09-07 03:00:00,"MVFR",2,-1,81,310,16,24100,30.06,NA,"BKN  ft","CYCO 070700Z 31016KT 15SM BKN019 02/M01 A3006 RMK SC6 SLP181",2025-09-07 07:41:52.766018,2025-09-07 03:41:52.766018
"CYER",2025-09-07 08:00:00,2025-09-07 04:00:00,"VFR",5,5,100,290,11,14500,29.84,NA,"SCT  ft; SCT  ft; SCT  ft; OVC  ft","CYER 070800Z AUTO 29011G17KT 9SM SCT021 SCT031 SCT038 OVC055 05/05 A2984 RMK SLP107",2025-09-07 08:29:56.382931,2025-09-07 04:29:56.382931
"CYAT",2025-09-07 08:00:00,2025-09-07 04:00:00,"VFR",7,6,93,310,7,14500,29.83,NA,"FEW  ft; SCT  ft; OVC  ft","CYAT 070800Z AUTO 31007KT 9SM FEW032 SCT044 OVC081 07/06 A2983 RMK SLP102",2025-09-07 08:29:56.45138,2025-09-07 04:29:56.45138
"CYMO",2025-09-07 08:00:00,2025-09-07 04:00:00,"VFR",7,6,93,250,6,14500,29.83,NA,"OVC  ft","CYMO 070800Z AUTO 25006KT 9SM OVC096 07/06 A2983 RMK SLP103",2025-09-07 08:29:56.511558,2025-09-07 04:29:56.511558
"CYPL",2025-09-07 08:00:00,2025-09-07 04:00:00,"VFR",5,4,93,300,6,14500,30.05,NA,"OVC  ft","CYPL 070800Z AUTO 30006KT 9SM OVC038 05/04 A3005 RMK SLP192",2025-09-07 08:29:56.611412,2025-09-07 04:29:56.611412
"CYQT",2025-09-07 08:00:00,2025-09-07 04:00:00,"VFR",8,5,82,310,8,24100,30.05,NA,"FEW  ft; OVC  ft","CYQT 070800Z 31008KT 15SM FEW030 OVC110 08/05 A3005 RMK SC2AC6 SLP185",2025-09-07 08:29:56.672803,2025-09-07 04:29:56.672803
"CYAM",2025-09-07 08:00:00,2025-09-07 04:00:00,"VFR",10,7,82,270,8,32200,29.97,NA,"SCT  ft; BKN  ft; OVC  ft","CYAM 070800Z 27008G15KT 20SM SCT057 BKN069 OVC140 10/07 A2997 RMK SC4AC2AC2 SLP154",2025-09-07 08:29:56.731112,2025-09-07 04:29:56.731112
"CYTS",2025-09-07 08:00:00,2025-09-07 04:00:00,"VFR",5,5,100,260,3,24100,29.89,NA,"BKN  ft","CYTS 070800Z 26003KT 15SM BKN096 05/05 A2989 RMK AC6 SLP133",2025-09-07 08:29:56.832279,2025-09-07 04:29:56.832279
"CYSB",2025-09-07 08:00:00,2025-09-07 04:00:00,"VFR",6,5,93,260,5,24100,29.93,NA,"BKN  ft; BKN  ft","CYSB 070800Z 26005KT 15SM BKN037 BKN190 06/05 A2993 RMK SC5CI2 SLP145",2025-09-07 08:29:56.891822,2025-09-07 04:29:56.891822
"CYYB",2025-09-07 08:17:00,2025-09-07 04:17:00,"IFR",9,9,100,290,5,14500,29.9,NA,"BKN  ft","CYYB 070817Z AUTO 29005KT 9SM BKN005 09/09 A2990 RMK SLP136",2025-09-07 08:29:56.953287,2025-09-07 04:29:56.953287
"CYOW",2025-09-07 08:00:00,2025-09-07 04:00:00,"VFR",12,10,88,180,3,24100,29.94,NA,"BKN  ft","CYOW 070800Z 18003KT 15SM BKN089 12/10 A2994 RMK AC6 SLP143",2025-09-07 08:29:57.01158,2025-09-07 04:29:57.01158
"CYGK",2025-09-07 03:00:00,2025-09-06 23:00:00,"VFR",17,10,64,250,4,24100,29.98,NA,"BKN  ft; BKN  ft","CYGK 070300Z 25004KT 15SM BKN080 BKN250 17/10 A2998 RMK AC5CI1 LAST STFD OBS/ NXT 071000Z SLP155",2025-09-07 08:29:57.073722,2025-09-07 04:29:57.073722
"CYQG",2025-09-07 08:00:00,2025-09-07 04:00:00,"VFR",9,7,87,290,2,14500,30.07,NA,"FEW  ft","CYQG 070800Z AUTO 29002KT 9SM FEW076 09/07 A3007 RMK SLP186",2025-09-07 08:29:57.133524,2025-09-07 04:29:57.133524
"CYVV",2025-09-07 08:00:00,2025-09-07 04:00:00,"VFR",10,6,76,300,3,24100,29.99,NA,"FEW  ft; SCT  ft","CYVV 070800Z 30003KT 260V360 15SM FEW039 SCT160 10/06 A2999 RMK CU1AC3 SLP162",2025-09-07 08:29:57.191779,2025-09-07 04:29:57.191779
"CYYZ",2025-09-07 08:00:00,2025-09-07 04:00:00,"VFR",13,9,77,260,9,24100,29.98,NA,"BKN  ft","CYYZ 070800Z 26009KT 15SM BKN130 13/09 A2998 RMK AC7 SLP155",2025-09-07 08:29:57.249764,2025-09-07 04:29:57.249764
"CYQA",2025-09-07 08:23:00,2025-09-07 04:23:00,"VFR",10,10,100,240,5,9700,29.94,NA,"FEW  ft; SCT  ft; BKN  ft; OVC  ft","CYQA 070823Z AUTO 24005KT 6SM -RA BR FEW023 SCT039 BKN047 OVC055 10/10 A2994 RMK SLP147",2025-09-07 08:29:57.316983,2025-09-07 04:29:57.316983
"CYVR",2025-09-07 08:00:00,2025-09-07 04:00:00,"VFR",16,14,88,110,15,24100,29.98,NA,"BKN  ft","CYVR 070800Z 11015KT 15SM BKN130 16/14 A2998 RMK AC7 SLP153",2025-09-07 08:29:57.380872,2025-09-07 04:29:57.380872
"CYYJ",2025-09-07 08:00:00,2025-09-07 04:00:00,"VFR",12,12,100,0,0,32200,29.96,NA,"FEW  ft; FEW  ft","CYYJ 070800Z 00000KT 20SM FEW130 FEW250 12/12 A2996 RMK AC1CI1 SLP148",2025-09-07 08:29:57.439597,2025-09-07 04:29:57.439597
"CYLW",2025-09-07 08:00:00,2025-09-07 04:00:00,"VFR",14,10,77,40,3,9700,29.9,NA,"CLR  ft","CYLW 070800Z AUTO 04003KT 6SM HZ CLR 14/10 A2990 RMK SLP124 DENSITY ALT 1700FT",2025-09-07 08:29:57.501021,2025-09-07 04:29:57.501021
"CYXS",2025-09-07 08:25:00,2025-09-07 04:25:00,"LIFR",9,9,100,230,2,600,29.91,NA,"FEW  ft; SCT  ft; BKN  ft","CYXS 070825Z AUTO 23002KT 3/8SM FG FEW008 SCT076 BKN150 09/09 A2991 RMK SLP140",2025-09-07 08:29:57.564349,2025-09-07 04:29:57.564349
"CYXT",2025-09-07 08:00:00,2025-09-07 04:00:00,"VFR",16,15,94,190,8,24100,29.93,NA,"SKC  ft","CYXT 070800Z 19008KT 15SM SKC 16/15 A2993 RMK SLP140 DENSITY ALT 1100FT",2025-09-07 08:29:57.622202,2025-09-07 04:29:57.622202
"CYQQ",2025-09-07 08:00:00,2025-09-07 04:00:00,"VFR",18,16,88,30,2,24100,29.95,NA,"OVC  ft","CYQQ 070800Z 03002KT 15SM -SHRA OVC120 18/16 A2995 RMK AC8 DENSITY ALT 692FT SLP143",2025-09-07 08:29:57.729006,2025-09-07 04:29:57.729006
"CYYC",2025-09-07 08:00:00,2025-09-07 04:00:00,"VFR",15,6,55,220,2,9999,29.96,NA,"SCT  ft","CYYC 070800Z 22002KT 10SM SCT210 15/06 A2996 RMK CI4 SLP140 DENSITY ALT 4400FT",2025-09-07 08:29:57.787779,2025-09-07 04:29:57.787779
"CYEG",2025-09-07 08:00:00,2025-09-07 04:00:00,"VFR",6,6,100,240,2,32200,29.89,NA,"BKN  ft","CYEG 070800Z 24002KT 20SM BKN220 06/06 A2989 RMK CI7 SLP131",2025-09-07 08:29:57.847579,2025-09-07 04:29:57.847579
"CYMM",2025-09-07 08:00:00,2025-09-07 04:00:00,"VFR",10,6,76,90,3,14500,29.83,NA,"CLR  ft","CYMM 070800Z AUTO 09003KT 9SM CLR 10/06 A2983 RMK SLP110",2025-09-07 08:29:57.909375,2025-09-07 04:29:57.909375
"CYQF",2025-09-07 08:00:00,2025-09-07 04:00:00,"VFR",9,5,76,200,3,12900,29.93,NA,"CLR  ft","CYQF 070800Z AUTO 20003KT 8SM CLR 09/05 A2993 RMK SLP142",2025-09-07 08:29:57.970652,2025-09-07 04:29:57.970652
"CYXE",2025-09-07 08:00:00,2025-09-07 04:00:00,"VFR",7,2,71,150,8,24100,30.03,NA,"FEW  ft","CYXE 070800Z 15008KT 15SM FEW300 07/02 A3003 RMK CI2 SLP184",2025-09-07 08:29:58.031647,2025-09-07 04:29:58.031647
"CYQR",2025-09-07 08:00:00,2025-09-07 04:00:00,"VFR",6,2,76,130,13,24100,30.1,NA,"SKC  ft","CYQR 070800Z 13013KT 15SM SKC 06/02 A3010 RMK SLP209",2025-09-07 08:29:58.090487,2025-09-07 04:29:58.090487
"CYWG",2025-09-07 08:00:00,2025-09-07 04:00:00,"VFR",2,2,100,260,3,24100,30.18,NA,"SKC  ft","CYWG 070800Z 26003KT 15SM SKC 02/02 A3018 RMK SLP232",2025-09-07 08:29:58.150575,2025-09-07 04:29:58.150575
"CYBR",2025-09-07 08:00:00,2025-09-07 04:00:00,"VFR",-1,-2,93,340,2,14500,30.19,NA,"CLR  ft","CYBR 070800Z AUTO 34002KT 9SM CLR M01/M02 A3019 RMK SLP242",2025-09-07 08:29:58.20915,2025-09-07 04:29:58.20915
"CYUL",2025-09-07 08:00:00,2025-09-07 04:00:00,"VFR",14,11,82,240,7,24100,29.95,NA,"BKN  ft","CYUL 070800Z 24007KT 15SM BKN090 14/11 A2995 RMK AC7 SLP144",2025-09-07 08:29:58.267704,2025-09-07 04:29:58.267704
"CYHU",2025-09-07 08:00:00,2025-09-07 04:00:00,"VFR",10,10,100,170,4,14500,29.95,NA,"CLR  ft","CYHU 070800Z AUTO 17004KT 9SM CLR 10/10 A2995 RMK SLP144",2025-09-07 08:29:58.329361,2025-09-07 04:29:58.329361
"CYQB",2025-09-07 08:00:00,2025-09-07 04:00:00,"MVFR",13,12,94,170,2,24100,29.96,NA,"OVC  ft","CYQB 070800Z 17002KT 15SM OVC010 13/12 A2996 RMK ST8 SLP149",2025-09-07 08:29:58.39074,2025-09-07 04:29:58.39074
"CYVO",2025-09-07 08:18:00,2025-09-07 04:18:00,"VFR",9,9,100,190,5,14500,29.85,NA,"FEW  ft; BKN  ft; BKN  ft; OVC  ft","CYVO 070818Z AUTO 19005KT 9SM FEW015 BKN031 BKN048 OVC120 09/09 A2985 RMK SLP122",2025-09-07 08:29:58.451573,2025-09-07 04:29:58.451573
"CYUY",2025-09-07 08:00:00,2025-09-07 04:00:00,"MVFR",8,8,100,270,3,11300,29.86,NA,"OVC  ft","CYUY 070800Z 27003KT 7SM -SHRA OVC030 08/08 A2986 RMK SC8 CVCTV CLD EMBD SLP121",2025-09-07 08:29:58.518954,2025-09-07 04:29:58.518954
"CYZV",2025-09-07 08:00:00,2025-09-07 04:00:00,"VFR",5,5,100,0,0,24100,29.88,NA,"SKC  ft","CYZV 070800Z 00000KT 15SM SKC 05/05 A2988 RMK SLP121",2025-09-07 08:29:58.577802,2025-09-07 04:29:58.577802
"CYBC",2025-09-07 08:26:00,2025-09-07 04:26:00,"VFR",8,7,93,300,4,11300,29.91,NA,"SCT  ft","CYBC 070826Z AUTO 30004KT 7SM R10/3000VP6000FT/ SCT001 08/07 A2991 RMK SLP133",2025-09-07 08:29:58.637057,2025-09-07 04:29:58.637057
"CYRJ",2025-09-07 08:00:00,2025-09-07 04:00:00,"VFR",11,10,94,230,8,40200,29.9,NA,"BKN  ft","CYRJ 070800Z 23008KT 25SM BKN063 11/10 A2990 RMK SC7 SLP131",2025-09-07 08:29:58.701867,2025-09-07 04:29:58.701867
"CYHZ",2025-09-07 08:00:00,2025-09-07 04:00:00,"MVFR",20,20,100,200,9,9999,29.98,NA,"FEW  ft; SCT  ft; BKN  ft","CYHZ 070800Z 20009KT 10SM FEW003 SCT013 BKN024 20/20 A2998 RMK SF2SC1SC3 SLP152 DENSITY ALT 1200FT",2025-09-07 08:29:58.764606,2025-09-07 04:29:58.764606
"CYYG",2025-09-07 08:00:00,2025-09-07 04:00:00,"MVFR",21,19,88,200,10,24100,29.91,NA,"BKN  ft","CYYG 070800Z 20010G18KT 15SM BKN018 21/19 A2991 RMK SC7 SLP131 DENSITY ALT 1000FT",2025-09-07 08:29:58.870014,2025-09-07 04:29:58.870014
"CYQM",2025-09-07 08:00:00,2025-09-07 04:00:00,"LIFR",16,15,94,350,6,19300,29.95,NA,"BKN  ft; OVC  ft","CYQM 070800Z 35006KT 12SM -RA BKN004 OVC012 16/15 A2995 RMK ST6SC2 SLP144",2025-09-07 08:29:58.92783,2025-09-07 04:29:58.92783
"CYFC",2025-09-07 08:12:00,2025-09-07 04:12:00,"VFR",14,14,100,270,3,14500,29.96,NA,"OVC  ft","CYFC 070812Z AUTO 27003KT 240V310 9SM -RA OVC049 14/14 A2996 RMK SLP149",2025-09-07 08:29:58.986856,2025-09-07 04:29:58.986856
"CYYT",2025-09-07 08:00:00,2025-09-07 04:00:00,"VFR",17,14,83,250,12,24100,30.09,NA,"FEW  ft; BKN  ft","CYYT 070800Z 25012KT 15SM FEW003 BKN240 17/14 A3009 RMK SF1CI5 SF TR SLP190 DENSITY ALT 700FT",2025-09-07 08:29:59.052309,2025-09-07 04:29:59.052309
"CYQY",2025-09-07 08:00:00,2025-09-07 04:00:00,"VFR",19,19,100,200,10,24100,29.99,NA,"SCT  ft; OVC  ft","CYQY 070800Z 20010G15KT 15SM -RA SCT025 OVC051 19/19 A2999 RMK SC3SC5 SLP158 DENSITY ALT 700FT",2025-09-07 08:29:59.114454,2025-09-07 04:29:59.114454
"CYXY",2025-09-07 08:00:00,2025-09-07 04:00:00,"VFR",11,5,67,230,4,24100,29.9,NA,"BKN  ft","CYXY 070800Z 23004KT 15SM BKN240 11/05 A2990 RMK CI5 SLP142",2025-09-07 08:29:59.171639,2025-09-07 04:29:59.171639
"CYZF",2025-09-07 08:00:00,2025-09-07 04:00:00,"VFR",13,10,82,350,12,12900,29.87,NA,"FEW  ft; SCT  ft","CYZF 070800Z 35012KT 8SM FEW020 SCT046 13/10 A2987 RMK SC2FU2 SLP126",2025-09-07 08:29:59.229153,2025-09-07 04:29:59.229153
"CYFB",2025-09-07 08:00:00,2025-09-07 04:00:00,"VFR",4,-1,70,80,8,24100,29.55,NA,"BKN  ft","CYFB 070800Z 08008KT 15SM BKN052 04/M01 A2955 RMK SC7 SLP012",2025-09-07 08:29:59.286202,2025-09-07 04:29:59.286202
"CYRT",2025-09-07 08:00:00,2025-09-07 04:00:00,"VFR",2,1,93,360,7,24100,29.92,NA,"SKC  ft","CYRT 070800Z 36007KT 15SM SKC 02/01 A2992 RMK SLP135",2025-09-07 08:29:59.382956,2025-09-07 04:29:59.382956
"CYBK",2025-09-07 08:00:00,2025-09-07 04:00:00,"VFR",0,-3,80,340,4,24100,29.95,NA,"FEW  ft","CYBK 070800Z 34004KT 15SM FEW040 M00/M03 A2995 RMK SC1 SLP147",2025-09-07 08:29:59.446778,2025-09-07 04:29:59.446778
"CYRB",2025-09-07 08:00:00,2025-09-07 04:00:00,"MVFR",-1,-3,86,150,16,40200,29.87,NA,"OVC  ft","CYRB 070800Z 15016KT 25SM OVC010 M01/M03 A2987 RMK ST8 SLP122",2025-09-07 08:29:59.507227,2025-09-07 04:29:59.507227
"CYCO",2025-09-07 08:00:00,2025-09-07 04:00:00,"MVFR",1,-1,87,320,15,24100,30.06,NA,"SCT  ft; BKN  ft","CYCO 070800Z 32015KT 15SM SCT013 BKN018 01/M01 A3006 RMK SF3SC3 SLP182",2025-09-07 08:29:59.577103,2025-09-07 04:29:59.577103
"CYER",2025-09-07 08:32:00,2025-09-07 04:32:00,"MVFR",5,5,100,290,9,14500,29.84,NA,"BKN  ft; BKN  ft; BKN  ft; OVC  ft","CYER 070832Z AUTO 29009G16KT 9SM -RA BKN015 BKN023 BKN033 OVC050 05/05 A2984 RMK SLP106",2025-09-07 08:44:41.620534,2025-09-07 04:44:41.620534
"CYAT",2025-09-07 08:28:00,2025-09-07 04:28:00,"MVFR",7,6,93,320,5,14500,29.83,NA,"BKN  ft; BKN  ft; OVC  ft","CYAT 070828Z AUTO 32005KT 9SM BKN017 BKN031 OVC096 07/06 A2983 RMK SLP105",2025-09-07 08:44:41.674645,2025-09-07 04:44:41.674645
"CYMO",2025-09-07 08:00:00,2025-09-07 04:00:00,"VFR",7,6,93,250,6,14500,29.83,NA,"OVC  ft","CYMO 070800Z AUTO 25006KT 9SM OVC096 07/06 A2983 RMK SLP103",2025-09-07 08:44:41.758757,2025-09-07 04:44:41.758757
"CYPL",2025-09-07 08:00:00,2025-09-07 04:00:00,"VFR",5,4,93,300,6,14500,30.05,NA,"OVC  ft","CYPL 070800Z AUTO 30006KT 9SM OVC038 05/04 A3005 RMK SLP192",2025-09-07 08:44:41.846313,2025-09-07 04:44:41.846313
"CYQT",2025-09-07 08:00:00,2025-09-07 04:00:00,"VFR",8,5,82,310,8,24100,30.05,NA,"FEW  ft; OVC  ft","CYQT 070800Z 31008KT 15SM FEW030 OVC110 08/05 A3005 RMK SC2AC6 SLP185",2025-09-07 08:44:41.936591,2025-09-07 04:44:41.936591
"CYAM",2025-09-07 08:00:00,2025-09-07 04:00:00,"VFR",10,7,82,270,8,32200,29.97,NA,"SCT  ft; BKN  ft; OVC  ft","CYAM 070800Z 27008G15KT 20SM SCT057 BKN069 OVC140 10/07 A2997 RMK SC4AC2AC2 SLP154",2025-09-07 08:44:41.983982,2025-09-07 04:44:41.983982
"CYTS",2025-09-07 08:00:00,2025-09-07 04:00:00,"VFR",5,5,100,260,3,24100,29.89,NA,"BKN  ft","CYTS 070800Z 26003KT 15SM BKN096 05/05 A2989 RMK AC6 SLP133",2025-09-07 08:44:42.070027,2025-09-07 04:44:42.070027
"CYSB",2025-09-07 08:00:00,2025-09-07 04:00:00,"VFR",6,5,93,260,5,24100,29.93,NA,"BKN  ft; BKN  ft","CYSB 070800Z 26005KT 15SM BKN037 BKN190 06/05 A2993 RMK SC5CI2 SLP145",2025-09-07 08:44:42.15634,2025-09-07 04:44:42.15634
"CYYB",2025-09-07 08:17:00,2025-09-07 04:17:00,"IFR",9,9,100,290,5,14500,29.9,NA,"BKN  ft","CYYB 070817Z AUTO 29005KT 9SM BKN005 09/09 A2990 RMK SLP136",2025-09-07 08:44:42.244651,2025-09-07 04:44:42.244651
"CYOW",2025-09-07 08:00:00,2025-09-07 04:00:00,"VFR",12,10,88,180,3,24100,29.94,NA,"BKN  ft","CYOW 070800Z 18003KT 15SM BKN089 12/10 A2994 RMK AC6 SLP143",2025-09-07 08:44:42.330835,2025-09-07 04:44:42.330835
"CYGK",2025-09-07 03:00:00,2025-09-06 23:00:00,"VFR",17,10,64,250,4,24100,29.98,NA,"BKN  ft; BKN  ft","CYGK 070300Z 25004KT 15SM BKN080 BKN250 17/10 A2998 RMK AC5CI1 LAST STFD OBS/ NXT 071000Z SLP155",2025-09-07 08:44:42.425715,2025-09-07 04:44:42.425715
"CYQG",2025-09-07 08:00:00,2025-09-07 04:00:00,"VFR",9,7,87,290,2,14500,30.07,NA,"FEW  ft","CYQG 070800Z AUTO 29002KT 9SM FEW076 09/07 A3007 RMK SLP186",2025-09-07 08:44:42.476312,2025-09-07 04:44:42.476312
"CYVV",2025-09-07 08:00:00,2025-09-07 04:00:00,"VFR",10,6,76,300,3,24100,29.99,NA,"FEW  ft; SCT  ft","CYVV 070800Z 30003KT 260V360 15SM FEW039 SCT160 10/06 A2999 RMK CU1AC3 SLP162",2025-09-07 08:44:42.568753,2025-09-07 04:44:42.568753
"CYYZ",2025-09-07 08:00:00,2025-09-07 04:00:00,"VFR",13,9,77,260,9,24100,29.98,NA,"BKN  ft","CYYZ 070800Z 26009KT 15SM BKN130 13/09 A2998 RMK AC7 SLP155",2025-09-07 08:44:42.655569,2025-09-07 04:44:42.655569
"CYQA",2025-09-07 08:23:00,2025-09-07 04:23:00,"VFR",10,10,100,240,5,9700,29.94,NA,"FEW  ft; SCT  ft; BKN  ft; OVC  ft","CYQA 070823Z AUTO 24005KT 6SM -RA BR FEW023 SCT039 BKN047 OVC055 10/10 A2994 RMK SLP147",2025-09-07 08:44:42.741416,2025-09-07 04:44:42.741416
"CYVR",2025-09-07 08:00:00,2025-09-07 04:00:00,"VFR",16,14,88,110,15,24100,29.98,NA,"BKN  ft","CYVR 070800Z 11015KT 15SM BKN130 16/14 A2998 RMK AC7 SLP153",2025-09-07 08:44:42.833194,2025-09-07 04:44:42.833194
"CYYJ",2025-09-07 08:00:00,2025-09-07 04:00:00,"VFR",12,12,100,0,0,32200,29.96,NA,"FEW  ft; FEW  ft","CYYJ 070800Z 00000KT 20SM FEW130 FEW250 12/12 A2996 RMK AC1CI1 SLP148",2025-09-07 08:44:42.922525,2025-09-07 04:44:42.922525
"CYLW",2025-09-07 08:00:00,2025-09-07 04:00:00,"VFR",14,10,77,40,3,9700,29.9,NA,"CLR  ft","CYLW 070800Z AUTO 04003KT 6SM HZ CLR 14/10 A2990 RMK SLP124 DENSITY ALT 1700FT",2025-09-07 08:44:42.974178,2025-09-07 04:44:42.974178
"CYXS",2025-09-07 08:35:00,2025-09-07 04:35:00,"LIFR",10,10,100,230,3,800,29.92,NA,"BKN  ft; BKN  ft","CYXS 070835Z AUTO 23003KT 1/2SM -RA FG BKN071 BKN150 10/10 A2992 RMK VIS VRB 1/8-1 3/4 SLP140",2025-09-07 08:44:43.023421,2025-09-07 04:44:43.023421
"CYXT",2025-09-07 08:00:00,2025-09-07 04:00:00,"VFR",16,15,94,190,8,24100,29.93,NA,"SKC  ft","CYXT 070800Z 19008KT 15SM SKC 16/15 A2993 RMK SLP140 DENSITY ALT 1100FT",2025-09-07 08:44:43.07222,2025-09-07 04:44:43.07222
"CYQQ",2025-09-07 08:00:00,2025-09-07 04:00:00,"VFR",18,16,88,30,2,24100,29.95,NA,"OVC  ft","CYQQ 070800Z 03002KT 15SM -SHRA OVC120 18/16 A2995 RMK AC8 DENSITY ALT 692FT SLP143",2025-09-07 08:44:43.160446,2025-09-07 04:44:43.160446
"CYYC",2025-09-07 08:00:00,2025-09-07 04:00:00,"VFR",15,6,55,220,2,9999,29.96,NA,"SCT  ft","CYYC 070800Z 22002KT 10SM SCT210 15/06 A2996 RMK CI4 SLP140 DENSITY ALT 4400FT",2025-09-07 08:44:43.247841,2025-09-07 04:44:43.247841
"CYEG",2025-09-07 08:00:00,2025-09-07 04:00:00,"VFR",6,6,100,240,2,32200,29.89,NA,"BKN  ft","CYEG 070800Z 24002KT 20SM BKN220 06/06 A2989 RMK CI7 SLP131",2025-09-07 08:44:43.335202,2025-09-07 04:44:43.335202
"CYMM",2025-09-07 08:00:00,2025-09-07 04:00:00,"VFR",10,6,76,90,3,14500,29.83,NA,"CLR  ft","CYMM 070800Z AUTO 09003KT 9SM CLR 10/06 A2983 RMK SLP110",2025-09-07 08:44:43.425653,2025-09-07 04:44:43.425653
"CYQF",2025-09-07 08:00:00,2025-09-07 04:00:00,"VFR",9,5,76,200,3,12900,29.93,NA,"CLR  ft","CYQF 070800Z AUTO 20003KT 8SM CLR 09/05 A2993 RMK SLP142",2025-09-07 08:44:43.473338,2025-09-07 04:44:43.473338
"CYXE",2025-09-07 08:00:00,2025-09-07 04:00:00,"VFR",7,2,71,150,8,24100,30.03,NA,"FEW  ft","CYXE 070800Z 15008KT 15SM FEW300 07/02 A3003 RMK CI2 SLP184",2025-09-07 08:44:43.520656,2025-09-07 04:44:43.520656
"CYQR",2025-09-07 08:00:00,2025-09-07 04:00:00,"VFR",6,2,76,130,13,24100,30.1,NA,"SKC  ft","CYQR 070800Z 13013KT 15SM SKC 06/02 A3010 RMK SLP209",2025-09-07 08:44:43.566935,2025-09-07 04:44:43.566935
"CYWG",2025-09-07 08:00:00,2025-09-07 04:00:00,"VFR",2,2,100,260,3,24100,30.18,NA,"SKC  ft","CYWG 070800Z 26003KT 15SM SKC 02/02 A3018 RMK SLP232",2025-09-07 08:44:43.654466,2025-09-07 04:44:43.654466
"CYBR",2025-09-07 08:00:00,2025-09-07 04:00:00,"VFR",-1,-2,93,340,2,14500,30.19,NA,"CLR  ft","CYBR 070800Z AUTO 34002KT 9SM CLR M01/M02 A3019 RMK SLP242",2025-09-07 08:44:43.742523,2025-09-07 04:44:43.742523
"CYUL",2025-09-07 08:00:00,2025-09-07 04:00:00,"VFR",14,11,82,240,7,24100,29.95,NA,"BKN  ft","CYUL 070800Z 24007KT 15SM BKN090 14/11 A2995 RMK AC7 SLP144",2025-09-07 08:44:43.833638,2025-09-07 04:44:43.833638
"CYHU",2025-09-07 08:00:00,2025-09-07 04:00:00,"VFR",10,10,100,170,4,14500,29.95,NA,"CLR  ft","CYHU 070800Z AUTO 17004KT 9SM CLR 10/10 A2995 RMK SLP144",2025-09-07 08:44:43.88443,2025-09-07 04:44:43.88443
"CYQB",2025-09-07 08:00:00,2025-09-07 04:00:00,"MVFR",13,12,94,170,2,24100,29.96,NA,"OVC  ft","CYQB 070800Z 17002KT 15SM OVC010 13/12 A2996 RMK ST8 SLP149",2025-09-07 08:44:43.971781,2025-09-07 04:44:43.971781
"CYVO",2025-09-07 08:18:00,2025-09-07 04:18:00,"VFR",9,9,100,190,5,14500,29.85,NA,"FEW  ft; BKN  ft; BKN  ft; OVC  ft","CYVO 070818Z AUTO 19005KT 9SM FEW015 BKN031 BKN048 OVC120 09/09 A2985 RMK SLP122",2025-09-07 08:44:44.058564,2025-09-07 04:44:44.058564
"CYUY",2025-09-07 08:00:00,2025-09-07 04:00:00,"MVFR",8,8,100,270,3,11300,29.86,NA,"OVC  ft","CYUY 070800Z 27003KT 7SM -SHRA OVC030 08/08 A2986 RMK SC8 CVCTV CLD EMBD SLP121",2025-09-07 08:44:44.147832,2025-09-07 04:44:44.147832
"CYZV",2025-09-07 08:00:00,2025-09-07 04:00:00,"VFR",5,5,100,0,0,24100,29.88,NA,"SKC  ft","CYZV 070800Z 00000KT 15SM SKC 05/05 A2988 RMK SLP121",2025-09-07 08:44:44.194511,2025-09-07 04:44:44.194511
"CYBC",2025-09-07 08:28:00,2025-09-07 04:28:00,"VFR",7,7,100,300,4,12900,29.91,NA,"SCT  ft","CYBC 070828Z AUTO 30004KT 8SM SCT001 07/07 A2991 RMK SLP133",2025-09-07 08:44:44.284752,2025-09-07 04:44:44.284752
"CYRJ",2025-09-07 08:00:00,2025-09-07 04:00:00,"VFR",11,10,94,230,8,40200,29.9,NA,"BKN  ft","CYRJ 070800Z 23008KT 25SM BKN063 11/10 A2990 RMK SC7 SLP131",2025-09-07 08:44:44.337596,2025-09-07 04:44:44.337596
"CYHZ",2025-09-07 08:00:00,2025-09-07 04:00:00,"MVFR",20,20,100,200,9,9999,29.98,NA,"FEW  ft; SCT  ft; BKN  ft","CYHZ 070800Z 20009KT 10SM FEW003 SCT013 BKN024 20/20 A2998 RMK SF2SC1SC3 SLP152 DENSITY ALT 1200FT",2025-09-07 08:44:44.424491,2025-09-07 04:44:44.424491
"CYYG",2025-09-07 08:35:00,2025-09-07 04:35:00,"MVFR",22,19,83,220,7,24100,29.92,NA,"OVC  ft","CYYG 070835Z 22007KT 190V250 15SM OVC015 22/19 A2992 RMK SC8 SLP132 DENSITY ALT 1000FT",2025-09-07 08:44:44.512507,2025-09-07 04:44:44.512507
"CYQM",2025-09-07 08:00:00,2025-09-07 04:00:00,"LIFR",16,15,94,350,6,19300,29.95,NA,"BKN  ft; OVC  ft","CYQM 070800Z 35006KT 12SM -RA BKN004 OVC012 16/15 A2995 RMK ST6SC2 SLP144",2025-09-07 08:44:44.55981,2025-09-07 04:44:44.55981
"CYFC",2025-09-07 08:38:00,2025-09-07 04:38:00,"VFR",14,14,100,270,2,14500,29.97,NA,"FEW  ft; SCT  ft; BKN  ft","CYFC 070838Z AUTO 27002KT 9SM FEW049 SCT100 BKN130 14/14 A2997 RMK SLP150",2025-09-07 08:44:44.647534,2025-09-07 04:44:44.647534
"CYYT",2025-09-07 08:00:00,2025-09-07 04:00:00,"VFR",17,14,83,250,12,24100,30.09,NA,"FEW  ft; BKN  ft","CYYT 070800Z 25012KT 15SM FEW003 BKN240 17/14 A3009 RMK SF1CI5 SF TR SLP190 DENSITY ALT 700FT",2025-09-07 08:44:44.736689,2025-09-07 04:44:44.736689
"CYQY",2025-09-07 08:00:00,2025-09-07 04:00:00,"VFR",19,19,100,200,10,24100,29.99,NA,"SCT  ft; OVC  ft","CYQY 070800Z 20010G15KT 15SM -RA SCT025 OVC051 19/19 A2999 RMK SC3SC5 SLP158 DENSITY ALT 700FT",2025-09-07 08:44:44.829638,2025-09-07 04:44:44.829638
"CYXY",2025-09-07 08:00:00,2025-09-07 04:00:00,"VFR",11,5,67,230,4,24100,29.9,NA,"BKN  ft","CYXY 070800Z 23004KT 15SM BKN240 11/05 A2990 RMK CI5 SLP142",2025-09-07 08:44:44.878424,2025-09-07 04:44:44.878424
"CYZF",2025-09-07 08:00:00,2025-09-07 04:00:00,"VFR",13,10,82,350,12,12900,29.87,NA,"FEW  ft; SCT  ft","CYZF 070800Z 35012KT 8SM FEW020 SCT046 13/10 A2987 RMK SC2FU2 SLP126",2025-09-07 08:44:44.925631,2025-09-07 04:44:44.925631
"CYFB",2025-09-07 08:00:00,2025-09-07 04:00:00,"VFR",4,-1,70,80,8,24100,29.55,NA,"BKN  ft","CYFB 070800Z 08008KT 15SM BKN052 04/M01 A2955 RMK SC7 SLP012",2025-09-07 08:44:45.014344,2025-09-07 04:44:45.014344
"CYRT",2025-09-07 08:00:00,2025-09-07 04:00:00,"VFR",2,1,93,360,7,24100,29.92,NA,"SKC  ft","CYRT 070800Z 36007KT 15SM SKC 02/01 A2992 RMK SLP135",2025-09-07 08:44:45.103364,2025-09-07 04:44:45.103364
"CYBK",2025-09-07 08:00:00,2025-09-07 04:00:00,"VFR",0,-3,80,340,4,24100,29.95,NA,"FEW  ft","CYBK 070800Z 34004KT 15SM FEW040 M00/M03 A2995 RMK SC1 SLP147",2025-09-07 08:44:45.194089,2025-09-07 04:44:45.194089
"CYRB",2025-09-07 08:00:00,2025-09-07 04:00:00,"MVFR",-1,-3,86,150,16,40200,29.87,NA,"OVC  ft","CYRB 070800Z 15016KT 25SM OVC010 M01/M03 A2987 RMK ST8 SLP122",2025-09-07 08:44:45.283498,2025-09-07 04:44:45.283498
"CYCO",2025-09-07 08:00:00,2025-09-07 04:00:00,"MVFR",1,-1,87,320,15,24100,30.06,NA,"SCT  ft; BKN  ft","CYCO 070800Z 32015KT 15SM SCT013 BKN018 01/M01 A3006 RMK SF3SC3 SLP182",2025-09-07 08:44:45.343966,2025-09-07 04:44:45.343966
"CYER",2025-09-07 09:03:00,2025-09-07 05:03:00,"MVFR",5,5,100,280,10,14500,29.83,NA,"BKN  ft; BKN  ft; OVC  ft","CYER 070903Z AUTO 28010G15KT 9SM BKN020 BKN035 OVC050 05/05 A2983 RMK SLP105",2025-09-07 09:23:40.737534,2025-09-07 05:23:40.737534
"CYAT",2025-09-07 09:00:00,2025-09-07 05:00:00,"VFR",6,5,93,320,6,14500,29.84,NA,"SCT  ft; BKN  ft; OVC  ft","CYAT 070900Z AUTO 32006KT 9SM SCT013 BKN091 OVC150 06/05 A2984 RMK SLP108",2025-09-07 09:23:40.814469,2025-09-07 05:23:40.814469
"CYMO",2025-09-07 09:00:00,2025-09-07 05:00:00,"VFR",7,6,93,240,5,14500,29.84,NA,"FEW  ft; OVC  ft","CYMO 070900Z AUTO 24005KT 9SM FEW050 OVC096 07/06 A2984 RMK SLP107",2025-09-07 09:23:40.884862,2025-09-07 05:23:40.884862
"CYPL",2025-09-07 09:00:00,2025-09-07 05:00:00,"VFR",5,4,93,290,10,14500,30.05,NA,"OVC  ft","CYPL 070900Z AUTO 29010G15KT 9SM OVC036 05/04 A3005 RMK SLP193",2025-09-07 09:23:40.954796,2025-09-07 05:23:40.954796
"CYQT",2025-09-07 09:00:00,2025-09-07 05:00:00,"VFR",7,5,87,280,5,24100,30.07,NA,"OVC  ft","CYQT 070900Z 28005KT 15SM OVC100 07/05 A3007 RMK AC8 SLP189",2025-09-07 09:23:41.027305,2025-09-07 05:23:41.027305
"CYAM",2025-09-07 09:00:00,2025-09-07 05:00:00,"VFR",10,8,88,280,9,32200,29.98,NA,"FEW  ft; BKN  ft; BKN  ft","CYAM 070900Z 28009G15KT 20SM FEW016 BKN090 BKN140 10/08 A2998 RMK SC1AC3AC3 SLP157",2025-09-07 09:23:41.095463,2025-09-07 05:23:41.095463
"CYTS",2025-09-07 09:00:00,2025-09-07 05:00:00,"VFR",5,5,100,250,4,24100,29.9,NA,"BKN  ft","CYTS 070900Z 25004KT 15SM BKN094 05/05 A2990 RMK AC7 SLP136",2025-09-07 09:23:41.163447,2025-09-07 05:23:41.163447
"CYSB",2025-09-07 09:00:00,2025-09-07 05:00:00,"VFR",5,4,93,250,5,24100,29.93,NA,"SCT  ft","CYSB 070900Z 25005KT 15SM SCT190 05/04 A2993 RMK CI4 SLP148",2025-09-07 09:23:41.231694,2025-09-07 05:23:41.231694
"CYYB",2025-09-07 09:00:00,2025-09-07 05:00:00,"IFR",8,8,100,290,6,14500,29.91,NA,"BKN  ft; BKN  ft; OVC  ft","CYYB 070900Z AUTO 29006KT 9SM BKN005 BKN044 OVC180 08/08 A2991 RMK SLP138",2025-09-07 09:23:41.301244,2025-09-07 05:23:41.301244
"CYOW",2025-09-07 09:00:00,2025-09-07 05:00:00,"VFR",12,11,94,170,4,24100,29.94,NA,"BKN  ft","CYOW 070900Z 17004KT 15SM BKN094 12/11 A2994 RMK AC5 SLP142",2025-09-07 09:23:41.370059,2025-09-07 05:23:41.370059
"CYGK",2025-09-07 03:00:00,2025-09-06 23:00:00,"VFR",17,10,64,250,4,24100,29.98,NA,"BKN  ft; BKN  ft","CYGK 070300Z 25004KT 15SM BKN080 BKN250 17/10 A2998 RMK AC5CI1 LAST STFD OBS/ NXT 071000Z SLP155",2025-09-07 09:23:41.441913,2025-09-07 05:23:41.441913
"CYQG",2025-09-07 09:00:00,2025-09-07 05:00:00,"VFR",8,7,93,280,5,14500,30.09,NA,"CLR  ft","CYQG 070900Z AUTO 28005KT 9SM CLR 08/07 A3009 RMK SLP191",2025-09-07 09:23:41.510814,2025-09-07 05:23:41.510814
"CYVV",2025-09-07 09:00:00,2025-09-07 05:00:00,"VFR",9,6,82,0,0,24100,30,NA,"BKN  ft; BKN  ft","CYVV 070900Z 00000KT 15SM BKN047 BKN160 09/06 A3000 RMK CU6AC1 AC TR SLP164",2025-09-07 09:23:41.581446,2025-09-07 05:23:41.581446
"CYYZ",2025-09-07 09:00:00,2025-09-07 05:00:00,"VFR",12,9,82,260,9,24100,29.99,NA,"SCT  ft; BKN  ft","CYYZ 070900Z 26009KT 15SM SCT025 BKN120 12/09 A2999 RMK SC4AC3 SLP160",2025-09-07 09:23:41.649667,2025-09-07 05:23:41.649667
"CYQA",2025-09-07 09:12:00,2025-09-07 05:12:00,"VFR",10,10,100,260,5,14500,29.94,NA,"FEW  ft; SCT  ft; BKN  ft; OVC  ft","CYQA 070912Z AUTO 26005KT 9SM FEW012 SCT037 BKN055 OVC090 10/10 A2994 RMK SLP147",2025-09-07 09:23:41.721576,2025-09-07 05:23:41.721576
"CYVR",2025-09-07 09:00:00,2025-09-07 05:00:00,"VFR",16,15,94,100,12,24100,29.99,NA,"FEW  ft","CYVR 070900Z 10012KT 15SM FEW130 16/15 A2999 RMK AC1 SLP157",2025-09-07 09:23:41.790324,2025-09-07 05:23:41.790324
"CYYJ",2025-09-07 09:00:00,2025-09-07 05:00:00,"VFR",12,12,100,0,2,32200,29.98,NA,"FEW  ft; FEW  ft","CYYJ 070900Z VRB02KT 20SM FEW150 FEW250 12/12 A2998 RMK AC1CI1 SLP153",2025-09-07 09:23:41.858678,2025-09-07 05:23:41.858678
"CYLW",2025-09-07 09:00:00,2025-09-07 05:00:00,"VFR",13,10,82,0,2,9700,29.91,NA,"CLR  ft","CYLW 070900Z AUTO VRB02KT 6SM BR CLR 13/10 A2991 RMK SLP125",2025-09-07 09:23:41.930327,2025-09-07 05:23:41.930327
"CYXS",2025-09-07 09:16:00,2025-09-07 05:16:00,"LIFR",9,9,100,0,0,1000,29.91,NA,"FEW  ft","CYXS 070916Z AUTO 00000KT 5/8SM -RA BR FEW071 09/09 A2991 RMK SLP139",2025-09-07 09:23:41.958184,2025-09-07 05:23:41.958184
"CYXT",2025-09-07 09:00:00,2025-09-07 05:00:00,"VFR",15,15,100,190,5,24100,29.94,NA,"SKC  ft","CYXT 070900Z 19005KT 15SM SKC 15/15 A2994 RMK FU SLP142",2025-09-07 09:23:42.025502,2025-09-07 05:23:42.025502
"CYQQ",2025-09-07 09:00:00,2025-09-07 05:00:00,"VFR",18,16,88,340,2,24100,29.96,NA,"OVC  ft","CYQQ 070900Z 34002KT 15SM -SHRA OVC120 18/16 A2996 RMK AC8 DENSITY ALT 674FT SLP145",2025-09-07 09:23:42.093978,2025-09-07 05:23:42.093978
"CYYC",2025-09-07 09:00:00,2025-09-07 05:00:00,"VFR",13,7,67,40,2,9999,29.95,NA,"FEW  ft; SCT  ft","CYYC 070900Z 04002KT 10SM FEW170 SCT220 13/07 A2995 RMK AC1CI3 AC TR SLP136 DENSITY ALT 4200FT",2025-09-07 09:23:42.163166,2025-09-07 05:23:42.163166
"CYEG",2025-09-07 09:00:00,2025-09-07 05:00:00,"VFR",5,5,100,190,3,32200,29.89,NA,"BKN  ft","CYEG 070900Z 19003KT 20SM BKN220 05/05 A2989 RMK CI7 SLP129",2025-09-07 09:23:42.232094,2025-09-07 05:23:42.232094
"CYMM",2025-09-07 09:00:00,2025-09-07 05:00:00,"VFR",9,5,76,70,2,14500,29.83,NA,"CLR  ft","CYMM 070900Z AUTO 07002KT 9SM CLR 09/05 A2983 RMK SLP110",2025-09-07 09:23:42.303666,2025-09-07 05:23:42.303666
"CYQF",2025-09-07 09:00:00,2025-09-07 05:00:00,"VFR",8,6,87,230,3,12900,29.93,NA,"SCT  ft; BKN  ft","CYQF 070900Z AUTO 23003KT 8SM SCT220 BKN240 08/06 A2993 RMK SLP139",2025-09-07 09:23:42.374075,2025-09-07 05:23:42.374075
"CYXE",2025-09-07 09:00:00,2025-09-07 05:00:00,"VFR",7,3,76,150,8,24100,30.02,NA,"FEW  ft","CYXE 070900Z 15008KT 15SM FEW300 07/03 A3002 RMK CI2 SLP178",2025-09-07 09:23:42.443897,2025-09-07 05:23:42.443897
"CYQR",2025-09-07 09:00:00,2025-09-07 05:00:00,"VFR",5,2,81,130,12,24100,30.09,NA,"SKC  ft","CYQR 070900Z 13012G18KT 15SM SKC 05/02 A3009 RMK SLP204",2025-09-07 09:23:42.512827,2025-09-07 05:23:42.512827
"CYWG",2025-09-07 09:00:00,2025-09-07 05:00:00,"VFR",2,2,100,230,3,24100,30.18,NA,"SKC  ft","CYWG 070900Z 23003KT 15SM SKC 02/02 A3018 RMK SLP231",2025-09-07 09:23:42.581931,2025-09-07 05:23:42.581931
"CYBR",2025-09-07 09:00:00,2025-09-07 05:00:00,"VFR",0,-2,87,360,4,14500,30.18,NA,"CLR  ft","CYBR 070900Z AUTO 36004KT 9SM CLR M00/M02 A3018 RMK SLP240",2025-09-07 09:23:42.652853,2025-09-07 05:23:42.652853
"CYUL",2025-09-07 09:00:00,2025-09-07 05:00:00,"VFR",14,11,82,270,3,24100,29.95,NA,"OVC  ft","CYUL 070900Z 27003KT 15SM OVC095 14/11 A2995 RMK AC8 SLP144",2025-09-07 09:23:42.722006,2025-09-07 05:23:42.722006
"CYHU",2025-09-07 09:00:00,2025-09-07 05:00:00,"VFR",11,10,94,160,3,14500,29.95,NA,"OVC  ft","CYHU 070900Z AUTO 16003KT 9SM OVC096 11/10 A2995 RMK SLP144",2025-09-07 09:23:42.793955,2025-09-07 05:23:42.793955
"CYQB",2025-09-07 09:17:00,2025-09-07 05:17:00,"IFR",13,12,94,0,2,24100,29.97,NA,"OVC  ft","CYQB 070917Z VRB02KT 15SM OVC008 13/12 A2997 RMK ST8 SLP151",2025-09-07 09:23:42.863706,2025-09-07 05:23:42.863706
"CYVO",2025-09-07 09:00:00,2025-09-07 05:00:00,"MVFR",9,9,100,190,4,14500,29.86,NA,"SCT  ft; BKN  ft; BKN  ft; OVC  ft","CYVO 070900Z AUTO 19004KT 9SM -RA SCT015 BKN030 BKN037 OVC050 09/09 A2986 RMK SLP122",2025-09-07 09:23:42.934045,2025-09-07 05:23:42.934045
"CYUY",2025-09-07 09:00:00,2025-09-07 05:00:00,"VFR",8,8,100,240,3,24100,29.86,NA,"SCT  ft; OVC  ft","CYUY 070900Z 24003KT 15SM -SHRA SCT010 OVC045 08/08 A2986 RMK SC3SC5 SLP123",2025-09-07 09:23:43.005125,2025-09-07 05:23:43.005125
"CYZV",2025-09-07 09:00:00,2025-09-07 05:00:00,"VFR",4,3,93,30,2,32200,29.89,NA,"FEW  ft","CYZV 070900Z 03002KT 20SM FEW200 04/03 A2989 RMK CI1 SLP125",2025-09-07 09:23:43.073895,2025-09-07 05:23:43.073895
"CYBC",2025-09-07 09:10:00,2025-09-07 05:10:00,"LIFR",6,6,100,0,0,1200,29.93,NA,"BKN  ft","CYBC 070910Z AUTO 00000KT 3/4SM R10/P6000FT/U BR BKN001 06/06 A2993 RMK SLP137",2025-09-07 09:23:43.144024,2025-09-07 05:23:43.144024
"CYRJ",2025-09-07 09:00:00,2025-09-07 05:00:00,"VFR",11,10,94,240,6,40200,29.9,NA,"BKN  ft","CYRJ 070900Z 24006KT 25SM BKN069 11/10 A2990 RMK AC7 SLP130",2025-09-07 09:23:43.215526,2025-09-07 05:23:43.215526
"CYHZ",2025-09-07 09:00:00,2025-09-07 05:00:00,"MVFR",20,20,100,190,6,9999,29.98,NA,"SCT  ft; BKN  ft","CYHZ 070900Z 19006KT 10SM SCT004 BKN023 20/20 A2998 RMK SF4SC2 SLP154 DENSITY ALT 1100FT",2025-09-07 09:23:43.284788,2025-09-07 05:23:43.284788
"CYYG",2025-09-07 09:04:00,2025-09-07 05:04:00,"IFR",20,18,88,290,10,8000,29.94,NA,"OVC  ft","CYYG 070904Z 29010G20KT 210V350 5SM -RA BR OVC006 20/18 A2994 RMK SF8 CIG RAG PRESRR SLP140 DENSITY ALT 800FT",2025-09-07 09:23:43.353844,2025-09-07 05:23:43.353844
"CYQM",2025-09-07 09:00:00,2025-09-07 05:00:00,"LIFR",15,15,100,10,4,19300,29.96,NA,"BKN  ft; OVC  ft","CYQM 070900Z 01004KT 12SM -RA BKN004 OVC012 15/15 A2996 RMK ST5ST3 SLP148",2025-09-07 09:23:43.421539,2025-09-07 05:23:43.421539
"CYFC",2025-09-07 09:13:00,2025-09-07 05:13:00,"VFR",14,13,94,250,3,14500,29.98,NA,"BKN  ft","CYFC 070913Z AUTO 25003KT 9SM -RA BKN130 14/13 A2998 RMK SLP156",2025-09-07 09:23:43.488465,2025-09-07 05:23:43.488465
"CYYT",2025-09-07 09:00:00,2025-09-07 05:00:00,"VFR",18,13,73,250,12,24100,30.09,NA,"FEW  ft; FEW  ft; BKN  ft","CYYT 070900Z 25012KT 15SM FEW040 FEW070 BKN240 18/13 A3009 RMK SC1AC1CI7 SC TR AC TR SLP191 DENSITY ALT 800FT",2025-09-07 09:23:43.556567,2025-09-07 05:23:43.556567
"CYQY",2025-09-07 09:00:00,2025-09-07 05:00:00,"VFR",19,19,100,210,7,24100,29.99,NA,"BKN  ft","CYQY 070900Z 21007KT 15SM BKN035 19/19 A2999 RMK SC7 SLP159 DENSITY ALT 700FT",2025-09-07 09:23:43.626985,2025-09-07 05:23:43.626985
"CYXY",2025-09-07 09:00:00,2025-09-07 05:00:00,"VFR",9,4,71,260,3,24100,29.89,NA,"BKN  ft","CYXY 070900Z 26003KT 15SM BKN240 09/04 A2989 RMK CI5 SLP138",2025-09-07 09:23:43.695094,2025-09-07 05:23:43.695094
"CYZF",2025-09-07 09:00:00,2025-09-07 05:00:00,"MVFR",13,10,82,350,15,9999,29.88,NA,"OVC  ft","CYZF 070900Z 35015KT 10SM OVC018 13/10 A2988 RMK SC8 SLP128",2025-09-07 09:23:43.761843,2025-09-07 05:23:43.761843
"CYFB",2025-09-07 09:00:00,2025-09-07 05:00:00,"VFR",4,-1,70,80,7,48300,29.57,NA,"FEW  ft; BKN  ft","CYFB 070900Z 08007KT 30SM FEW030 BKN056 04/M01 A2957 RMK SC1SC6 SLP016",2025-09-07 09:23:43.831019,2025-09-07 05:23:43.831019
"CYRT",2025-09-07 09:00:00,2025-09-07 05:00:00,"VFR",2,1,93,360,8,24100,29.91,NA,"SKC  ft","CYRT 070900Z 36008KT 15SM SKC 02/01 A2991 RMK SLP134",2025-09-07 09:23:43.859222,2025-09-07 05:23:43.859222
"CYBK",2025-09-07 09:00:00,2025-09-07 05:00:00,"VFR",1,-2,81,200,2,24100,29.95,NA,"FEW  ft","CYBK 070900Z 20002KT 15SM FEW040 01/M02 A2995 RMK SC1 SLP144",2025-09-07 09:23:43.927359,2025-09-07 05:23:43.927359
"CYRB",2025-09-07 09:00:00,2025-09-07 05:00:00,"MVFR",-1,-3,86,150,14,40200,29.86,NA,"OVC  ft","CYRB 070900Z 15014KT 25SM OVC012 M01/M03 A2986 RMK ST8 SLP119",2025-09-07 09:23:44.004028,2025-09-07 05:23:44.004028
"CYCO",2025-09-07 09:00:00,2025-09-07 05:00:00,"VFR",0,-2,87,280,7,24100,30.07,NA,"SCT  ft","CYCO 070900Z 28007KT 15SM SCT014 00/M02 A3007 RMK SF3 SLP188",2025-09-07 09:23:44.070668,2025-09-07 05:23:44.070668
"CYER",2025-09-07 09:03:00,2025-09-07 05:03:00,"MVFR",5,5,100,280,10,14500,29.83,NA,"BKN  ft; BKN  ft; OVC  ft","CYER 070903Z AUTO 28010G15KT 9SM BKN020 BKN035 OVC050 05/05 A2983 RMK SLP105",2025-09-07 09:41:30.014503,2025-09-07 05:41:30.014503
"CYAT",2025-09-07 09:00:00,2025-09-07 05:00:00,"VFR",6,5,93,320,6,14500,29.84,NA,"SCT  ft; BKN  ft; OVC  ft","CYAT 070900Z AUTO 32006KT 9SM SCT013 BKN091 OVC150 06/05 A2984 RMK SLP108",2025-09-07 09:41:30.162327,2025-09-07 05:41:30.162327
"CYMO",2025-09-07 09:00:00,2025-09-07 05:00:00,"VFR",7,6,93,240,5,14500,29.84,NA,"FEW  ft; OVC  ft","CYMO 070900Z AUTO 24005KT 9SM FEW050 OVC096 07/06 A2984 RMK SLP107",2025-09-07 09:41:30.303696,2025-09-07 05:41:30.303696
"CYPL",2025-09-07 09:00:00,2025-09-07 05:00:00,"VFR",5,4,93,290,10,14500,30.05,NA,"OVC  ft","CYPL 070900Z AUTO 29010G15KT 9SM OVC036 05/04 A3005 RMK SLP193",2025-09-07 09:41:30.403581,2025-09-07 05:41:30.403581
"CYQT",2025-09-07 09:00:00,2025-09-07 05:00:00,"VFR",7,5,87,280,5,24100,30.07,NA,"OVC  ft","CYQT 070900Z 28005KT 15SM OVC100 07/05 A3007 RMK AC8 SLP189",2025-09-07 09:41:30.546155,2025-09-07 05:41:30.546155
"CYAM",2025-09-07 09:00:00,2025-09-07 05:00:00,"VFR",10,8,88,280,9,32200,29.98,NA,"FEW  ft; BKN  ft; BKN  ft","CYAM 070900Z 28009G15KT 20SM FEW016 BKN090 BKN140 10/08 A2998 RMK SC1AC3AC3 SLP157",2025-09-07 09:41:30.686574,2025-09-07 05:41:30.686574
"CYTS",2025-09-07 09:00:00,2025-09-07 05:00:00,"VFR",5,5,100,250,4,24100,29.9,NA,"BKN  ft","CYTS 070900Z 25004KT 15SM BKN094 05/05 A2990 RMK AC7 SLP136",2025-09-07 09:41:30.826871,2025-09-07 05:41:30.826871
"CYSB",2025-09-07 09:00:00,2025-09-07 05:00:00,"VFR",5,4,93,250,5,24100,29.93,NA,"SCT  ft","CYSB 070900Z 25005KT 15SM SCT190 05/04 A2993 RMK CI4 SLP148",2025-09-07 09:41:30.963355,2025-09-07 05:41:30.963355
"CYYB",2025-09-07 09:27:00,2025-09-07 05:27:00,"VFR",8,8,100,300,6,14500,29.91,NA,"SCT  ft; BKN  ft; BKN  ft","CYYB 070927Z AUTO 30006KT 9SM SCT006 BKN042 BKN170 08/08 A2991 RMK SLP141",2025-09-07 09:41:31.105448,2025-09-07 05:41:31.105448
"CYOW",2025-09-07 09:00:00,2025-09-07 05:00:00,"VFR",12,11,94,170,4,24100,29.94,NA,"BKN  ft","CYOW 070900Z 17004KT 15SM BKN094 12/11 A2994 RMK AC5 SLP142",2025-09-07 09:41:31.249773,2025-09-07 05:41:31.249773
"CYGK",2025-09-07 03:00:00,2025-09-06 23:00:00,"VFR",17,10,64,250,4,24100,29.98,NA,"BKN  ft; BKN  ft","CYGK 070300Z 25004KT 15SM BKN080 BKN250 17/10 A2998 RMK AC5CI1 LAST STFD OBS/ NXT 071000Z SLP155",2025-09-07 09:41:31.39061,2025-09-07 05:41:31.39061
"CYQG",2025-09-07 09:00:00,2025-09-07 05:00:00,"VFR",8,7,93,280,5,14500,30.09,NA,"CLR  ft","CYQG 070900Z AUTO 28005KT 9SM CLR 08/07 A3009 RMK SLP191",2025-09-07 09:41:31.529495,2025-09-07 05:41:31.529495
"CYVV",2025-09-07 09:00:00,2025-09-07 05:00:00,"VFR",9,6,82,0,0,24100,30,NA,"BKN  ft; BKN  ft","CYVV 070900Z 00000KT 15SM BKN047 BKN160 09/06 A3000 RMK CU6AC1 AC TR SLP164",2025-09-07 09:41:31.635725,2025-09-07 05:41:31.635725
"CYYZ",2025-09-07 09:00:00,2025-09-07 05:00:00,"VFR",12,9,82,260,9,24100,29.99,NA,"SCT  ft; BKN  ft","CYYZ 070900Z 26009KT 15SM SCT025 BKN120 12/09 A2999 RMK SC4AC3 SLP160",2025-09-07 09:41:31.746492,2025-09-07 05:41:31.746492
"CYQA",2025-09-07 09:12:00,2025-09-07 05:12:00,"VFR",10,10,100,260,5,14500,29.94,NA,"FEW  ft; SCT  ft; BKN  ft; OVC  ft","CYQA 070912Z AUTO 26005KT 9SM FEW012 SCT037 BKN055 OVC090 10/10 A2994 RMK SLP147",2025-09-07 09:41:31.843836,2025-09-07 05:41:31.843836
"CYVR",2025-09-07 09:37:00,2025-09-07 05:37:00,"MVFR",16,15,94,100,13,19300,30,NA,"BKN  ft","CYVR 070937Z 10013KT 12SM BKN012 16/15 A3000 RMK SC7 SLP160",2025-09-07 09:41:31.981313,2025-09-07 05:41:31.981313
"CYYJ",2025-09-07 09:00:00,2025-09-07 05:00:00,"VFR",12,12,100,0,2,32200,29.98,NA,"FEW  ft; FEW  ft","CYYJ 070900Z VRB02KT 20SM FEW150 FEW250 12/12 A2998 RMK AC1CI1 SLP153",2025-09-07 09:41:32.124307,2025-09-07 05:41:32.124307
"CYLW",2025-09-07 09:00:00,2025-09-07 05:00:00,"VFR",13,10,82,0,2,9700,29.91,NA,"CLR  ft","CYLW 070900Z AUTO VRB02KT 6SM BR CLR 13/10 A2991 RMK SLP125",2025-09-07 09:41:32.265972,2025-09-07 05:41:32.265972
"CYXS",2025-09-07 09:37:00,2025-09-07 05:37:00,"LIFR",9,9,100,0,0,600,29.92,NA,"FEW  ft","CYXS 070937Z AUTO 00000KT 3/8SM FG FEW005 09/09 A2992 RMK SLP141",2025-09-07 09:41:32.373245,2025-09-07 05:41:32.373245
"CYXT",2025-09-07 09:00:00,2025-09-07 05:00:00,"VFR",15,15,100,190,5,24100,29.94,NA,"SKC  ft","CYXT 070900Z 19005KT 15SM SKC 15/15 A2994 RMK FU SLP142",2025-09-07 09:41:32.468884,2025-09-07 05:41:32.468884
"CYQQ",2025-09-07 09:00:00,2025-09-07 05:00:00,"VFR",18,16,88,340,2,24100,29.96,NA,"OVC  ft","CYQQ 070900Z 34002KT 15SM -SHRA OVC120 18/16 A2996 RMK AC8 DENSITY ALT 674FT SLP145",2025-09-07 09:41:32.607443,2025-09-07 05:41:32.607443
"CYYC",2025-09-07 09:00:00,2025-09-07 05:00:00,"VFR",13,7,67,40,2,9999,29.95,NA,"FEW  ft; SCT  ft","CYYC 070900Z 04002KT 10SM FEW170 SCT220 13/07 A2995 RMK AC1CI3 AC TR SLP136 DENSITY ALT 4200FT",2025-09-07 09:41:32.7452,2025-09-07 05:41:32.7452
"CYEG",2025-09-07 09:00:00,2025-09-07 05:00:00,"VFR",5,5,100,190,3,32200,29.89,NA,"BKN  ft","CYEG 070900Z 19003KT 20SM BKN220 05/05 A2989 RMK CI7 SLP129",2025-09-07 09:41:32.886392,2025-09-07 05:41:32.886392
"CYMM",2025-09-07 09:00:00,2025-09-07 05:00:00,"VFR",9,5,76,70,2,14500,29.83,NA,"CLR  ft","CYMM 070900Z AUTO 07002KT 9SM CLR 09/05 A2983 RMK SLP110",2025-09-07 09:41:33.02437,2025-09-07 05:41:33.02437
"CYQF",2025-09-07 09:00:00,2025-09-07 05:00:00,"VFR",8,6,87,230,3,12900,29.93,NA,"SCT  ft; BKN  ft","CYQF 070900Z AUTO 23003KT 8SM SCT220 BKN240 08/06 A2993 RMK SLP139",2025-09-07 09:41:33.128311,2025-09-07 05:41:33.128311
"CYXE",2025-09-07 09:00:00,2025-09-07 05:00:00,"VFR",7,3,76,150,8,24100,30.02,NA,"FEW  ft","CYXE 070900Z 15008KT 15SM FEW300 07/03 A3002 RMK CI2 SLP178",2025-09-07 09:41:33.226065,2025-09-07 05:41:33.226065
"CYQR",2025-09-07 09:00:00,2025-09-07 05:00:00,"VFR",5,2,81,130,12,24100,30.09,NA,"SKC  ft","CYQR 070900Z 13012G18KT 15SM SKC 05/02 A3009 RMK SLP204",2025-09-07 09:41:33.362223,2025-09-07 05:41:33.362223
"CYWG",2025-09-07 09:00:00,2025-09-07 05:00:00,"VFR",2,2,100,230,3,24100,30.18,NA,"SKC  ft","CYWG 070900Z 23003KT 15SM SKC 02/02 A3018 RMK SLP231",2025-09-07 09:41:33.460045,2025-09-07 05:41:33.460045
"CYBR",2025-09-07 09:00:00,2025-09-07 05:00:00,"VFR",0,-2,87,360,4,14500,30.18,NA,"CLR  ft","CYBR 070900Z AUTO 36004KT 9SM CLR M00/M02 A3018 RMK SLP240",2025-09-07 09:41:33.556819,2025-09-07 05:41:33.556819
"CYUL",2025-09-07 09:00:00,2025-09-07 05:00:00,"VFR",14,11,82,270,3,24100,29.95,NA,"OVC  ft","CYUL 070900Z 27003KT 15SM OVC095 14/11 A2995 RMK AC8 SLP144",2025-09-07 09:41:33.655408,2025-09-07 05:41:33.655408
"CYHU",2025-09-07 09:00:00,2025-09-07 05:00:00,"VFR",11,10,94,160,3,14500,29.95,NA,"OVC  ft","CYHU 070900Z AUTO 16003KT 9SM OVC096 11/10 A2995 RMK SLP144",2025-09-07 09:41:33.758832,2025-09-07 05:41:33.758832
"CYQB",2025-09-07 09:17:00,2025-09-07 05:17:00,"IFR",13,12,94,0,2,24100,29.97,NA,"OVC  ft","CYQB 070917Z VRB02KT 15SM OVC008 13/12 A2997 RMK ST8 SLP151",2025-09-07 09:41:33.857453,2025-09-07 05:41:33.857453
"CYVO",2025-09-07 09:21:00,2025-09-07 05:21:00,"MVFR",9,9,100,190,3,14500,29.85,NA,"SCT  ft; BKN  ft; BKN  ft; OVC  ft","CYVO 070921Z AUTO 19003KT 9SM -RA SCT012 BKN022 BKN029 OVC037 09/09 A2985 RMK SLP123",2025-09-07 09:41:33.954337,2025-09-07 05:41:33.954337
"CYUY",2025-09-07 09:00:00,2025-09-07 05:00:00,"VFR",8,8,100,240,3,24100,29.86,NA,"SCT  ft; OVC  ft","CYUY 070900Z 24003KT 15SM -SHRA SCT010 OVC045 08/08 A2986 RMK SC3SC5 SLP123",2025-09-07 09:41:34.054305,2025-09-07 05:41:34.054305
"CYZV",2025-09-07 09:00:00,2025-09-07 05:00:00,"VFR",4,3,93,30,2,32200,29.89,NA,"FEW  ft","CYZV 070900Z 03002KT 20SM FEW200 04/03 A2989 RMK CI1 SLP125",2025-09-07 09:41:34.160853,2025-09-07 05:41:34.160853
"CYBC",2025-09-07 09:36:00,2025-09-07 05:36:00,"LIFR",6,6,100,0,0,NA,29.93,NA,"OVX  ft","CYBC 070936Z AUTO 00000KT 3/8SM R10/3000FT/N FG VV001 06/06 A2993 RMK SLP138",2025-09-07 09:41:34.30127,2025-09-07 05:41:34.30127
"CYRJ",2025-09-07 09:00:00,2025-09-07 05:00:00,"VFR",11,10,94,240,6,40200,29.9,NA,"BKN  ft","CYRJ 070900Z 24006KT 25SM BKN069 11/10 A2990 RMK AC7 SLP130",2025-09-07 09:41:34.403672,2025-09-07 05:41:34.403672
"CYHZ",2025-09-07 09:24:00,2025-09-07 05:24:00,"IFR",20,19,94,180,6,9999,29.99,NA,"BKN  ft; BKN  ft","CYHZ 070924Z 18006KT 10SM BKN005 BKN025 20/19 A2999 RMK SF6SC1 SLP157 DENSITY ALT 1100FT",2025-09-07 09:41:34.542845,2025-09-07 05:41:34.542845
"CYYG",2025-09-07 09:31:00,2025-09-07 05:31:00,"LIFR",17,17,100,340,6,6400,29.95,NA,"OVC  ft","CYYG 070931Z 34006KT 4SM -RA BR OVC004 17/17 A2995 RMK FG2SF6 WSHFT 0904 CIG RAG SLP143 DENSITY ALT 500FT",2025-09-07 09:41:34.640395,2025-09-07 05:41:34.640395
"CYQM",2025-09-07 09:28:00,2025-09-07 05:28:00,"LIFR",15,15,100,20,5,4000,29.96,NA,"BKN  ft; OVC  ft","CYQM 070928Z 02005KT 2 1/2SM -SHRA BR BKN003 OVC012 15/15 A2996 RMK ST5SC3 CVCTV CLD EMBD SLP147",2025-09-07 09:41:34.740781,2025-09-07 05:41:34.740781
"CYFC",2025-09-07 09:13:00,2025-09-07 05:13:00,"VFR",14,13,94,250,3,14500,29.98,NA,"BKN  ft","CYFC 070913Z AUTO 25003KT 9SM -RA BKN130 14/13 A2998 RMK SLP156",2025-09-07 09:41:34.877752,2025-09-07 05:41:34.877752
"CYYT",2025-09-07 09:00:00,2025-09-07 05:00:00,"VFR",18,13,73,250,12,24100,30.09,NA,"FEW  ft; FEW  ft; BKN  ft","CYYT 070900Z 25012KT 15SM FEW040 FEW070 BKN240 18/13 A3009 RMK SC1AC1CI7 SC TR AC TR SLP191 DENSITY ALT 800FT",2025-09-07 09:41:35.019574,2025-09-07 05:41:35.019574
"CYQY",2025-09-07 09:00:00,2025-09-07 05:00:00,"VFR",19,19,100,210,7,24100,29.99,NA,"BKN  ft","CYQY 070900Z 21007KT 15SM BKN035 19/19 A2999 RMK SC7 SLP159 DENSITY ALT 700FT",2025-09-07 09:41:35.162432,2025-09-07 05:41:35.162432
"CYXY",2025-09-07 09:00:00,2025-09-07 05:00:00,"VFR",9,4,71,260,3,24100,29.89,NA,"BKN  ft","CYXY 070900Z 26003KT 15SM BKN240 09/04 A2989 RMK CI5 SLP138",2025-09-07 09:41:35.259302,2025-09-07 05:41:35.259302
"CYZF",2025-09-07 09:00:00,2025-09-07 05:00:00,"MVFR",13,10,82,350,15,9999,29.88,NA,"OVC  ft","CYZF 070900Z 35015KT 10SM OVC018 13/10 A2988 RMK SC8 SLP128",2025-09-07 09:41:35.354352,2025-09-07 05:41:35.354352
"CYFB",2025-09-07 09:00:00,2025-09-07 05:00:00,"VFR",4,-1,70,80,7,48300,29.57,NA,"FEW  ft; BKN  ft","CYFB 070900Z 08007KT 30SM FEW030 BKN056 04/M01 A2957 RMK SC1SC6 SLP016",2025-09-07 09:41:35.452741,2025-09-07 05:41:35.452741
"CYRT",2025-09-07 09:00:00,2025-09-07 05:00:00,"VFR",2,1,93,360,8,24100,29.91,NA,"SKC  ft","CYRT 070900Z 36008KT 15SM SKC 02/01 A2991 RMK SLP134",2025-09-07 09:41:35.555962,2025-09-07 05:41:35.555962
"CYBK",2025-09-07 09:00:00,2025-09-07 05:00:00,"VFR",1,-2,81,200,2,24100,29.95,NA,"FEW  ft","CYBK 070900Z 20002KT 15SM FEW040 01/M02 A2995 RMK SC1 SLP144",2025-09-07 09:41:35.693723,2025-09-07 05:41:35.693723
"CYRB",2025-09-07 09:00:00,2025-09-07 05:00:00,"MVFR",-1,-3,86,150,14,40200,29.86,NA,"OVC  ft","CYRB 070900Z 15014KT 25SM OVC012 M01/M03 A2986 RMK ST8 SLP119",2025-09-07 09:41:35.803075,2025-09-07 05:41:35.803075
"CYCO",2025-09-07 09:00:00,2025-09-07 05:00:00,"VFR",0,-2,87,280,7,24100,30.07,NA,"SCT  ft","CYCO 070900Z 28007KT 15SM SCT014 00/M02 A3007 RMK SF3 SLP188",2025-09-07 09:41:35.903362,2025-09-07 05:41:35.903362
