icao,observed_utc,observed_local,flight_category,temp_c,dewpoint_c,rh_percent,wind_dir_deg,wind_kts,vis_m,altimeter_hg,conditions,clouds,raw_text,fetched_at_utc,fetched_at_local
CYAM,2025-12-01T05:28:00Z,2025-12-01T00:28:00Z,IFR,-7,-8,93,160,3,1600,30.31,NA,SCT  ft; SCT  ft; OVC  ft,SPECI CYAM 010528Z 16003KT 090V170 1SM R12/P6000FT/U -SHSN SCT007 SCT014TCU OVC032 M07/M08 A3031 RMK SN3CF1TCU1CU4 CF TR TCU SE MOV SE SLP279,2025-12-01T05:35:59Z,2025-12-01T00:35:59Z
CYAM,2025-12-01T06:23:00Z,2025-12-01T01:23:00Z,IFR,-7,-8,93,140,5,2000,30.32,NA,SCT  ft; BKN  ft; BKN  ft; OVC  ft,SPECI CYAM 010623Z 14005KT 110V190 1 1/4SM R12/5500VP6000FT/U -SHSN SCT006 BKN015 BKN027 OVC048 M07/M08 A3032 RMK SN3CF1CU1CU2SC1 SLP281,2025-12-01T06:45:38Z,2025-12-01T01:45:38Z
CYAM,2025-12-01T07:17:00Z,2025-12-01T02:17:00Z,IFR,-7,-8,93,100,5,2000,30.32,NA,SCT  ft; BKN  ft; OVC  ft,SPECI CYAM 010717Z 10005KT 1 1/4SM R12/4500VP6000FT/U -SHSN SCT006 BKN013TCU OVC021 M07/M08 A3032 RMK SN3CF1TCU2CU2 TCU OHD MOV SE SLP283,2025-12-01T07:31:02Z,2025-12-01T02:31:02Z
CYAM,2025-12-01T08:36:00Z,2025-12-01T03:36:00Z,IFR,-7,-8,93,70,5,1600,30.32,NA,SCT  ft; BKN  ft; OVC  ft,SPECI CYAM 010836Z 07005KT 1SM R12/P6000FT/N -SHSN SCT007 BKN012 OVC021 M07/M08 A3032 RMK SN3CF1CU3CU1 SLP284,2025-12-01T08:41:13Z,2025-12-01T03:41:13Z
CYAM,2025-12-01T09:08:00Z,2025-12-01T04:08:00Z,MVFR,-7,-8,93,80,5,4800,30.32,NA,FEW  ft; BKN  ft; OVC  ft,SPECI CYAM 010908Z 08005KT 3SM -SHSN FEW008 BKN011 OVC024 M07/M08 A3032 RMK CF2CU3CU3 SLP282,2025-12-01T09:37:24Z,2025-12-01T04:37:24Z
CYAM,2025-12-01T10:00:00Z,2025-12-01T05:00:00Z,MVFR,-7,-8,93,0,0,9999,30.31,NA,FEW  ft; SCT  ft; BKN  ft; BKN  ft,METAR CYAM 011000Z 00000KT 10SM -SHSN FEW004 SCT012 BKN023 BKN042 M07/M08 A3031 RMK CF1CU3CU1SC2 SLP279,2025-12-01T10:34:23Z,2025-12-01T05:34:23Z
CYAM,2025-12-01T11:00:00Z,2025-12-01T06:00:00Z,VFR,-5,-8,80,240,12,24100,30.31,NA,FEW  ft; FEW  ft; OVC  ft,METAR CYAM 011100Z 24012G20KT 15SM -SHSN DRSN FEW009 FEW012 OVC042 M05/M08 A3031 RMK CF1CU1CU7 CF TR SLP278,2025-12-01T11:27:05Z,2025-12-01T06:27:05Z
CYAM,2025-12-01T12:00:00Z,2025-12-01T07:00:00Z,VFR,-6,-10,74,240,9,24100,30.31,NA,FEW  ft; SCT  ft; BKN  ft,METAR CYAM 011200Z CCA 24009G15KT 15SM DRSN FEW009 SCT039 BKN048 M06/M10 A3031 RMK CF1CU3SC3 CF TR OCNL -SHSN SLP280,2025-12-01T12:59:47Z,2025-12-01T07:59:47Z
CYAM,2025-12-01T13:00:00Z,2025-12-01T08:00:00Z,VFR,-6,-10,74,240,13,24100,30.31,NA,FEW  ft; SCT  ft; BKN  ft,METAR CYAM 011300Z 24013G18KT 15SM DRSN FEW009 SCT039 BKN046 M06/M10 A3031 RMK CF1CU3SC2 OCNL -SHSN SLP278,2025-12-01T13:41:27Z,2025-12-01T08:41:27Z
CYAM,2025-12-01T14:00:00Z,2025-12-01T09:00:00Z,VFR,-5,-11,63,270,13,40200,30.3,NA,BKN  ft; BKN  ft,METAR CYAM 011400Z 27013KT 25SM DRSN BKN040 BKN220 M05/M11 A3030 RMK SC6CI1 SLP276,2025-12-01T14:31:27Z,2025-12-01T09:31:27Z
CYAM,2025-12-01T15:00:00Z,2025-12-01T10:00:00Z,VFR,-5,-11,63,240,11,40200,30.29,NA,BKN  ft; BKN  ft,METAR CYAM 011500Z 24011KT 25SM BKN040 BKN220 M05/M11 A3029 RMK SC6CI1 SLP271,2025-12-01T15:31:40Z,2025-12-01T10:31:40Z
CYAM,2025-12-01T16:00:00Z,2025-12-01T11:00:00Z,VFR,-5,-11,63,250,7,40200,30.26,NA,BKN  ft; BKN  ft,METAR CYAM 011600Z 25007KT 25SM BKN040 BKN220 M05/M11 A3026 RMK SC5CI2 SLP264,2025-12-01T16:39:26Z,2025-12-01T11:39:26Z
CYAM,2025-12-01T17:00:00Z,2025-12-01T12:00:00Z,MVFR,-5,-10,68,230,5,40200,30.24,NA,FEW  ft; BKN  ft; BKN  ft,METAR CYAM 011700Z CCA 23005KT 180V260 25SM FEW024 BKN028 BKN210 M05/M10 A3024 RMK CU2SC3CI2 SLP255,2025-12-01T17:30:00Z,2025-12-01T12:30:00Z
CYAT,2025-12-01T05:00:00Z,2025-12-01T00:00:00Z,VFR,-21,-23,84,230,7,14500,30.09,NA,CLR  ft,METAR CYAT 010500Z AUTO 23007KT 9SM CLR M21/M23 A3009 RMK SLP192,2025-12-01T05:35:58Z,2025-12-01T00:35:58Z
CYAT,2025-12-01T06:00:00Z,2025-12-01T01:00:00Z,VFR,-20,-22,84,230,8,14500,30.08,NA,CLR  ft,METAR CYAT 010600Z AUTO 23008KT 9SM CLR M20/M22 A3008 RMK SLP188,2025-12-01T06:45:38Z,2025-12-01T01:45:38Z
CYAT,2025-12-01T07:00:00Z,2025-12-01T02:00:00Z,VFR,-19,-21,84,230,8,14500,30.07,NA,FEW  ft,METAR CYAT 010700Z AUTO 23008KT 9SM FEW120 M19/M21 A3007 RMK SLP185,2025-12-01T07:31:02Z,2025-12-01T02:31:02Z
CYAT,2025-12-01T08:00:00Z,2025-12-01T03:00:00Z,VFR,-18,-21,78,220,6,14500,30.07,NA,CLR  ft,METAR CYAT 010800Z AUTO 22006KT 9SM CLR M18/M21 A3007 RMK SLP187,2025-12-01T08:41:13Z,2025-12-01T03:41:13Z
CYAT,2025-12-01T09:00:00Z,2025-12-01T04:00:00Z,VFR,-16,-19,78,230,7,14500,30.05,NA,OVC  ft,METAR CYAT 010900Z AUTO 23007KT 9SM OVC060 M16/M19 A3005 RMK SLP180,2025-12-01T09:37:24Z,2025-12-01T04:37:24Z
CYAT,2025-12-01T10:00:00Z,2025-12-01T05:00:00Z,VFR,-15,-18,78,230,9,14500,30.04,NA,OVC  ft,METAR CYAT 011000Z AUTO 23009KT 9SM OVC066 M15/M18 A3004 RMK SLP174,2025-12-01T10:34:23Z,2025-12-01T05:34:23Z
CYAT,2025-12-01T11:00:00Z,2025-12-01T06:00:00Z,VFR,-14,-17,78,230,9,14500,30.02,NA,OVC  ft,METAR CYAT 011100Z AUTO 23009KT 9SM OVC071 M14/M17 A3002 RMK SLP168,2025-12-01T11:27:04Z,2025-12-01T06:27:04Z
CYAT,2025-12-01T12:53:00Z,2025-12-01T07:53:00Z,VFR,-13,-16,78,230,10,14500,30.01,NA,FEW  ft; OVC  ft,SPECI CYAT 011253Z AUTO 23010G17KT 9SM FEW055 OVC075 M13/M16 A3001 RMK SLP165,2025-12-01T12:59:47Z,2025-12-01T07:59:47Z
CYAT,2025-12-01T13:16:00Z,2025-12-01T08:16:00Z,VFR,-13,-16,78,230,10,14500,30.01,NA,OVC  ft,SPECI CYAT 011316Z AUTO 23010G19KT 9SM OVC076 M13/M16 A3001 RMK SLP164,2025-12-01T13:41:26Z,2025-12-01T08:41:26Z
CYAT,2025-12-01T14:00:00Z,2025-12-01T09:00:00Z,VFR,-13,-16,78,230,9,14500,30,NA,OVC  ft,METAR CYAT 011400Z AUTO 23009KT 9SM OVC081 M13/M16 A3000 RMK SLP161,2025-12-01T14:31:26Z,2025-12-01T09:31:26Z
CYAT,2025-12-01T15:00:00Z,2025-12-01T10:00:00Z,VFR,-12,-16,72,220,10,14500,29.98,NA,OVC  ft,METAR CYAT 011500Z AUTO 22010G16KT 9SM OVC081 M12/M16 A2998 RMK SLP156,2025-12-01T15:31:40Z,2025-12-01T10:31:40Z
CYAT,2025-12-01T16:00:00Z,2025-12-01T11:00:00Z,VFR,-11,-15,73,230,9,14500,29.97,NA,OVC  ft,METAR CYAT 011600Z AUTO 23009G15KT 9SM OVC081 M11/M15 A2997 RMK SLP152,2025-12-01T16:39:25Z,2025-12-01T11:39:25Z
CYAT,2025-12-01T17:00:00Z,2025-12-01T12:00:00Z,VFR,-11,-14,79,240,10,14500,29.95,NA,BKN  ft,METAR CYAT 011700Z AUTO 24010G15KT 9SM BKN086 M11/M14 A2995 RMK SLP146,2025-12-01T17:29:59Z,2025-12-01T12:29:59Z
CYBC,2025-12-01T05:25:00Z,2025-12-01T00:25:00Z,IFR,-1,-1,100,190,4,9700,29.81,NA,OVC  ft,SPECI CYBC 010525Z AUTO 19004KT 6SM -SN OVC006 M01/M01 A2981 RMK SLP098,2025-12-01T05:36:02Z,2025-12-01T00:36:02Z
CYBC,2025-12-01T06:12:00Z,2025-12-01T01:12:00Z,MVFR,-1,-1,100,220,3,14500,29.8,NA,OVC  ft,SPECI CYBC 010612Z AUTO 22003KT 9SM OVC011 M01/M01 A2980 RMK SLP094,2025-12-01T06:45:41Z,2025-12-01T01:45:41Z
CYBC,2025-12-01T07:00:00Z,2025-12-01T02:00:00Z,MVFR,-1,-2,93,0,0,14500,29.78,NA,OVC  ft,METAR CYBC 010700Z AUTO 00000KT 9SM OVC016 M01/M02 A2978 RMK SLP088,2025-12-01T07:31:04Z,2025-12-01T02:31:04Z
CYBC,2025-12-01T08:00:00Z,2025-12-01T03:00:00Z,MVFR,-2,-2,100,240,2,14500,29.78,NA,OVC  ft,METAR CYBC 010800Z AUTO 24002KT 9SM OVC016 M02/M02 A2978 RMK SLP088,2025-12-01T08:41:15Z,2025-12-01T03:41:15Z
CYBC,2025-12-01T09:00:00Z,2025-12-01T04:00:00Z,VFR,-2,-2,100,300,4,14500,29.78,NA,SCT  ft; OVC  ft,METAR CYBC 010900Z AUTO 30004KT 9SM SCT060 OVC085 M02/M02 A2978 RMK SLP086,2025-12-01T09:37:26Z,2025-12-01T04:37:26Z
CYBC,2025-12-01T10:00:00Z,2025-12-01T05:00:00Z,VFR,-2,-3,93,270,5,14500,29.78,NA,FEW  ft; OVC  ft,METAR CYBC 011000Z AUTO 27005KT 9SM FEW048 OVC081 M02/M03 A2978 RMK SLP087,2025-12-01T10:34:25Z,2025-12-01T05:34:25Z
CYBC,2025-12-01T11:00:00Z,2025-12-01T06:00:00Z,VFR,-2,-4,86,310,8,14500,29.81,NA,OVC  ft,METAR CYBC 011100Z AUTO 31008KT 9SM -SN OVC032 M02/M04 A2981 RMK SLP099,2025-12-01T11:27:07Z,2025-12-01T06:27:07Z
CYBC,2025-12-01T12:00:00Z,2025-12-01T07:00:00Z,VFR,-3,-5,86,320,9,14500,29.84,NA,BKN  ft; OVC  ft,METAR CYBC 011200Z AUTO 32009G15KT 290V350 9SM BKN055 OVC072 M03/M05 A2984 RMK SLP110,2025-12-01T12:59:49Z,2025-12-01T07:59:49Z
CYBC,2025-12-01T13:00:00Z,2025-12-01T08:00:00Z,VFR,-3,-6,80,300,7,14500,29.89,NA,OVC  ft,METAR CYBC 011300Z AUTO 30007KT 9SM OVC071 M03/M06 A2989 RMK SLP127,2025-12-01T13:41:30Z,2025-12-01T08:41:30Z
CYBC,2025-12-01T14:00:00Z,2025-12-01T09:00:00Z,VFR,-4,-8,74,310,11,14500,29.94,NA,FEW  ft; SCT  ft; BKN  ft,METAR CYBC 011400Z AUTO 31011G17KT 9SM FEW029 SCT081 BKN100 M04/M08 A2994 RMK SLP141,2025-12-01T14:31:29Z,2025-12-01T09:31:29Z
CYBC,2025-12-01T15:00:00Z,2025-12-01T10:00:00Z,VFR,-5,-9,74,310,12,14500,29.97,NA,SCT  ft; SCT  ft,METAR CYBC 011500Z AUTO 31012G20KT 9SM SCT022 SCT030 M05/M09 A2997 RMK SLP154,2025-12-01T15:31:43Z,2025-12-01T10:31:43Z
CYBC,2025-12-01T16:00:00Z,2025-12-01T11:00:00Z,VFR,-5,-10,68,310,9,14500,30.01,NA,SCT  ft,METAR CYBC 011600Z AUTO 31009G18KT 9SM SCT028 M05/M10 A3001 RMK SLP166,2025-12-01T16:39:29Z,2025-12-01T11:39:29Z
CYBC,2025-12-01T17:00:00Z,2025-12-01T12:00:00Z,MVFR,-6,-11,68,310,11,14500,30.05,NA,BKN  ft,METAR CYBC 011700Z AUTO 31011G20KT 9SM BKN030 M06/M11 A3005 RMK SLP178,2025-12-01T17:30:03Z,2025-12-01T12:30:03Z
CYBK,2025-12-01T05:00:00Z,2025-12-01T00:00:00Z,VFR,-30,-33,75,300,19,24100,29.85,NA,SKC  ft,METAR CYBK 010500Z 30019KT 15SM IC DRSN SKC M30/M33 A2985 RMK SLP114,2025-12-01T05:36:03Z,2025-12-01T00:36:03Z
CYBK,2025-12-01T06:00:00Z,2025-12-01T01:00:00Z,VFR,-29,-33,68,310,20,19300,29.85,NA,SKC  ft,METAR CYBK 010600Z 31020KT 12SM IC DRSN SKC M29/M33 A2985 RMK SLP113,2025-12-01T06:45:42Z,2025-12-01T01:45:42Z
CYBK,2025-12-01T07:00:00Z,2025-12-01T02:00:00Z,VFR,-29,-33,68,300,22,24100,29.85,NA,SKC  ft,METAR CYBK 010700Z 30022KT 15SM IC DRSN SKC M29/M33 A2985 RMK SLP114,2025-12-01T07:31:05Z,2025-12-01T02:31:05Z
CYBK,2025-12-01T08:00:00Z,2025-12-01T03:00:00Z,VFR,-29,-32,75,300,19,24100,29.86,NA,SKC  ft,METAR CYBK 010800Z 30019KT 15SM IC DRSN SKC M29/M32 A2986 RMK SLP115,2025-12-01T08:41:16Z,2025-12-01T03:41:16Z
CYBK,2025-12-01T09:00:00Z,2025-12-01T04:00:00Z,VFR,-29,-33,68,300,17,24100,29.86,NA,SKC  ft,METAR CYBK 010900Z 30017KT 15SM IC DRSN SKC M29/M33 A2986 RMK SLP117,2025-12-01T09:37:27Z,2025-12-01T04:37:27Z
CYBK,2025-12-01T10:00:00Z,2025-12-01T05:00:00Z,VFR,-30,-33,75,300,18,24100,29.85,NA,SKC  ft,METAR CYBK 011000Z 30018KT 15SM IC DRSN SKC M30/M33 A2985 RMK SLP112,2025-12-01T10:34:26Z,2025-12-01T05:34:26Z
CYBK,2025-12-01T11:00:00Z,2025-12-01T06:00:00Z,VFR,-29,-33,68,310,15,24100,29.85,NA,SKC  ft,METAR CYBK 011100Z 31015KT 15SM IC DRSN SKC M29/M33 A2985 RMK SLP112,2025-12-01T11:27:08Z,2025-12-01T06:27:08Z
CYBK,2025-12-01T12:00:00Z,2025-12-01T07:00:00Z,VFR,-30,-33,75,330,9,24100,29.84,NA,SKC  ft,METAR CYBK 011200Z 33009KT 300V010 15SM IC DRSN SKC M30/M33 A2984 RMK SLP111,2025-12-01T12:59:50Z,2025-12-01T07:59:50Z
CYBK,2025-12-01T13:00:00Z,2025-12-01T08:00:00Z,VFR,-29,-32,75,300,12,24100,29.83,NA,SKC  ft,METAR CYBK 011300Z 30012KT 15SM IC DRSN SKC M29/M32 A2983 RMK SLP105,2025-12-01T13:41:31Z,2025-12-01T08:41:31Z
CYBK,2025-12-01T14:00:00Z,2025-12-01T09:00:00Z,VFR,-28,-31,75,0,3,24100,29.83,NA,FEW  ft,METAR CYBK 011400Z VRB03KT 15SM IC FEW054 M28/M31 A2983 RMK SC1 SC TR SLP106,2025-12-01T14:31:30Z,2025-12-01T09:31:30Z
CYBK,2025-12-01T15:00:00Z,2025-12-01T10:00:00Z,VFR,-31,-34,75,0,3,32200,29.81,NA,SCT  ft,METAR CYBK 011500Z VRB03KT 20SM IC SCT027 M31/M34 A2981 RMK SC4 SLP100,2025-12-01T15:31:44Z,2025-12-01T10:31:44Z
CYBK,2025-12-01T16:00:00Z,2025-12-01T11:00:00Z,VFR,-31,-34,75,220,2,32200,29.8,NA,FEW  ft; BKN  ft,METAR CYBK 011600Z 22002KT 20SM IC FEW024 BKN064 M31/M34 A2980 RMK SC2SC4 SLP096,2025-12-01T16:39:30Z,2025-12-01T11:39:30Z
CYBK,2025-12-01T17:00:00Z,2025-12-01T12:00:00Z,VFR,-26,-29,76,280,12,32200,29.78,NA,FEW  ft; BKN  ft,METAR CYBK 011700Z 28012KT 20SM IC FEW025 BKN055 M26/M29 A2978 RMK SC2SC4 SLP089,2025-12-01T17:30:04Z,2025-12-01T12:30:04Z
CYBR,2025-12-01T05:00:00Z,2025-12-01T00:00:00Z,IFR,-18,-19,92,260,8,14500,30.15,NA,FEW  ft; OVC  ft,METAR CYBR 010500Z AUTO 26008KT 9SM FEW006 OVC009 M18/M19 A3015 RMK SLP253,2025-12-01T05:36:01Z,2025-12-01T00:36:01Z
CYBR,2025-12-01T06:24:00Z,2025-12-01T01:24:00Z,IFR,-16,-18,85,240,8,14500,30.11,NA,OVC  ft,SPECI CYBR 010624Z AUTO 24008KT 9SM -SN OVC009 M16/M18 A3011 RMK SLP239,2025-12-01T06:45:40Z,2025-12-01T01:45:40Z
CYBR,2025-12-01T07:00:00Z,2025-12-01T02:00:00Z,VFR,-17,-19,85,220,12,14500,30.09,NA,SCT  ft,METAR CYBR 010700Z AUTO 22012KT 9SM -SN SCT009 M17/M19 A3009 RMK SLP231,2025-12-01T07:31:04Z,2025-12-01T02:31:04Z
CYBR,2025-12-01T08:00:00Z,2025-12-01T03:00:00Z,VFR,-17,-20,78,240,9,14500,30.08,NA,BKN  ft; BKN  ft,METAR CYBR 010800Z AUTO 24009KT 9SM BKN180 BKN200 M17/M20 A3008 RMK SLP226,2025-12-01T08:41:15Z,2025-12-01T03:41:15Z
CYBR,2025-12-01T09:00:00Z,2025-12-01T04:00:00Z,VFR,-18,-20,84,230,7,14500,30.05,NA,SCT  ft; BKN  ft,METAR CYBR 010900Z AUTO 23007KT 9SM SCT140 BKN170 M18/M20 A3005 RMK SLP217,2025-12-01T09:37:26Z,2025-12-01T04:37:26Z
CYBR,2025-12-01T10:00:00Z,2025-12-01T05:00:00Z,VFR,-17,-20,78,230,6,14500,30.02,NA,BKN  ft; BKN  ft; BKN  ft,METAR CYBR 011000Z AUTO 23006KT 9SM BKN140 BKN160 BKN180 M17/M20 A3002 RMK SLP206,2025-12-01T10:34:25Z,2025-12-01T05:34:25Z
CYBR,2025-12-01T11:00:00Z,2025-12-01T06:00:00Z,VFR,-18,-21,78,240,5,14500,29.99,NA,SCT  ft,METAR CYBR 011100Z AUTO 24005KT 9SM SCT140 M18/M21 A2999 RMK SLP199,2025-12-01T11:27:07Z,2025-12-01T06:27:07Z
CYBR,2025-12-01T12:50:00Z,2025-12-01T07:50:00Z,VFR,-19,-21,84,250,7,14500,29.96,NA,BKN  ft; BKN  ft,SPECI CYBR 011250Z AUTO 25007KT 9SM BKN120 BKN170 M19/M21 A2996 RMK ICE MISG SLP192,2025-12-01T12:59:49Z,2025-12-01T07:59:49Z
CYBR,2025-12-01T13:00:00Z,2025-12-01T08:00:00Z,VFR,-18,-21,78,260,7,9999,29.95,NA,BKN  ft; BKN  ft,METAR CYBR 011300Z 26007KT 10SM BKN120 BKN170 M18/M21 A2995 RMK AC5AC2 SLP188,2025-12-01T13:41:29Z,2025-12-01T08:41:29Z
CYBR,2025-12-01T14:00:00Z,2025-12-01T09:00:00Z,VFR,-18,-20,84,260,6,19300,29.95,NA,OVC  ft,METAR CYBR 011400Z 26006KT 12SM OVC110 M18/M20 A2995 RMK AC8 SLP186,2025-12-01T14:31:28Z,2025-12-01T09:31:28Z
CYBR,2025-12-01T15:00:00Z,2025-12-01T10:00:00Z,VFR,-17,-20,78,260,8,24100,29.94,NA,BKN  ft,METAR CYBR 011500Z 26008KT 15SM BKN100 M17/M20 A2994 RMK AC7 SLP183,2025-12-01T15:31:42Z,2025-12-01T10:31:42Z
CYBR,2025-12-01T16:00:00Z,2025-12-01T11:00:00Z,VFR,-17,-20,78,270,9,24100,29.92,NA,BKN  ft,METAR CYBR 011600Z 27009KT 15SM BKN100 M17/M20 A2992 RMK AC5 SLP180,2025-12-01T16:39:28Z,2025-12-01T11:39:28Z
CYBR,2025-12-01T17:00:00Z,2025-12-01T12:00:00Z,VFR,-16,-19,78,290,7,24100,29.92,NA,BKN  ft,METAR CYBR 011700Z 29007KT 15SM BKN095 M16/M19 A2992 RMK AC6 SLP178,2025-12-01T17:30:02Z,2025-12-01T12:30:02Z
CYCO,2025-12-01T05:00:00Z,2025-12-01T00:00:00Z,VFR,-28,-31,75,230,13,24100,30.07,NA,SKC  ft,METAR CYCO 010500Z 23013KT 15SM IC SKC M28/M31 A3007 RMK SLP188,2025-12-01T05:36:03Z,2025-12-01T00:36:03Z
CYCO,2025-12-01T06:28:00Z,2025-12-01T01:28:00Z,IFR,-27,-30,76,210,10,24100,30.07,NA,BKN  ft,SPECI CYCO 010628Z 21010KT 15SM IC BKN008 M27/M30 A3007 RMK ST6 SLP190,2025-12-01T06:45:43Z,2025-12-01T01:45:43Z
CYCO,2025-12-01T07:00:00Z,2025-12-01T02:00:00Z,IFR,-28,-31,75,220,10,24100,30.07,NA,BKN  ft,METAR CYCO 010700Z 22010KT 15SM IC BKN008 M28/M31 A3007 RMK ST5 FROIN SLP190,2025-12-01T07:31:05Z,2025-12-01T02:31:05Z
CYCO,2025-12-01T08:23:00Z,2025-12-01T03:23:00Z,MVFR,-29,-32,75,230,12,24100,30.07,NA,FEW  ft; BKN  ft,SPECI CYCO 010823Z 23012KT 15SM IC FEW006 BKN013 M29/M32 A3007 RMK SF1SF4 SLP187,2025-12-01T08:41:16Z,2025-12-01T03:41:16Z
CYCO,2025-12-01T09:00:00Z,2025-12-01T04:00:00Z,MVFR,-28,-31,75,220,13,24100,30.07,NA,BKN  ft; BKN  ft,METAR CYCO 010900Z 22013KT 15SM IC BKN014 BKN022 M28/M31 A3007 RMK SF5SC1 SLP187,2025-12-01T09:37:27Z,2025-12-01T04:37:27Z
CYCO,2025-12-01T10:00:00Z,2025-12-01T05:00:00Z,MVFR,-27,-30,76,230,10,24100,30.07,NA,OVC  ft,METAR CYCO 011000Z 23010KT 15SM IC OVC013 M27/M30 A3007 RMK SF8 SLP187,2025-12-01T10:34:27Z,2025-12-01T05:34:27Z
CYCO,2025-12-01T11:00:00Z,2025-12-01T06:00:00Z,IFR,-27,-30,76,230,14,9999,30.06,NA,BKN  ft; OVC  ft,METAR CYCO 011100Z 23014KT 10SM BKN006 OVC013 M27/M30 A3006 RMK ST7ST1 SLP184,2025-12-01T11:27:09Z,2025-12-01T06:27:09Z
CYCO,2025-12-01T12:00:00Z,2025-12-01T07:00:00Z,MVFR,-26,-29,76,230,13,24100,30.06,NA,FEW  ft; OVC  ft,METAR CYCO 011200Z 23013KT 15SM FEW007 OVC013 M26/M29 A3006 RMK SF2ST6 SLP184,2025-12-01T12:59:50Z,2025-12-01T07:59:50Z
CYCO,2025-12-01T13:33:00Z,2025-12-01T08:33:00Z,IFR,-25,-28,76,220,12,9999,30.05,NA,OVC  ft,SPECI CYCO 011333Z 22012KT 10SM IC OVC008 M25/M28 A3005 RMK ST8 SLP182,2025-12-01T13:41:32Z,2025-12-01T08:41:32Z
CYCO,2025-12-01T14:24:00Z,2025-12-01T09:24:00Z,IFR,-24,-27,76,230,13,9999,30.04,NA,OVC  ft,SPECI CYCO 011424Z 23013KT 10SM IC OVC007 M24/M27 A3004 RMK ST8 SLP179,2025-12-01T14:31:30Z,2025-12-01T09:31:30Z
CYCO,2025-12-01T15:00:00Z,2025-12-01T10:00:00Z,IFR,-24,-27,76,230,14,19300,30.05,NA,OVC  ft,METAR CYCO 011500Z 23014KT 12SM IC OVC007 M24/M27 A3005 RMK ST8 FROIN SLP181,2025-12-01T15:31:44Z,2025-12-01T10:31:44Z
CYCO,2025-12-01T16:00:00Z,2025-12-01T11:00:00Z,IFR,-24,-26,84,240,12,9999,30.04,NA,BKN  ft; OVC  ft,METAR CYCO 011600Z 24012KT 10SM -SN BKN007 OVC015 M24/M26 A3004 RMK ST7SC1 SLP179,2025-12-01T16:39:30Z,2025-12-01T11:39:30Z
CYCO,2025-12-01T17:00:00Z,2025-12-01T12:00:00Z,IFR,-24,-26,84,240,13,12900,30.04,NA,OVC  ft,METAR CYCO 011700Z 24013KT 8SM -SN OVC007 M24/M26 A3004 RMK ST8 SLP180,2025-12-01T17:30:05Z,2025-12-01T12:30:05Z
CYEG,2025-12-01T05:00:00Z,2025-12-01T00:00:00Z,VFR,-10,-11,92,30,7,32200,30.01,NA,BKN  ft,METAR CYEG 010500Z 03007KT 20SM BKN130 M10/M11 A3001 RMK AC7 FROIN SLP222,2025-12-01T05:36:00Z,2025-12-01T00:36:00Z
CYEG,2025-12-01T06:00:00Z,2025-12-01T01:00:00Z,VFR,-10,-11,92,50,4,32200,30.01,NA,BKN  ft,METAR CYEG 010600Z 05004KT 20SM BKN130 M10/M11 A3001 RMK AC7 FROIN SLP220,2025-12-01T06:45:40Z,2025-12-01T01:45:40Z
CYEG,2025-12-01T07:00:00Z,2025-12-01T02:00:00Z,VFR,-9,-11,86,90,2,32200,30.01,NA,BKN  ft; BKN  ft,METAR CYEG 010700Z 09002KT 20SM BKN120 BKN250 M09/M11 A3001 RMK AC5CI2 FROIN SLP216,2025-12-01T07:31:03Z,2025-12-01T02:31:03Z
CYEG,2025-12-01T08:00:00Z,2025-12-01T03:00:00Z,VFR,-13,-14,92,130,5,32200,29.99,NA,SCT  ft; BKN  ft,METAR CYEG 010800Z 13005KT 20SM SCT110 BKN250 M13/M14 A2999 RMK AC4CI2 FROIN SLP209,2025-12-01T08:41:14Z,2025-12-01T03:41:14Z
CYEG,2025-12-01T09:00:00Z,2025-12-01T04:00:00Z,VFR,-14,-15,92,150,5,32200,29.97,NA,FEW  ft; BKN  ft,METAR CYEG 010900Z 15005KT 20SM FEW110 BKN250 M14/M15 A2997 RMK AC1CI5 FROIN SLP201,2025-12-01T09:37:25Z,2025-12-01T04:37:25Z
CYEG,2025-12-01T10:00:00Z,2025-12-01T05:00:00Z,VFR,-15,-16,92,190,5,32200,29.95,NA,BKN  ft,METAR CYEG 011000Z 19005KT 20SM BKN052 M15/M16 A2995 RMK SC7 FROIN SLP196,2025-12-01T10:34:24Z,2025-12-01T05:34:24Z
CYEG,2025-12-01T11:00:00Z,2025-12-01T06:00:00Z,VFR,-10,-11,92,170,5,32200,29.9,NA,BKN  ft; BKN  ft,METAR CYEG 011100Z 17005KT 20SM BKN061 BKN081 M10/M11 A2990 RMK SC7AC1 AC TR FROIN SLP178,2025-12-01T11:27:06Z,2025-12-01T06:27:06Z
CYEG,2025-12-01T12:00:00Z,2025-12-01T07:00:00Z,VFR,-8,-9,93,180,5,32200,29.86,NA,OVC  ft,METAR CYEG 011200Z 18005KT 20SM OVC060 M08/M09 A2986 RMK SC8 FROIN SLP162,2025-12-01T12:59:48Z,2025-12-01T07:59:48Z
CYEG,2025-12-01T13:00:00Z,2025-12-01T08:00:00Z,VFR,-7,-9,86,140,4,32200,29.84,NA,OVC  ft,METAR CYEG 011300Z 14004KT 20SM OVC058 M07/M09 A2984 RMK SC8 SLP152,2025-12-01T13:41:29Z,2025-12-01T08:41:29Z
CYEG,2025-12-01T14:00:00Z,2025-12-01T09:00:00Z,VFR,-5,-7,86,170,5,32200,29.83,NA,OVC  ft,METAR CYEG 011400Z 17005KT 20SM OVC055 M05/M07 A2983 RMK SC8 SLP146,2025-12-01T14:31:28Z,2025-12-01T09:31:28Z
CYEG,2025-12-01T15:00:00Z,2025-12-01T10:00:00Z,VFR,-4,-7,80,180,5,32200,29.78,NA,BKN  ft,METAR CYEG 011500Z 18005KT 20SM BKN052 M04/M07 A2978 RMK SC7 SLP127,2025-12-01T15:31:41Z,2025-12-01T10:31:41Z
CYEG,2025-12-01T16:00:00Z,2025-12-01T11:00:00Z,VFR,-3,-6,80,180,8,32200,29.75,NA,BKN  ft; OVC  ft,METAR CYEG 011600Z 18008KT 20SM BKN047 OVC100 M03/M06 A2975 RMK SC7AC1 VIRGA PTCHS SLP119,2025-12-01T16:39:27Z,2025-12-01T11:39:27Z
CYEG,2025-12-01T17:00:00Z,2025-12-01T12:00:00Z,VFR,-2,-5,80,190,6,32200,29.74,NA,OVC  ft,METAR CYEG 011700Z 19006KT 20SM OVC041 M02/M05 A2974 RMK SC8 SLP113,2025-12-01T17:30:01Z,2025-12-01T12:30:01Z
CYER,2025-12-01T05:00:00Z,2025-12-01T00:00:00Z,VFR,-19,-22,77,260,13,14500,29.87,NA,SCT  ft,METAR CYER 010500Z AUTO 26013G20KT 9SM SCT240 M19/M22 A2987 RMK SLP119,2025-12-01T05:35:58Z,2025-12-01T00:35:58Z
CYER,2025-12-01T06:00:00Z,2025-12-01T01:00:00Z,VFR,-19,-22,77,270,13,14500,29.87,NA,SCT  ft,METAR CYER 010600Z AUTO 27013G18KT 9SM SCT240 M19/M22 A2987 RMK SLP118,2025-12-01T06:45:37Z,2025-12-01T01:45:37Z
CYER,2025-12-01T07:00:00Z,2025-12-01T02:00:00Z,VFR,-19,-22,77,270,13,14500,29.87,NA,SCT  ft,METAR CYER 010700Z AUTO 27013G19KT 9SM SCT240 M19/M22 A2987 RMK SLP120,2025-12-01T07:31:02Z,2025-12-01T02:31:02Z
CYER,2025-12-01T08:00:00Z,2025-12-01T03:00:00Z,VFR,-20,-23,77,260,11,14500,29.88,NA,SCT  ft,METAR CYER 010800Z AUTO 26011G16KT 9SM SCT240 M20/M23 A2988 RMK SLP121,2025-12-01T08:41:13Z,2025-12-01T03:41:13Z
CYER,2025-12-01T09:00:00Z,2025-12-01T04:00:00Z,VFR,-20,-22,84,260,12,14500,29.86,NA,SCT  ft,METAR CYER 010900Z AUTO 26012G17KT 9SM SCT240 M20/M22 A2986 RMK SLP114,2025-12-01T09:37:24Z,2025-12-01T04:37:24Z
CYER,2025-12-01T10:00:00Z,2025-12-01T05:00:00Z,VFR,-20,-23,77,260,13,14500,29.86,NA,SCT  ft,METAR CYER 011000Z AUTO 26013G18KT 9SM SCT250 M20/M23 A2986 RMK SLP114,2025-12-01T10:34:23Z,2025-12-01T05:34:23Z
CYER,2025-12-01T11:00:00Z,2025-12-01T06:00:00Z,VFR,-21,-23,84,260,14,14500,29.86,NA,BKN  ft,METAR CYER 011100Z AUTO 26014G22KT 9SM BKN240 M21/M23 A2986 RMK SLP115,2025-12-01T11:27:04Z,2025-12-01T06:27:04Z
CYER,2025-12-01T12:00:00Z,2025-12-01T07:00:00Z,VFR,-21,-23,84,260,11,14500,29.86,NA,SCT  ft,METAR CYER 011200Z AUTO 26011G20KT 9SM SCT240 M21/M23 A2986 RMK SLP115,2025-12-01T12:59:47Z,2025-12-01T07:59:47Z
CYER,2025-12-01T13:00:00Z,2025-12-01T08:00:00Z,VFR,-22,-24,84,260,11,14500,29.86,NA,SCT  ft,METAR CYER 011300Z AUTO 26011G19KT 9SM SCT240 M22/M24 A2986 RMK SLP116,2025-12-01T13:41:26Z,2025-12-01T08:41:26Z
CYER,2025-12-01T14:00:00Z,2025-12-01T09:00:00Z,VFR,-22,-25,77,260,14,14500,29.86,NA,SCT  ft,METAR CYER 011400Z AUTO 26014G19KT 9SM SCT240 M22/M25 A2986 RMK SLP116,2025-12-01T14:31:26Z,2025-12-01T09:31:26Z
CYER,2025-12-01T15:00:00Z,2025-12-01T10:00:00Z,VFR,-22,-25,77,250,12,14500,29.86,NA,SCT  ft,METAR CYER 011500Z AUTO 25012G19KT 9SM SCT240 M22/M25 A2986 RMK SLP114,2025-12-01T15:31:40Z,2025-12-01T10:31:40Z
CYER,2025-12-01T16:00:00Z,2025-12-01T11:00:00Z,VFR,-21,-25,70,260,11,14500,29.86,NA,SCT  ft,METAR CYER 011600Z AUTO 26011G19KT 9SM SCT240 M21/M25 A2986 RMK SLP115,2025-12-01T16:39:25Z,2025-12-01T11:39:25Z
CYER,2025-12-01T17:00:00Z,2025-12-01T12:00:00Z,VFR,-21,-25,70,260,13,14500,29.85,NA,SCT  ft,METAR CYER 011700Z AUTO 26013G21KT 9SM SCT240 M21/M25 A2985 RMK SLP113,2025-12-01T17:29:59Z,2025-12-01T12:29:59Z
CYFB,2025-12-01T05:00:00Z,2025-12-01T00:00:00Z,VFR,-9,-12,79,100,7,24100,29.52,NA,BKN  ft,METAR CYFB 010500Z 10007KT 15SM -SN BKN120 M09/M12 A2952 RMK AC5 SLP003,2025-12-01T05:36:03Z,2025-12-01T00:36:03Z
CYFB,2025-12-01T06:00:00Z,2025-12-01T01:00:00Z,VFR,-9,-12,79,90,10,24100,29.51,NA,SCT  ft,METAR CYFB 010600Z 09010KT 15SM SCT130 M09/M12 A2951 RMK AC3 SLP998,2025-12-01T06:45:42Z,2025-12-01T01:45:42Z
CYFB,2025-12-01T07:20:00Z,2025-12-01T02:20:00Z,VFR,-8,-11,79,110,8,9999,29.49,NA,SCT  ft; SCT  ft,SPECI CYFB 010720Z 11008KT 10SM -SN SCT022 SCT130 M08/M11 A2949 RMK SC3AC1 SLP991,2025-12-01T07:31:05Z,2025-12-01T02:31:05Z
CYFB,2025-12-01T08:27:00Z,2025-12-01T03:27:00Z,MVFR,-8,-10,86,250,2,6400,29.48,NA,BKN  ft; BKN  ft,SPECI CYFB 010827Z 25002KT 4SM -SN BKN030 BKN080 M08/M10 A2948 RMK SC5AC2 SLP988,2025-12-01T08:41:16Z,2025-12-01T03:41:16Z
CYFB,2025-12-01T09:12:00Z,2025-12-01T04:12:00Z,MVFR,-8,-10,86,270,4,8000,29.47,NA,SCT  ft; BKN  ft,SPECI CYFB 010912Z 27004KT 5SM -SN SCT030 BKN048 M08/M10 A2947 RMK SC3SC3 SLP984,2025-12-01T09:37:27Z,2025-12-01T04:37:27Z
CYFB,2025-12-01T10:00:00Z,2025-12-01T05:00:00Z,VFR,-8,-10,86,0,0,24100,29.45,NA,BKN  ft,METAR CYFB 011000Z 00000KT 15SM -SN BKN066 M08/M10 A2945 RMK AC5 SLP979,2025-12-01T10:34:26Z,2025-12-01T05:34:26Z
CYFB,2025-12-01T11:00:00Z,2025-12-01T06:00:00Z,VFR,-6,-12,63,170,9,24100,29.44,NA,BKN  ft; BKN  ft,METAR CYFB 011100Z 17009KT 15SM -SN BKN040 BKN100 M06/M12 A2944 RMK SC5AC2 SLP974,2025-12-01T11:27:08Z,2025-12-01T06:27:08Z
CYFB,2025-12-01T12:34:00Z,2025-12-01T07:34:00Z,VFR,-6,-12,63,170,14,24100,29.42,NA,BKN  ft; BKN  ft,SPECI CYFB 011234Z CCA 17014G20KT 15SM -SN DRSN BKN033 BKN051 M06/M12 A2942 RMK SC5SC2 SLP968,2025-12-01T12:59:50Z,2025-12-01T07:59:50Z
CYFB,2025-12-01T13:00:00Z,2025-12-01T08:00:00Z,VFR,-6,-11,68,190,16,24100,29.42,NA,BKN  ft; BKN  ft,METAR CYFB 011300Z 19016G21KT 15SM -SN DRSN BKN034 BKN051 M06/M11 A2942 RMK SC6SC1 SLP968,2025-12-01T13:41:31Z,2025-12-01T08:41:31Z
CYFB,2025-12-01T14:19:00Z,2025-12-01T09:19:00Z,VFR,-7,-12,68,190,8,48300,29.44,NA,FEW  ft; SCT  ft; BKN  ft; BKN  ft,SPECI CYFB 011419Z 19008KT 30SM FEW010 SCT026 BKN088 BKN200 M07/M12 A2944 RMK SC1SC3AC4CI1 SC TR CI TR SLP974,2025-12-01T14:31:29Z,2025-12-01T09:31:29Z
CYFB,2025-12-01T15:00:00Z,2025-12-01T10:00:00Z,VFR,-7,-13,63,0,0,48300,29.44,NA,FEW  ft; SCT  ft; BKN  ft; BKN  ft,METAR CYFB 011500Z 00000KT 30SM FEW010 SCT031 BKN090 BKN200 M07/M13 A2944 RMK SC1SC3AC3CI1 SC TR SLP976,2025-12-01T15:31:43Z,2025-12-01T10:31:43Z
CYFB,2025-12-01T16:00:00Z,2025-12-01T11:00:00Z,VFR,-7,-13,63,190,13,48300,29.43,NA,FEW  ft; FEW  ft; BKN  ft; BKN  ft,METAR CYFB 011600Z 19013G20KT 30SM FEW010 FEW031 BKN100 BKN220 M07/M13 A2943 RMK SC1SC2AC3CI1 SC TR SLP972,2025-12-01T16:39:30Z,2025-12-01T11:39:30Z
CYFB,2025-12-01T17:00:00Z,2025-12-01T12:00:00Z,VFR,-7,-13,63,190,11,48300,29.43,NA,FEW  ft; FEW  ft; SCT  ft; BKN  ft,METAR CYFB 011700Z 19011G21KT 30SM DRSN FEW010 FEW031 SCT110 BKN180 M07/M13 A2943 RMK SC1SC1AC2AC3 SC TR CU ASOCTD SLP970,2025-12-01T17:30:04Z,2025-12-01T12:30:04Z
CYFC,2025-12-01T05:32:00Z,2025-12-01T00:32:00Z,VFR,3,2,93,160,4,14500,29.86,NA,OVC  ft,SPECI CYFC 010532Z AUTO 16004KT 9SM -RA OVC049 03/02 A2986 RMK PCPN 0.5MM PAST HR SLP116,2025-12-01T05:36:03Z,2025-12-01T00:36:03Z
CYFC,2025-12-01T06:28:00Z,2025-12-01T01:28:00Z,VFR,3,3,100,180,5,14500,29.86,NA,FEW  ft; OVC  ft,SPECI CYFC 010628Z AUTO 18005KT 9SM FEW046 OVC100 03/03 A2986 RMK SLP115,2025-12-01T06:45:42Z,2025-12-01T01:45:42Z
CYFC,2025-12-01T07:05:00Z,2025-12-01T02:05:00Z,MVFR,2,2,100,210,5,14500,29.86,NA,BKN  ft; OVC  ft,SPECI CYFC 010705Z AUTO 21005KT 9SM BKN017 OVC100 02/02 A2986 RMK SLP115,2025-12-01T07:31:04Z,2025-12-01T02:31:04Z
CYFC,2025-12-01T08:36:00Z,2025-12-01T03:36:00Z,VFR,2,2,100,220,4,14500,29.84,NA,FEW  ft; SCT  ft; OVC  ft,SPECI CYFC 010836Z AUTO 22004KT 9SM FEW055 SCT072 OVC099 02/02 A2984 RMK SLP109,2025-12-01T08:41:16Z,2025-12-01T03:41:16Z
CYFC,2025-12-01T09:28:00Z,2025-12-01T04:28:00Z,IFR,0,0,100,250,2,2000,29.83,NA,FEW  ft,SPECI CYFC 010928Z AUTO 25002KT 1 1/4SM R09/3500VP6000FT BR FEW086 00/00 A2983 RMK SLP105,2025-12-01T09:37:26Z,2025-12-01T04:37:26Z
CYFC,2025-12-01T10:00:00Z,2025-12-01T05:00:00Z,VFR,-1,-1,100,270,3,14500,29.84,NA,BKN  ft,METAR CYFC 011000Z AUTO 27003KT 9SM BKN086 M01/M01 A2984 RMK SLP108,2025-12-01T10:34:26Z,2025-12-01T05:34:26Z
CYFC,2025-12-01T11:00:00Z,2025-12-01T06:00:00Z,VFR,1,1,100,270,3,14500,29.85,NA,BKN  ft; OVC  ft,METAR CYFC 011100Z AUTO 27003KT 9SM BKN060 OVC078 01/01 A2985 RMK SLP111,2025-12-01T11:27:08Z,2025-12-01T06:27:08Z
CYFC,2025-12-01T12:00:00Z,2025-12-01T07:00:00Z,VFR,1,1,100,0,0,14500,29.86,NA,SCT  ft; OVC  ft,METAR CYFC 011200Z AUTO 00000KT 9SM SCT048 OVC066 01/01 A2986 RMK SLP115,2025-12-01T12:59:50Z,2025-12-01T07:59:50Z
CYFC,2025-12-01T13:00:00Z,2025-12-01T08:00:00Z,VFR,1,1,100,220,4,14500,29.88,NA,SCT  ft; SCT  ft; OVC  ft,METAR CYFC 011300Z AUTO 22004KT 9SM SCT035 SCT048 OVC086 01/01 A2988 RMK SLP121,2025-12-01T13:41:31Z,2025-12-01T08:41:31Z
CYFC,2025-12-01T14:00:00Z,2025-12-01T09:00:00Z,VFR,3,3,100,260,6,14500,29.89,NA,FEW  ft,METAR CYFC 011400Z AUTO 26006KT 9SM FEW060 03/03 A2989 RMK SLP126,2025-12-01T14:31:29Z,2025-12-01T09:31:29Z
CYFC,2025-12-01T15:00:00Z,2025-12-01T10:00:00Z,VFR,5,2,81,250,9,14500,29.91,NA,FEW  ft; SCT  ft,METAR CYFC 011500Z AUTO 25009G17KT 220V290 9SM FEW026 SCT032 05/02 A2991 RMK SLP130,2025-12-01T15:31:43Z,2025-12-01T10:31:43Z
CYFC,2025-12-01T16:00:00Z,2025-12-01T11:00:00Z,VFR,5,0,70,280,12,14500,29.91,NA,SCT  ft; BKN  ft; BKN  ft,METAR CYFC 011600Z AUTO 28012G24KT 220V310 9SM SCT028 BKN036 BKN042 05/00 A2991 RMK SLP133,2025-12-01T16:39:29Z,2025-12-01T11:39:29Z
CYFC,2025-12-01T17:20:00Z,2025-12-01T12:20:00Z,VFR,3,-1,75,300,16,14500,29.95,NA,FEW  ft; SCT  ft; BKN  ft,SPECI CYFC 011720Z AUTO 30016G27KT 9SM FEW027 SCT043 BKN066 03/M01 A2995 RMK SLP144,2025-12-01T17:30:04Z,2025-12-01T12:30:04Z
CYGK,2025-12-01T04:00:00Z,2025-11-30T23:00:00Z,MVFR,2,-1,81,270,16,24100,29.96,NA,OVC  ft,METAR CYGK 010400Z 27016G23KT 15SM OVC021 02/M01 A2996 RMK SC8 LAST STFD OBS/NXT 011100Z PRESRR SLP151,2025-12-01T05:35:59Z,2025-12-01T00:35:59Z
CYGK,2025-12-01T11:00:00Z,2025-12-01T06:00:00Z,VFR,-5,-10,68,300,10,24100,30.33,NA,SCT  ft,METAR CYGK 011100Z 30010KT 15SM SCT027 M05/M10 A3033 RMK SC4 SLP278,2025-12-01T11:27:05Z,2025-12-01T06:27:05Z
CYGK,2025-12-01T12:00:00Z,2025-12-01T07:00:00Z,VFR,-6,-12,63,330,9,24100,30.37,NA,FEW  ft,METAR CYGK 011200Z 33009G15KT 15SM FEW025 M06/M12 A3037 RMK SC2 SLP293,2025-12-01T12:59:48Z,2025-12-01T07:59:48Z
CYGK,2025-12-01T13:00:00Z,2025-12-01T08:00:00Z,VFR,-7,-12,68,320,10,24100,30.4,NA,FEW  ft,METAR CYGK 011300Z 32010KT 15SM FEW025 M07/M12 A3040 RMK SC2 SLP303,2025-12-01T13:41:27Z,2025-12-01T08:41:27Z
CYGK,2025-12-01T14:00:00Z,2025-12-01T09:00:00Z,VFR,-6,-12,63,310,10,24100,30.43,NA,FEW  ft,METAR CYGK 011400Z 31010KT 15SM FEW025 M06/M12 A3043 RMK SC1 SLP311,2025-12-01T14:31:27Z,2025-12-01T09:31:27Z
CYGK,2025-12-01T15:00:00Z,2025-12-01T10:00:00Z,VFR,-6,-11,68,340,8,24100,30.42,NA,FEW  ft,METAR CYGK 011500Z 34008KT 15SM FEW025 M06/M11 A3042 RMK SC1 SLP310,2025-12-01T15:31:41Z,2025-12-01T10:31:41Z
CYGK,2025-12-01T16:00:00Z,2025-12-01T11:00:00Z,VFR,-5,-11,63,360,6,24100,30.42,NA,SCT  ft,METAR CYGK 011600Z 36006KT 310V030 15SM SCT025 M05/M11 A3042 RMK SC3 SLP310,2025-12-01T16:39:26Z,2025-12-01T11:39:26Z
CYGK,2025-12-01T17:00:00Z,2025-12-01T12:00:00Z,VFR,-5,-12,58,0,5,24100,30.42,NA,FEW  ft,METAR CYGK 011700Z VRB05KT 15SM FEW024 M05/M12 A3042 RMK SC2 SLP307,2025-12-01T17:30:00Z,2025-12-01T12:30:00Z
CYHU,2025-12-01T05:32:00Z,2025-12-01T00:32:00Z,MVFR,2,0,87,240,15,12900,29.86,NA,SCT  ft; OVC  ft,SPECI CYHU 010532Z AUTO 24015G23KT 8SM -RA -UP SCT018 OVC025 02/M00 A2986 RMK SLP113,2025-12-01T05:36:01Z,2025-12-01T00:36:01Z
CYHU,2025-12-01T06:00:00Z,2025-12-01T01:00:00Z,MVFR,2,0,87,240,15,12900,29.86,NA,BKN  ft; BKN  ft; OVC  ft,METAR CYHU 010600Z AUTO 24015G20KT 8SM -RA BKN014 BKN019 OVC027 02/00 A2986 RMK SLP114,2025-12-01T06:45:41Z,2025-12-01T01:45:41Z
CYHU,2025-12-01T07:00:00Z,2025-12-01T02:00:00Z,MVFR,2,0,87,240,15,14500,29.88,NA,OVC  ft,METAR CYHU 010700Z AUTO 24015G25KT 9SM -RA OVC012 02/00 A2988 RMK SLP122,2025-12-01T07:31:04Z,2025-12-01T02:31:04Z
CYHU,2025-12-01T08:37:00Z,2025-12-01T03:37:00Z,MVFR,1,-3,75,290,17,14500,29.99,NA,FEW  ft; BKN  ft; OVC  ft,SPECI CYHU 010837Z AUTO 29017G25KT 9SM FEW021 BKN028 OVC034 01/M03 A2999 RMK PRESRR SLP159,2025-12-01T08:41:15Z,2025-12-01T03:41:15Z
CYHU,2025-12-01T09:00:00Z,2025-12-01T04:00:00Z,MVFR,0,-4,75,290,13,14500,30.02,NA,BKN  ft; OVC  ft,METAR CYHU 010900Z AUTO 29013G29KT 9SM BKN030 OVC037 00/M04 A3002 RMK SLP168,2025-12-01T09:37:26Z,2025-12-01T04:37:26Z
CYHU,2025-12-01T10:00:00Z,2025-12-01T05:00:00Z,VFR,-1,-6,69,290,15,14500,30.09,NA,OVC  ft,METAR CYHU 011000Z AUTO 29015G23KT 9SM OVC033 M01/M06 A3009 RMK PRESRR SLP193,2025-12-01T10:34:25Z,2025-12-01T05:34:25Z
CYHU,2025-12-01T11:00:00Z,2025-12-01T06:00:00Z,VFR,-2,-7,69,300,16,14500,30.15,NA,OVC  ft,METAR CYHU 011100Z AUTO 30016G22KT 9SM OVC035 M02/M07 A3015 RMK SLP214,2025-12-01T11:27:07Z,2025-12-01T06:27:07Z
CYHU,2025-12-01T12:00:00Z,2025-12-01T07:00:00Z,MVFR,-3,-8,69,280,17,14500,30.22,NA,BKN  ft; OVC  ft,METAR CYHU 011200Z AUTO 28017G23KT 9SM BKN026 OVC032 M03/M08 A3022 RMK SLP238,2025-12-01T12:59:49Z,2025-12-01T07:59:49Z
CYHU,2025-12-01T13:00:00Z,2025-12-01T08:00:00Z,VFR,-5,-10,68,290,11,14500,30.28,NA,BKN  ft,METAR CYHU 011300Z AUTO 29011G19KT 9SM BKN032 M05/M10 A3028 RMK SLP257,2025-12-01T13:41:29Z,2025-12-01T08:41:29Z
CYHU,2025-12-01T14:00:00Z,2025-12-01T09:00:00Z,VFR,-5,-11,63,300,14,14500,30.31,NA,FEW  ft,METAR CYHU 011400Z AUTO 30014G19KT 9SM FEW030 M05/M11 A3031 RMK SLP268,2025-12-01T14:31:28Z,2025-12-01T09:31:28Z
CYHU,2025-12-01T15:00:00Z,2025-12-01T10:00:00Z,VFR,-5,-11,63,290,11,14500,30.34,NA,FEW  ft,METAR CYHU 011500Z AUTO 29011G18KT 9SM FEW026 M05/M11 A3034 RMK SLP278,2025-12-01T15:31:42Z,2025-12-01T10:31:42Z
CYHU,2025-12-01T16:00:00Z,2025-12-01T11:00:00Z,MVFR,-5,-11,63,280,11,14500,30.35,NA,BKN  ft,METAR CYHU 011600Z AUTO 28011G16KT 9SM BKN028 M05/M11 A3035 RMK SLP281,2025-12-01T16:39:28Z,2025-12-01T11:39:28Z
CYHU,2025-12-01T17:00:00Z,2025-12-01T12:00:00Z,VFR,-5,-11,63,290,11,14500,30.35,NA,FEW  ft,METAR CYHU 011700Z AUTO 29011G16KT 9SM FEW028 M05/M11 A3035 RMK SLP281,2025-12-01T17:30:02Z,2025-12-01T12:30:02Z
CYHZ,2025-12-01T05:00:00Z,2025-12-01T00:00:00Z,IFR,7,7,100,180,12,6400,30.09,NA,BKN  ft; OVC  ft,METAR CYHZ 010500Z 18012G21KT 4SM -RA BR BKN006 OVC012 07/07 A3009 RMK SF7NS1 SLP196,2025-12-01T05:36:02Z,2025-12-01T00:36:02Z
CYHZ,2025-12-01T06:00:00Z,2025-12-01T01:00:00Z,IFR,8,7,93,170,18,6400,30.05,NA,OVC  ft,METAR CYHZ 010600Z 17018G26KT 4SM -RA BR OVC005 08/07 A3005 RMK NS8 SLP184,2025-12-01T06:45:41Z,2025-12-01T01:45:41Z
CYHZ,2025-12-01T07:00:00Z,2025-12-01T02:00:00Z,IFR,8,8,100,170,18,6400,30.01,NA,OVC  ft,METAR CYHZ 010700Z 17018G27KT 4SM -RA BR OVC006 08/08 A3001 RMK NS8 PRESFR SLP170,2025-12-01T07:31:04Z,2025-12-01T02:31:04Z
CYHZ,2025-12-01T08:00:00Z,2025-12-01T03:00:00Z,IFR,8,8,100,180,14,4800,29.97,NA,OVC  ft,METAR CYHZ 010800Z 18014G23KT 3SM -RA BR OVC006 08/08 A2997 RMK NS8 SLP157,2025-12-01T08:41:15Z,2025-12-01T03:41:15Z
CYHZ,2025-12-01T09:12:00Z,2025-12-01T04:12:00Z,IFR,8,8,100,180,19,4800,29.92,NA,OVC  ft,SPECI CYHZ 010912Z 18019G28KT 3SM -RA BR OVC005 08/08 A2992 RMK NS8 SLP139,2025-12-01T09:37:26Z,2025-12-01T04:37:26Z
CYHZ,2025-12-01T10:00:00Z,2025-12-01T05:00:00Z,IFR,8,8,100,190,16,4800,29.89,NA,OVC  ft,METAR CYHZ 011000Z 19016G25KT 3SM -RA BR OVC005 08/08 A2989 RMK NS8 SLP128,2025-12-01T10:34:26Z,2025-12-01T05:34:26Z
CYHZ,2025-12-01T11:00:00Z,2025-12-01T06:00:00Z,IFR,9,9,100,200,19,4800,29.85,NA,OVC  ft,METAR CYHZ 011100Z 20019G30KT 3SM -RA BR OVC006 09/09 A2985 RMK NS8 SLP116,2025-12-01T11:27:07Z,2025-12-01T06:27:07Z
CYHZ,2025-12-01T12:00:00Z,2025-12-01T07:00:00Z,IFR,10,10,100,200,14,4800,29.83,NA,OVC  ft,METAR CYHZ 011200Z 20014G26KT 3SM -RA BR OVC006 10/10 A2983 RMK NS8 CIG RAG SLP106,2025-12-01T12:59:49Z,2025-12-01T07:59:49Z
CYHZ,2025-12-01T13:00:00Z,2025-12-01T08:00:00Z,IFR,9,9,100,220,15,4800,29.83,NA,OVC  ft,METAR CYHZ 011300Z 22015G21KT 3SM -RA BR OVC005 09/09 A2983 RMK NS8 CIG RAG SLP108,2025-12-01T13:41:30Z,2025-12-01T08:41:30Z
CYHZ,2025-12-01T14:00:00Z,2025-12-01T09:00:00Z,VFR,8,7,93,260,11,24100,29.84,NA,FEW  ft; BKN  ft; BKN  ft,METAR CYHZ 011400Z 26011G17KT 15SM FEW050 BKN073 BKN200 08/07 A2984 RMK SC2AC3CI2 SF ASOCTD SLP111,2025-12-01T14:31:29Z,2025-12-01T09:31:29Z
CYHZ,2025-12-01T15:15:00Z,2025-12-01T10:15:00Z,VFR,6,4,87,300,17,24100,29.85,NA,FEW  ft; SCT  ft; BKN  ft,SPECI CYHZ 011515Z 30017G24KT 250V310 15SM -SHRA FEW015 SCT040TCU BKN220 06/04 A2985 RMK SC3TCU2CI2 VIS LWR NE SF ASOCTD SLP114,2025-12-01T15:31:43Z,2025-12-01T10:31:43Z
CYHZ,2025-12-01T16:00:00Z,2025-12-01T11:00:00Z,VFR,7,5,87,270,13,24100,29.84,NA,FEW  ft; FEW  ft; BKN  ft,METAR CYHZ 011600Z 27013KT 15SM FEW050 FEW080 BKN220 07/05 A2984 RMK CU2AC1CI3 AC TR SF ASOCTD SLP112,2025-12-01T16:39:29Z,2025-12-01T11:39:29Z
CYHZ,2025-12-01T17:00:00Z,2025-12-01T12:00:00Z,VFR,7,3,76,280,13,24100,29.85,NA,SCT  ft; SCT  ft; BKN  ft,METAR CYHZ 011700Z 28013G18KT 15SM SCT060 SCT080 BKN220 07/03 A2985 RMK CU3AC1CI4 AC TR SF ASOCTD SLP114,2025-12-01T17:30:03Z,2025-12-01T12:30:03Z
CYLW,2025-12-01T05:00:00Z,2025-12-01T00:00:00Z,MVFR,0,-3,80,0,2,14500,30.32,NA,OVC  ft,METAR CYLW 010500Z AUTO VRB02KT 9SM OVC025 00/M03 A3032 RMK SLP289,2025-12-01T05:36:00Z,2025-12-01T00:36:00Z
CYLW,2025-12-01T06:00:00Z,2025-12-01T01:00:00Z,MVFR,0,-3,80,0,2,14500,30.34,NA,OVC  ft,METAR CYLW 010600Z AUTO VRB02KT 9SM OVC025 M00/M03 A3034 RMK SLP296,2025-12-01T06:45:39Z,2025-12-01T01:45:39Z
CYLW,2025-12-01T07:00:00Z,2025-12-01T02:00:00Z,MVFR,0,-3,80,0,0,14500,30.34,NA,OVC  ft,METAR CYLW 010700Z AUTO 00000KT 9SM OVC025 00/M03 A3034 RMK SLP295,2025-12-01T07:31:03Z,2025-12-01T02:31:03Z
CYLW,2025-12-01T08:00:00Z,2025-12-01T03:00:00Z,MVFR,0,-2,87,330,2,14500,30.33,NA,OVC  ft,METAR CYLW 010800Z AUTO 33002KT 9SM OVC025 M00/M02 A3033 RMK SLP292,2025-12-01T08:41:14Z,2025-12-01T03:41:14Z
CYLW,2025-12-01T09:00:00Z,2025-12-01T04:00:00Z,MVFR,0,-2,87,0,0,14500,30.32,NA,OVC  ft,METAR CYLW 010900Z AUTO 00000KT 9SM OVC025 M00/M02 A3032 RMK SLP288,2025-12-01T09:37:25Z,2025-12-01T04:37:25Z
CYLW,2025-12-01T10:00:00Z,2025-12-01T05:00:00Z,MVFR,0,-2,87,0,0,14500,30.32,NA,OVC  ft,METAR CYLW 011000Z AUTO 00000KT 9SM OVC025 M00/M02 A3032 RMK SLP289,2025-12-01T10:34:24Z,2025-12-01T05:34:24Z
CYLW,2025-12-01T11:00:00Z,2025-12-01T06:00:00Z,MVFR,0,-2,87,0,0,14500,30.31,NA,OVC  ft,METAR CYLW 011100Z AUTO 00000KT 9SM OVC025 M00/M02 A3031 RMK SLP287,2025-12-01T11:27:06Z,2025-12-01T06:27:06Z
CYLW,2025-12-01T12:00:00Z,2025-12-01T07:00:00Z,MVFR,0,-2,87,0,0,14500,30.3,NA,OVC  ft,METAR CYLW 011200Z AUTO 00000KT 9SM OVC027 M00/M02 A3030 RMK SLP282,2025-12-01T12:59:48Z,2025-12-01T07:59:48Z
CYLW,2025-12-01T13:00:00Z,2025-12-01T08:00:00Z,MVFR,-1,-2,93,0,0,14500,30.29,NA,OVC  ft,METAR CYLW 011300Z AUTO 00000KT 9SM OVC027 M01/M02 A3029 RMK SLP278,2025-12-01T13:41:28Z,2025-12-01T08:41:28Z
CYLW,2025-12-01T14:00:00Z,2025-12-01T09:00:00Z,MVFR,0,-2,87,0,0,14500,30.27,NA,OVC  ft,METAR CYLW 011400Z AUTO 00000KT 9SM OVC025 M00/M02 A3027 RMK SLP272,2025-12-01T14:31:27Z,2025-12-01T09:31:27Z
CYLW,2025-12-01T15:00:00Z,2025-12-01T10:00:00Z,MVFR,0,-2,87,170,3,14500,30.26,NA,OVC  ft,METAR CYLW 011500Z AUTO 17003KT 150V220 9SM OVC025 M00/M02 A3026 RMK SLP268,2025-12-01T15:31:41Z,2025-12-01T10:31:41Z
CYLW,2025-12-01T16:36:00Z,2025-12-01T11:36:00Z,MVFR,0,-2,87,210,4,14500,30.27,NA,OVC  ft,SPECI CYLW 011636Z AUTO 21004KT 160V250 9SM -RA -UP OVC025 00/M02 A3027 RMK SLP271,2025-12-01T16:39:27Z,2025-12-01T11:39:27Z
CYLW,2025-12-01T17:15:00Z,2025-12-01T12:15:00Z,MVFR,-1,-1,100,180,6,4800,30.26,NA,BKN  ft; BKN  ft; OVC  ft,SPECI CYLW 011715Z AUTO 18006KT 3SM -SN BKN021 BKN027 OVC032 M01/M01 A3026 RMK SLP268,2025-12-01T17:30:01Z,2025-12-01T12:30:01Z
CYMM,2025-12-01T05:00:00Z,2025-12-01T00:00:00Z,MVFR,-15,-17,85,180,4,14500,30.04,NA,BKN  ft,METAR CYMM 010500Z AUTO 18004KT 9SM BKN011 M15/M17 A3004 RMK SLP211,2025-12-01T05:36:00Z,2025-12-01T00:36:00Z
CYMM,2025-12-01T06:21:00Z,2025-12-01T01:21:00Z,IFR,-14,-15,92,160,3,14500,30.04,NA,OVC  ft,SPECI CYMM 010621Z AUTO 16003KT 9SM -SN OVC009 M14/M15 A3004 RMK SLP208,2025-12-01T06:45:40Z,2025-12-01T01:45:40Z
CYMM,2025-12-01T07:00:00Z,2025-12-01T02:00:00Z,IFR,-13,-15,85,190,4,14500,30.03,NA,OVC  ft,METAR CYMM 010700Z AUTO 19004KT 9SM OVC009 M13/M15 A3003 RMK SLP205,2025-12-01T07:31:03Z,2025-12-01T02:31:03Z
CYMM,2025-12-01T08:00:00Z,2025-12-01T03:00:00Z,MVFR,-13,-15,85,190,3,14500,30.01,NA,OVC  ft,METAR CYMM 010800Z AUTO 19003KT 9SM OVC013 M13/M15 A3001 RMK SLP198,2025-12-01T08:41:14Z,2025-12-01T03:41:14Z
CYMM,2025-12-01T09:00:00Z,2025-12-01T04:00:00Z,MVFR,-12,-14,85,210,4,14500,29.99,NA,OVC  ft,METAR CYMM 010900Z AUTO 21004KT 9SM OVC015 M12/M14 A2999 RMK SLP190,2025-12-01T09:37:25Z,2025-12-01T04:37:25Z
CYMM,2025-12-01T10:00:00Z,2025-12-01T05:00:00Z,MVFR,-12,-13,92,190,3,14500,29.97,NA,OVC  ft,METAR CYMM 011000Z AUTO 19003KT 9SM OVC013 M12/M13 A2997 RMK SLP185,2025-12-01T10:34:24Z,2025-12-01T05:34:24Z
CYMM,2025-12-01T11:00:00Z,2025-12-01T06:00:00Z,MVFR,-11,-13,85,140,5,14500,29.93,NA,OVC  ft,METAR CYMM 011100Z AUTO 14005KT 9SM OVC011 M11/M13 A2993 RMK SLP169,2025-12-01T11:27:06Z,2025-12-01T06:27:06Z
CYMM,2025-12-01T12:52:00Z,2025-12-01T07:52:00Z,MVFR,-12,-14,85,130,6,14500,29.85,NA,BKN  ft; OVC  ft,SPECI CYMM 011252Z AUTO 13006KT 9SM BKN016 OVC120 M12/M14 A2985 RMK SLP143,2025-12-01T12:59:49Z,2025-12-01T07:59:49Z
CYMM,2025-12-01T13:36:00Z,2025-12-01T08:36:00Z,VFR,-12,-14,85,120,5,14500,29.83,NA,SCT  ft; BKN  ft; BKN  ft; OVC  ft,SPECI CYMM 011336Z AUTO 12005KT 9SM SCT018 BKN076 BKN100 OVC120 M12/M14 A2983 RMK SLP137,2025-12-01T13:41:29Z,2025-12-01T08:41:29Z
CYMM,2025-12-01T14:23:00Z,2025-12-01T09:23:00Z,VFR,-11,-13,85,110,5,14500,29.81,NA,OVC  ft,SPECI CYMM 011423Z AUTO 11005KT 9SM -SN OVC055 M11/M13 A2981 RMK SLP130,2025-12-01T14:31:28Z,2025-12-01T09:31:28Z
CYMM,2025-12-01T15:00:00Z,2025-12-01T10:00:00Z,VFR,-11,-13,85,110,6,14500,29.79,NA,OVC  ft,METAR CYMM 011500Z AUTO 11006KT 9SM -SN OVC044 M11/M13 A2979 RMK SLP122,2025-12-01T15:31:42Z,2025-12-01T10:31:42Z
CYMM,2025-12-01T16:00:00Z,2025-12-01T11:00:00Z,VFR,-11,-13,85,110,8,14500,29.74,NA,FEW  ft; OVC  ft,METAR CYMM 011600Z AUTO 11008KT 9SM -SN FEW055 OVC094 M11/M13 A2974 RMK SLP106,2025-12-01T16:39:28Z,2025-12-01T11:39:28Z
CYMM,2025-12-01T17:19:00Z,2025-12-01T12:19:00Z,VFR,-10,-13,79,110,7,11300,29.71,NA,FEW  ft; BKN  ft; BKN  ft; OVC  ft,SPECI CYMM 011719Z AUTO 11007KT 7SM -SN FEW026 BKN041 BKN066 OVC085 M10/M13 A2971 RMK SLP094,2025-12-01T17:30:01Z,2025-12-01T12:30:01Z
CYMO,2025-12-01T05:00:00Z,2025-12-01T00:00:00Z,VFR,-19,-22,77,250,6,14500,30.2,NA,CLR  ft,METAR CYMO 010500Z AUTO 25006KT 9SM CLR M19/M22 A3020 RMK SLP229,2025-12-01T05:35:58Z,2025-12-01T00:35:58Z
CYMO,2025-12-01T06:00:00Z,2025-12-01T01:00:00Z,VFR,-19,-22,77,250,6,14500,30.2,NA,CLR  ft,METAR CYMO 010600Z AUTO 25006KT 9SM CLR M19/M22 A3020 RMK SLP229,2025-12-01T06:45:38Z,2025-12-01T01:45:38Z
CYMO,2025-12-01T07:00:00Z,2025-12-01T02:00:00Z,VFR,-18,-21,78,240,10,14500,30.2,NA,CLR  ft,METAR CYMO 010700Z AUTO 24010KT 9SM CLR M18/M21 A3020 RMK SLP231,2025-12-01T07:31:02Z,2025-12-01T02:31:02Z
CYMO,2025-12-01T08:00:00Z,2025-12-01T03:00:00Z,VFR,-19,-22,77,240,10,14500,30.21,NA,CLR  ft,METAR CYMO 010800Z AUTO 24010KT 9SM CLR M19/M22 A3021 RMK SLP232,2025-12-01T08:41:13Z,2025-12-01T03:41:13Z
CYMO,2025-12-01T09:00:00Z,2025-12-01T04:00:00Z,VFR,-19,-22,77,250,10,14500,30.21,NA,CLR  ft,METAR CYMO 010900Z AUTO 25010KT 9SM CLR M19/M22 A3021 RMK SLP232,2025-12-01T09:37:24Z,2025-12-01T04:37:24Z
CYMO,2025-12-01T10:00:00Z,2025-12-01T05:00:00Z,VFR,-18,-21,78,230,10,14500,30.2,NA,BKN  ft,METAR CYMO 011000Z AUTO 23010KT 9SM BKN042 M18/M21 A3020 RMK SLP230,2025-12-01T10:34:23Z,2025-12-01T05:34:23Z
CYMO,2025-12-01T11:03:00Z,2025-12-01T06:03:00Z,VFR,-16,-19,78,220,11,14500,30.19,NA,OVC  ft,SPECI CYMO 011103Z AUTO 22011G16KT 9SM -SN OVC042 M16/M19 A3019 RMK SLP227,2025-12-01T11:27:04Z,2025-12-01T06:27:04Z
CYMO,2025-12-01T12:00:00Z,2025-12-01T07:00:00Z,VFR,-15,-18,78,190,10,14500,30.18,NA,OVC  ft,METAR CYMO 011200Z AUTO 19010KT 9SM -SN OVC040 M15/M18 A3018 RMK SLP223,2025-12-01T12:59:47Z,2025-12-01T07:59:47Z
CYMO,2025-12-01T13:14:00Z,2025-12-01T08:14:00Z,VFR,-15,-17,85,210,10,11300,30.16,NA,OVC  ft,SPECI CYMO 011314Z AUTO 21010KT 7SM -SN OVC040 M15/M17 A3016 RMK SLP216,2025-12-01T13:41:26Z,2025-12-01T08:41:26Z
CYMO,2025-12-01T14:20:00Z,2025-12-01T09:20:00Z,VFR,-14,-16,85,200,12,14500,30.15,NA,OVC  ft,SPECI CYMO 011420Z AUTO 20012KT 9SM OVC040 M14/M16 A3015 RMK SLP212,2025-12-01T14:31:26Z,2025-12-01T09:31:26Z
CYMO,2025-12-01T15:00:00Z,2025-12-01T10:00:00Z,VFR,-13,-16,78,220,12,14500,30.14,NA,FEW  ft,METAR CYMO 011500Z AUTO 22012G17KT 9SM FEW036 M13/M16 A3014 RMK SLP209,2025-12-01T15:31:40Z,2025-12-01T10:31:40Z
CYMO,2025-12-01T16:28:00Z,2025-12-01T11:28:00Z,VFR,-11,-15,73,220,11,14500,30.11,NA,OVC  ft,SPECI CYMO 011628Z AUTO 22011G17KT 9SM OVC081 M11/M15 A3011 RMK SLP198,2025-12-01T16:39:26Z,2025-12-01T11:39:26Z
CYMO,2025-12-01T17:00:00Z,2025-12-01T12:00:00Z,VFR,-10,-15,67,230,12,14500,30.09,NA,SCT  ft; OVC  ft,METAR CYMO 011700Z AUTO 23012G17KT 9SM SCT026 OVC081 M10/M15 A3009 RMK SLP192,2025-12-01T17:29:59Z,2025-12-01T12:29:59Z
CYOW,2025-12-01T05:25:00Z,2025-12-01T00:25:00Z,MVFR,-1,-4,80,290,18,12900,29.95,NA,FEW  ft; OVC  ft,SPECI CYOW 010525Z 29018G26KT 8SM FEW010 OVC016 M01/M04 A2995 RMK SC2SC6 SLP151,2025-12-01T05:35:59Z,2025-12-01T00:35:59Z
CYOW,2025-12-01T06:00:00Z,2025-12-01T01:00:00Z,MVFR,-2,-5,80,300,21,24100,30,NA,FEW  ft; OVC  ft,METAR CYOW 010600Z 30021G27KT 15SM FEW010 OVC019 M02/M05 A3000 RMK SC1SC8 SC TR PRESRR SLP166,2025-12-01T06:45:38Z,2025-12-01T01:45:38Z
CYOW,2025-12-01T07:00:00Z,2025-12-01T02:00:00Z,MVFR,-3,-7,74,300,22,24100,30.06,NA,OVC  ft,METAR CYOW 010700Z 30022G28KT 15SM OVC022 M03/M07 A3006 RMK SC8 SLP188,2025-12-01T07:31:03Z,2025-12-01T02:31:03Z
CYOW,2025-12-01T08:00:00Z,2025-12-01T03:00:00Z,MVFR,-4,-8,74,310,18,24100,30.13,NA,OVC  ft,METAR CYOW 010800Z 31018G26KT 15SM OVC025 M04/M08 A3013 RMK SC8 SLP210,2025-12-01T08:41:13Z,2025-12-01T03:41:13Z
CYOW,2025-12-01T09:00:00Z,2025-12-01T04:00:00Z,MVFR,-6,-12,63,310,22,24100,30.19,NA,BKN  ft,METAR CYOW 010900Z 31022KT 15SM BKN028 M06/M12 A3019 RMK SC6 SLP233,2025-12-01T09:37:24Z,2025-12-01T04:37:24Z
CYOW,2025-12-01T10:00:00Z,2025-12-01T05:00:00Z,VFR,-8,-12,73,310,13,24100,30.24,NA,SCT  ft,METAR CYOW 011000Z 31013KT 15SM VCSH SCT023 M08/M12 A3024 RMK SC3 SH NW SLP248,2025-12-01T10:34:23Z,2025-12-01T05:34:23Z
CYOW,2025-12-01T11:00:00Z,2025-12-01T06:00:00Z,VFR,-9,-13,73,300,9,24100,30.28,NA,SCT  ft,METAR CYOW 011100Z 30009KT 15SM SCT022 M09/M13 A3028 RMK SC3 SLP263,2025-12-01T11:27:05Z,2025-12-01T06:27:05Z
CYOW,2025-12-01T12:30:00Z,2025-12-01T07:30:00Z,MVFR,-9,-13,73,320,14,9999,30.35,NA,BKN  ft,SPECI CYOW 011230Z 32014KT 10SM -SN BKN027 M09/M13 A3035 RMK SC6 SLP286,2025-12-01T12:59:48Z,2025-12-01T07:59:48Z
CYOW,2025-12-01T13:21:00Z,2025-12-01T08:21:00Z,MVFR,-10,-14,73,330,11,24100,30.37,NA,BKN  ft,SPECI CYOW 011321Z 33011G17KT 15SM BKN021 M10/M14 A3037 RMK SC5 SLP294,2025-12-01T13:41:27Z,2025-12-01T08:41:27Z
CYOW,2025-12-01T14:00:00Z,2025-12-01T09:00:00Z,MVFR,-9,-14,67,330,12,24100,30.38,NA,BKN  ft,METAR CYOW 011400Z 33012KT 15SM BKN024 M09/M14 A3038 RMK SC6 SLP298,2025-12-01T14:31:27Z,2025-12-01T09:31:27Z
CYOW,2025-12-01T15:00:00Z,2025-12-01T10:00:00Z,MVFR,-9,-14,67,320,10,24100,30.41,NA,BKN  ft,METAR CYOW 011500Z 32010G15KT 15SM BKN021 M09/M14 A3041 RMK SC7 SLP306,2025-12-01T15:31:40Z,2025-12-01T10:31:40Z
CYOW,2025-12-01T16:00:00Z,2025-12-01T11:00:00Z,MVFR,-9,-14,67,300,9,24100,30.4,NA,BKN  ft,METAR CYOW 011600Z 30009KT 15SM BKN024 M09/M14 A3040 RMK SC6 SLP305,2025-12-01T16:39:26Z,2025-12-01T11:39:26Z
CYOW,2025-12-01T17:00:00Z,2025-12-01T12:00:00Z,VFR,-8,-14,62,300,9,24100,30.39,NA,SCT  ft,METAR CYOW 011700Z 30009KT 15SM SCT024 M08/M14 A3039 RMK SC4 SLP301,2025-12-01T17:30:00Z,2025-12-01T12:30:00Z
CYPL,2025-12-01T05:27:00Z,2025-12-01T00:27:00Z,VFR,-13,-16,78,260,12,14500,30.1,NA,FEW  ft; OVC  ft,SPECI CYPL 010527Z AUTO 26012G18KT 9SM -SN FEW033 OVC055 M13/M16 A3010 RMK SLP232,2025-12-01T05:35:58Z,2025-12-01T00:35:58Z
CYPL,2025-12-01T06:30:00Z,2025-12-01T01:30:00Z,VFR,-13,-16,78,260,13,14500,30.1,NA,OVC  ft,SPECI CYPL 010630Z AUTO 26013G22KT 9SM -SN OVC055 M13/M16 A3010 RMK SLP230,2025-12-01T06:45:38Z,2025-12-01T01:45:38Z
CYPL,2025-12-01T07:00:00Z,2025-12-01T02:00:00Z,VFR,-13,-16,78,260,13,14500,30.09,NA,FEW  ft; OVC  ft,METAR CYPL 010700Z AUTO 26013G20KT 9SM FEW046 OVC055 M13/M16 A3009 RMK SLP229,2025-12-01T07:31:02Z,2025-12-01T02:31:02Z
CYPL,2025-12-01T08:00:00Z,2025-12-01T03:00:00Z,VFR,-13,-16,78,250,11,14500,30.09,NA,OVC  ft,METAR CYPL 010800Z AUTO 25011G17KT 9SM OVC055 M13/M16 A3009 RMK SLP227,2025-12-01T08:41:13Z,2025-12-01T03:41:13Z
CYPL,2025-12-01T09:00:00Z,2025-12-01T04:00:00Z,VFR,-13,-17,72,240,10,14500,30.08,NA,OVC  ft,METAR CYPL 010900Z AUTO 24010G16KT 9SM OVC055 M13/M17 A3008 RMK SLP223,2025-12-01T09:37:24Z,2025-12-01T04:37:24Z
CYPL,2025-12-01T10:28:00Z,2025-12-01T05:28:00Z,VFR,-13,-17,72,240,10,14500,30.05,NA,OVC  ft,SPECI CYPL 011028Z AUTO 24010G16KT 9SM -SN OVC055 M13/M17 A3005 RMK SLP215,2025-12-01T10:34:23Z,2025-12-01T05:34:23Z
CYPL,2025-12-01T11:20:00Z,2025-12-01T06:20:00Z,MVFR,-13,-16,78,240,10,14500,30.04,NA,BKN  ft; OVC  ft,SPECI CYPL 011120Z AUTO 24010G15KT 9SM -SN BKN024 OVC055 M13/M16 A3004 RMK SLP211,2025-12-01T11:27:05Z,2025-12-01T06:27:05Z
CYPL,2025-12-01T12:00:00Z,2025-12-01T07:00:00Z,MVFR,-13,-16,78,240,8,14500,30.03,NA,BKN  ft; OVC  ft,METAR CYPL 011200Z AUTO 24008KT 9SM -SN BKN024 OVC055 M13/M16 A3003 RMK SLP209,2025-12-01T12:59:47Z,2025-12-01T07:59:47Z
CYPL,2025-12-01T13:00:00Z,2025-12-01T08:00:00Z,MVFR,-13,-16,78,230,8,14500,30.02,NA,SCT  ft; OVC  ft,METAR CYPL 011300Z AUTO 23008KT 9SM -SN SCT020 OVC025 M13/M16 A3002 RMK SLP206,2025-12-01T13:41:27Z,2025-12-01T08:41:27Z
CYPL,2025-12-01T14:00:00Z,2025-12-01T09:00:00Z,MVFR,-13,-16,78,240,8,14500,30.02,NA,OVC  ft,METAR CYPL 011400Z AUTO 24008KT 9SM OVC029 M13/M16 A3002 RMK SLP205,2025-12-01T14:31:26Z,2025-12-01T09:31:26Z
CYPL,2025-12-01T15:00:00Z,2025-12-01T10:00:00Z,VFR,-13,-16,78,240,9,14500,30.01,NA,FEW  ft; BKN  ft; BKN  ft,METAR CYPL 011500Z AUTO 24009KT 9SM FEW024 BKN035 BKN130 M13/M16 A3001 RMK SLP199,2025-12-01T15:31:40Z,2025-12-01T10:31:40Z
CYPL,2025-12-01T16:00:00Z,2025-12-01T11:00:00Z,VFR,-12,-16,72,240,7,14500,29.99,NA,BKN  ft,METAR CYPL 011600Z AUTO 24007KT 9SM BKN130 M12/M16 A2999 RMK SLP192,2025-12-01T16:39:26Z,2025-12-01T11:39:26Z
CYPL,2025-12-01T17:00:00Z,2025-12-01T12:00:00Z,VFR,-11,-16,67,230,7,14500,29.97,NA,OVC  ft,METAR CYPL 011700Z AUTO 23007KT 210V280 9SM OVC035 M11/M16 A2997 RMK SLP184,2025-12-01T17:29:59Z,2025-12-01T12:29:59Z
CYQA,2025-12-01T05:16:00Z,2025-12-01T00:16:00Z,MVFR,-7,-10,79,330,11,8000,30.16,NA,BKN  ft; BKN  ft,SPECI CYQA 010516Z AUTO 33011G16KT 5SM -SN BKN017 BKN060 M07/M10 A3016 RMK SLP235,2025-12-01T05:36:00Z,2025-12-01T00:36:00Z
CYQA,2025-12-01T06:10:00Z,2025-12-01T01:10:00Z,MVFR,-8,-10,86,320,11,11300,30.2,NA,OVC  ft,SPECI CYQA 010610Z AUTO 32011G22KT 7SM -SN OVC017 M08/M10 A3020 RMK SLP246,2025-12-01T06:45:39Z,2025-12-01T01:45:39Z
CYQA,2025-12-01T07:23:00Z,2025-12-01T02:23:00Z,MVFR,-10,-13,79,340,14,14500,30.25,NA,BKN  ft,SPECI CYQA 010723Z AUTO 34014G22KT 9SM -SN BKN024 M10/M13 A3025 RMK PRESRR SLP267,2025-12-01T07:31:03Z,2025-12-01T02:31:03Z
CYQA,2025-12-01T08:00:00Z,2025-12-01T03:00:00Z,MVFR,-10,-13,79,330,9,14500,30.28,NA,OVC  ft,METAR CYQA 010800Z AUTO 33009G18KT 9SM -SN OVC022 M10/M13 A3028 RMK SLP273,2025-12-01T08:41:14Z,2025-12-01T03:41:14Z
CYQA,2025-12-01T09:12:00Z,2025-12-01T04:12:00Z,MVFR,-10,-12,85,340,6,14500,30.31,NA,OVC  ft,SPECI CYQA 010912Z AUTO 34006KT 9SM -SN OVC020 M10/M12 A3031 RMK SLP284,2025-12-01T09:37:25Z,2025-12-01T04:37:25Z
CYQA,2025-12-01T10:05:00Z,2025-12-01T05:05:00Z,MVFR,-11,-14,79,330,7,14500,30.33,NA,OVC  ft,SPECI CYQA 011005Z AUTO 33007KT 9SM OVC022 M11/M14 A3033 RMK SLP294,2025-12-01T10:34:24Z,2025-12-01T05:34:24Z
CYQA,2025-12-01T11:00:00Z,2025-12-01T06:00:00Z,VFR,-13,-15,85,350,3,14500,30.34,NA,CLR  ft,METAR CYQA 011100Z AUTO 35003KT 9SM CLR M13/M15 A3034 RMK SLP294,2025-12-01T11:27:05Z,2025-12-01T06:27:05Z
CYQA,2025-12-01T12:00:00Z,2025-12-01T07:00:00Z,VFR,-15,-16,92,0,0,14500,30.36,NA,CLR  ft,METAR CYQA 011200Z AUTO 00000KT 9SM CLR M15/M16 A3036 RMK SLP305,2025-12-01T12:59:48Z,2025-12-01T07:59:48Z
CYQA,2025-12-01T13:00:00Z,2025-12-01T08:00:00Z,VFR,-16,-17,92,0,0,14500,30.38,NA,CLR  ft,METAR CYQA 011300Z AUTO 00000KT 9SM CLR M16/M17 A3038 RMK SLP310,2025-12-01T13:41:28Z,2025-12-01T08:41:28Z
CYQA,2025-12-01T14:00:00Z,2025-12-01T09:00:00Z,VFR,-14,-15,92,0,0,14500,30.37,NA,CLR  ft,METAR CYQA 011400Z AUTO 00000KT 9SM CLR M14/M15 A3037 RMK SLP307,2025-12-01T14:31:27Z,2025-12-01T09:31:27Z
CYQA,2025-12-01T15:00:00Z,2025-12-01T10:00:00Z,VFR,-10,-14,73,40,3,14500,30.38,NA,CLR  ft,METAR CYQA 011500Z AUTO 04003KT 330V080 9SM CLR M10/M14 A3038 RMK SLP309,2025-12-01T15:31:41Z,2025-12-01T10:31:41Z
CYQA,2025-12-01T16:00:00Z,2025-12-01T11:00:00Z,VFR,-9,-14,67,0,0,14500,30.38,NA,CLR  ft,METAR CYQA 011600Z AUTO 00000KT 9SM CLR M09/M14 A3038 RMK SLP309,2025-12-01T16:39:27Z,2025-12-01T11:39:27Z
CYQA,2025-12-01T17:00:00Z,2025-12-01T12:00:00Z,VFR,-8,-13,68,0,2,14500,30.36,NA,SCT  ft,METAR CYQA 011700Z AUTO VRB02KT 9SM SCT038 M08/M13 A3036 RMK SLP301,2025-12-01T17:30:00Z,2025-12-01T12:30:00Z
CYQB,2025-12-01T05:17:00Z,2025-12-01T00:17:00Z,IFR,0,-1,93,310,2,4000,29.81,NA,FEW  ft; OVC  ft,SPECI CYQB 010517Z 31002KT 2 1/2SM -SN BR FEW004 OVC011 00/M01 A2981 RMK SF2ST6 SLP099,2025-12-01T05:36:01Z,2025-12-01T00:36:01Z
CYQB,2025-12-01T06:00:00Z,2025-12-01T01:00:00Z,IFR,1,0,93,240,9,4800,29.8,NA,FEW  ft; OVC  ft,METAR CYQB 010600Z 24009KT 3SM -RASN BR FEW004 OVC009 01/00 A2980 RMK SF2ST6 SLP097,2025-12-01T06:45:41Z,2025-12-01T01:45:41Z
CYQB,2025-12-01T07:00:00Z,2025-12-01T02:00:00Z,IFR,1,0,93,250,9,2400,29.81,NA,OVC  ft,METAR CYQB 010700Z 25009KT 1 1/2SM -RASN BR OVC005 01/M00 A2981 RMK ST8 VRB CIG 4-6 VRB VIS 11/4-13/4 SLP099,2025-12-01T07:31:04Z,2025-12-01T02:31:04Z
CYQB,2025-12-01T08:15:00Z,2025-12-01T03:15:00Z,IFR,0,0,100,250,11,3200,29.81,NA,FEW  ft; BKN  ft; OVC  ft,SPECI CYQB 010815Z 25011KT 2SM -RASN BR FEW004 BKN007 OVC015 00/M00 A2981 RMK SF2ST4SC2 SLP102,2025-12-01T08:41:15Z,2025-12-01T03:41:15Z
CYQB,2025-12-01T09:20:00Z,2025-12-01T04:20:00Z,MVFR,1,-1,87,270,9,9999,29.85,NA,FEW  ft; FEW  ft; BKN  ft; BKN  ft,SPECI CYQB 010920Z 27009KT 10SM FEW004 FEW015 BKN025 BKN067 01/M01 A2985 RMK SF1SC1SC3AC2 SLP113,2025-12-01T09:37:26Z,2025-12-01T04:37:26Z
CYQB,2025-12-01T10:00:00Z,2025-12-01T05:00:00Z,VFR,0,-3,80,310,6,9999,29.88,NA,FEW  ft; FEW  ft; SCT  ft; BKN  ft,METAR CYQB 011000Z 31006G15KT 260V040 10SM FEW005 FEW010 SCT032 BKN057 M00/M03 A2988 RMK SF1ST1SC2SC4 SF TR SLP123,2025-12-01T10:34:25Z,2025-12-01T05:34:25Z
CYQB,2025-12-01T11:00:00Z,2025-12-01T06:00:00Z,VFR,-2,-7,69,320,8,19300,29.95,NA,FEW  ft; FEW  ft; BKN  ft; BKN  ft,METAR CYQB 011100Z 32008G17KT 260V360 12SM FEW005 FEW015 BKN060 BKN095 BKN110 M02/M07 A2995 RMK ST1SC1SC4AC1AC1 ST TR PRESRR SLP148,2025-12-01T11:27:07Z,2025-12-01T06:27:07Z
CYQB,2025-12-01T12:00:00Z,2025-12-01T07:00:00Z,VFR,-3,-9,64,300,5,40200,30.05,NA,FEW  ft; FEW  ft; SCT  ft; SCT  ft,METAR CYQB 011200Z 30005KT 250V340 25SM FEW008 FEW025 SCT084 SCT100 BKN250 M03/M09 A3005 RMK SF1SC2AC1AC1CI1 SF TR PRESRR SLP181,2025-12-01T12:59:49Z,2025-12-01T07:59:49Z
CYQB,2025-12-01T13:00:00Z,2025-12-01T08:00:00Z,VFR,-4,-9,69,330,4,40200,30.11,NA,FEW  ft; FEW  ft; FEW  ft,METAR CYQB 011300Z 33004KT 280V010 25SM FEW012 FEW027 FEW110 M04/M09 A3011 RMK SF1SC2AC1 SF TR AC TR SLP204,2025-12-01T13:41:30Z,2025-12-01T08:41:30Z
CYQB,2025-12-01T14:00:00Z,2025-12-01T09:00:00Z,MVFR,-5,-9,74,270,11,40200,30.16,NA,BKN  ft; BKN  ft; BKN  ft,METAR CYQB 011400Z 27011KT 25SM -SHSN BKN020 BKN035 BKN110 M05/M09 A3016 RMK SC5SC1AC1 AC TR CVCTV CLD EMBD VIS LWR NW SLP219,2025-12-01T14:31:28Z,2025-12-01T09:31:28Z
CYQB,2025-12-01T15:00:00Z,2025-12-01T10:00:00Z,VFR,-5,-11,63,280,6,48300,30.2,NA,FEW  ft,METAR CYQB 011500Z 28006KT 250V320 30SM FEW026 M05/M11 A3020 RMK SC2 SLP233,2025-12-01T15:31:42Z,2025-12-01T10:31:42Z
CYQB,2025-12-01T16:00:00Z,2025-12-01T11:00:00Z,VFR,-6,-12,63,300,7,48300,30.23,NA,FEW  ft,METAR CYQB 011600Z 30007KT 260V030 30SM FEW024 M06/M12 A3023 RMK SC1 SC TR SLP245,2025-12-01T16:39:28Z,2025-12-01T11:39:28Z
CYQB,2025-12-01T17:00:00Z,2025-12-01T12:00:00Z,VFR,-6,-13,58,270,6,48300,30.25,NA,FEW  ft,METAR CYQB 011700Z 27006KT 250V310 30SM FEW027 M06/M13 A3025 RMK SC1 SLP250,2025-12-01T17:30:02Z,2025-12-01T12:30:02Z
CYQF,2025-12-01T05:00:00Z,2025-12-01T00:00:00Z,VFR,-7,-10,79,240,5,14500,30.01,NA,OVC  ft,METAR CYQF 010500Z AUTO 24005KT 9SM OVC120 M07/M10 A3001 RMK SLP239,2025-12-01T05:36:01Z,2025-12-01T00:36:01Z
CYQF,2025-12-01T06:00:00Z,2025-12-01T01:00:00Z,VFR,-9,-12,79,210,4,14500,30,NA,SCT  ft; SCT  ft,METAR CYQF 010600Z AUTO 21004KT 9SM SCT120 SCT190 M09/M12 A3000 RMK SLP233,2025-12-01T06:45:40Z,2025-12-01T01:45:40Z
CYQF,2025-12-01T07:00:00Z,2025-12-01T02:00:00Z,VFR,-12,-14,85,200,5,14500,30,NA,CLR  ft,METAR CYQF 010700Z AUTO 20005KT 9SM CLR M12/M14 A3000 RMK SLP234,2025-12-01T07:31:03Z,2025-12-01T02:31:03Z
CYQF,2025-12-01T08:00:00Z,2025-12-01T03:00:00Z,VFR,-11,-13,85,200,5,14500,29.99,NA,FEW  ft,METAR CYQF 010800Z AUTO 20005KT 9SM FEW110 M11/M13 A2999 RMK SLP224,2025-12-01T08:41:14Z,2025-12-01T03:41:14Z
CYQF,2025-12-01T09:00:00Z,2025-12-01T04:00:00Z,VFR,-12,-14,85,200,6,14500,29.97,NA,SCT  ft; BKN  ft; BKN  ft,METAR CYQF 010900Z AUTO 20006KT 9SM SCT066 BKN120 BKN150 M12/M14 A2997 RMK SLP215,2025-12-01T09:37:25Z,2025-12-01T04:37:25Z
CYQF,2025-12-01T10:00:00Z,2025-12-01T05:00:00Z,VFR,-12,-13,92,200,7,14500,29.96,NA,CLR  ft,METAR CYQF 011000Z AUTO 20007KT 9SM CLR M12/M13 A2996 RMK SLP208,2025-12-01T10:34:24Z,2025-12-01T05:34:24Z
CYQF,2025-12-01T11:00:00Z,2025-12-01T06:00:00Z,VFR,-9,-12,79,200,5,14500,29.93,NA,OVC  ft,METAR CYQF 011100Z AUTO 20005KT 9SM OVC076 M09/M12 A2993 RMK SLP198,2025-12-01T11:27:06Z,2025-12-01T06:27:06Z
CYQF,2025-12-01T12:00:00Z,2025-12-01T07:00:00Z,VFR,-8,-11,79,190,5,14500,29.89,NA,OVC  ft,METAR CYQF 011200Z AUTO 19005KT 9SM OVC081 M08/M11 A2989 RMK SLP184,2025-12-01T12:59:49Z,2025-12-01T07:59:49Z
CYQF,2025-12-01T13:00:00Z,2025-12-01T08:00:00Z,VFR,-8,-11,79,210,4,14500,29.87,NA,OVC  ft,METAR CYQF 011300Z AUTO 21004KT 9SM OVC071 M08/M11 A2987 RMK SLP179,2025-12-01T13:41:29Z,2025-12-01T08:41:29Z
CYQF,2025-12-01T14:00:00Z,2025-12-01T09:00:00Z,VFR,-7,-11,73,220,5,14500,29.85,NA,OVC  ft,METAR CYQF 011400Z AUTO 22005KT 9SM OVC060 M07/M11 A2985 RMK SLP169,2025-12-01T14:31:28Z,2025-12-01T09:31:28Z
CYQF,2025-12-01T15:00:00Z,2025-12-01T10:00:00Z,VFR,-7,-10,79,190,5,14500,29.82,NA,OVC  ft,METAR CYQF 011500Z AUTO 19005KT 9SM OVC060 M07/M10 A2982 RMK SLP155,2025-12-01T15:31:42Z,2025-12-01T10:31:42Z
CYQF,2025-12-01T16:00:00Z,2025-12-01T11:00:00Z,VFR,-6,-10,74,230,4,14500,29.8,NA,OVC  ft,METAR CYQF 011600Z AUTO 23004KT 9SM OVC055 M06/M10 A2980 RMK SLP146,2025-12-01T16:39:28Z,2025-12-01T11:39:28Z
CYQF,2025-12-01T17:00:00Z,2025-12-01T12:00:00Z,VFR,-5,-9,74,210,7,14500,29.77,NA,OVC  ft,METAR CYQF 011700Z AUTO 21007KT 9SM OVC055 M05/M09 A2977 RMK SLP135,2025-12-01T17:30:02Z,2025-12-01T12:30:02Z
CYQG,2025-12-01T05:00:00Z,2025-12-01T00:00:00Z,VFR,-3,-8,69,310,7,14500,30.38,NA,CLR  ft,METAR CYQG 010500Z AUTO 31007KT 9SM CLR M03/M08 A3038 RMK SLP298,2025-12-01T05:35:59Z,2025-12-01T00:35:59Z
CYQG,2025-12-01T06:00:00Z,2025-12-01T01:00:00Z,VFR,-3,-9,64,320,7,14500,30.41,NA,CLR  ft,METAR CYQG 010600Z AUTO 32007KT 9SM CLR M03/M09 A3041 RMK SLP310,2025-12-01T06:45:39Z,2025-12-01T01:45:39Z
CYQG,2025-12-01T07:00:00Z,2025-12-01T02:00:00Z,VFR,-5,-9,74,260,5,14500,30.42,NA,CLR  ft,METAR CYQG 010700Z AUTO 26005KT 9SM CLR M05/M09 A3042 RMK SLP312,2025-12-01T07:31:03Z,2025-12-01T02:31:03Z
CYQG,2025-12-01T08:00:00Z,2025-12-01T03:00:00Z,VFR,-6,-9,80,270,6,14500,30.43,NA,CLR  ft,METAR CYQG 010800Z AUTO 27006KT 9SM CLR M06/M09 A3043 RMK SLP318,2025-12-01T08:41:13Z,2025-12-01T03:41:13Z
CYQG,2025-12-01T09:00:00Z,2025-12-01T04:00:00Z,VFR,-5,-8,80,290,7,14500,30.43,NA,CLR  ft,METAR CYQG 010900Z AUTO 29007KT 9SM CLR M05/M08 A3043 RMK SLP318,2025-12-01T09:37:24Z,2025-12-01T04:37:24Z
CYQG,2025-12-01T10:00:00Z,2025-12-01T05:00:00Z,VFR,-6,-9,80,300,3,14500,30.43,NA,CLR  ft,METAR CYQG 011000Z AUTO 30003KT 9SM CLR M06/M09 A3043 RMK SLP318,2025-12-01T10:34:23Z,2025-12-01T05:34:23Z
CYQG,2025-12-01T11:00:00Z,2025-12-01T06:00:00Z,VFR,-8,-10,86,270,7,14500,30.45,NA,CLR  ft,METAR CYQG 011100Z AUTO 27007KT 9SM CLR M08/M10 A3045 RMK SLP322,2025-12-01T11:27:05Z,2025-12-01T06:27:05Z
CYQG,2025-12-01T12:00:00Z,2025-12-01T07:00:00Z,VFR,-6,-9,80,310,4,14500,30.43,NA,CLR  ft,METAR CYQG 011200Z AUTO 31004KT 9SM CLR M06/M09 A3043 RMK SLP318,2025-12-01T12:59:48Z,2025-12-01T07:59:48Z
CYQG,2025-12-01T13:00:00Z,2025-12-01T08:00:00Z,VFR,-9,-11,86,0,0,14500,30.45,NA,BKN  ft,METAR CYQG 011300Z AUTO 00000KT 9SM BKN230 M09/M11 A3045 RMK SLP325,2025-12-01T13:41:27Z,2025-12-01T08:41:27Z
CYQG,2025-12-01T14:00:00Z,2025-12-01T09:00:00Z,VFR,-7,-9,86,210,4,14500,30.46,NA,FEW  ft,METAR CYQG 011400Z AUTO 21004KT 9SM FEW240 M07/M09 A3046 RMK SLP325,2025-12-01T14:31:27Z,2025-12-01T09:31:27Z
CYQG,2025-12-01T15:00:00Z,2025-12-01T10:00:00Z,VFR,-4,-7,80,80,3,14500,30.44,NA,BKN  ft,METAR CYQG 011500Z AUTO 08003KT 9SM BKN190 M04/M07 A3044 RMK SLP319,2025-12-01T15:31:41Z,2025-12-01T10:31:41Z
CYQG,2025-12-01T16:00:00Z,2025-12-01T11:00:00Z,VFR,-3,-7,74,0,2,14500,30.44,NA,SCT  ft; BKN  ft,METAR CYQG 011600Z AUTO VRB02KT 9SM SCT170 BKN190 M03/M07 A3044 RMK SLP318,2025-12-01T16:39:26Z,2025-12-01T11:39:26Z
CYQG,2025-12-01T17:00:00Z,2025-12-01T12:00:00Z,VFR,-2,-7,69,140,3,14500,30.4,NA,FEW  ft; SCT  ft,METAR CYQG 011700Z AUTO 14003KT 100V160 9SM FEW160 SCT180 M02/M07 A3040 RMK SLP307,2025-12-01T17:30:00Z,2025-12-01T12:30:00Z
CYQM,2025-12-01T05:00:00Z,2025-12-01T00:00:00Z,MVFR,4,3,93,160,16,19300,29.93,NA,SCT  ft; BKN  ft; OVC  ft,METAR CYQM 010500Z 16016G23KT 12SM -RA SCT009 BKN017 OVC057 04/03 A2993 RMK SF4SC2SC2 SLP139,2025-12-01T05:36:02Z,2025-12-01T00:36:02Z
CYQM,2025-12-01T06:00:00Z,2025-12-01T01:00:00Z,VFR,5,4,93,160,14,19300,29.88,NA,SCT  ft; BKN  ft; OVC  ft,METAR CYQM 010600Z 16014G23KT 12SM -RA SCT009 BKN032 OVC049 05/04 A2988 RMK SF3SC2SC3 PRESFR SLP123,2025-12-01T06:45:42Z,2025-12-01T01:45:42Z
CYQM,2025-12-01T07:00:00Z,2025-12-01T02:00:00Z,MVFR,6,6,100,170,14,19300,29.84,NA,FEW  ft; BKN  ft; BKN  ft; OVC  ft,METAR CYQM 010700Z 17014G22KT 12SM -RA FEW010 BKN025 BKN032 OVC047 06/06 A2984 RMK SF1SC4SC2SC1 SLP111,2025-12-01T07:31:04Z,2025-12-01T02:31:04Z
CYQM,2025-12-01T08:00:00Z,2025-12-01T03:00:00Z,MVFR,6,5,93,260,9,9999,29.84,NA,FEW  ft; BKN  ft; BKN  ft; OVC  ft,METAR CYQM 010800Z 26009G17KT 10SM RA FEW009 BKN021 BKN036 OVC043 06/05 A2984 RMK SF2SC3SC2NS1 SLP111,2025-12-01T08:41:15Z,2025-12-01T03:41:15Z
CYQM,2025-12-01T09:00:00Z,2025-12-01T04:00:00Z,MVFR,5,5,100,260,5,19300,29.82,NA,SCT  ft; BKN  ft; BKN  ft; OVC  ft,METAR CYQM 010900Z 26005KT 12SM -RA SCT009 BKN023 BKN036 OVC042 05/05 A2982 RMK SF3SC2SC2SC1 SLP102,2025-12-01T09:37:26Z,2025-12-01T04:37:26Z
CYQM,2025-12-01T10:12:00Z,2025-12-01T05:12:00Z,MVFR,5,5,100,240,11,9999,29.79,NA,SCT  ft; OVC  ft,SPECI CYQM 011012Z 24011KT 10SM -RA SCT013 OVC029 05/05 A2979 RMK SC3SC5 SLP094,2025-12-01T10:34:26Z,2025-12-01T05:34:26Z
CYQM,2025-12-01T11:20:00Z,2025-12-01T06:20:00Z,MVFR,4,3,93,290,8,9999,29.81,NA,FEW  ft; FEW  ft; BKN  ft; OVC  ft,SPECI CYQM 011120Z 29008KT 10SM -RA FEW005 FEW015 BKN030 OVC045 04/03 A2981 RMK SF1SC2SC4SC1 SLP099,2025-12-01T11:27:08Z,2025-12-01T06:27:08Z
CYQM,2025-12-01T12:14:00Z,2025-12-01T07:14:00Z,VFR,2,1,93,260,7,24100,29.82,NA,FEW  ft; FEW  ft; FEW  ft; SCT  ft,SPECI CYQM 011214Z 26007KT 15SM FEW005 FEW010 FEW045 SCT220 BKN250 02/01 A2982 RMK SF1SC1SC1CI3CI1 SF TR SC TR SLP104,2025-12-01T12:59:50Z,2025-12-01T07:59:50Z
CYQM,2025-12-01T13:00:00Z,2025-12-01T08:00:00Z,MVFR,3,2,93,250,8,24100,29.84,NA,BKN  ft; BKN  ft; BKN  ft,METAR CYQM 011300Z 25008KT 15SM BKN030 BKN045 BKN250 03/02 A2984 RMK SC6SC1CI1 SC TR CU ASOCTD SLP109,2025-12-01T13:41:30Z,2025-12-01T08:41:30Z
CYQM,2025-12-01T14:12:00Z,2025-12-01T09:12:00Z,IFR,4,3,93,240,11,24100,29.85,NA,BKN  ft; BKN  ft; BKN  ft,SPECI CYQM 011412Z 24011G16KT 15SM BKN005 BKN030 BKN055 04/03 A2985 RMK CF5SC1SC1 SLP113,2025-12-01T14:31:29Z,2025-12-01T09:31:29Z
CYQM,2025-12-01T15:00:00Z,2025-12-01T10:00:00Z,IFR,4,3,93,250,10,24100,29.85,NA,BKN  ft; BKN  ft,METAR CYQM 011500Z 25010KT 15SM -SHRA BKN006 BKN025 04/03 A2985 RMK CU5SC2 SLP113,2025-12-01T15:31:43Z,2025-12-01T10:31:43Z
CYQM,2025-12-01T16:00:00Z,2025-12-01T11:00:00Z,MVFR,4,1,81,270,16,24100,29.84,NA,BKN  ft; BKN  ft,METAR CYQM 011600Z 27016G21KT 15SM BKN012 BKN030 04/01 A2984 RMK CU6SC1 SLP111,2025-12-01T16:39:29Z,2025-12-01T11:39:29Z
CYQM,2025-12-01T17:00:00Z,2025-12-01T12:00:00Z,MVFR,4,1,81,270,11,24100,29.86,NA,BKN  ft; BKN  ft,METAR CYQM 011700Z 27011G21KT 15SM BKN012 BKN030 04/01 A2986 RMK SC6SC1 CU ASOCTD SLP116,2025-12-01T17:30:03Z,2025-12-01T12:30:03Z
CYQQ,2025-12-01T05:00:00Z,2025-12-01T00:00:00Z,MVFR,4,3,93,300,3,32200,30.34,NA,OVC  ft,METAR CYQQ 010500Z 30003KT 20SM OVC013 04/03 A3034 RMK SC8 DENSITY ALT -1646FT SLP276,2025-12-01T05:36:00Z,2025-12-01T00:36:00Z
CYQQ,2025-12-01T06:00:00Z,2025-12-01T01:00:00Z,MVFR,4,3,93,310,3,32200,30.35,NA,OVC  ft,METAR CYQQ 010600Z 31003KT 20SM OVC015 04/03 A3035 RMK SC8 DENSITY ALT -1633FT CIG VRB 11-19 SLP280,2025-12-01T06:45:40Z,2025-12-01T01:45:40Z
CYQQ,2025-12-01T07:00:00Z,2025-12-01T02:00:00Z,MVFR,4,3,93,0,0,32200,30.35,NA,BKN  ft; OVC  ft,METAR CYQQ 010700Z 00000KT 20SM BKN018 OVC120 04/03 A3035 RMK SC7AC1 DENSITY ALT -1645FT SLP279,2025-12-01T07:31:03Z,2025-12-01T02:31:03Z
CYQQ,2025-12-01T08:00:00Z,2025-12-01T03:00:00Z,MVFR,4,3,93,0,0,32200,30.35,NA,BKN  ft; OVC  ft,METAR CYQQ 010800Z 00000KT 20SM -RA BKN015 OVC100 04/03 A3035 RMK SC5AS3 DENSITY ALT -1670FT SLP278,2025-12-01T08:41:14Z,2025-12-01T03:41:14Z
CYQQ,2025-12-01T09:00:00Z,2025-12-01T04:00:00Z,VFR,4,3,93,0,0,32200,30.34,NA,SCT  ft; BKN  ft; OVC  ft,METAR CYQQ 010900Z 00000KT 20SM -RA SCT016 BKN080 OVC100 04/03 A3034 RMK SC3AC4AC1 DENSITY ALT -1645FT SLP274,2025-12-01T09:37:25Z,2025-12-01T04:37:25Z
CYQQ,2025-12-01T10:00:00Z,2025-12-01T05:00:00Z,VFR,4,3,93,0,0,32200,30.33,NA,SCT  ft; BKN  ft; OVC  ft,METAR CYQQ 011000Z 00000KT 20SM -RA SCT013 BKN050 OVC075 04/03 A3033 RMK SC4SC3AC1 DENSITY ALT -1633FT SLP271,2025-12-01T10:34:24Z,2025-12-01T05:34:24Z
CYQQ,2025-12-01T11:00:00Z,2025-12-01T06:00:00Z,VFR,4,3,93,0,0,32200,30.32,NA,FEW  ft; SCT  ft; OVC  ft,METAR CYQQ 011100Z 00000KT 20SM -RA FEW015 SCT050 OVC073 04/03 A3032 RMK SC2SC2AC4 DENSITY ALT -1621FT SLP269,2025-12-01T11:27:06Z,2025-12-01T06:27:06Z
CYQQ,2025-12-01T12:31:00Z,2025-12-01T07:31:00Z,MVFR,4,3,93,270,2,24100,30.3,NA,BKN  ft; OVC  ft,SPECI CYQQ 011231Z 27002KT 15SM -RA BKN013 OVC060 04/03 A3030 RMK SC5SC3 DENSITY ALT -1558FT CIG VRB 9-17 SLP263,2025-12-01T12:59:48Z,2025-12-01T07:59:48Z
CYQQ,2025-12-01T13:00:00Z,2025-12-01T08:00:00Z,MVFR,4,3,93,0,0,24100,30.3,NA,SCT  ft; BKN  ft; OVC  ft,METAR CYQQ 011300Z 00000KT 15SM -RA SCT012 BKN020 OVC070 04/03 A3030 RMK SC4SC3AC1 DENSITY ALT -1558FT SLP262,2025-12-01T13:41:28Z,2025-12-01T08:41:28Z
CYQQ,2025-12-01T14:00:00Z,2025-12-01T09:00:00Z,MVFR,4,4,100,310,4,32200,30.32,NA,BKN  ft; OVC  ft,METAR CYQQ 011400Z 31004KT 20SM -RA BKN018 OVC055 04/04 A3032 RMK SC6SC2 DENSITY ALT -1568FT SLP269,2025-12-01T14:31:28Z,2025-12-01T09:31:28Z
CYQQ,2025-12-01T15:00:00Z,2025-12-01T10:00:00Z,MVFR,4,4,100,310,4,32200,30.31,NA,FEW  ft; OVC  ft,METAR CYQQ 011500Z 31004KT 20SM FEW012 OVC018 04/04 A3031 RMK SC1SC7 DENSITY ALT -1543FT SLP267,2025-12-01T15:31:41Z,2025-12-01T10:31:41Z
CYQQ,2025-12-01T16:00:00Z,2025-12-01T11:00:00Z,MVFR,4,4,100,240,3,32200,30.29,NA,FEW  ft; BKN  ft; OVC  ft,METAR CYQQ 011600Z 24003KT 20SM FEW012 BKN020 OVC060 04/04 A3029 RMK SF1SC6SC2 DENSITY ALT -1507FT SLP260,2025-12-01T16:39:27Z,2025-12-01T11:39:27Z
CYQQ,2025-12-01T17:00:00Z,2025-12-01T12:00:00Z,MVFR,5,4,93,200,3,32200,30.28,NA,FEW  ft; BKN  ft; OVC  ft,METAR CYQQ 011700Z 20003KT 180V250 20SM FEW012 BKN018 OVC050 05/04 A3028 RMK SF1SC6SC2 DENSITY ALT -1483FT SLP254,2025-12-01T17:30:01Z,2025-12-01T12:30:01Z
CYQR,2025-12-01T05:00:00Z,2025-12-01T00:00:00Z,VFR,-20,-22,84,170,6,24100,30.01,NA,FEW  ft; BKN  ft,METAR CYQR 010500Z 17006KT 15SM FEW120 BKN250 M20/M22 A3001 RMK AC1CI7 AC TR SLP217,2025-12-01T05:36:01Z,2025-12-01T00:36:01Z
CYQR,2025-12-01T06:00:00Z,2025-12-01T01:00:00Z,VFR,-21,-23,84,170,5,24100,29.99,NA,FEW  ft,METAR CYQR 010600Z 17005KT 15SM FEW250 M21/M23 A2999 RMK CI2 SLP214,2025-12-01T06:45:40Z,2025-12-01T01:45:40Z
CYQR,2025-12-01T07:00:00Z,2025-12-01T02:00:00Z,VFR,-20,-23,77,190,4,24100,29.98,NA,BKN  ft; BKN  ft,METAR CYQR 010700Z 19004KT 15SM BKN092 BKN250 M20/M23 A2998 RMK AC5CI2 SLP210,2025-12-01T07:31:04Z,2025-12-01T02:31:04Z
CYQR,2025-12-01T08:00:00Z,2025-12-01T03:00:00Z,VFR,-21,-24,77,210,5,24100,29.97,NA,FEW  ft; BKN  ft,METAR CYQR 010800Z 21005KT 15SM FEW090 BKN250 M21/M24 A2997 RMK AC1CI5 AC TR SLP206,2025-12-01T08:41:14Z,2025-12-01T03:41:14Z
CYQR,2025-12-01T09:00:00Z,2025-12-01T04:00:00Z,VFR,-20,-22,84,250,6,24100,29.96,NA,FEW  ft; BKN  ft,METAR CYQR 010900Z 25006KT 15SM FEW064 BKN250 M20/M22 A2996 RMK SC1CI5 SC TR SLP202,2025-12-01T09:37:25Z,2025-12-01T04:37:25Z
CYQR,2025-12-01T10:00:00Z,2025-12-01T05:00:00Z,VFR,-17,-20,78,260,8,24100,29.95,NA,OVC  ft,METAR CYQR 011000Z 26008KT 15SM OVC058 M17/M20 A2995 RMK SC8 SLP197,2025-12-01T10:34:25Z,2025-12-01T05:34:25Z
CYQR,2025-12-01T11:00:00Z,2025-12-01T06:00:00Z,VFR,-17,-19,85,280,8,24100,29.95,NA,SCT  ft; BKN  ft,METAR CYQR 011100Z 28008KT 15SM SCT060 BKN250 M17/M19 A2995 RMK SC3CI3 SLP197,2025-12-01T11:27:07Z,2025-12-01T06:27:07Z
CYQR,2025-12-01T12:00:00Z,2025-12-01T07:00:00Z,VFR,-19,-21,84,270,8,24100,29.94,NA,FEW  ft,METAR CYQR 011200Z 27008KT 15SM FEW250 M19/M21 A2994 RMK CI2 SLP198,2025-12-01T12:59:49Z,2025-12-01T07:59:49Z
CYQR,2025-12-01T13:00:00Z,2025-12-01T08:00:00Z,VFR,-19,-21,84,280,8,24100,29.94,NA,FEW  ft,METAR CYQR 011300Z 28008KT 15SM FEW230 M19/M21 A2994 RMK CI1 SLP197,2025-12-01T13:41:29Z,2025-12-01T08:41:29Z
CYQR,2025-12-01T14:10:00Z,2025-12-01T09:10:00Z,MVFR,-19,-21,84,270,7,19300,29.93,NA,BKN  ft,SPECI CYQR 011410Z 27007KT 12SM BKN012 M19/M21 A2993 RMK SC6 SLP196,2025-12-01T14:31:28Z,2025-12-01T09:31:28Z
CYQR,2025-12-01T15:00:00Z,2025-12-01T10:00:00Z,VFR,-17,-20,78,300,9,19300,29.94,NA,FEW  ft; FEW  ft,METAR CYQR 011500Z 30009KT 12SM FEW012 FEW060 M17/M20 A2994 RMK SC1SC1 SLP197,2025-12-01T15:31:42Z,2025-12-01T10:31:42Z
CYQR,2025-12-01T16:00:00Z,2025-12-01T11:00:00Z,VFR,-16,-19,78,290,7,24100,29.92,NA,BKN  ft,METAR CYQR 011600Z 29007KT 15SM BKN260 M16/M19 A2992 RMK CI6 SLP191,2025-12-01T16:39:28Z,2025-12-01T11:39:28Z
CYQR,2025-12-01T17:00:00Z,2025-12-01T12:00:00Z,VFR,-15,-18,78,310,7,24100,29.92,NA,BKN  ft,METAR CYQR 011700Z 31007KT 15SM BKN210 M15/M18 A2992 RMK CI6 SLP190,2025-12-01T17:30:02Z,2025-12-01T12:30:02Z
CYQT,2025-12-01T05:00:00Z,2025-12-01T00:00:00Z,VFR,-9,-15,62,240,4,24100,30.32,NA,OVC  ft,METAR CYQT 010500Z 24004KT 15SM OVC034 M09/M15 A3032 RMK SC8 SLP284,2025-12-01T05:35:59Z,2025-12-01T00:35:59Z
CYQT,2025-12-01T06:00:00Z,2025-12-01T01:00:00Z,VFR,-9,-15,62,250,4,24100,30.31,NA,OVC  ft,METAR CYQT 010600Z 25004KT 15SM OVC036 M09/M15 A3031 RMK SC8 SLP281,2025-12-01T06:45:38Z,2025-12-01T01:45:38Z
CYQT,2025-12-01T07:00:00Z,2025-12-01T02:00:00Z,VFR,-9,-15,62,240,4,24100,30.29,NA,OVC  ft,METAR CYQT 010700Z 24004KT 15SM OVC035 M09/M15 A3029 RMK SC8 SLP276,2025-12-01T07:31:02Z,2025-12-01T02:31:02Z
CYQT,2025-12-01T08:00:00Z,2025-12-01T03:00:00Z,VFR,-9,-15,62,210,5,24100,30.29,NA,OVC  ft,METAR CYQT 010800Z 21005KT 15SM OVC035 M09/M15 A3029 RMK SC8 SLP273,2025-12-01T08:41:13Z,2025-12-01T03:41:13Z
CYQT,2025-12-01T09:00:00Z,2025-12-01T04:00:00Z,VFR,-9,-14,67,230,5,24100,30.27,NA,OVC  ft,METAR CYQT 010900Z 23005KT 15SM OVC033 M09/M14 A3027 RMK SC8 SLP267,2025-12-01T09:37:24Z,2025-12-01T04:37:24Z
CYQT,2025-12-01T10:18:00Z,2025-12-01T05:18:00Z,VFR,-9,-14,67,230,7,24100,30.25,NA,OVC  ft,SPECI CYQT 011018Z 23007KT 15SM -SN OVC031 M09/M14 A3025 RMK SC8 SLP260,2025-12-01T10:34:23Z,2025-12-01T05:34:23Z
CYQT,2025-12-01T11:00:00Z,2025-12-01T06:00:00Z,MVFR,-9,-14,67,230,6,24100,30.23,NA,OVC  ft,METAR CYQT 011100Z 23006KT 15SM -SN OVC030 M09/M14 A3023 RMK SC8 -SN INTMT SLP256,2025-12-01T11:27:05Z,2025-12-01T06:27:05Z
CYQT,2025-12-01T12:00:00Z,2025-12-01T07:00:00Z,MVFR,-9,-14,67,250,9,24100,30.22,NA,OVC  ft,METAR CYQT 011200Z 25009KT 15SM -SN OVC030 M09/M14 A3022 RMK SC8 SLP250,2025-12-01T12:59:47Z,2025-12-01T07:59:47Z
CYQT,2025-12-01T13:00:00Z,2025-12-01T08:00:00Z,VFR,-9,-14,67,220,6,24100,30.2,NA,OVC  ft,METAR CYQT 011300Z 22006KT 15SM -SN OVC031 M09/M14 A3020 RMK SC8 -SN INTMT SLP244,2025-12-01T13:41:27Z,2025-12-01T08:41:27Z
CYQT,2025-12-01T14:00:00Z,2025-12-01T09:00:00Z,VFR,-9,-14,67,240,6,24100,30.19,NA,OVC  ft,METAR CYQT 011400Z 24006KT 15SM -SN OVC032 M09/M14 A3019 RMK SC8 -SN INTMT SLP241,2025-12-01T14:31:26Z,2025-12-01T09:31:26Z
CYQT,2025-12-01T15:00:00Z,2025-12-01T10:00:00Z,VFR,-9,-13,73,250,7,24100,30.17,NA,OVC  ft,METAR CYQT 011500Z 25007KT 15SM -SN OVC036 M09/M13 A3017 RMK SC8 -SN INTMT SLP236,2025-12-01T15:31:40Z,2025-12-01T10:31:40Z
CYQT,2025-12-01T16:00:00Z,2025-12-01T11:00:00Z,VFR,-9,-16,57,260,8,24100,30.16,NA,OVC  ft,METAR CYQT 011600Z 26008G15KT 15SM -SN OVC037 M09/M16 A3016 RMK SC8 SLP233,2025-12-01T16:39:26Z,2025-12-01T11:39:26Z
CYQT,2025-12-01T17:00:00Z,2025-12-01T12:00:00Z,VFR,-9,-16,57,300,9,32200,30.13,NA,OVC  ft,METAR CYQT 011700Z 30009KT 20SM -SN OVC033 M09/M16 A3013 RMK SC8 -SN INTMT SLP222,2025-12-01T17:29:59Z,2025-12-01T12:29:59Z
CYQY,2025-12-01T05:00:00Z,2025-12-01T00:00:00Z,VFR,3,2,93,170,11,24100,30.25,NA,OVC  ft,METAR CYQY 010500Z 17011G17KT 15SM -RA OVC031 03/02 A3025 RMK SC8 PRESFR SLP248,2025-12-01T05:36:03Z,2025-12-01T00:36:03Z
CYQY,2025-12-01T06:00:00Z,2025-12-01T01:00:00Z,MVFR,4,4,100,180,10,24100,30.21,NA,OVC  ft,METAR CYQY 010600Z 18010G16KT 15SM -RA OVC022 04/04 A3021 RMK SC8 SLP235,2025-12-01T06:45:42Z,2025-12-01T01:45:42Z
CYQY,2025-12-01T07:00:00Z,2025-12-01T02:00:00Z,MVFR,5,5,100,170,16,9999,30.16,NA,OVC  ft,METAR CYQY 010700Z 17016G22KT 10SM -RA OVC018 05/05 A3016 RMK SC8 SLP218,2025-12-01T07:31:05Z,2025-12-01T02:31:05Z
CYQY,2025-12-01T08:37:00Z,2025-12-01T03:37:00Z,IFR,6,6,100,180,15,9999,30.1,NA,BKN  ft; OVC  ft,SPECI CYQY 010837Z 18015G20KT 10SM -RA BKN008 OVC014 06/06 A3010 RMK ST6SC2 SLP196,2025-12-01T08:41:16Z,2025-12-01T03:41:16Z
CYQY,2025-12-01T09:00:00Z,2025-12-01T04:00:00Z,IFR,6,6,100,180,15,9999,30.07,NA,OVC  ft,METAR CYQY 010900Z 18015G22KT 10SM -RA OVC008 06/06 A3007 RMK NS8 SLP188,2025-12-01T09:37:27Z,2025-12-01T04:37:27Z
CYQY,2025-12-01T10:00:00Z,2025-12-01T05:00:00Z,IFR,7,7,100,190,15,11300,30.03,NA,OVC  ft,METAR CYQY 011000Z 19015G27KT 7SM -RA OVC007 07/07 A3003 RMK NS8 SLP172,2025-12-01T10:34:26Z,2025-12-01T05:34:26Z
CYQY,2025-12-01T11:13:00Z,2025-12-01T06:13:00Z,IFR,7,7,100,180,17,9999,29.97,NA,OVC  ft,SPECI CYQY 011113Z 18017G27KT 10SM OVC008 07/07 A2997 RMK NS8 SLP154,2025-12-01T11:27:08Z,2025-12-01T06:27:08Z
CYQY,2025-12-01T12:39:00Z,2025-12-01T07:39:00Z,IFR,8,8,100,180,21,11300,29.92,NA,OVC  ft,SPECI CYQY 011239Z CCA 18021G32KT 7SM -RA OVC008 08/08 A2992 RMK SC8 PRESFR SLP135,2025-12-01T12:59:50Z,2025-12-01T07:59:50Z
CYQY,2025-12-01T13:17:00Z,2025-12-01T08:17:00Z,IFR,8,8,100,180,15,8000,29.88,NA,OVC  ft,SPECI CYQY 011317Z 18015G29KT 5SM -RA BR OVC008 08/08 A2988 RMK NS8 PRESFR SLP124,2025-12-01T13:41:31Z,2025-12-01T08:41:31Z
CYQY,2025-12-01T14:22:00Z,2025-12-01T09:22:00Z,IFR,9,9,100,190,24,9999,29.81,NA,OVC  ft,SPECI CYQY 011422Z 19024G36KT 10SM OVC007 09/09 A2981 RMK NS8 PRESFR SLP100,2025-12-01T14:31:29Z,2025-12-01T09:31:29Z
CYQY,2025-12-01T15:00:00Z,2025-12-01T10:00:00Z,IFR,9,9,100,190,17,11300,29.77,NA,OVC  ft,METAR CYQY 011500Z 19017G31KT 7SM -RA OVC008 09/09 A2977 RMK NS8 PRESFR SLP084,2025-12-01T15:31:43Z,2025-12-01T10:31:43Z
CYQY,2025-12-01T16:33:00Z,2025-12-01T11:33:00Z,IFR,8,8,100,290,21,8000,29.74,NA,BKN  ft; OVC  ft,SPECI CYQY 011633Z 29021G37KT 200V310 5SM RA BR BKN008 OVC019 08/08 A2974 RMK NS7SC1 PRESRR SLP074,2025-12-01T16:39:29Z,2025-12-01T11:39:29Z
CYQY,2025-12-01T17:00:00Z,2025-12-01T12:00:00Z,MVFR,7,7,100,290,12,11300,29.75,NA,FEW  ft; OVC  ft,METAR CYQY 011700Z 29012G18KT 7SM FEW008 OVC030 07/07 A2975 RMK NS2SC6 SLP077,2025-12-01T17:30:04Z,2025-12-01T12:30:04Z
CYRB,2025-12-01T05:00:00Z,2025-12-01T00:00:00Z,VFR,-24,-27,76,0,24,32200,29.64,NA,FEW  ft,METAR CYRB 010500Z VRB24KT 20SM IC DRSN FEW080 M24/M27 A2964 RMK AC2 SLP052,2025-12-01T05:36:03Z,2025-12-01T00:36:03Z
CYRB,2025-12-01T06:00:00Z,2025-12-01T01:00:00Z,VFR,-24,-28,70,40,24,24100,29.65,NA,FEW  ft,METAR CYRB 010600Z 04024G30KT 15SM IC DRSN FEW070 M24/M28 A2965 RMK AC1 AC TR SLP054,2025-12-01T06:45:42Z,2025-12-01T01:45:42Z
CYRB,2025-12-01T07:00:00Z,2025-12-01T02:00:00Z,VFR,-22,-25,77,60,30,14500,29.65,NA,SKC  ft,METAR CYRB 010700Z 06030KT 9SM IC DRSN SKC M22/M25 A2965 RMK SLP053,2025-12-01T07:31:05Z,2025-12-01T02:31:05Z
CYRB,2025-12-01T08:00:00Z,2025-12-01T03:00:00Z,VFR,-22,-26,70,40,24,14500,29.67,NA,SCT  ft,METAR CYRB 010800Z 04024G30KT 9SM IC DRSN SCT084 M22/M26 A2967 RMK AC3 SLP059,2025-12-01T08:41:16Z,2025-12-01T03:41:16Z
CYRB,2025-12-01T09:00:00Z,2025-12-01T04:00:00Z,VFR,-22,-25,77,40,21,24100,29.67,NA,BKN  ft,METAR CYRB 010900Z 04021KT 15SM IC DRSN BKN067 M22/M25 A2967 RMK AC6 SLP060,2025-12-01T09:37:27Z,2025-12-01T04:37:27Z
CYRB,2025-12-01T10:00:00Z,2025-12-01T05:00:00Z,VFR,-21,-25,70,30,25,24100,29.68,NA,OVC  ft,METAR CYRB 011000Z 03025KT 15SM IC DRSN OVC070 M21/M25 A2968 RMK AC8 SLP064,2025-12-01T10:34:26Z,2025-12-01T05:34:26Z
CYRB,2025-12-01T11:00:00Z,2025-12-01T06:00:00Z,VFR,-23,-27,70,30,26,24100,29.67,NA,FEW  ft,METAR CYRB 011100Z 03026KT 15SM IC DRSN FEW067 M23/M27 A2967 RMK AC2 SLP060,2025-12-01T11:27:09Z,2025-12-01T06:27:09Z
CYRB,2025-12-01T12:00:00Z,2025-12-01T07:00:00Z,VFR,-22,-26,70,30,29,24100,29.67,NA,SCT  ft,METAR CYRB 011200Z 03029KT 15SM IC DRSN SCT096 M22/M26 A2967 RMK AC3 SLP061,2025-12-01T12:59:50Z,2025-12-01T07:59:50Z
CYRB,2025-12-01T13:00:00Z,2025-12-01T08:00:00Z,VFR,-21,-24,77,30,28,24100,29.69,NA,BKN  ft,METAR CYRB 011300Z 03028KT 15SM IC DRSN BKN092 M21/M24 A2969 RMK AC7 SLP066,2025-12-01T13:41:31Z,2025-12-01T08:41:31Z
CYRB,2025-12-01T14:00:00Z,2025-12-01T09:00:00Z,VFR,-22,-25,77,30,26,19300,29.7,NA,BKN  ft,METAR CYRB 011400Z 03026KT 12SM IC DRSN BKN086 M22/M25 A2970 RMK AC7 SLP071,2025-12-01T14:31:30Z,2025-12-01T09:31:30Z
CYRB,2025-12-01T15:00:00Z,2025-12-01T10:00:00Z,VFR,-21,-25,70,50,30,24100,29.71,NA,OVC  ft,METAR CYRB 011500Z 05030KT 15SM IC DRSN OVC076 M21/M25 A2971 RMK AC8 PRESFR SLP075,2025-12-01T15:31:44Z,2025-12-01T10:31:44Z
CYRB,2025-12-01T16:00:00Z,2025-12-01T11:00:00Z,VFR,-21,-25,70,50,28,32200,29.73,NA,FEW  ft,METAR CYRB 011600Z 05028KT 20SM IC DRSN FEW066 M21/M25 A2973 RMK AC2 SLP079,2025-12-01T16:39:30Z,2025-12-01T11:39:30Z
CYRB,2025-12-01T17:00:00Z,2025-12-01T12:00:00Z,VFR,-21,-25,70,50,26,40200,29.73,NA,FEW  ft,METAR CYRB 011700Z 05026KT 25SM IC DRSN FEW050 M21/M25 A2973 RMK SC2 SLP082,2025-12-01T17:30:04Z,2025-12-01T12:30:04Z
CYRJ,2025-12-01T05:00:00Z,2025-12-01T00:00:00Z,MVFR,-5,-6,93,300,6,8000,29.8,NA,OVC  ft,METAR CYRJ 010500Z 30006KT 5SM -SN OVC063 M05/M06 A2980 RMK SC8 SLP104,2025-12-01T05:36:02Z,2025-12-01T00:36:02Z
CYRJ,2025-12-01T06:10:00Z,2025-12-01T01:10:00Z,IFR,-5,-7,86,300,13,3200,29.82,NA,OVC  ft,SPECI CYRJ 010610Z 30013KT 2SM -SN OVC020 M05/M07 A2982 RMK SC8 SLP112,2025-12-01T06:45:41Z,2025-12-01T01:45:41Z
CYRJ,2025-12-01T07:00:00Z,2025-12-01T02:00:00Z,IFR,-6,-7,93,310,16,1600,29.85,NA,OVC  ft,METAR CYRJ 010700Z 31016G22KT 1SM -SN OVC023 M06/M07 A2985 RMK NS8 SLP124,2025-12-01T07:31:04Z,2025-12-01T02:31:04Z
CYRJ,2025-12-01T08:00:00Z,2025-12-01T03:00:00Z,MVFR,-6,-9,80,310,15,4800,29.9,NA,OVC  ft,METAR CYRJ 010800Z 31015G23KT 3SM -SN OVC032 M06/M09 A2990 RMK NS8 SLP140,2025-12-01T08:41:15Z,2025-12-01T03:41:15Z
CYRJ,2025-12-01T09:00:00Z,2025-12-01T04:00:00Z,MVFR,-7,-11,73,320,17,4800,29.96,NA,OVC  ft,METAR CYRJ 010900Z 32017G23KT 3SM -SN DRSN OVC019 M07/M11 A2996 RMK NS8 PRESRR SLP159,2025-12-01T09:37:26Z,2025-12-01T04:37:26Z
CYRJ,2025-12-01T10:00:00Z,2025-12-01T05:00:00Z,MVFR,-9,-13,73,310,16,19300,30.01,NA,OVC  ft,METAR CYRJ 011000Z 31016G26KT 12SM -SN DRSN OVC017 M09/M13 A3001 RMK NS8 PRESRR SLP178,2025-12-01T10:34:25Z,2025-12-01T05:34:25Z
CYRJ,2025-12-01T11:00:00Z,2025-12-01T06:00:00Z,MVFR,-10,-14,73,310,17,32200,30.07,NA,BKN  ft,METAR CYRJ 011100Z 31017G25KT 20SM -SN BKN022 M10/M14 A3007 RMK SC7 PRESRR SLP199,2025-12-01T11:27:07Z,2025-12-01T06:27:07Z
CYRJ,2025-12-01T12:00:00Z,2025-12-01T07:00:00Z,MVFR,-11,-16,67,300,13,40200,30.12,NA,BKN  ft,METAR CYRJ 011200Z 30013KT 25SM BKN020 M11/M16 A3012 RMK SC5 PRESRR SLP216,2025-12-01T12:59:49Z,2025-12-01T07:59:49Z
CYRJ,2025-12-01T13:34:00Z,2025-12-01T08:34:00Z,MVFR,-11,-16,67,310,18,64400,30.18,NA,BKN  ft,SPECI CYRJ 011334Z 31018G23KT 40SM -SN BKN024 M11/M16 A3018 RMK SC7 SLP235,2025-12-01T13:41:30Z,2025-12-01T08:41:30Z
CYRJ,2025-12-01T14:00:00Z,2025-12-01T09:00:00Z,MVFR,-10,-15,67,300,17,64400,30.2,NA,BKN  ft,METAR CYRJ 011400Z 30017G24KT 40SM -SN DRSN BKN023 M10/M15 A3020 RMK SC7 SLP242,2025-12-01T14:31:29Z,2025-12-01T09:31:29Z
CYRJ,2025-12-01T15:00:00Z,2025-12-01T10:00:00Z,MVFR,-10,-16,62,300,12,40200,30.22,NA,BKN  ft,METAR CYRJ 011500Z 30012G18KT 25SM -SN DRSN BKN024 M10/M16 A3022 RMK SC7 SLP248,2025-12-01T15:31:43Z,2025-12-01T10:31:43Z
CYRJ,2025-12-01T16:00:00Z,2025-12-01T11:00:00Z,MVFR,-10,-15,67,290,12,40200,30.22,NA,BKN  ft,METAR CYRJ 011600Z 29012G17KT 25SM BKN027 M10/M15 A3022 RMK SC6 SLP250,2025-12-01T16:39:29Z,2025-12-01T11:39:29Z
CYRJ,2025-12-01T17:00:00Z,2025-12-01T12:00:00Z,MVFR,-9,-16,57,270,12,64400,30.22,NA,BKN  ft,METAR CYRJ 011700Z 27012G17KT 40SM BKN029 M09/M16 A3022 RMK SC6 SLP247,2025-12-01T17:30:03Z,2025-12-01T12:30:03Z
CYRT,2025-12-01T05:00:00Z,2025-12-01T00:00:00Z,VFR,-30,-33,75,300,16,24100,29.75,NA,SKC  ft,METAR CYRT 010500Z 30016KT 15SM SKC M30/M33 A2975 RMK SLP082,2025-12-01T05:36:03Z,2025-12-01T00:36:03Z
CYRT,2025-12-01T07:00:00Z,2025-12-01T02:00:00Z,VFR,-30,-33,75,330,18,24100,29.75,NA,SKC  ft,METAR CYRT 010700Z 33018KT 15SM SKC M30/M33 A2975 RMK SLP083,2025-12-01T07:31:05Z,2025-12-01T02:31:05Z
CYRT,2025-12-01T08:00:00Z,2025-12-01T03:00:00Z,VFR,-30,-33,75,340,16,24100,29.76,NA,SKC  ft,METAR CYRT 010800Z 34016KT 15SM SKC M30/M33 A2976 RMK SLP086,2025-12-01T08:41:16Z,2025-12-01T03:41:16Z
CYRT,2025-12-01T09:00:00Z,2025-12-01T04:00:00Z,VFR,-31,-34,75,340,14,24100,29.75,NA,SKC  ft,METAR CYRT 010900Z 34014KT 15SM SKC M31/M34 A2975 RMK SLP083,2025-12-01T09:37:27Z,2025-12-01T04:37:27Z
CYRT,2025-12-01T10:00:00Z,2025-12-01T05:00:00Z,VFR,-31,-34,75,330,15,24100,29.76,NA,SKC  ft,METAR CYRT 011000Z 33015KT 15SM SKC M31/M34 A2976 RMK SLP084,2025-12-01T10:34:26Z,2025-12-01T05:34:26Z
CYRT,2025-12-01T11:00:00Z,2025-12-01T06:00:00Z,VFR,-31,-34,75,340,19,24100,29.75,NA,SKC  ft,METAR CYRT 011100Z 34019KT 15SM SKC M31/M34 A2975 RMK SLP081,2025-12-01T11:27:08Z,2025-12-01T06:27:08Z
CYRT,2025-12-01T12:00:00Z,2025-12-01T07:00:00Z,VFR,-31,-34,75,330,17,24100,29.75,NA,SKC  ft,METAR CYRT 011200Z 33017KT 15SM SKC M31/M34 A2975 RMK SLP081,2025-12-01T12:59:50Z,2025-12-01T07:59:50Z
CYRT,2025-12-01T13:00:00Z,2025-12-01T08:00:00Z,VFR,-31,-34,75,330,14,24100,29.74,NA,SKC  ft,METAR CYRT 011300Z 33014KT 15SM SKC M31/M34 A2974 RMK SLP080,2025-12-01T13:41:31Z,2025-12-01T08:41:31Z
CYRT,2025-12-01T14:00:00Z,2025-12-01T09:00:00Z,VFR,-31,-34,75,340,12,9999,29.75,NA,FEW  ft,METAR CYRT 011400Z 34012KT 10SM IC FEW010 M31/M34 A2975 RMK SC1 SLP082,2025-12-01T14:31:29Z,2025-12-01T09:31:29Z
CYRT,2025-12-01T15:00:00Z,2025-12-01T10:00:00Z,VFR,-31,-34,75,330,15,9999,29.73,NA,FEW  ft,METAR CYRT 011500Z 33015KT 10SM IC DRSN FEW010 M31/M34 A2973 RMK SC1 SLP077,2025-12-01T15:31:43Z,2025-12-01T10:31:43Z
CYRT,2025-12-01T16:00:00Z,2025-12-01T11:00:00Z,VFR,-31,-34,75,340,12,9999,29.73,NA,FEW  ft,METAR CYRT 011600Z 34012KT 10SM IC DRSN FEW010 M31/M34 A2973 RMK SC1 SLP075,2025-12-01T16:39:30Z,2025-12-01T11:39:30Z
CYRT,2025-12-01T17:00:00Z,2025-12-01T12:00:00Z,VFR,-31,-34,75,340,14,9999,29.72,NA,FEW  ft,METAR CYRT 011700Z CCA 34014KT 10SM IC DRSN FEW010 M31/M34 A2972 RMK SC1 SLP073,2025-12-01T17:30:04Z,2025-12-01T12:30:04Z
CYSB,2025-12-01T05:00:00Z,2025-12-01T00:00:00Z,MVFR,-11,-15,73,330,9,24100,30.2,NA,OVC  ft,METAR CYSB 010500Z 33009G17KT 15SM -SN DRSN OVC030 M11/M15 A3020 RMK SC8 -SN INTMT SLP252,2025-12-01T05:35:59Z,2025-12-01T00:35:59Z
CYSB,2025-12-01T06:00:00Z,2025-12-01T01:00:00Z,VFR,-11,-16,67,320,8,24100,30.22,NA,OVC  ft,METAR CYSB 010600Z 32008KT 15SM -SN DRSN OVC034 M11/M16 A3022 RMK SC8 -SN INTMT SLP262,2025-12-01T06:45:38Z,2025-12-01T01:45:38Z
CYSB,2025-12-01T07:00:00Z,2025-12-01T02:00:00Z,VFR,-11,-17,62,340,8,24100,30.25,NA,BKN  ft,METAR CYSB 010700Z 34008G16KT 15SM -SN DRSN BKN031 M11/M17 A3025 RMK SC7 SLP271,2025-12-01T07:31:02Z,2025-12-01T02:31:02Z
CYSB,2025-12-01T08:00:00Z,2025-12-01T03:00:00Z,MVFR,-11,-16,67,320,7,24100,30.28,NA,BKN  ft,METAR CYSB 010800Z 32007KT 15SM BKN027 M11/M16 A3028 RMK SC7 SLP280,2025-12-01T08:41:13Z,2025-12-01T03:41:13Z
CYSB,2025-12-01T09:00:00Z,2025-12-01T04:00:00Z,MVFR,-11,-16,67,310,5,24100,30.28,NA,OVC  ft,METAR CYSB 010900Z 31005KT 15SM OVC029 M11/M16 A3028 RMK SC8 SLP281,2025-12-01T09:37:24Z,2025-12-01T04:37:24Z
CYSB,2025-12-01T10:00:00Z,2025-12-01T05:00:00Z,MVFR,-11,-17,62,300,4,24100,30.29,NA,OVC  ft,METAR CYSB 011000Z 30004KT 250V320 15SM OVC028 M11/M17 A3029 RMK SC8 SLP286,2025-12-01T10:34:23Z,2025-12-01T05:34:23Z
CYSB,2025-12-01T11:00:00Z,2025-12-01T06:00:00Z,MVFR,-11,-17,62,270,4,24100,30.29,NA,OVC  ft,METAR CYSB 011100Z 27004KT 15SM OVC026 M11/M17 A3029 RMK SC8 SLP288,2025-12-01T11:27:05Z,2025-12-01T06:27:05Z
CYSB,2025-12-01T12:00:00Z,2025-12-01T07:00:00Z,MVFR,-12,-17,67,260,4,24100,30.32,NA,OVC  ft,METAR CYSB 011200Z 26004KT 220V280 15SM OVC026 M12/M17 A3032 RMK SC8 SLP296,2025-12-01T12:59:48Z,2025-12-01T07:59:48Z
CYSB,2025-12-01T13:00:00Z,2025-12-01T08:00:00Z,VFR,-13,-17,72,0,0,32200,30.31,NA,BKN  ft; BKN  ft,METAR CYSB 011300Z 00000KT 20SM BKN031 BKN110 M13/M17 A3031 RMK SC5AC1 SLP295,2025-12-01T13:41:27Z,2025-12-01T08:41:27Z
CYSB,2025-12-01T14:00:00Z,2025-12-01T09:00:00Z,VFR,-12,-16,72,180,5,32200,30.32,NA,OVC  ft,METAR CYSB 011400Z 18005KT 20SM OVC034 M12/M16 A3032 RMK SC8 SLP298,2025-12-01T14:31:27Z,2025-12-01T09:31:27Z
CYSB,2025-12-01T15:26:00Z,2025-12-01T10:26:00Z,VFR,-11,-16,67,190,6,32200,30.31,NA,OVC  ft,SPECI CYSB 011526Z 19006KT 20SM -SN OVC040 M11/M16 A3031 RMK SC8 SLP295,2025-12-01T15:31:40Z,2025-12-01T10:31:40Z
CYSB,2025-12-01T16:27:00Z,2025-12-01T11:27:00Z,VFR,-10,-15,67,160,9,32200,30.28,NA,OVC  ft,SPECI CYSB 011627Z 16009KT 20SM -SN OVC039 M10/M15 A3028 RMK SC8 SLP283,2025-12-01T16:39:26Z,2025-12-01T11:39:26Z
CYSB,2025-12-01T17:00:00Z,2025-12-01T12:00:00Z,VFR,-10,-15,67,180,9,32200,30.26,NA,OVC  ft,METAR CYSB 011700Z 18009KT 20SM -SN OVC038 M10/M15 A3026 RMK SC8 SLP277,2025-12-01T17:30:00Z,2025-12-01T12:30:00Z
CYTS,2025-12-01T05:00:00Z,2025-12-01T00:00:00Z,MVFR,-12,-16,72,320,13,24100,30.21,NA,OVC  ft,METAR CYTS 010500Z 32013G18KT 15SM OVC027 M12/M16 A3021 RMK SC8 SLP257,2025-12-01T05:35:59Z,2025-12-01T00:35:59Z
CYTS,2025-12-01T06:10:00Z,2025-12-01T01:10:00Z,MVFR,-13,-17,72,320,7,24100,30.23,NA,OVC  ft,SPECI CYTS 010610Z 32007G16KT 15SM -SN OVC026 M13/M17 A3023 RMK SC8 SLP264,2025-12-01T06:45:38Z,2025-12-01T01:45:38Z
CYTS,2025-12-01T07:00:00Z,2025-12-01T02:00:00Z,MVFR,-13,-17,72,320,8,24100,30.24,NA,OVC  ft,METAR CYTS 010700Z 32008KT 15SM -SN OVC024 M13/M17 A3024 RMK SC8 SLP267,2025-12-01T07:31:02Z,2025-12-01T02:31:02Z
CYTS,2025-12-01T08:20:00Z,2025-12-01T03:20:00Z,MVFR,-15,-19,72,270,4,24100,30.27,NA,BKN  ft,SPECI CYTS 010820Z 27004KT 240V300 15SM BKN027 M15/M19 A3027 RMK SC7 SLP279,2025-12-01T08:41:13Z,2025-12-01T03:41:13Z
CYTS,2025-12-01T09:15:00Z,2025-12-01T04:15:00Z,MVFR,-14,-18,72,270,3,24100,30.27,NA,OVC  ft,SPECI CYTS 010915Z 27003KT 230V290 15SM -SN OVC020 M14/M18 A3027 RMK SC8 SLP280,2025-12-01T09:37:24Z,2025-12-01T04:37:24Z
CYTS,2025-12-01T10:00:00Z,2025-12-01T05:00:00Z,MVFR,-14,-17,78,230,6,24100,30.26,NA,OVC  ft,METAR CYTS 011000Z 23006KT 180V270 15SM -SN OVC020 M14/M17 A3026 RMK SC8 SLP276,2025-12-01T10:34:23Z,2025-12-01T05:34:23Z
CYTS,2025-12-01T11:00:00Z,2025-12-01T06:00:00Z,MVFR,-14,-17,78,220,3,24100,30.26,NA,OVC  ft,METAR CYTS 011100Z 22003KT 180V260 15SM -SN OVC021 M14/M17 A3026 RMK SC8 SLP275,2025-12-01T11:27:05Z,2025-12-01T06:27:05Z
CYTS,2025-12-01T12:00:00Z,2025-12-01T07:00:00Z,MVFR,-14,-17,78,200,3,24100,30.26,NA,OVC  ft,METAR CYTS 011200Z 20003KT 15SM -SN OVC022 M14/M17 A3026 RMK SC8 SLP276,2025-12-01T12:59:47Z,2025-12-01T07:59:47Z
CYTS,2025-12-01T13:00:00Z,2025-12-01T08:00:00Z,MVFR,-14,-16,85,180,4,24100,30.25,NA,OVC  ft,METAR CYTS 011300Z 18004KT 15SM -SN OVC027 M14/M16 A3025 RMK SC8 SLP272,2025-12-01T13:41:27Z,2025-12-01T08:41:27Z
CYTS,2025-12-01T14:00:00Z,2025-12-01T09:00:00Z,VFR,-13,-16,78,180,6,24100,30.24,NA,OVC  ft,METAR CYTS 011400Z 18006KT 15SM -SN OVC031 M13/M16 A3024 RMK SC8 SLP269,2025-12-01T14:31:27Z,2025-12-01T09:31:27Z
CYTS,2025-12-01T15:00:00Z,2025-12-01T10:00:00Z,VFR,-12,-15,79,210,4,24100,30.23,NA,OVC  ft,METAR CYTS 011500Z 21004KT 160V220 15SM -SN OVC041 M12/M15 A3023 RMK SC8 SLP266,2025-12-01T15:31:40Z,2025-12-01T10:31:40Z
CYTS,2025-12-01T16:00:00Z,2025-12-01T11:00:00Z,VFR,-12,-14,85,150,5,24100,30.2,NA,OVC  ft,METAR CYTS 011600Z 15005KT 15SM -SN OVC042 M12/M14 A3020 RMK SC8 PRESFR SLP255,2025-12-01T16:39:26Z,2025-12-01T11:39:26Z
CYTS,2025-12-01T17:00:00Z,2025-12-01T12:00:00Z,VFR,-11,-14,79,150,5,9700,30.17,NA,OVC  ft,METAR CYTS 011700Z 15005KT 6SM -SN OVC031 M11/M14 A3017 RMK SC8 PRESFR SLP245,2025-12-01T17:30:00Z,2025-12-01T12:30:00Z
CYUL,2025-12-01T05:11:00Z,2025-12-01T00:11:00Z,MVFR,2,0,87,240,14,9999,29.86,NA,OVC  ft,SPECI CYUL 010511Z 24014G19KT 10SM -RASN OVC011 02/M00 A2986 RMK ST8 SLP115,2025-12-01T05:36:01Z,2025-12-01T00:36:01Z
CYUL,2025-12-01T06:00:00Z,2025-12-01T01:00:00Z,MVFR,2,0,87,250,15,9999,29.87,NA,BKN  ft; OVC  ft,METAR CYUL 010600Z 25015G22KT 10SM -RASN BKN012 OVC025 02/00 A2987 RMK SF7SC1 SLP118,2025-12-01T06:45:40Z,2025-12-01T01:45:40Z
CYUL,2025-12-01T07:17:00Z,2025-12-01T02:17:00Z,VFR,1,-1,87,300,14,24100,29.92,NA,FEW  ft; SCT  ft; BKN  ft,SPECI CYUL 010717Z 30014G21KT 15SM FEW009 SCT045 BKN080 01/M01 A2992 RMK SF1SC3AC2 SF TR PRESRR SLP135,2025-12-01T07:31:04Z,2025-12-01T02:31:04Z
CYUL,2025-12-01T08:00:00Z,2025-12-01T03:00:00Z,VFR,0,-4,75,290,18,24100,29.98,NA,FEW  ft; SCT  ft; SCT  ft,METAR CYUL 010800Z 29018G26KT 15SM FEW009 SCT045 SCT065 M00/M04 A2998 RMK SF1SC3SC1 SF TR SC TR PRESRR SLP155,2025-12-01T08:41:15Z,2025-12-01T03:41:15Z
CYUL,2025-12-01T09:00:00Z,2025-12-01T04:00:00Z,VFR,-1,-5,75,300,13,24100,30.06,NA,SCT  ft; BKN  ft,METAR CYUL 010900Z 30013G24KT 15SM SCT025 BKN032 M01/M05 A3006 RMK SC4SC3 PRESRR SLP182,2025-12-01T09:37:26Z,2025-12-01T04:37:26Z
CYUL,2025-12-01T10:00:00Z,2025-12-01T05:00:00Z,MVFR,-2,-7,69,300,14,24100,30.13,NA,OVC  ft,METAR CYUL 011000Z 30014G21KT 15SM OVC028 M02/M07 A3013 RMK SC8 PRESRR SLP205,2025-12-01T10:34:25Z,2025-12-01T05:34:25Z
CYUL,2025-12-01T11:00:00Z,2025-12-01T06:00:00Z,MVFR,-3,-8,69,300,17,24100,30.18,NA,OVC  ft,METAR CYUL 011100Z 30017G26KT 15SM OVC023 M03/M08 A3018 RMK SC8 PRESRR SLP224,2025-12-01T11:27:07Z,2025-12-01T06:27:07Z
CYUL,2025-12-01T12:00:00Z,2025-12-01T07:00:00Z,VFR,-5,-10,68,310,8,24100,30.24,NA,SCT  ft,METAR CYUL 011200Z 31008G16KT 15SM SCT024 M05/M10 A3024 RMK SC4 SLP245,2025-12-01T12:59:49Z,2025-12-01T07:59:49Z
CYUL,2025-12-01T13:00:00Z,2025-12-01T08:00:00Z,VFR,-6,-11,68,300,13,24100,30.3,NA,FEW  ft,METAR CYUL 011300Z 30013G20KT 15SM FEW025 M06/M11 A3030 RMK SC1 SLP265,2025-12-01T13:41:29Z,2025-12-01T08:41:29Z
CYUL,2025-12-01T14:00:00Z,2025-12-01T09:00:00Z,VFR,-6,-11,68,300,14,24100,30.33,NA,FEW  ft,METAR CYUL 011400Z 30014KT 15SM FEW028 M06/M11 A3033 RMK SC1 SLP276,2025-12-01T14:31:28Z,2025-12-01T09:31:28Z
CYUL,2025-12-01T15:00:00Z,2025-12-01T10:00:00Z,VFR,-6,-12,63,300,14,48300,30.36,NA,FEW  ft; FEW  ft,METAR CYUL 011500Z 30014KT 30SM FEW025 FEW250 M06/M12 A3036 RMK SC1CI1 CI TR SLP285,2025-12-01T15:31:42Z,2025-12-01T10:31:42Z
CYUL,2025-12-01T16:00:00Z,2025-12-01T11:00:00Z,VFR,-6,-12,63,290,11,48300,30.37,NA,SCT  ft; SCT  ft,METAR CYUL 011600Z 29011G16KT 30SM SCT025 SCT250 M06/M12 A3037 RMK SC3CI1 CI TR SLP288,2025-12-01T16:39:28Z,2025-12-01T11:39:28Z
CYUL,2025-12-01T17:00:00Z,2025-12-01T12:00:00Z,MVFR,-6,-11,68,260,12,48300,30.37,NA,BKN  ft,METAR CYUL 011700Z 26012KT 30SM BKN025 M06/M11 A3037 RMK SC6 SLP289,2025-12-01T17:30:02Z,2025-12-01T12:30:02Z
CYUY,2025-12-01T05:00:00Z,2025-12-01T00:00:00Z,VFR,-12,-15,79,330,6,24100,30.12,NA,BKN  ft,METAR CYUY 010500Z 33006KT 15SM -SN BKN033 M12/M15 A3012 RMK SC7 SLP226,2025-12-01T05:36:02Z,2025-12-01T00:36:02Z
CYUY,2025-12-01T06:00:00Z,2025-12-01T01:00:00Z,VFR,-12,-14,85,280,4,24100,30.15,NA,FEW  ft; OVC  ft,METAR CYUY 010600Z 28004KT 15SM -SN FEW018 OVC037 M12/M14 A3015 RMK SC1SC7 SLP235,2025-12-01T06:45:41Z,2025-12-01T01:45:41Z
CYUY,2025-12-01T07:00:00Z,2025-12-01T02:00:00Z,MVFR,-11,-14,79,300,5,19300,30.18,NA,OVC  ft,METAR CYUY 010700Z 30005KT 12SM -SN OVC019 M11/M14 A3018 RMK SC8 SLP245,2025-12-01T07:31:04Z,2025-12-01T02:31:04Z
CYUY,2025-12-01T08:26:00Z,2025-12-01T03:26:00Z,MVFR,-12,-15,79,310,8,4800,30.21,NA,FEW  ft; BKN  ft,SPECI CYUY 010826Z 31008KT 3SM -SHSN FEW005 BKN031 M12/M15 A3021 RMK SC1SC7 SC TR CVCTV CLD EMBD SLP258,2025-12-01T08:41:15Z,2025-12-01T03:41:15Z
CYUY,2025-12-01T09:00:00Z,2025-12-01T04:00:00Z,MVFR,-12,-15,79,330,9,4800,30.23,NA,OVC  ft,METAR CYUY 010900Z 33009KT 3SM -SHSN OVC025 M12/M15 A3023 RMK SC8 CVCTV CLD EMBD /S01/ SLP263,2025-12-01T09:37:26Z,2025-12-01T04:37:26Z
CYUY,2025-12-01T10:00:00Z,2025-12-01T05:00:00Z,MVFR,-14,-18,72,330,5,12900,30.25,NA,OVC  ft,METAR CYUY 011000Z 33005KT 8SM -SHSN OVC030 M14/M18 A3025 RMK SC8 CVCTV CLD EMBD SLP270,2025-12-01T10:34:25Z,2025-12-01T05:34:25Z
CYUY,2025-12-01T11:00:00Z,2025-12-01T06:00:00Z,MVFR,-14,-18,72,280,10,8000,30.27,NA,OVC  ft,METAR CYUY 011100Z 28010G18KT 5SM -SHSN OVC020 M14/M18 A3027 RMK SC8 CVCTV CLD EMBD SLP279,2025-12-01T11:27:07Z,2025-12-01T06:27:07Z
CYUY,2025-12-01T12:51:00Z,2025-12-01T07:51:00Z,MVFR,-16,-19,78,260,5,24100,30.29,NA,BKN  ft,SPECI CYUY 011251Z 26005KT 15SM BKN025 M16/M19 A3029 RMK SC6 SLP287,2025-12-01T12:59:49Z,2025-12-01T07:59:49Z
CYUY,2025-12-01T13:00:00Z,2025-12-01T08:00:00Z,MVFR,-16,-19,78,260,4,24100,30.29,NA,BKN  ft,METAR CYUY 011300Z 26004KT 15SM BKN025 M16/M19 A3029 RMK SC5 SLP289,2025-12-01T13:41:30Z,2025-12-01T08:41:30Z
CYUY,2025-12-01T14:00:00Z,2025-12-01T09:00:00Z,MVFR,-14,-18,72,230,5,24100,30.3,NA,BKN  ft,METAR CYUY 011400Z 23005KT 15SM BKN024 M14/M18 A3030 RMK SC7 SLP291,2025-12-01T14:31:28Z,2025-12-01T09:31:28Z
CYUY,2025-12-01T15:08:00Z,2025-12-01T10:08:00Z,MVFR,-13,-17,72,250,7,24100,30.29,NA,OVC  ft,SPECI CYUY 011508Z 25007KT 15SM -SN OVC022 M13/M17 A3029 RMK SC8 SLP287,2025-12-01T15:31:42Z,2025-12-01T10:31:42Z
CYUY,2025-12-01T16:00:00Z,2025-12-01T11:00:00Z,MVFR,-12,-16,72,220,9,24100,30.26,NA,OVC  ft,METAR CYUY 011600Z 22009KT 15SM -SN OVC028 M12/M16 A3026 RMK SC8 PRESFR SLP275,2025-12-01T16:39:29Z,2025-12-01T11:39:29Z
CYUY,2025-12-01T17:00:00Z,2025-12-01T12:00:00Z,VFR,-11,-15,73,220,8,24100,30.24,NA,OVC  ft,METAR CYUY 011700Z 22008KT 15SM -SN OVC035 M11/M15 A3024 RMK SC8 SLP268,2025-12-01T17:30:03Z,2025-12-01T12:30:03Z
CYVO,2025-12-01T05:09:00Z,2025-12-01T00:09:00Z,MVFR,-13,-15,85,320,8,14500,30.08,NA,SCT  ft; BKN  ft,SPECI CYVO 010509Z AUTO 32008KT 9SM SCT019 BKN027 M13/M15 A3008 RMK SLP219,2025-12-01T05:36:02Z,2025-12-01T00:36:02Z
CYVO,2025-12-01T06:00:00Z,2025-12-01T01:00:00Z,MVFR,-12,-15,79,310,7,14500,30.11,NA,OVC  ft,METAR CYVO 010600Z AUTO 31007KT 280V340 9SM -SN OVC027 M12/M15 A3011 RMK SLP227,2025-12-01T06:45:41Z,2025-12-01T01:45:41Z
CYVO,2025-12-01T07:00:00Z,2025-12-01T02:00:00Z,MVFR,-12,-15,79,290,4,14500,30.14,NA,SCT  ft; BKN  ft; OVC  ft,METAR CYVO 010700Z AUTO 29004KT 9SM -SN SCT020 BKN024 OVC029 M12/M15 A3014 RMK SLP238,2025-12-01T07:31:04Z,2025-12-01T02:31:04Z
CYVO,2025-12-01T08:00:00Z,2025-12-01T03:00:00Z,MVFR,-12,-14,85,290,4,14500,30.17,NA,OVC  ft,METAR CYVO 010800Z AUTO 29004KT 260V330 9SM -SN OVC016 M12/M14 A3017 RMK SLP248,2025-12-01T08:41:15Z,2025-12-01T03:41:15Z
CYVO,2025-12-01T09:14:00Z,2025-12-01T04:14:00Z,MVFR,-12,-14,85,300,6,14500,30.2,NA,BKN  ft; OVC  ft,SPECI CYVO 010914Z AUTO 30006KT 260V330 9SM -SN BKN023 OVC029 M12/M14 A3020 RMK SLP259,2025-12-01T09:37:26Z,2025-12-01T04:37:26Z
CYVO,2025-12-01T10:00:00Z,2025-12-01T05:00:00Z,MVFR,-12,-17,67,310,9,14500,30.2,NA,OVC  ft,METAR CYVO 011000Z AUTO 31009G15KT 270V340 9SM -SN OVC027 M12/M17 A3020 RMK SLP259,2025-12-01T10:34:25Z,2025-12-01T05:34:25Z
CYVO,2025-12-01T11:00:00Z,2025-12-01T06:00:00Z,MVFR,-13,-16,78,320,9,9999,30.23,NA,OVC  ft,METAR CYVO 011100Z 32009KT 10SM OVC025 M13/M16 A3023 RMK SC8 SLP269,2025-12-01T11:27:07Z,2025-12-01T06:27:07Z
CYVO,2025-12-01T12:00:00Z,2025-12-01T07:00:00Z,VFR,-14,-17,78,320,5,9999,30.25,NA,SCT  ft; BKN  ft,METAR CYVO 011200Z 32005KT 10SM SCT020 BKN240 M14/M17 A3025 RMK SC4CI1 SLP278,2025-12-01T12:59:49Z,2025-12-01T07:59:49Z
CYVO,2025-12-01T13:00:00Z,2025-12-01T08:00:00Z,VFR,-17,-19,85,260,3,11300,30.27,NA,FEW  ft; SCT  ft,METAR CYVO 011300Z 26003KT 7SM FEW025 SCT240 M17/M19 A3027 RMK SC2CI1 SLP286,2025-12-01T13:41:30Z,2025-12-01T08:41:30Z
CYVO,2025-12-01T14:00:00Z,2025-12-01T09:00:00Z,MVFR,-15,-18,78,300,4,4800,30.28,NA,BKN  ft; BKN  ft,METAR CYVO 011400Z 30004KT 250V340 3SM -SN BKN020 BKN028 M15/M18 A3028 RMK SC5SC2 SLP288,2025-12-01T14:31:28Z,2025-12-01T09:31:28Z
CYVO,2025-12-01T15:00:00Z,2025-12-01T10:00:00Z,MVFR,-14,-18,72,270,6,24100,30.29,NA,OVC  ft,METAR CYVO 011500Z 27006KT 240V310 15SM OVC021 M14/M18 A3029 RMK SC8 SLP292,2025-12-01T15:31:42Z,2025-12-01T10:31:42Z
CYVO,2025-12-01T16:00:00Z,2025-12-01T11:00:00Z,MVFR,-13,-17,72,260,9,9700,30.29,NA,OVC  ft,METAR CYVO 011600Z 26009G15KT 220V300 6SM VCSH OVC021 M13/M17 A3029 RMK SC8 CVCTV CLD EMBD SLP291,2025-12-01T16:39:28Z,2025-12-01T11:39:28Z
CYVO,2025-12-01T17:00:00Z,2025-12-01T12:00:00Z,MVFR,-13,-16,78,240,8,24100,30.26,NA,OVC  ft,METAR CYVO 011700Z 24008G16KT 15SM -SN OVC021 M13/M16 A3026 RMK SC8 SLP282,2025-12-01T17:30:03Z,2025-12-01T12:30:03Z
CYVR,2025-12-01T05:00:00Z,2025-12-01T00:00:00Z,VFR,5,3,87,0,0,32200,30.33,NA,BKN  ft,METAR CYVR 010500Z 00000KT 20SM BKN120 05/03 A3033 RMK AC7 SLP274,2025-12-01T05:36:00Z,2025-12-01T00:36:00Z
CYVR,2025-12-01T06:00:00Z,2025-12-01T01:00:00Z,VFR,3,2,93,80,4,32200,30.34,NA,FEW  ft; BKN  ft,METAR CYVR 010600Z 08004KT 20SM FEW089 BKN130 03/02 A3034 RMK AC1AC6 SLP276,2025-12-01T06:45:39Z,2025-12-01T01:45:39Z
CYVR,2025-12-01T07:00:00Z,2025-12-01T02:00:00Z,VFR,3,2,93,80,4,32200,30.34,NA,FEW  ft; OVC  ft,METAR CYVR 010700Z 08004KT 20SM FEW083 OVC120 03/02 A3034 RMK AC1AC7 SLP278,2025-12-01T07:31:03Z,2025-12-01T02:31:03Z
CYVR,2025-12-01T08:00:00Z,2025-12-01T03:00:00Z,VFR,3,2,93,80,4,32200,30.34,NA,FEW  ft; BKN  ft; BKN  ft,METAR CYVR 010800Z 08004KT 20SM FEW082 BKN120 BKN160 03/02 A3034 RMK AC1AC4AS2 SLP276,2025-12-01T08:41:14Z,2025-12-01T03:41:14Z
CYVR,2025-12-01T09:00:00Z,2025-12-01T04:00:00Z,VFR,4,3,93,80,3,32200,30.33,NA,FEW  ft; BKN  ft; OVC  ft,METAR CYVR 010900Z 08003KT 20SM FEW085 BKN130 OVC150 04/03 A3033 RMK AC1AC6AS1 SLP273,2025-12-01T09:37:25Z,2025-12-01T04:37:25Z
CYVR,2025-12-01T10:09:00Z,2025-12-01T05:09:00Z,VFR,3,3,100,0,0,32200,30.33,NA,SCT  ft; OVC  ft,SPECI CYVR 011009Z 00000KT 20SM -RA SCT071 OVC100 03/03 A3033 RMK AC4AC4 SLP272,2025-12-01T10:34:24Z,2025-12-01T05:34:24Z
CYVR,2025-12-01T11:00:00Z,2025-12-01T06:00:00Z,VFR,4,3,93,90,3,32200,30.32,NA,FEW  ft; BKN  ft; OVC  ft,METAR CYVR 011100Z 09003KT 20SM -RA FEW055 BKN093 OVC120 04/03 A3032 RMK SC1AC6AC1 SLP270,2025-12-01T11:27:06Z,2025-12-01T06:27:06Z
CYVR,2025-12-01T12:00:00Z,2025-12-01T07:00:00Z,VFR,4,4,100,110,2,32200,30.31,NA,OVC  ft,METAR CYVR 011200Z 11002KT 20SM -RA OVC078 04/04 A3031 RMK AC8 SLP266,2025-12-01T12:59:48Z,2025-12-01T07:59:48Z
CYVR,2025-12-01T13:00:00Z,2025-12-01T08:00:00Z,VFR,4,4,100,110,2,32200,30.3,NA,OVC  ft,METAR CYVR 011300Z 11002KT 20SM -RA OVC074 04/04 A3030 RMK AC8 SLP264,2025-12-01T13:41:28Z,2025-12-01T08:41:28Z
CYVR,2025-12-01T14:00:00Z,2025-12-01T09:00:00Z,VFR,4,4,100,120,4,32200,30.3,NA,OVC  ft,METAR CYVR 011400Z 12004KT 20SM -RA OVC065 04/04 A3030 RMK SC8 SLP262,2025-12-01T14:31:27Z,2025-12-01T09:31:27Z
CYVR,2025-12-01T15:00:00Z,2025-12-01T10:00:00Z,MVFR,4,3,93,110,3,24100,30.31,NA,OVC  ft,METAR CYVR 011500Z 11003KT 15SM -RA OVC028 04/03 A3031 RMK SC8 SLP266,2025-12-01T15:31:41Z,2025-12-01T10:31:41Z
CYVR,2025-12-01T16:00:00Z,2025-12-01T11:00:00Z,MVFR,4,4,100,90,3,32200,30.3,NA,OVC  ft,METAR CYVR 011600Z 09003KT 010V100 20SM -RA OVC021 04/04 A3030 RMK SC8 SLP264,2025-12-01T16:39:27Z,2025-12-01T11:39:27Z
CYVR,2025-12-01T17:00:00Z,2025-12-01T12:00:00Z,VFR,4,4,100,100,5,40200,30.29,NA,FEW  ft; OVC  ft,METAR CYVR 011700Z 10005KT 25SM FEW026 OVC051 04/04 A3029 RMK CU1SC8 CU TR SLP259,2025-12-01T17:30:01Z,2025-12-01T12:30:01Z
CYVV,2025-12-01T05:00:00Z,2025-12-01T00:00:00Z,VFR,-6,-9,80,350,6,19300,30.26,NA,FEW  ft,METAR CYVV 010500Z 35006KT 290V030 12SM FEW022 M06/M09 A3026 RMK SC2 SLP262,2025-12-01T05:35:59Z,2025-12-01T00:35:59Z
CYVV,2025-12-01T06:00:00Z,2025-12-01T01:00:00Z,VFR,-7,-9,86,310,6,19300,30.3,NA,FEW  ft,METAR CYVV 010600Z 31006KT 280V350 12SM FEW020 M07/M09 A3030 RMK SC2 SLP273,2025-12-01T06:45:39Z,2025-12-01T01:45:39Z
CYVV,2025-12-01T07:00:00Z,2025-12-01T02:00:00Z,VFR,-7,-10,79,310,5,19300,30.32,NA,FEW  ft; SCT  ft,METAR CYVV 010700Z 31005KT 270V010 12SM FEW020 SCT250 M07/M10 A3032 RMK SC2CI2 SLP282,2025-12-01T07:31:03Z,2025-12-01T02:31:03Z
CYVV,2025-12-01T08:00:00Z,2025-12-01T03:00:00Z,VFR,-7,-10,79,310,7,19300,30.35,NA,FEW  ft; SCT  ft,METAR CYVV 010800Z 31007KT 280V350 12SM FEW020 SCT250 M07/M10 A3035 RMK SC2CI2 SLP292,2025-12-01T08:41:14Z,2025-12-01T03:41:14Z
CYVV,2025-12-01T09:00:00Z,2025-12-01T04:00:00Z,VFR,-8,-10,86,290,6,19300,30.36,NA,FEW  ft,METAR CYVV 010900Z 29006KT 12SM FEW020 M08/M10 A3036 RMK SC2 SLP296,2025-12-01T09:37:24Z,2025-12-01T04:37:24Z
CYVV,2025-12-01T10:00:00Z,2025-12-01T05:00:00Z,VFR,-8,-11,79,290,5,19300,30.37,NA,FEW  ft,METAR CYVV 011000Z 29005KT 12SM FEW020 M08/M11 A3037 RMK SC2 SLP298,2025-12-01T10:34:24Z,2025-12-01T05:34:24Z
CYVV,2025-12-01T11:00:00Z,2025-12-01T06:00:00Z,VFR,-7,-11,73,320,4,19300,30.37,NA,SCT  ft,METAR CYVV 011100Z 32004KT 290V360 12SM SCT020 M07/M11 A3037 RMK SC3 SLP300,2025-12-01T11:27:05Z,2025-12-01T06:27:05Z
CYVV,2025-12-01T12:00:00Z,2025-12-01T07:00:00Z,VFR,-7,-11,73,50,3,19300,30.38,NA,FEW  ft; FEW  ft,METAR CYVV 011200Z CCA 05003KT 310V070 12SM FEW020 FEW044 M07/M11 A3038 RMK SC1SC1 SLP302,2025-12-01T12:59:48Z,2025-12-01T07:59:48Z
CYVV,2025-12-01T13:00:00Z,2025-12-01T08:00:00Z,VFR,-10,-11,92,120,3,24100,30.38,NA,BKN  ft,METAR CYVV 011300Z 12003KT 100V190 15SM BKN042 M10/M11 A3038 RMK SC7 SLP305,2025-12-01T13:41:27Z,2025-12-01T08:41:27Z
CYVV,2025-12-01T14:17:00Z,2025-12-01T09:17:00Z,VFR,-8,-10,86,150,4,20900,30.37,NA,FEW  ft; OVC  ft,SPECI CYVV 011417Z 15004KT 13SM -SN FEW012 OVC042 M08/M10 A3037 RMK SF1SC8 SF TR SLP302,2025-12-01T14:31:27Z,2025-12-01T09:31:27Z
CYVV,2025-12-01T15:00:00Z,2025-12-01T10:00:00Z,VFR,-6,-9,80,150,6,24100,30.38,NA,FEW  ft; OVC  ft,METAR CYVV 011500Z 15006KT 15SM -SN FEW012 OVC041 M06/M09 A3038 RMK SF1SC8 SF TR SLP302,2025-12-01T15:31:41Z,2025-12-01T10:31:41Z
CYVV,2025-12-01T16:25:00Z,2025-12-01T11:25:00Z,IFR,-5,-7,86,190,8,1600,30.36,NA,OVC  ft,SPECI CYVV 011625Z 19008KT 1SM -SN OVC040 M05/M07 A3036 RMK SN3SC5 SLP295,2025-12-01T16:39:27Z,2025-12-01T11:39:27Z
CYVV,2025-12-01T17:00:00Z,2025-12-01T12:00:00Z,VFR,-5,-8,80,190,8,9999,30.34,NA,OVC  ft,METAR CYVV 011700Z 19008KT 10SM -SN OVC040 M05/M08 A3034 RMK SC8 SLP291,2025-12-01T17:30:00Z,2025-12-01T12:30:00Z
CYWG,2025-12-01T05:00:00Z,2025-12-01T00:00:00Z,VFR,-13,-17,72,220,10,24100,30.24,NA,FEW  ft,METAR CYWG 010500Z 22010KT 15SM FEW250 M13/M17 A3024 RMK CI1 CI TR SLP262,2025-12-01T05:36:01Z,2025-12-01T00:36:01Z
CYWG,2025-12-01T06:00:00Z,2025-12-01T01:00:00Z,VFR,-14,-17,78,210,11,24100,30.22,NA,SKC  ft,METAR CYWG 010600Z 21011KT 15SM SKC M14/M17 A3022 RMK SLP257,2025-12-01T06:45:40Z,2025-12-01T01:45:40Z
CYWG,2025-12-01T07:00:00Z,2025-12-01T02:00:00Z,VFR,-15,-18,78,210,13,24100,30.19,NA,SKC  ft,METAR CYWG 010700Z 21013KT 15SM SKC M15/M18 A3019 RMK SLP248,2025-12-01T07:31:04Z,2025-12-01T02:31:04Z
CYWG,2025-12-01T08:00:00Z,2025-12-01T03:00:00Z,VFR,-15,-18,78,210,15,22500,30.17,NA,BKN  ft,METAR CYWG 010800Z 21015KT 14SM BKN250 M15/M18 A3017 RMK CI5 SLP239,2025-12-01T08:41:15Z,2025-12-01T03:41:15Z
CYWG,2025-12-01T09:00:00Z,2025-12-01T04:00:00Z,VFR,-15,-18,78,210,13,19300,30.15,NA,OVC  ft,METAR CYWG 010900Z 21013KT 12SM OVC230 M15/M18 A3015 RMK CI8 SLP232,2025-12-01T09:37:26Z,2025-12-01T04:37:26Z
CYWG,2025-12-01T10:00:00Z,2025-12-01T05:00:00Z,VFR,-16,-19,78,210,10,9999,30.12,NA,OVC  ft,METAR CYWG 011000Z 21010KT 10SM OVC190 M16/M19 A3012 RMK AC8 SLP222,2025-12-01T10:34:25Z,2025-12-01T05:34:25Z
CYWG,2025-12-01T11:00:00Z,2025-12-01T06:00:00Z,VFR,-16,-19,78,210,12,20900,30.1,NA,OVC  ft,METAR CYWG 011100Z 21012KT 13SM OVC170 M16/M19 A3010 RMK AC8 SLP217,2025-12-01T11:27:07Z,2025-12-01T06:27:07Z
CYWG,2025-12-01T12:00:00Z,2025-12-01T07:00:00Z,VFR,-16,-19,78,200,11,20900,30.06,NA,OVC  ft,METAR CYWG 011200Z 20011KT 13SM OVC150 M16/M19 A3006 RMK AC8 SLP205,2025-12-01T12:59:49Z,2025-12-01T07:59:49Z
CYWG,2025-12-01T13:00:00Z,2025-12-01T08:00:00Z,VFR,-16,-19,78,190,10,22500,30.05,NA,SCT  ft,METAR CYWG 011300Z 19010KT 14SM SCT130 M16/M19 A3005 RMK AC3 SLP200,2025-12-01T13:41:29Z,2025-12-01T08:41:29Z
CYWG,2025-12-01T14:00:00Z,2025-12-01T09:00:00Z,VFR,-16,-19,78,190,11,20900,30.03,NA,BKN  ft,METAR CYWG 011400Z 19011G16KT 13SM BKN120 M16/M19 A3003 RMK AC6 SLP194,2025-12-01T14:31:28Z,2025-12-01T09:31:28Z
CYWG,2025-12-01T15:00:00Z,2025-12-01T10:00:00Z,VFR,-16,-18,85,190,10,24100,30.02,NA,BKN  ft,METAR CYWG 011500Z 19010KT 15SM BKN120 M16/M18 A3002 RMK AC6 SLP191,2025-12-01T15:31:42Z,2025-12-01T10:31:42Z
CYWG,2025-12-01T16:00:00Z,2025-12-01T11:00:00Z,VFR,-15,-18,78,200,11,24100,30.01,NA,BKN  ft,METAR CYWG 011600Z 20011KT 15SM BKN120 M15/M18 A3001 RMK AC7 SLP187,2025-12-01T16:39:28Z,2025-12-01T11:39:28Z
CYWG,2025-12-01T17:00:00Z,2025-12-01T12:00:00Z,VFR,-14,-17,78,190,9,24100,29.99,NA,BKN  ft,METAR CYWG 011700Z 19009KT 15SM BKN110 M14/M17 A2999 RMK AC7 SLP181,2025-12-01T17:30:02Z,2025-12-01T12:30:02Z
CYXE,2025-12-01T05:00:00Z,2025-12-01T00:00:00Z,VFR,-20,-22,84,240,6,24100,29.98,NA,SCT  ft,METAR CYXE 010500Z 24006KT 15SM SCT060 M20/M22 A2998 RMK SC3 SLP205,2025-12-01T05:36:01Z,2025-12-01T00:36:01Z
CYXE,2025-12-01T06:00:00Z,2025-12-01T01:00:00Z,VFR,-21,-23,84,230,7,24100,29.98,NA,SCT  ft,METAR CYXE 010600Z 23007KT 15SM SCT060 M21/M23 A2998 RMK SC4 SLP204,2025-12-01T06:45:40Z,2025-12-01T01:45:40Z
CYXE,2025-12-01T07:00:00Z,2025-12-01T02:00:00Z,VFR,-20,-22,84,250,7,24100,29.98,NA,SCT  ft,METAR CYXE 010700Z 25007KT 15SM SCT060 M20/M22 A2998 RMK SC3 SLP203,2025-12-01T07:31:04Z,2025-12-01T02:31:04Z
CYXE,2025-12-01T08:00:00Z,2025-12-01T03:00:00Z,VFR,-23,-25,84,280,8,24100,29.98,NA,FEW  ft,METAR CYXE 010800Z 28008KT 15SM FEW060 M23/M25 A2998 RMK SC2 SLP207,2025-12-01T08:41:14Z,2025-12-01T03:41:14Z
CYXE,2025-12-01T09:00:00Z,2025-12-01T04:00:00Z,VFR,-22,-24,84,290,7,24100,29.98,NA,FEW  ft,METAR CYXE 010900Z 29007KT 15SM FEW060 M22/M24 A2998 RMK SC1 SLP204,2025-12-01T09:37:25Z,2025-12-01T04:37:25Z
CYXE,2025-12-01T10:00:00Z,2025-12-01T05:00:00Z,VFR,-22,-24,84,280,7,24100,29.98,NA,SCT  ft,METAR CYXE 011000Z 28007KT 15SM SCT060 M22/M24 A2998 RMK SC4 SLP207,2025-12-01T10:34:25Z,2025-12-01T05:34:25Z
CYXE,2025-12-01T11:00:00Z,2025-12-01T06:00:00Z,VFR,-23,-25,84,290,8,24100,29.97,NA,FEW  ft; SCT  ft,METAR CYXE 011100Z 29008KT 15SM FEW010 SCT060 M23/M25 A2997 RMK SC1SC3 SLP204,2025-12-01T11:27:06Z,2025-12-01T06:27:06Z
CYXE,2025-12-01T12:15:00Z,2025-12-01T07:15:00Z,MVFR,-22,-24,84,340,3,24100,29.97,NA,FEW  ft; OVC  ft,SPECI CYXE 011215Z 34003KT 15SM FEW004 OVC010 M22/M24 A2997 RMK SF2SC6 SLP203,2025-12-01T12:59:49Z,2025-12-01T07:59:49Z
CYXE,2025-12-01T13:00:00Z,2025-12-01T08:00:00Z,IFR,-23,-26,77,250,4,24100,29.97,NA,OVC  ft,METAR CYXE 011300Z 25004KT 15SM OVC007 M23/M26 A2997 RMK SC8 SLP204,2025-12-01T13:41:29Z,2025-12-01T08:41:29Z
CYXE,2025-12-01T14:00:00Z,2025-12-01T09:00:00Z,IFR,-22,-24,84,250,5,24100,29.97,NA,SCT  ft; OVC  ft,METAR CYXE 011400Z 25005KT 15SM SCT002 OVC007 M22/M24 A2997 RMK SF4SC4 SLP201,2025-12-01T14:31:28Z,2025-12-01T09:31:28Z
CYXE,2025-12-01T15:22:00Z,2025-12-01T10:22:00Z,LIFR,-19,-21,84,260,6,800,29.95,NA,OVC  ft,SPECI CYXE 011522Z 26006KT 1/2SM R09/2000V2200FT/N FZFG OVC002 M19/M21 A2995 RMK ST8 SLP195,2025-12-01T15:31:42Z,2025-12-01T10:31:42Z
CYXE,2025-12-01T16:26:00Z,2025-12-01T11:26:00Z,LIFR,-19,-21,84,240,5,9700,29.94,NA,BKN  ft; OVC  ft,SPECI CYXE 011626Z 24005KT 6SM BR BKN004 OVC110 M19/M21 A2994 RMK ST6AC2 SLP192,2025-12-01T16:39:28Z,2025-12-01T11:39:28Z
CYXE,2025-12-01T17:00:00Z,2025-12-01T12:00:00Z,IFR,-18,-20,84,230,4,8000,29.93,NA,BKN  ft; OVC  ft,METAR CYXE 011700Z 23004KT 5SM BR BKN005 OVC110 M18/M20 A2993 RMK ST5AC3 SLP189,2025-12-01T17:30:02Z,2025-12-01T12:30:02Z
CYXS,2025-12-01T05:00:00Z,2025-12-01T00:00:00Z,VFR,-4,-6,86,180,7,14500,30.17,NA,OVC  ft,METAR CYXS 010500Z AUTO 18007G15KT 9SM OVC031 M04/M06 A3017 RMK SLP263,2025-12-01T05:36:00Z,2025-12-01T00:36:00Z
CYXS,2025-12-01T06:00:00Z,2025-12-01T01:00:00Z,MVFR,-4,-6,86,160,7,14500,30.16,NA,OVC  ft,METAR CYXS 010600Z AUTO 16007KT 9SM OVC025 M04/M06 A3016 RMK SLP259,2025-12-01T06:45:39Z,2025-12-01T01:45:39Z
CYXS,2025-12-01T07:27:00Z,2025-12-01T02:27:00Z,MVFR,-4,-6,86,170,5,14500,30.14,NA,BKN  ft; OVC  ft,SPECI CYXS 010727Z AUTO 17005KT 9SM -SN BKN029 OVC048 M04/M06 A3014 RMK SLP250,2025-12-01T07:31:03Z,2025-12-01T02:31:03Z
CYXS,2025-12-01T08:00:00Z,2025-12-01T03:00:00Z,VFR,-3,-6,80,180,9,14500,30.13,NA,SCT  ft; OVC  ft,METAR CYXS 010800Z AUTO 18009KT 9SM -SN SCT034 OVC044 M03/M06 A3013 RMK SLP247,2025-12-01T08:41:14Z,2025-12-01T03:41:14Z
CYXS,2025-12-01T09:00:00Z,2025-12-01T04:00:00Z,MVFR,-3,-6,80,190,9,14500,30.1,NA,BKN  ft; OVC  ft,METAR CYXS 010900Z AUTO 19009KT 9SM -SN BKN026 OVC034 M03/M06 A3010 RMK SLP237,2025-12-01T09:37:25Z,2025-12-01T04:37:25Z
CYXS,2025-12-01T10:17:00Z,2025-12-01T05:17:00Z,IFR,-3,-4,93,180,10,1600,30.08,NA,FEW  ft; BKN  ft; OVC  ft,SPECI CYXS 011017Z AUTO 18010G17KT 1SM -SN FEW005 BKN011 OVC019 M03/M04 A3008 RMK SLP227,2025-12-01T10:34:24Z,2025-12-01T05:34:24Z
CYXS,2025-12-01T11:13:00Z,2025-12-01T06:13:00Z,LIFR,-3,-4,93,170,10,1200,30.05,NA,FEW  ft; BKN  ft; OVC  ft,SPECI CYXS 011113Z AUTO 17010G17KT 3/4SM -SN FEW005 BKN011 OVC019 M03/M04 A3005 RMK PRESFR SLP218,2025-12-01T11:27:06Z,2025-12-01T06:27:06Z
CYXS,2025-12-01T12:54:00Z,2025-12-01T07:54:00Z,IFR,-3,-3,100,180,10,3200,30.03,NA,FEW  ft; SCT  ft; OVC  ft,SPECI CYXS 011254Z AUTO 18010G15KT 2SM -SN FEW008 SCT012 OVC020 M03/M03 A3003 RMK SLP210,2025-12-01T12:59:48Z,2025-12-01T07:59:48Z
CYXS,2025-12-01T13:32:00Z,2025-12-01T08:32:00Z,IFR,-3,-3,100,180,11,3200,30.02,NA,FEW  ft; OVC  ft,SPECI CYXS 011332Z AUTO 18011G16KT 2SM -SN FEW010 OVC022 M03/M03 A3002 RMK SLP208,2025-12-01T13:41:28Z,2025-12-01T08:41:28Z
CYXS,2025-12-01T14:11:00Z,2025-12-01T09:11:00Z,IFR,-3,-3,100,190,10,3600,30.01,NA,FEW  ft; OVC  ft,SPECI CYXS 011411Z AUTO 19010G16KT 2 1/4SM -SN FEW008 OVC020 M03/M03 A3001 RMK SLP202,2025-12-01T14:31:27Z,2025-12-01T09:31:27Z
CYXS,2025-12-01T15:28:00Z,2025-12-01T10:28:00Z,MVFR,-2,-3,93,180,15,9700,29.97,NA,FEW  ft; SCT  ft; OVC  ft,SPECI CYXS 011528Z AUTO 18015G21KT 6SM -SN FEW008 SCT012 OVC021 M02/M03 A2997 RMK SLP188,2025-12-01T15:31:41Z,2025-12-01T10:31:41Z
CYXS,2025-12-01T16:30:00Z,2025-12-01T11:30:00Z,VFR,-2,-3,93,180,16,14500,29.95,NA,OVC  ft,SPECI CYXS 011630Z AUTO 18016G24KT 9SM OVC031 M02/M03 A2995 RMK SLP183,2025-12-01T16:39:27Z,2025-12-01T11:39:27Z
CYXS,2025-12-01T17:00:00Z,2025-12-01T12:00:00Z,VFR,-2,-3,93,190,15,14500,29.94,NA,OVC  ft,METAR CYXS 011700Z AUTO 19015G22KT 9SM OVC033 M02/M03 A2994 RMK SLP179,2025-12-01T17:30:01Z,2025-12-01T12:30:01Z
CYXT,2025-12-01T05:00:00Z,2025-12-01T00:00:00Z,IFR,-1,-1,100,70,3,3200,30.2,NA,FEW  ft; OVC  ft,METAR CYXT 010500Z CCA 07003KT 010V090 2SM -FZDZ BR FEW002 OVC006 M01/M01 A3020 RMK SF1ST8 SF TR ICE ON INDICATOR SLP240,2025-12-01T05:36:00Z,2025-12-01T00:36:00Z
CYXT,2025-12-01T06:24:00Z,2025-12-01T01:24:00Z,LIFR,-1,-1,100,0,2,3200,30.17,NA,OVC  ft,SPECI CYXT 010624Z VRB02KT 2SM -SN BR OVC004 M01/M01 A3017 RMK SC8 SLP229,2025-12-01T06:45:39Z,2025-12-01T01:45:39Z
CYXT,2025-12-01T07:00:00Z,2025-12-01T02:00:00Z,LIFR,-1,-1,100,50,2,3200,30.15,NA,OVC  ft,METAR CYXT 010700Z 05002KT 2SM -SN BR OVC004 M01/M01 A3015 RMK SC8 ICE ON INDICATOR SLP225,2025-12-01T07:31:03Z,2025-12-01T02:31:03Z
CYXT,2025-12-01T08:00:00Z,2025-12-01T03:00:00Z,LIFR,-1,-1,100,10,3,3200,30.14,NA,OVC  ft,METAR CYXT 010800Z 01003KT 2SM -SN BR OVC004 M01/M01 A3014 RMK SC8 SLP220,2025-12-01T08:41:14Z,2025-12-01T03:41:14Z
CYXT,2025-12-01T09:00:00Z,2025-12-01T04:00:00Z,LIFR,-1,-1,100,80,2,3200,30.14,NA,OVC  ft,METAR CYXT 010900Z 08002KT 2SM -SN BR OVC004 M01/M01 A3014 RMK SC8 SLP219,2025-12-01T09:37:25Z,2025-12-01T04:37:25Z
CYXT,2025-12-01T10:00:00Z,2025-12-01T05:00:00Z,LIFR,0,0,100,50,3,3200,30.1,NA,OVC  ft,METAR CYXT 011000Z 05003KT 2SM -FZDZ BR OVC003 M00/M00 A3010 RMK ST8 ICE ON INDICATOR SLP205,2025-12-01T10:34:24Z,2025-12-01T05:34:24Z
CYXT,2025-12-01T11:00:00Z,2025-12-01T06:00:00Z,LIFR,0,0,100,0,0,3200,30.1,NA,BKN  ft; OVC  ft,METAR CYXT 011100Z 00000KT 2SM -FZDZ BR BKN003 OVC008 M00/M00 A3010 RMK ST6SC2 SLP205,2025-12-01T11:27:06Z,2025-12-01T06:27:06Z
CYXT,2025-12-01T12:13:00Z,2025-12-01T07:13:00Z,LIFR,1,1,100,180,4,3200,30.06,NA,BKN  ft; OVC  ft,SPECI CYXT 011213Z 18004KT 2SM -DZ BR BKN002 OVC005 01/01 A3006 RMK ST5SC3 SLP193,2025-12-01T12:59:48Z,2025-12-01T07:59:48Z
CYXT,2025-12-01T13:21:00Z,2025-12-01T08:21:00Z,LIFR,0,0,100,150,2,1200,30.06,NA,OVC  ft,SPECI CYXT 011321Z 15002KT 3/4SM -DZ BR OVC002 00/00 A3006 RMK ST8 SLP192,2025-12-01T13:41:28Z,2025-12-01T08:41:28Z
CYXT,2025-12-01T14:23:00Z,2025-12-01T09:23:00Z,LIFR,0,0,100,0,0,1200,30.03,NA,OVC  ft,SPECI CYXT 011423Z 00000KT 3/4SM -FZDZ BR OVC002 M00/M00 A3003 RMK SF8 SLP183,2025-12-01T14:31:27Z,2025-12-01T09:31:27Z
CYXT,2025-12-01T15:00:00Z,2025-12-01T10:00:00Z,LIFR,0,0,100,0,2,1200,30.02,NA,OVC  ft,METAR CYXT 011500Z VRB02KT 3/4SM -DZ BR OVC003 00/00 A3002 RMK FG2SF6 SLP180,2025-12-01T15:31:41Z,2025-12-01T10:31:41Z
CYXT,2025-12-01T16:09:00Z,2025-12-01T11:09:00Z,LIFR,1,1,100,120,4,NA,30.01,NA,OVX  ft,SPECI CYXT 011609Z 12004KT 3/4SM -RA BR VV003 01/01 A3001 RMK FG8 SLP174,2025-12-01T16:39:27Z,2025-12-01T11:39:27Z
CYXT,2025-12-01T17:21:00Z,2025-12-01T12:21:00Z,LIFR,0,0,100,0,0,NA,30.01,NA,OVX  ft,SPECI CYXT 011721Z 00000KT 1/4SM FG VV002 00/00 A3001 RMK FG8 SLP174,2025-12-01T17:30:01Z,2025-12-01T12:30:01Z
CYXY,2025-12-01T05:00:00Z,2025-12-01T00:00:00Z,VFR,-4,-5,93,170,22,24100,29.55,NA,FEW  ft; FEW  ft; SCT  ft,METAR CYXY 010500Z 17022KT 15SM DRSN FEW008 FEW015 SCT055 M04/M05 A2955 RMK ST1ST1SC3 ST TR ST TR LOW CLD SE PRESFR SLP055,2025-12-01T05:36:03Z,2025-12-01T00:36:03Z
CYXY,2025-12-01T06:00:00Z,2025-12-01T01:00:00Z,VFR,-3,-4,93,180,17,24100,29.55,NA,FEW  ft; FEW  ft; SCT  ft,METAR CYXY 010600Z 18017G23KT 15SM DRSN FEW008 FEW015 SCT067 M03/M04 A2955 RMK ST1ST1AC3 ST TR ST TR SLP055,2025-12-01T06:45:42Z,2025-12-01T01:45:42Z
CYXY,2025-12-01T07:00:00Z,2025-12-01T02:00:00Z,VFR,-3,-4,93,170,23,24100,29.54,NA,FEW  ft; FEW  ft,METAR CYXY 010700Z 17023KT 15SM DRSN FEW008 FEW060 M03/M04 A2954 RMK ST1SC1 ST TR SLP049,2025-12-01T07:31:05Z,2025-12-01T02:31:05Z
CYXY,2025-12-01T08:00:00Z,2025-12-01T03:00:00Z,VFR,-3,-4,93,170,19,24100,29.52,NA,FEW  ft; FEW  ft,METAR CYXY 010800Z 17019KT 15SM DRSN FEW008 FEW050 M03/M04 A2952 RMK ST1SC1 ST TR SLP044,2025-12-01T08:41:16Z,2025-12-01T03:41:16Z
CYXY,2025-12-01T09:00:00Z,2025-12-01T04:00:00Z,VFR,-3,-4,93,180,20,24100,29.5,NA,FEW  ft; FEW  ft; FEW  ft,METAR CYXY 010900Z 18020KT 15SM DRSN FEW008 FEW060 FEW260 M03/M04 A2950 RMK ST1SC1CI2 ST TR SLP037,2025-12-01T09:37:27Z,2025-12-01T04:37:27Z
CYXY,2025-12-01T10:00:00Z,2025-12-01T05:00:00Z,VFR,-2,-4,86,190,12,24100,29.49,NA,SCT  ft; OVC  ft,METAR CYXY 011000Z 19012KT 15SM DRSN SCT050 OVC200 M02/M04 A2949 RMK SC4CS4 OBS TAKEN +7 SLP031,2025-12-01T10:34:26Z,2025-12-01T05:34:26Z
CYXY,2025-12-01T11:00:00Z,2025-12-01T06:00:00Z,VFR,-2,-3,93,160,17,24100,29.48,NA,OVC  ft,METAR CYXY 011100Z 16017G23KT 15SM DRSN OVC180 M02/M03 A2948 RMK AC8 SLP026,2025-12-01T11:27:08Z,2025-12-01T06:27:08Z
CYXY,2025-12-01T12:00:00Z,2025-12-01T07:00:00Z,VFR,0,-2,87,170,14,24100,29.48,NA,FEW  ft; FEW  ft; OVC  ft,METAR CYXY 011200Z CCA 17014G19KT 15SM DRSN FEW008 FEW061 OVC160 M00/M02 A2948 RMK ST1SC2AC6 ST TR SLP024,2025-12-01T12:59:50Z,2025-12-01T07:59:50Z
CYXY,2025-12-01T13:00:00Z,2025-12-01T08:00:00Z,VFR,-1,-2,93,180,14,24100,29.47,NA,FEW  ft; FEW  ft; BKN  ft,METAR CYXY 011300Z 18014KT 15SM DRSN FEW008 FEW055 BKN110 M01/M02 A2947 RMK ST1SC2AC5 ST TR SLP021,2025-12-01T13:41:31Z,2025-12-01T08:41:31Z
CYXY,2025-12-01T14:00:00Z,2025-12-01T09:00:00Z,VFR,0,-2,87,200,8,24100,29.47,NA,FEW  ft; FEW  ft; BKN  ft,METAR CYXY 011400Z 20008KT 15SM DRSN FEW008 FEW055 BKN150 M00/M02 A2947 RMK ST1SC1AC7 ST TR SC TR SLP020,2025-12-01T14:31:29Z,2025-12-01T09:31:29Z
CYXY,2025-12-01T15:00:00Z,2025-12-01T10:00:00Z,VFR,0,-2,87,200,8,24100,29.47,NA,FEW  ft; FEW  ft; BKN  ft,METAR CYXY 011500Z 20008KT 15SM DRSN FEW008 FEW055 BKN160 M00/M02 A2947 RMK ST1SC1AC6 ST TR SLP022,2025-12-01T15:31:43Z,2025-12-01T10:31:43Z
CYXY,2025-12-01T16:00:00Z,2025-12-01T11:00:00Z,VFR,0,-2,87,230,4,24100,29.49,NA,SCT  ft; BKN  ft; BKN  ft,METAR CYXY 011600Z 23004KT 170V250 15SM SCT055 BKN160 BKN220 M00/M02 A2949 RMK SC4AC1CI2 SLP029,2025-12-01T16:39:29Z,2025-12-01T11:39:29Z
CYXY,2025-12-01T17:00:00Z,2025-12-01T12:00:00Z,VFR,0,-2,87,170,3,24100,29.51,NA,FEW  ft; SCT  ft; BKN  ft; BKN  ft,METAR CYXY 011700Z 17003KT 080V190 15SM FEW004 SCT054 BKN160 BKN190 M00/M02 A2951 RMK ST1SC4AC1CI2 ST TR SLP035,2025-12-01T17:30:04Z,2025-12-01T12:30:04Z
CYYB,2025-12-01T05:00:00Z,2025-12-01T00:00:00Z,MVFR,-11,-14,79,330,14,14500,30.14,NA,OVC  ft,METAR CYYB 010500Z AUTO 33014G23KT 9SM -SN OVC019 M11/M14 A3014 RMK SLP235,2025-12-01T05:35:59Z,2025-12-01T00:35:59Z
CYYB,2025-12-01T06:39:00Z,2025-12-01T01:39:00Z,VFR,-13,-16,78,310,5,14500,30.21,NA,BKN  ft,SPECI CYYB 010639Z AUTO 31005KT 9SM BKN031 M13/M16 A3021 RMK ICE PAST HR RVR MISG SLP263,2025-12-01T06:45:38Z,2025-12-01T01:45:38Z
CYYB,2025-12-01T07:00:00Z,2025-12-01T02:00:00Z,VFR,-13,-15,85,300,4,14500,30.22,NA,OVC  ft,METAR CYYB 010700Z AUTO 30004KT 9SM OVC031 M13/M15 A3022 RMK ICE PAST HR SLP262,2025-12-01T07:31:03Z,2025-12-01T02:31:03Z
CYYB,2025-12-01T08:31:00Z,2025-12-01T03:31:00Z,MVFR,-12,-15,79,280,5,14500,30.26,NA,OVC  ft,SPECI CYYB 010831Z AUTO 28005KT 9SM OVC029 M12/M15 A3026 RMK RVR MISG SLP281,2025-12-01T08:41:13Z,2025-12-01T03:41:13Z
CYYB,2025-12-01T09:22:00Z,2025-12-01T04:22:00Z,MVFR,-12,-15,79,290,2,14500,30.26,NA,OVC  ft,SPECI CYYB 010922Z AUTO 29002KT 9SM OVC029 M12/M15 A3026 RMK RVR MISG SLP282,2025-12-01T09:37:24Z,2025-12-01T04:37:24Z
CYYB,2025-12-01T10:09:00Z,2025-12-01T05:09:00Z,MVFR,-12,-14,85,290,3,14500,30.28,NA,OVC  ft,SPECI CYYB 011009Z AUTO 29003KT 9SM -SN OVC029 M12/M14 A3028 RMK RVR MISG SLP286,2025-12-01T10:34:23Z,2025-12-01T05:34:23Z
CYYB,2025-12-01T11:24:00Z,2025-12-01T06:24:00Z,MVFR,-12,-15,79,280,3,14500,30.29,NA,OVC  ft,SPECI CYYB 011124Z AUTO 28003KT 9SM -SN OVC027 M12/M15 A3029 RMK RVR MISG SLP290,2025-12-01T11:27:05Z,2025-12-01T06:27:05Z
CYYB,2025-12-01T12:00:00Z,2025-12-01T07:00:00Z,MVFR,-12,-15,79,260,3,24100,30.3,NA,OVC  ft,METAR CYYB 011200Z 26003KT 15SM -SN OVC027 M12/M15 A3030 RMK SC8 PCPN VRY LGT SLP291,2025-12-01T12:59:48Z,2025-12-01T07:59:48Z
CYYB,2025-12-01T13:00:00Z,2025-12-01T08:00:00Z,MVFR,-12,-16,72,270,5,48300,30.31,NA,BKN  ft,METAR CYYB 011300Z 27005KT 220V290 30SM BKN027 M12/M16 A3031 RMK SC7 SLP294,2025-12-01T13:41:27Z,2025-12-01T08:41:27Z
CYYB,2025-12-01T14:00:00Z,2025-12-01T09:00:00Z,MVFR,-11,-15,73,290,7,48300,30.32,NA,BKN  ft,METAR CYYB 011400Z 29007KT 30SM BKN025 M11/M15 A3032 RMK SC7 SLP297,2025-12-01T14:31:27Z,2025-12-01T09:31:27Z
CYYB,2025-12-01T15:00:00Z,2025-12-01T10:00:00Z,VFR,-11,-16,67,270,8,48300,30.33,NA,SCT  ft,METAR CYYB 011500Z 27008KT 30SM SCT023 M11/M16 A3033 RMK SC4 SLP301,2025-12-01T15:31:40Z,2025-12-01T10:31:40Z
CYYB,2025-12-01T16:00:00Z,2025-12-01T11:00:00Z,MVFR,-10,-15,67,220,7,48300,30.32,NA,BKN  ft,METAR CYYB 011600Z CCA 22007KT 30SM BKN030 M10/M15 A3032 RMK SC7 SLP298,2025-12-01T16:39:26Z,2025-12-01T11:39:26Z
CYYB,2025-12-01T17:00:00Z,2025-12-01T12:00:00Z,VFR,-9,-15,62,210,3,48300,30.29,NA,OVC  ft,METAR CYYB 011700Z 21003KT 30SM OVC032 M09/M15 A3029 RMK SC8 SLP289,2025-12-01T17:30:00Z,2025-12-01T12:30:00Z
CYYC,2025-12-01T05:00:00Z,2025-12-01T00:00:00Z,VFR,-9,-12,79,0,2,24100,30.01,NA,SCT  ft; BKN  ft,METAR CYYC 010500Z VRB02KT 15SM SCT110 BKN250 M09/M12 A3001 RMK AC4CI1 SLP239,2025-12-01T05:36:00Z,2025-12-01T00:36:00Z
CYYC,2025-12-01T06:00:00Z,2025-12-01T01:00:00Z,VFR,-7,-11,73,190,2,24100,30,NA,SCT  ft,METAR CYYC 010600Z 19002KT 15SM SCT100 M07/M11 A3000 RMK AC4 SLP228,2025-12-01T06:45:40Z,2025-12-01T01:45:40Z
CYYC,2025-12-01T07:00:00Z,2025-12-01T02:00:00Z,VFR,-8,-11,79,0,0,24100,30,NA,FEW  ft; SCT  ft,METAR CYYC 010700Z 00000KT 15SM FEW100 SCT250 M08/M11 A3000 RMK AC2CI1 SLP228,2025-12-01T07:31:03Z,2025-12-01T02:31:03Z
CYYC,2025-12-01T08:00:00Z,2025-12-01T03:00:00Z,VFR,-9,-11,86,190,2,24100,29.99,NA,FEW  ft,METAR CYYC 010800Z 19002KT 15SM FEW250 M09/M11 A2999 RMK CI1 CI TR SLP224,2025-12-01T08:41:14Z,2025-12-01T03:41:14Z
CYYC,2025-12-01T09:00:00Z,2025-12-01T04:00:00Z,VFR,-9,-12,79,220,3,24100,29.97,NA,SCT  ft,METAR CYYC 010900Z 22003KT 15SM SCT140 M09/M12 A2997 RMK AC4 SLP215,2025-12-01T09:37:25Z,2025-12-01T04:37:25Z
CYYC,2025-12-01T10:00:00Z,2025-12-01T05:00:00Z,VFR,-9,-12,79,220,6,24100,29.94,NA,FEW  ft; SCT  ft,METAR CYYC 011000Z 22006KT 15SM FEW140 SCT250 M09/M12 A2994 RMK AC1CI2 SLP204,2025-12-01T10:34:24Z,2025-12-01T05:34:24Z
CYYC,2025-12-01T11:00:00Z,2025-12-01T06:00:00Z,VFR,-9,-12,79,220,5,24100,29.92,NA,FEW  ft; FEW  ft,METAR CYYC 011100Z 22005KT 15SM FEW140 FEW250 M09/M12 A2992 RMK AC1CI1 AC TR CI TR SLP199,2025-12-01T11:27:06Z,2025-12-01T06:27:06Z
CYYC,2025-12-01T12:00:00Z,2025-12-01T07:00:00Z,VFR,-8,-12,73,210,5,24100,29.89,NA,SCT  ft,METAR CYYC 011200Z 21005KT 15SM SCT094 M08/M12 A2989 RMK AC4 SLP189,2025-12-01T12:59:48Z,2025-12-01T07:59:48Z
CYYC,2025-12-01T13:00:00Z,2025-12-01T08:00:00Z,VFR,-7,-11,73,190,2,24100,29.86,NA,FEW  ft,METAR CYYC 011300Z 19002KT 15SM FEW085 M07/M11 A2986 RMK AC2 SLP179,2025-12-01T13:41:29Z,2025-12-01T08:41:29Z
CYYC,2025-12-01T14:00:00Z,2025-12-01T09:00:00Z,VFR,-9,-12,79,0,0,24100,29.85,NA,FEW  ft,METAR CYYC 011400Z 00000KT 15SM FEW100 M09/M12 A2985 RMK AC1 SLP182,2025-12-01T14:31:28Z,2025-12-01T09:31:28Z
CYYC,2025-12-01T15:00:00Z,2025-12-01T10:00:00Z,VFR,-10,-13,79,190,4,64400,29.82,NA,SCT  ft; BKN  ft,METAR CYYC 011500Z 19004KT 40SM SCT066 BKN180 M10/M13 A2982 RMK AC3AC3 SLP175,2025-12-01T15:31:41Z,2025-12-01T10:31:41Z
CYYC,2025-12-01T16:00:00Z,2025-12-01T11:00:00Z,VFR,-9,-12,79,0,0,64400,29.81,NA,FEW  ft; SCT  ft; BKN  ft,METAR CYYC 011600Z 00000KT 40SM FEW065 SCT190 BKN250 M09/M12 A2981 RMK SC1AC2CI2 SLP165,2025-12-01T16:39:27Z,2025-12-01T11:39:27Z
CYYC,2025-12-01T17:00:00Z,2025-12-01T12:00:00Z,VFR,-5,-10,68,230,9,64400,29.79,NA,SCT  ft; SCT  ft; BKN  ft,METAR CYYC 011700Z 23009KT 40SM SCT059 SCT190 BKN250 M05/M10 A2979 RMK SC3AC1CI3 SLP152,2025-12-01T17:30:01Z,2025-12-01T12:30:01Z
CYYG,2025-12-01T05:00:00Z,2025-12-01T00:00:00Z,VFR,4,3,93,150,19,24100,30.05,NA,SCT  ft; OVC  ft,METAR CYYG 010500Z 15019G27KT 15SM -RA SCT009 OVC033 04/03 A3005 RMK SF4SC4 SLP179,2025-12-01T05:36:02Z,2025-12-01T00:36:02Z
CYYG,2025-12-01T06:00:00Z,2025-12-01T01:00:00Z,IFR,4,4,100,150,20,9999,30,NA,BKN  ft; OVC  ft,METAR CYYG 010600Z 15020KT 10SM -RA BKN008 OVC033 04/04 A3000 RMK SF6SC2 SLP163,2025-12-01T06:45:41Z,2025-12-01T01:45:41Z
CYYG,2025-12-01T07:00:00Z,2025-12-01T02:00:00Z,MVFR,5,5,100,160,18,24100,29.95,NA,OVC  ft,METAR CYYG 010700Z 16018G25KT 15SM -RA OVC012 05/05 A2995 RMK SC8 PRESFR SLP145,2025-12-01T07:31:04Z,2025-12-01T02:31:04Z
CYYG,2025-12-01T08:00:00Z,2025-12-01T03:00:00Z,MVFR,6,5,93,160,17,24100,29.9,NA,OVC  ft,METAR CYYG 010800Z 16017KT 15SM -RA OVC012 06/05 A2990 RMK SC8 SLP128,2025-12-01T08:41:15Z,2025-12-01T03:41:15Z
CYYG,2025-12-01T09:00:00Z,2025-12-01T04:00:00Z,MVFR,8,7,93,170,18,24100,29.85,NA,OVC  ft,METAR CYYG 010900Z 17018G25KT 15SM -RA OVC014 08/07 A2985 RMK SC8 PRESFR SLP111,2025-12-01T09:37:26Z,2025-12-01T04:37:26Z
CYYG,2025-12-01T10:00:00Z,2025-12-01T05:00:00Z,MVFR,8,7,93,170,21,24100,29.79,NA,BKN  ft; OVC  ft,METAR CYYG 011000Z 17021G29KT 15SM -RA BKN012 OVC045 08/07 A2979 RMK SC5SC3 PRESFR SLP093,2025-12-01T10:34:26Z,2025-12-01T05:34:26Z
CYYG,2025-12-01T11:00:00Z,2025-12-01T06:00:00Z,MVFR,8,7,93,170,19,24100,29.75,NA,BKN  ft; OVC  ft,METAR CYYG 011100Z 17019G25KT 15SM -RA BKN017 OVC044 08/07 A2975 RMK SC5SC3 PRESFR SLP078,2025-12-01T11:27:08Z,2025-12-01T06:27:08Z
CYYG,2025-12-01T12:00:00Z,2025-12-01T07:00:00Z,IFR,6,5,93,300,7,6400,29.78,NA,OVC  ft,METAR CYYG 011200Z 30007KT 4SM -RA BR OVC007 06/05 A2978 RMK SF8 SLP090,2025-12-01T12:59:50Z,2025-12-01T07:59:50Z
CYYG,2025-12-01T13:25:00Z,2025-12-01T08:25:00Z,MVFR,5,4,93,290,9,24100,29.8,NA,SCT  ft; BKN  ft,SPECI CYYG 011325Z 29009G15KT 15SM SCT004 BKN017 05/04 A2980 RMK SF4SC3 SLP096,2025-12-01T13:41:30Z,2025-12-01T08:41:30Z
CYYG,2025-12-01T14:00:00Z,2025-12-01T09:00:00Z,MVFR,5,3,87,280,6,24100,29.81,NA,SCT  ft; BKN  ft; BKN  ft,METAR CYYG 011400Z 28006KT 15SM SCT010 BKN019 BKN050 05/03 A2981 RMK SF3SC2SC1 SLP100,2025-12-01T14:31:29Z,2025-12-01T09:31:29Z
CYYG,2025-12-01T15:00:00Z,2025-12-01T10:00:00Z,VFR,5,2,81,280,11,24100,29.82,NA,SCT  ft; BKN  ft,METAR CYYG 011500Z 28011KT 15SM SCT011 BKN070 05/02 A2982 RMK ST3AC2 SLP101,2025-12-01T15:31:43Z,2025-12-01T10:31:43Z
CYYG,2025-12-01T16:00:00Z,2025-12-01T11:00:00Z,MVFR,6,1,71,280,12,24100,29.81,NA,BKN  ft; BKN  ft,METAR CYYG 011600Z 28012G18KT 250V310 15SM BKN020 BKN078 06/01 A2981 RMK SC5AC1 SLP098,2025-12-01T16:39:29Z,2025-12-01T11:39:29Z
CYYG,2025-12-01T17:00:00Z,2025-12-01T12:00:00Z,VFR,6,0,66,290,12,24100,29.82,NA,SCT  ft; BKN  ft; BKN  ft,METAR CYYG 011700Z 29012G21KT 15SM SCT028 BKN078 BKN250 06/00 A2982 RMK CU4AC1CI1 SLP101,2025-12-01T17:30:03Z,2025-12-01T12:30:03Z
CYYJ,2025-12-01T05:00:00Z,2025-12-01T00:00:00Z,VFR,2,2,100,240,5,48300,30.33,NA,SCT  ft; BKN  ft; BKN  ft,METAR CYYJ 010500Z 24005KT 30SM SCT020 BKN093 BKN140 02/02 A3033 RMK SC4AC1AC1 SLP273,2025-12-01T05:36:00Z,2025-12-01T00:36:00Z
CYYJ,2025-12-01T06:00:00Z,2025-12-01T01:00:00Z,VFR,3,3,100,240,4,48300,30.34,NA,BKN  ft; BKN  ft,METAR CYYJ 010600Z 24004KT 30SM BKN089 BKN150 03/03 A3034 RMK AC5AC2 SLP275,2025-12-01T06:45:39Z,2025-12-01T01:45:39Z
CYYJ,2025-12-01T07:00:00Z,2025-12-01T02:00:00Z,VFR,2,2,100,240,4,48300,30.34,NA,FEW  ft; FEW  ft; BKN  ft,METAR CYYJ 010700Z 24004KT 30SM FEW020 FEW087 BKN210 02/02 A3034 RMK SC1AC1CI3 SLP277,2025-12-01T07:31:03Z,2025-12-01T02:31:03Z
CYYJ,2025-12-01T08:00:00Z,2025-12-01T03:00:00Z,VFR,3,3,100,240,4,48300,30.34,NA,SCT  ft; OVC  ft,METAR CYYJ 010800Z 24004KT 30SM SCT090 OVC150 03/03 A3034 RMK AC3AC5 SLP275,2025-12-01T08:41:14Z,2025-12-01T03:41:14Z
CYYJ,2025-12-01T09:00:00Z,2025-12-01T04:00:00Z,VFR,3,3,100,290,3,48300,30.33,NA,FEW  ft; BKN  ft,METAR CYYJ 010900Z 29003KT 30SM FEW090 BKN140 03/03 A3033 RMK AC2AC5 SLP272,2025-12-01T09:37:25Z,2025-12-01T04:37:25Z
CYYJ,2025-12-01T10:00:00Z,2025-12-01T05:00:00Z,VFR,4,4,100,260,3,48300,30.32,NA,OVC  ft,METAR CYYJ 011000Z 26003KT 30SM OVC110 04/04 A3032 RMK AC8 SLP271,2025-12-01T10:34:24Z,2025-12-01T05:34:24Z
CYYJ,2025-12-01T11:00:00Z,2025-12-01T06:00:00Z,VFR,4,4,100,230,4,24100,30.31,NA,BKN  ft; OVC  ft,METAR CYYJ 011100Z 23004KT 15SM BKN091 OVC120 04/04 A3031 RMK AC5AC3 SLP268,2025-12-01T11:27:06Z,2025-12-01T06:27:06Z
CYYJ,2025-12-01T12:00:00Z,2025-12-01T07:00:00Z,VFR,4,4,100,210,4,24100,30.3,NA,FEW  ft; OVC  ft,METAR CYYJ 011200Z 21004KT 15SM FEW018 OVC081 04/04 A3030 RMK SC1AC7 PRESFR SLP263,2025-12-01T12:59:48Z,2025-12-01T07:59:48Z
CYYJ,2025-12-01T13:00:00Z,2025-12-01T08:00:00Z,VFR,4,4,100,230,4,24100,30.29,NA,FEW  ft; OVC  ft,METAR CYYJ 011300Z 23004KT 15SM -RA FEW020 OVC076 04/04 A3029 RMK SC1AC7 SLP261,2025-12-01T13:41:28Z,2025-12-01T08:41:28Z
CYYJ,2025-12-01T14:00:00Z,2025-12-01T09:00:00Z,VFR,4,4,100,0,2,24100,30.29,NA,FEW  ft; BKN  ft; OVC  ft,METAR CYYJ 011400Z VRB02KT 15SM -RA FEW020 BKN068 OVC090 04/04 A3029 RMK SC1AC4AC3 SLP258,2025-12-01T14:31:27Z,2025-12-01T09:31:27Z
CYYJ,2025-12-01T15:00:00Z,2025-12-01T10:00:00Z,VFR,4,4,100,250,5,19300,30.31,NA,FEW  ft; BKN  ft; OVC  ft,METAR CYYJ 011500Z 25005KT 12SM -RA FEW014 BKN062 OVC085 04/04 A3031 RMK SC1SC4AC3 PRESRR SLP267,2025-12-01T15:31:41Z,2025-12-01T10:31:41Z
CYYJ,2025-12-01T16:00:00Z,2025-12-01T11:00:00Z,VFR,4,4,100,200,2,24100,30.29,NA,FEW  ft; OVC  ft,METAR CYYJ 011600Z 20002KT 15SM FEW009 OVC059 04/04 A3029 RMK SF1SC8 SF TR SLP261,2025-12-01T16:39:27Z,2025-12-01T11:39:27Z
CYYJ,2025-12-01T17:00:00Z,2025-12-01T12:00:00Z,MVFR,5,5,100,220,3,24100,30.29,NA,BKN  ft; OVC  ft,METAR CYYJ 011700Z 22003KT 15SM BKN015 OVC060 05/05 A3029 RMK SC5SC3 SLP258,2025-12-01T17:30:01Z,2025-12-01T12:30:01Z
CYYT,2025-12-01T05:00:00Z,2025-12-01T00:00:00Z,VFR,-3,-6,80,290,4,24100,30.44,NA,FEW  ft; BKN  ft; BKN  ft,METAR CYYT 010500Z 29004KT 15SM FEW022 BKN096 BKN120 M03/M06 A3044 RMK SC2AC3AC2 SLP317,2025-12-01T05:36:03Z,2025-12-01T00:36:03Z
CYYT,2025-12-01T06:00:00Z,2025-12-01T01:00:00Z,VFR,-2,-5,80,0,0,24100,30.43,NA,FEW  ft; OVC  ft,METAR CYYT 010600Z 00000KT 15SM FEW018 OVC091 M02/M05 A3043 RMK SC2AC6 SLP315,2025-12-01T06:45:42Z,2025-12-01T01:45:42Z
CYYT,2025-12-01T07:00:00Z,2025-12-01T02:00:00Z,VFR,-3,-5,86,180,6,24100,30.41,NA,FEW  ft; OVC  ft,METAR CYYT 010700Z 18006KT 15SM FEW090 OVC130 M03/M05 A3041 RMK AC1AC7 SLP309,2025-12-01T07:31:04Z,2025-12-01T02:31:04Z
CYYT,2025-12-01T08:00:00Z,2025-12-01T03:00:00Z,VFR,-2,-5,80,220,6,24100,30.41,NA,FEW  ft; OVC  ft,METAR CYYT 010800Z 22006KT 15SM FEW020 OVC130 M02/M05 A3041 RMK SC1AC8 SC TR SLP307,2025-12-01T08:41:16Z,2025-12-01T03:41:16Z
CYYT,2025-12-01T09:00:00Z,2025-12-01T04:00:00Z,VFR,-2,-5,80,200,6,24100,30.38,NA,OVC  ft,METAR CYYT 010900Z 20006KT 15SM OVC150 M02/M05 A3038 RMK AC8 SLP299,2025-12-01T09:37:27Z,2025-12-01T04:37:27Z
CYYT,2025-12-01T10:00:00Z,2025-12-01T05:00:00Z,VFR,-2,-4,86,170,7,24100,30.35,NA,FEW  ft; BKN  ft,METAR CYYT 011000Z 17007KT 15SM FEW020 BKN170 M02/M04 A3035 RMK SC1AC7 SC TR SLP287,2025-12-01T10:34:26Z,2025-12-01T05:34:26Z
CYYT,2025-12-01T11:00:00Z,2025-12-01T06:00:00Z,VFR,-1,-3,86,190,11,24100,30.34,NA,FEW  ft; BKN  ft; OVC  ft,METAR CYYT 011100Z 19011KT 15SM FEW020 BKN038 OVC150 M01/M03 A3034 RMK SC1SC7AC1 SC TR SLP284,2025-12-01T11:27:08Z,2025-12-01T06:27:08Z
CYYT,2025-12-01T12:00:00Z,2025-12-01T07:00:00Z,VFR,0,-2,87,180,12,24100,30.31,NA,FEW  ft; SCT  ft; OVC  ft,METAR CYYT 011200Z 18012G17KT 15SM FEW020 SCT034 OVC090 00/M02 A3031 RMK SC1SC3AC5 SC TR SLP272,2025-12-01T12:59:50Z,2025-12-01T07:59:50Z
CYYT,2025-12-01T13:00:00Z,2025-12-01T08:00:00Z,VFR,2,-1,81,190,17,24100,30.27,NA,FEW  ft; FEW  ft; SCT  ft; OVC  ft,METAR CYYT 011300Z 19017KT 15SM FEW020 FEW036 SCT082 OVC100 02/M01 A3027 RMK SC1SC1AC2AC4 SLP261,2025-12-01T13:41:31Z,2025-12-01T08:41:31Z
CYYT,2025-12-01T14:00:00Z,2025-12-01T09:00:00Z,MVFR,3,1,87,180,19,24100,30.23,NA,BKN  ft; BKN  ft; OVC  ft,METAR CYYT 011400Z 18019KT 15SM BKN014 BKN053 OVC100 03/01 A3023 RMK SC5SC2AC1 PRESFR SLP246,2025-12-01T14:31:29Z,2025-12-01T09:31:29Z
CYYT,2025-12-01T15:00:00Z,2025-12-01T10:00:00Z,IFR,4,2,87,190,19,24100,30.17,NA,OVC  ft,METAR CYYT 011500Z 19019G26KT 15SM OVC009 04/02 A3017 RMK SF8 PRESFR SLP224,2025-12-01T15:31:43Z,2025-12-01T10:31:43Z
CYYT,2025-12-01T16:00:00Z,2025-12-01T11:00:00Z,IFR,4,4,100,180,21,24100,30.09,NA,OVC  ft,METAR CYYT 011600Z 18021G34KT 15SM -DZ OVC007 04/04 A3009 RMK ST8 VIS E-SE 4 PRESFR SLP199,2025-12-01T16:39:29Z,2025-12-01T11:39:29Z
CYYT,2025-12-01T17:23:00Z,2025-12-01T12:23:00Z,IFR,5,5,100,180,22,4800,30.02,NA,OVC  ft,SPECI CYYT 011723Z 18022G33KT 3SM -SHRA BR OVC005 05/05 A3002 RMK ST8 TCU EMBD SLP173,2025-12-01T17:30:04Z,2025-12-01T12:30:04Z
CYYZ,2025-12-01T05:00:00Z,2025-12-01T00:00:00Z,VFR,-1,-6,69,300,21,24100,30.19,NA,FEW  ft; BKN  ft,METAR CYYZ 010500Z 30021KT 15SM FEW026 BKN041 M01/M06 A3019 RMK SF1SC4 SLP232,2025-12-01T05:36:00Z,2025-12-01T00:36:00Z
CYYZ,2025-12-01T06:00:00Z,2025-12-01T01:00:00Z,VFR,-2,-6,74,310,18,24100,30.22,NA,FEW  ft; FEW  ft,METAR CYYZ 010600Z 31018G23KT 15SM FEW030 FEW040 M02/M06 A3022 RMK CF1SC2 CF TR SLP244,2025-12-01T06:45:39Z,2025-12-01T01:45:39Z
CYYZ,2025-12-01T07:00:00Z,2025-12-01T02:00:00Z,VFR,-3,-8,69,320,18,24100,30.26,NA,FEW  ft,METAR CYYZ 010700Z 32018KT 15SM FEW030 M03/M08 A3026 RMK SC2 SLP258,2025-12-01T07:31:03Z,2025-12-01T02:31:03Z
CYYZ,2025-12-01T08:00:00Z,2025-12-01T03:00:00Z,VFR,-4,-10,63,300,19,24100,30.31,NA,FEW  ft,METAR CYYZ 010800Z 30019G26KT 15SM FEW030 M04/M10 A3031 RMK SC1 SC TR SLP274,2025-12-01T08:41:14Z,2025-12-01T03:41:14Z
CYYZ,2025-12-01T09:00:00Z,2025-12-01T04:00:00Z,VFR,-5,-11,63,300,18,24100,30.33,NA,FEW  ft,METAR CYYZ 010900Z 30018G24KT 15SM FEW025 M05/M11 A3033 RMK SC1 SC TR SLP281,2025-12-01T09:37:25Z,2025-12-01T04:37:25Z
CYYZ,2025-12-01T10:00:00Z,2025-12-01T05:00:00Z,VFR,-5,-12,58,320,13,24100,30.35,NA,FEW  ft,METAR CYYZ 011000Z 32013KT 15SM FEW025 M05/M12 A3035 RMK SC1 SLP289,2025-12-01T10:34:24Z,2025-12-01T05:34:24Z
CYYZ,2025-12-01T11:00:00Z,2025-12-01T06:00:00Z,VFR,-6,-12,63,340,9,24100,30.38,NA,FEW  ft,METAR CYYZ 011100Z 34009KT 15SM FEW029 M06/M12 A3038 RMK SC1 SLP299,2025-12-01T11:27:05Z,2025-12-01T06:27:05Z
CYYZ,2025-12-01T12:00:00Z,2025-12-01T07:00:00Z,VFR,-6,-11,68,360,8,24100,30.4,NA,FEW  ft; FEW  ft,METAR CYYZ 011200Z 36008KT 15SM FEW018 FEW028 M06/M11 A3040 RMK CF1SC1 CF TR SLP305,2025-12-01T12:59:48Z,2025-12-01T07:59:48Z
CYYZ,2025-12-01T13:00:00Z,2025-12-01T08:00:00Z,VFR,-7,-10,79,20,7,24100,30.4,NA,FEW  ft,METAR CYYZ 011300Z 02007KT 15SM FEW030 M07/M10 A3040 RMK SC1 SLP306,2025-12-01T13:41:28Z,2025-12-01T08:41:28Z
CYYZ,2025-12-01T14:00:00Z,2025-12-01T09:00:00Z,VFR,-6,-10,74,30,4,24100,30.43,NA,FEW  ft; FEW  ft; FEW  ft,METAR CYYZ 011400Z 03004KT 15SM FEW020 FEW050 FEW260 M06/M10 A3043 RMK CF1SC1CI1 CF TR SLP315,2025-12-01T14:31:27Z,2025-12-01T09:31:27Z
CYYZ,2025-12-01T15:00:00Z,2025-12-01T10:00:00Z,VFR,-5,-10,68,10,3,24100,30.44,NA,FEW  ft; SCT  ft,METAR CYYZ 011500Z 01003KT 350V060 15SM FEW050 SCT260 M05/M10 A3044 RMK SC2CI1 SLP319,2025-12-01T15:31:41Z,2025-12-01T10:31:41Z
CYYZ,2025-12-01T16:00:00Z,2025-12-01T11:00:00Z,VFR,-4,-11,59,10,3,24100,30.42,NA,FEW  ft; FEW  ft; BKN  ft,METAR CYYZ 011600Z 01003KT 310V090 15SM FEW020 FEW040 BKN260 M04/M11 A3042 RMK CF1SC1CI4 CF TR SLP313,2025-12-01T16:39:27Z,2025-12-01T11:39:27Z
CYYZ,2025-12-01T17:00:00Z,2025-12-01T12:00:00Z,VFR,-3,-10,59,260,4,24100,30.39,NA,FEW  ft; BKN  ft; BKN  ft,METAR CYYZ 011700Z 26004KT 210V280 15SM FEW025 BKN042 BKN260 M03/M10 A3039 RMK CU1SC6CI1 CU TR SLP303,2025-12-01T17:30:00Z,2025-12-01T12:30:00Z
CYZF,2025-12-01T05:00:00Z,2025-12-01T00:00:00Z,MVFR,-14,-15,92,60,4,24100,29.99,NA,OVC  ft,METAR CYZF 010500Z 06004KT 15SM -SN OVC020 M14/M15 A2999 RMK SC8 SLP181,2025-12-01T05:36:03Z,2025-12-01T00:36:03Z
CYZF,2025-12-01T06:00:00Z,2025-12-01T01:00:00Z,MVFR,-13,-15,85,70,6,24100,29.97,NA,OVC  ft,METAR CYZF 010600Z 07006KT 15SM -SN OVC017 M13/M15 A2997 RMK SC8 SLP173,2025-12-01T06:45:42Z,2025-12-01T01:45:42Z
CYZF,2025-12-01T07:00:00Z,2025-12-01T02:00:00Z,MVFR,-13,-15,85,70,4,24100,29.96,NA,OVC  ft,METAR CYZF 010700Z 07004KT 15SM -SN OVC019 M13/M15 A2996 RMK SC8 SLP171,2025-12-01T07:31:05Z,2025-12-01T02:31:05Z
CYZF,2025-12-01T08:30:00Z,2025-12-01T03:30:00Z,MVFR,-13,-15,85,320,2,24100,29.94,NA,OVC  ft,SPECI CYZF 010830Z 32002KT 15SM -SN OVC018 M13/M15 A2994 RMK SC8 SLP163,2025-12-01T08:41:16Z,2025-12-01T03:41:16Z
CYZF,2025-12-01T09:00:00Z,2025-12-01T04:00:00Z,MVFR,-13,-15,85,340,3,24100,29.93,NA,OVC  ft,METAR CYZF 010900Z 34003KT 15SM -SN OVC012 M13/M15 A2993 RMK SC8 SLP160,2025-12-01T09:37:27Z,2025-12-01T04:37:27Z
CYZF,2025-12-01T10:00:00Z,2025-12-01T05:00:00Z,MVFR,-13,-15,85,40,5,24100,29.91,NA,OVC  ft,METAR CYZF 011000Z 04005KT 15SM -SN OVC013 M13/M15 A2991 RMK SC8 SLP152,2025-12-01T10:34:26Z,2025-12-01T05:34:26Z
CYZF,2025-12-01T11:00:00Z,2025-12-01T06:00:00Z,MVFR,-13,-14,92,40,3,24100,29.89,NA,OVC  ft,METAR CYZF 011100Z 04003KT 15SM -SN OVC015 M13/M14 A2989 RMK SC8 SLP145,2025-12-01T11:27:08Z,2025-12-01T06:27:08Z
CYZF,2025-12-01T12:00:00Z,2025-12-01T07:00:00Z,MVFR,-13,-14,92,80,5,24100,29.87,NA,OVC  ft,METAR CYZF 011200Z 08005KT 15SM -SN OVC017 M13/M14 A2987 RMK SC8 SLP138,2025-12-01T12:59:50Z,2025-12-01T07:59:50Z
CYZF,2025-12-01T13:00:00Z,2025-12-01T08:00:00Z,MVFR,-13,-14,92,60,5,24100,29.84,NA,OVC  ft,METAR CYZF 011300Z 06005KT 15SM -SN OVC013 M13/M14 A2984 RMK SC8 SLP130,2025-12-01T13:41:31Z,2025-12-01T08:41:31Z
CYZF,2025-12-01T14:00:00Z,2025-12-01T09:00:00Z,MVFR,-13,-14,92,50,6,24100,29.82,NA,OVC  ft,METAR CYZF 011400Z 05006KT 15SM -SN OVC013 M13/M14 A2982 RMK SC8 SLP124,2025-12-01T14:31:29Z,2025-12-01T09:31:29Z
CYZF,2025-12-01T15:00:00Z,2025-12-01T10:00:00Z,MVFR,-13,-14,92,30,5,24100,29.82,NA,OVC  ft,METAR CYZF 011500Z 03005KT 020V090 15SM -SN OVC013 M13/M14 A2982 RMK SC8 SLP121,2025-12-01T15:31:43Z,2025-12-01T10:31:43Z
CYZF,2025-12-01T16:00:00Z,2025-12-01T11:00:00Z,MVFR,-13,-14,92,40,8,24100,29.8,NA,OVC  ft,METAR CYZF 011600Z 04008KT 15SM -SN OVC014 M13/M14 A2980 RMK SC8 SLP116,2025-12-01T16:39:30Z,2025-12-01T11:39:30Z
CYZF,2025-12-01T17:00:00Z,2025-12-01T12:00:00Z,MVFR,-12,-14,85,40,7,9700,29.8,NA,OVC  ft,METAR CYZF 011700Z 04007KT 6SM -SN OVC013 M12/M14 A2980 RMK SC8 SLP115,2025-12-01T17:30:04Z,2025-12-01T12:30:04Z
CYZV,2025-12-01T05:00:00Z,2025-12-01T00:00:00Z,IFR,-1,-2,93,150,18,2400,29.87,NA,OVC  ft,METAR CYZV 010500Z 15018KT 1 1/2SM -SN OVC007 M01/M02 A2987 RMK SN6SF2 //S03// SLP120,2025-12-01T05:36:02Z,2025-12-01T00:36:02Z
CYZV,2025-12-01T06:00:00Z,2025-12-01T01:00:00Z,IFR,-1,-1,100,140,15,3200,29.83,NA,OVC  ft,METAR CYZV 010600Z 14015KT 2SM -SN OVC009 M01/M01 A2983 RMK SN6SF2 //S04// SLP108,2025-12-01T06:45:41Z,2025-12-01T01:45:41Z
CYZV,2025-12-01T07:21:00Z,2025-12-01T02:21:00Z,IFR,-1,-1,100,180,7,4800,29.79,NA,BKN  ft; OVC  ft,SPECI CYZV 010721Z 18007KT 3SM -SN BKN005 OVC011 M01/M01 A2979 RMK SN2SF5SC1 SLP094,2025-12-01T07:31:04Z,2025-12-01T02:31:04Z
CYZV,2025-12-01T08:00:00Z,2025-12-01T03:00:00Z,IFR,-1,-1,100,170,5,8000,29.77,NA,BKN  ft; OVC  ft,METAR CYZV 010800Z 17005KT 5SM -SN BKN008 OVC025 M01/M01 A2977 RMK SF5SC3 SLP086,2025-12-01T08:41:15Z,2025-12-01T03:41:15Z
CYZV,2025-12-01T09:00:00Z,2025-12-01T04:00:00Z,IFR,-1,-2,93,200,5,8000,29.75,NA,BKN  ft; OVC  ft,METAR CYZV 010900Z 20005KT 5SM -SN BKN008 OVC014 M01/M02 A2975 RMK SF5SC3 SLP081,2025-12-01T09:37:26Z,2025-12-01T04:37:26Z
CYZV,2025-12-01T10:27:00Z,2025-12-01T05:27:00Z,VFR,-2,-2,100,300,7,24100,29.74,NA,SCT  ft; BKN  ft; OVC  ft,SPECI CYZV 011027Z 30007KT 15SM -SN SCT009 BKN034 OVC130 M02/M02 A2974 RMK SF3SC4AC1 SLP075,2025-12-01T10:34:25Z,2025-12-01T05:34:25Z
CYZV,2025-12-01T11:00:00Z,2025-12-01T06:00:00Z,VFR,-2,-3,93,290,6,24100,29.74,NA,FEW  ft; BKN  ft; BKN  ft,METAR CYZV 011100Z 29006KT 15SM -SN FEW008 BKN037 BKN110 M02/M03 A2974 RMK SF2SC3AC2 SLP075,2025-12-01T11:27:07Z,2025-12-01T06:27:07Z
CYZV,2025-12-01T12:00:00Z,2025-12-01T07:00:00Z,VFR,-3,-4,93,290,7,48300,29.74,NA,FEW  ft; BKN  ft; BKN  ft,METAR CYZV 011200Z 29007KT 30SM FEW036 BKN110 BKN230 M03/M04 A2974 RMK SC1AC6CI1 SC TR SLP076,2025-12-01T12:59:49Z,2025-12-01T07:59:49Z
CYZV,2025-12-01T13:00:00Z,2025-12-01T08:00:00Z,VFR,-2,-5,80,310,8,48300,29.76,NA,FEW  ft; BKN  ft; OVC  ft,METAR CYZV 011300Z 31008KT 30SM FEW035 BKN088 OVC120 M02/M05 A2976 RMK SF1AC7AC1 SF TR SLP084,2025-12-01T13:41:30Z,2025-12-01T08:41:30Z
CYZV,2025-12-01T14:00:00Z,2025-12-01T09:00:00Z,VFR,-2,-6,74,320,7,48300,29.78,NA,FEW  ft; BKN  ft; OVC  ft,METAR CYZV 011400Z 32007G16KT 30SM FEW030 BKN090 OVC120 M02/M06 A2978 RMK SF1AC7AC1 SF TR SLP089,2025-12-01T14:31:29Z,2025-12-01T09:31:29Z
CYZV,2025-12-01T15:00:00Z,2025-12-01T10:00:00Z,VFR,-2,-7,69,330,12,48300,29.8,NA,FEW  ft; BKN  ft; BKN  ft,METAR CYZV 011500Z 33012G18KT 30SM DRSN FEW026 BKN094 BKN210 M02/M07 A2980 RMK SC1AC5CI1 SLP097,2025-12-01T15:31:43Z,2025-12-01T10:31:43Z
CYZV,2025-12-01T16:00:00Z,2025-12-01T11:00:00Z,VFR,-3,-9,64,320,12,48300,29.82,NA,FEW  ft; FEW  ft; SCT  ft,METAR CYZV 011600Z 32012G18KT 30SM FEW028 FEW038 SCT091 M03/M09 A2982 RMK SF1SC2AC2 SF TR SLP105,2025-12-01T16:39:29Z,2025-12-01T11:39:29Z
CYZV,2025-12-01T17:00:00Z,2025-12-01T12:00:00Z,VFR,-4,-9,69,330,9,48300,29.86,NA,FEW  ft; SCT  ft,METAR CYZV 011700Z 33009G17KT 30SM FEW021 SCT036 M04/M09 A2986 RMK SF1SC4 SF TR PCPN DIST N SLP116,2025-12-01T17:30:03Z,2025-12-01T12:30:03Z
