icao,observed_utc,observed_local,flight_category,temp_c,dewpoint_c,rh_percent,wind_dir_deg,wind_kts,vis_m,altimeter_hg,conditions,clouds,raw_text,fetched_at_utc,fetched_at_local
CYAM,2025-11-01T04:00:00Z,2025-11-01T00:00:00Z,VFR,3,-1,75,0,2,24100,29.86,NA,OVC  ft,METAR CYAM 010400Z VRB02KT 15SM OVC058 03/M01 A2986 RMK SC8 SLP121,2025-11-01T04:28:32Z,2025-11-01T00:28:32Z
CYAM,2025-11-01T05:00:00Z,2025-11-01T01:00:00Z,VFR,3,-1,75,0,2,24100,29.87,NA,OVC  ft,METAR CYAM 010500Z VRB02KT 15SM OVC059 03/M01 A2987 RMK SC8 SLP124,2025-11-01T05:25:05Z,2025-11-01T01:25:05Z
CYAM,2025-11-01T06:00:00Z,2025-11-01T02:00:00Z,VFR,2,-1,81,0,0,24100,29.89,NA,OVC  ft,METAR CYAM 010600Z 00000KT 15SM OVC057 02/M01 A2989 RMK SC8 SLP130,2025-11-01T06:35:11Z,2025-11-01T02:35:11Z
CYAM,2025-11-01T07:00:00Z,2025-11-01T03:00:00Z,VFR,3,-1,75,60,3,24100,29.9,NA,OVC  ft,METAR CYAM 010700Z 06003KT 15SM OVC049 03/M01 A2990 RMK SC8 SLP134,2025-11-01T07:22:59Z,2025-11-01T03:22:59Z
CYAM,2025-11-01T08:00:00Z,2025-11-01T04:00:00Z,VFR,3,-1,75,20,7,24100,29.91,NA,FEW  ft; BKN  ft; BKN  ft,METAR CYAM 010800Z 02007KT 15SM FEW025 BKN052 BKN220 03/M01 A2991 RMK SC1SC6CI1 SC TR SLP138,2025-11-01T08:30:51Z,2025-11-01T04:30:51Z
CYAM,2025-11-01T09:00:00Z,2025-11-01T05:00:00Z,VFR,1,-2,81,70,5,24100,29.93,NA,BKN  ft; BKN  ft,METAR CYAM 010900Z 07005KT 15SM BKN044 BKN220 01/M02 A2993 RMK SC6CI1 SLP144,2025-11-01T09:24:37Z,2025-11-01T05:24:37Z
CYAM,2025-11-01T10:00:00Z,2025-11-01T06:00:00Z,VFR,2,-2,75,30,5,24100,29.95,NA,OVC  ft,METAR CYAM 011000Z 03005KT 340V090 15SM OVC035 02/M02 A2995 RMK SC8 SLP150,2025-11-01T10:25:44Z,2025-11-01T06:25:44Z
CYAM,2025-11-01T11:00:00Z,2025-11-01T07:00:00Z,VFR,2,-3,70,360,6,24100,29.97,NA,OVC  ft,METAR CYAM 011100Z 36006KT 15SM OVC032 02/M03 A2997 RMK SC8 SLP159,2025-11-01T11:19:33Z,2025-11-01T07:19:33Z
CYAM,2025-11-01T12:00:00Z,2025-11-01T08:00:00Z,VFR,1,-3,75,30,6,32200,29.99,NA,BKN  ft,METAR CYAM 011200Z 03006KT 20SM BKN035 01/M03 A2999 RMK CU7 SLP168,2025-11-01T12:49:05Z,2025-11-01T08:49:05Z
CYAM,2025-11-01T13:00:00Z,2025-11-01T09:00:00Z,VFR,2,-3,70,30,7,32200,30.01,NA,BKN  ft,METAR CYAM 011300Z 03007KT 20SM BKN032 02/M03 A3001 RMK CU7 SLP174,2025-11-01T13:28:51Z,2025-11-01T09:28:51Z
CYAM,2025-11-01T14:00:00Z,2025-11-01T10:00:00Z,VFR,2,-3,70,30,6,32200,30.03,NA,BKN  ft,METAR CYAM 011400Z 03006KT 20SM BKN031 02/M03 A3003 RMK CU7 SLP181,2025-11-01T14:22:15Z,2025-11-01T10:22:15Z
CYAM,2025-11-01T15:00:00Z,2025-11-01T11:00:00Z,VFR,3,-3,65,20,7,32200,30.05,NA,FEW  ft; BKN  ft,METAR CYAM 011500Z 02007KT 20SM FEW010 BKN032 03/M03 A3005 RMK CF1CU7 CF TR SLP186,2025-11-01T15:22:36Z,2025-11-01T11:22:36Z
CYAM,2025-11-01T16:00:00Z,2025-11-01T12:00:00Z,VFR,3,-3,65,50,5,32200,30.06,NA,OVC  ft,METAR CYAM 011600Z 05005KT 020V090 20SM OVC034 03/M03 A3006 RMK CU8 SH DIST W SLP189,2025-11-01T16:28:36Z,2025-11-01T12:28:36Z
CYAM,2025-11-01T17:00:00Z,2025-11-01T13:00:00Z,VFR,4,-3,61,360,5,32200,30.06,NA,OVC  ft,METAR CYAM 011700Z 36005KT 320V040 20SM OVC034 04/M03 A3006 RMK CU8 DIST SH SW SLP189,2025-11-01T17:20:00Z,2025-11-01T13:20:00Z
CYAM,2025-11-01T18:00:00Z,2025-11-01T14:00:00Z,VFR,4,-3,61,340,4,32200,30.06,NA,OVC  ft,METAR CYAM 011800Z 34004KT 300V040 20SM OVC033 04/M03 A3006 RMK CU8 SLP188,2025-11-01T18:32:53Z,2025-11-01T14:32:53Z
CYAM,2025-11-01T19:00:00Z,2025-11-01T15:00:00Z,VFR,5,-3,57,340,6,32200,30.05,NA,BKN  ft,METAR CYAM 011900Z 34006KT 20SM BKN034 05/M03 A3005 RMK CU7 SLP187,2025-11-01T19:18:49Z,2025-11-01T15:18:49Z
CYAM,2025-11-01T20:00:00Z,2025-11-01T16:00:00Z,VFR,5,-3,57,330,6,32200,30.07,NA,FEW  ft; BKN  ft,METAR CYAM 012000Z 33006KT 270V340 20SM FEW010 BKN034 05/M03 A3007 RMK CF1CU6 CF TR SH DIS W SLP191,2025-11-01T20:25:25Z,2025-11-01T16:25:25Z
CYAM,2025-11-01T21:00:00Z,2025-11-01T17:00:00Z,VFR,5,-2,61,320,6,32200,30.07,NA,FEW  ft; BKN  ft,METAR CYAM 012100Z 32006KT 20SM FEW010 BKN039 05/M02 A3007 RMK CF1CU5 CF TR SH DIST W SLP195,2025-11-01T21:21:10Z,2025-11-01T17:21:10Z
CYAM,2025-11-01T22:13:00Z,2025-11-01T18:13:00Z,VFR,4,0,75,300,5,32200,30.09,NA,FEW  ft; BKN  ft,SPECI CYAM 012213Z 30005KT 280V030 20SM -SHRA FEW009 BKN031 04/M00 A3009 RMK CF1CU6 SLP201,2025-11-01T22:23:04Z,2025-11-01T18:23:04Z
CYAM,2025-11-01T23:15:00Z,2025-11-01T19:15:00Z,VFR,1,0,93,0,0,32200,30.1,NA,FEW  ft; SCT  ft; BKN  ft,SPECI CYAM 012315Z 00000KT 20SM FEW009 SCT036 BKN220 01/M00 A3010 RMK CF1CU4CI3 CF TR SLP206,2025-11-01T23:22:47Z,2025-11-01T19:22:47Z
CYAM,2025-11-02T01:43:00Z,2025-11-01T21:43:00Z,VFR,-1,-2,93,0,2,24100,30.12,NA,SCT  ft; BKN  ft; BKN  ft,SPECI CYAM 020143Z VRB02KT 15SM SCT023 BKN036 BKN220 M01/M02 A3012 RMK CU3SC3CI1 SLP212,2025-11-02T02:08:15Z,2025-11-01T22:08:15Z
CYAM,2025-11-02T02:00:00Z,2025-11-01T22:00:00Z,VFR,1,1,100,20,5,24100,30.12,NA,SCT  ft; BKN  ft; BKN  ft,METAR CYAM 020200Z 02005KT 15SM SCT024 BKN034 BKN220 01/01 A3012 RMK CU3SC2CI1 SLP212,2025-11-02T02:25:12Z,2025-11-01T22:25:12Z
CYAM,2025-11-02T03:33:00Z,2025-11-01T23:33:00Z,VFR,2,1,93,190,5,24100,30.13,NA,FEW  ft; FEW  ft; SCT  ft,SPECI CYAM 020333Z 19005KT 15SM FEW013 FEW025 SCT220 02/01 A3013 RMK SF1CU1CI2 SLP213,2025-11-02T03:49:50Z,2025-11-01T23:49:50Z
CYAM,2025-11-02T04:00:00Z,2025-11-02T00:00:00Z,VFR,1,0,93,180,3,24100,30.13,NA,FEW  ft; FEW  ft; SCT  ft,METAR CYAM 020400Z 18003KT 15SM FEW013 FEW025 SCT220 01/00 A3013 RMK SF1CU1CI2 SF TR SLP214,2025-11-02T04:30:19Z,2025-11-02T00:30:19Z
CYAM,2025-11-02T05:00:00Z,2025-11-02T01:00:00Z,VFR,-2,-2,100,180,3,24100,30.13,NA,FEW  ft; BKN  ft,METAR CYAM 020500Z 18003KT 15SM FEW038 BKN220 M02/M02 A3013 RMK SC2CI4 SLP215,2025-11-02T05:25:46Z,2025-11-02T01:25:46Z
CYAM,2025-11-02T06:00:00Z,2025-11-02T01:00:00Z,VFR,-2,-2,100,120,3,24100,30.14,NA,FEW  ft; SCT  ft; BKN  ft,METAR CYAM 020600Z 12003KT 060V140 15SM MIFG FEW024 SCT110 BKN210 M02/M02 A3014 RMK SC1AC2CI3 MIFG SW SLP216,2025-11-02T06:36:52Z,2025-11-02T01:36:52Z
CYAM,2025-11-02T07:00:00Z,2025-11-02T02:00:00Z,VFR,-2,-2,100,180,3,24100,30.15,NA,BKN  ft; BKN  ft; BKN  ft,METAR CYAM 020700Z 18003KT 15SM BKN031 BKN110 BKN220 M02/M02 A3015 RMK SC6AC1CI1 AC TR FROIN SLP221,2025-11-02T07:23:38Z,2025-11-02T02:23:38Z
CYAM,2025-11-02T08:00:00Z,2025-11-02T03:00:00Z,MVFR,0,-1,93,180,3,24100,30.16,NA,FEW  ft; BKN  ft; BKN  ft,METAR CYAM 020800Z 18003KT 15SM FEW024 BKN030 BKN220 M00/M01 A3016 RMK SC1SC7CI1 SC TR CI TR FROIN SLP223,2025-11-02T08:29:58Z,2025-11-02T03:29:58Z
CYAM,2025-11-02T09:00:00Z,2025-11-02T04:00:00Z,VFR,1,0,93,200,3,24100,30.16,NA,BKN  ft; BKN  ft,METAR CYAM 020900Z 20003KT 15SM BKN031 BKN110 01/00 A3016 RMK SC7AC1 AC TR SLP224,2025-11-02T09:23:20Z,2025-11-02T04:23:20Z
CYAM,2025-11-02T10:00:00Z,2025-11-02T05:00:00Z,VFR,1,0,93,180,5,24100,30.16,NA,SCT  ft; BKN  ft,METAR CYAM 021000Z 18005KT 15SM SCT030 BKN220 01/00 A3016 RMK SC3CI2 SLP224,2025-11-02T10:24:58Z,2025-11-02T05:24:58Z
CYAM,2025-11-02T11:00:00Z,2025-11-02T06:00:00Z,VFR,0,-1,93,190,5,24100,30.16,NA,FEW  ft; BKN  ft,METAR CYAM 021100Z 19005KT 15SM FEW033 BKN220 00/M01 A3016 RMK SC1CI5 SC TR SLP225,2025-11-02T11:19:30Z,2025-11-02T06:19:30Z
CYAM,2025-11-02T12:00:00Z,2025-11-02T07:00:00Z,VFR,-2,-2,100,0,2,24100,30.15,NA,FEW  ft; FEW  ft; BKN  ft,METAR CYAM 021200Z VRB02KT 15SM FEW033 FEW110 BKN220 M02/M02 A3015 RMK SC1AC1CI6 SC TR AC TR FROIN SLP223,2025-11-02T12:48:24Z,2025-11-02T07:48:24Z
CYAM,2025-11-02T13:00:00Z,2025-11-02T08:00:00Z,VFR,-3,-4,93,0,2,32200,30.15,NA,FEW  ft; SCT  ft,METAR CYAM 021300Z VRB02KT 20SM FEW010 SCT220 M03/M04 A3015 RMK SC1CI4 SC TR FROIN SLP223,2025-11-02T13:28:11Z,2025-11-02T08:28:11Z
CYAT,2025-11-01T04:00:00Z,2025-11-01T00:00:00Z,VFR,2,1,93,310,7,14500,29.85,NA,OVC  ft,METAR CYAT 010400Z AUTO 31007KT 9SM OVC037 02/01 A2985 RMK SLP112,2025-11-01T04:28:32Z,2025-11-01T00:28:32Z
CYAT,2025-11-01T05:00:00Z,2025-11-01T01:00:00Z,VFR,2,1,93,320,8,14500,29.85,NA,OVC  ft,METAR CYAT 010500Z AUTO 32008KT 9SM OVC039 02/01 A2985 RMK SLP111,2025-11-01T05:25:05Z,2025-11-01T01:25:05Z
CYAT,2025-11-01T06:27:00Z,2025-11-01T02:27:00Z,MVFR,2,1,93,320,7,14500,29.86,NA,BKN  ft; OVC  ft,SPECI CYAT 010627Z AUTO 32007KT 9SM BKN014 OVC043 02/01 A2986 RMK SLP115,2025-11-01T06:35:11Z,2025-11-01T02:35:11Z
CYAT,2025-11-01T07:00:00Z,2025-11-01T03:00:00Z,VFR,2,1,93,310,8,14500,29.86,NA,FEW  ft; OVC  ft,METAR CYAT 010700Z AUTO 31008KT 9SM FEW014 OVC041 02/01 A2986 RMK SLP115,2025-11-01T07:22:57Z,2025-11-01T03:22:57Z
CYAT,2025-11-01T08:28:00Z,2025-11-01T04:28:00Z,MVFR,2,1,93,330,8,14500,29.88,NA,BKN  ft; OVC  ft,SPECI CYAT 010828Z AUTO 33008G15KT 9SM BKN013 OVC037 02/01 A2988 RMK SLP120,2025-11-01T08:30:51Z,2025-11-01T04:30:51Z
CYAT,2025-11-01T09:00:00Z,2025-11-01T05:00:00Z,MVFR,2,0,87,330,8,14500,29.88,NA,FEW  ft; BKN  ft; OVC  ft,METAR CYAT 010900Z AUTO 33008G15KT 9SM FEW011 BKN014 OVC039 02/00 A2988 RMK SLP122,2025-11-01T09:24:37Z,2025-11-01T05:24:37Z
CYAT,2025-11-01T10:00:00Z,2025-11-01T06:00:00Z,VFR,1,0,93,310,9,14500,29.9,NA,OVC  ft,METAR CYAT 011000Z AUTO 31009KT 9SM OVC039 01/M00 A2990 RMK SLP127,2025-11-01T10:25:44Z,2025-11-01T06:25:44Z
CYAT,2025-11-01T11:11:00Z,2025-11-01T07:11:00Z,MVFR,0,-1,93,300,8,14500,29.91,NA,BKN  ft; BKN  ft,SPECI CYAT 011111Z AUTO 30008KT 9SM BKN012 BKN050 M00/M01 A2991 RMK SLP130,2025-11-01T11:19:33Z,2025-11-01T07:19:33Z
CYAT,2025-11-01T12:00:00Z,2025-11-01T08:00:00Z,MVFR,0,-1,93,320,10,14500,29.92,NA,OVC  ft,METAR CYAT 011200Z AUTO 32010G15KT 9SM OVC010 00/M01 A2992 RMK SLP135,2025-11-01T12:49:05Z,2025-11-01T08:49:05Z
CYAT,2025-11-01T13:00:00Z,2025-11-01T09:00:00Z,MVFR,1,0,93,310,10,14500,29.93,NA,OVC  ft,METAR CYAT 011300Z AUTO 31010G16KT 9SM OVC010 01/M00 A2993 RMK SLP138,2025-11-01T13:28:51Z,2025-11-01T09:28:51Z
CYAT,2025-11-01T14:00:00Z,2025-11-01T10:00:00Z,MVFR,1,0,93,300,10,14500,29.94,NA,OVC  ft,METAR CYAT 011400Z AUTO 30010G15KT 9SM OVC010 01/00 A2994 RMK SLP141,2025-11-01T14:22:15Z,2025-11-01T10:22:15Z
CYAT,2025-11-01T15:00:00Z,2025-11-01T11:00:00Z,MVFR,1,0,93,310,13,14500,29.95,NA,OVC  ft,METAR CYAT 011500Z AUTO 31013G19KT 9SM OVC010 01/M00 A2995 RMK SLP146,2025-11-01T15:22:36Z,2025-11-01T11:22:36Z
CYAT,2025-11-01T16:00:00Z,2025-11-01T12:00:00Z,MVFR,2,0,87,310,13,14500,29.96,NA,OVC  ft,METAR CYAT 011600Z AUTO 31013G18KT 9SM OVC012 02/00 A2996 RMK SLP149,2025-11-01T16:28:36Z,2025-11-01T12:28:36Z
CYAT,2025-11-01T17:00:00Z,2025-11-01T13:00:00Z,MVFR,3,1,87,300,11,14500,29.96,NA,SCT  ft; OVC  ft,METAR CYAT 011700Z AUTO 30011KT 9SM SCT014 OVC019 03/01 A2996 RMK SLP150,2025-11-01T17:20:00Z,2025-11-01T13:20:00Z
CYAT,2025-11-01T18:13:00Z,2025-11-01T14:13:00Z,VFR,4,0,75,290,10,14500,29.96,NA,FEW  ft; SCT  ft; OVC  ft,SPECI CYAT 011813Z AUTO 29010KT 9SM FEW023 SCT028 OVC049 04/M00 A2996 RMK SLP148,2025-11-01T18:32:53Z,2025-11-01T14:32:53Z
CYAT,2025-11-01T19:03:00Z,2025-11-01T15:03:00Z,VFR,3,1,87,320,7,14500,29.96,NA,FEW  ft; BKN  ft; BKN  ft; OVC  ft,SPECI CYAT 011903Z AUTO 32007KT 280V350 9SM FEW024 BKN033 BKN043 OVC049 03/01 A2996 RMK SLP150,2025-11-01T19:18:49Z,2025-11-01T15:18:49Z
CYAT,2025-11-01T20:00:00Z,2025-11-01T16:00:00Z,VFR,3,1,87,300,5,14500,29.97,NA,FEW  ft; OVC  ft,METAR CYAT 012000Z AUTO 30005KT 9SM FEW021 OVC045 03/01 A2997 RMK SLP151,2025-11-01T20:25:25Z,2025-11-01T16:25:25Z
CYAT,2025-11-01T21:11:00Z,2025-11-01T17:11:00Z,MVFR,2,1,93,340,7,14500,29.98,NA,BKN  ft; OVC  ft,SPECI CYAT 012111Z AUTO 34007KT 260V350 9SM -RA BKN024 OVC049 02/01 A2998 RMK SLP156,2025-11-01T21:21:10Z,2025-11-01T17:21:10Z
CYAT,2025-11-01T22:00:00Z,2025-11-01T18:00:00Z,MVFR,2,1,93,290,6,14500,29.99,NA,SCT  ft; BKN  ft; OVC  ft,METAR CYAT 012200Z AUTO 29006KT 9SM SCT019 BKN027 OVC055 02/01 A2999 RMK SLP157,2025-11-01T22:23:03Z,2025-11-01T18:23:03Z
CYAT,2025-11-01T23:00:00Z,2025-11-01T19:00:00Z,VFR,1,0,93,270,5,14500,29.99,NA,FEW  ft,METAR CYAT 012300Z AUTO 27005KT 9SM FEW055 01/M00 A2999 RMK SLP157,2025-11-01T23:22:47Z,2025-11-01T19:22:47Z
CYAT,2025-11-02T01:00:00Z,2025-11-01T21:00:00Z,VFR,-1,-2,93,260,5,14500,29.97,NA,CLR  ft,METAR CYAT 020100Z AUTO 26005KT 9SM CLR M01/M02 A2997 RMK SLP153,2025-11-02T02:08:15Z,2025-11-01T22:08:15Z
CYAT,2025-11-02T02:00:00Z,2025-11-01T22:00:00Z,VFR,-2,-2,100,260,4,14500,29.98,NA,CLR  ft,METAR CYAT 020200Z AUTO 26004KT 9SM CLR M02/M02 A2998 RMK SLP156,2025-11-02T02:25:11Z,2025-11-01T22:25:11Z
CYAT,2025-11-02T03:00:00Z,2025-11-01T23:00:00Z,VFR,-2,-2,100,250,4,14500,29.98,NA,CLR  ft,METAR CYAT 020300Z AUTO 25004KT 9SM CLR M02/M02 A2998 RMK SLP154,2025-11-02T03:49:50Z,2025-11-01T23:49:50Z
CYAT,2025-11-02T04:00:00Z,2025-11-02T00:00:00Z,VFR,-2,-2,100,220,4,14500,29.96,NA,CLR  ft,METAR CYAT 020400Z AUTO 22004KT 9SM CLR M02/M02 A2996 RMK SLP150,2025-11-02T04:30:15Z,2025-11-02T00:30:15Z
CYAT,2025-11-02T05:00:00Z,2025-11-02T01:00:00Z,VFR,-3,-3,100,240,5,14500,29.97,NA,CLR  ft,METAR CYAT 020500Z AUTO 24005KT 9SM CLR M03/M03 A2997 RMK SLP151,2025-11-02T05:25:46Z,2025-11-02T01:25:46Z
CYAT,2025-11-02T06:00:00Z,2025-11-02T01:00:00Z,VFR,-3,-3,100,240,6,14500,29.98,NA,FEW  ft; SCT  ft,METAR CYAT 020600Z AUTO 24006KT 9SM FEW180 SCT200 M03/M03 A2998 RMK SLP154,2025-11-02T06:36:52Z,2025-11-02T01:36:52Z
CYAT,2025-11-02T07:00:00Z,2025-11-02T02:00:00Z,VFR,-3,-3,100,200,4,14500,29.94,NA,CLR  ft,METAR CYAT 020700Z AUTO 20004KT 9SM CLR M03/M03 A2994 RMK SLP142,2025-11-02T07:23:37Z,2025-11-02T02:23:37Z
CYAT,2025-11-02T08:00:00Z,2025-11-02T03:00:00Z,VFR,-3,-3,100,200,3,14500,29.92,NA,CLR  ft,METAR CYAT 020800Z AUTO 20003KT 9SM CLR M03/M03 A2992 RMK SLP136,2025-11-02T08:29:58Z,2025-11-02T03:29:58Z
CYAT,2025-11-02T09:00:00Z,2025-11-02T04:00:00Z,VFR,-2,-3,93,190,5,14500,29.9,NA,BKN  ft,METAR CYAT 020900Z AUTO 19005KT 9SM BKN032 M02/M03 A2990 RMK SLP128,2025-11-02T09:23:20Z,2025-11-02T04:23:20Z
CYAT,2025-11-02T10:00:00Z,2025-11-02T05:00:00Z,VFR,-2,-3,93,200,5,14500,29.88,NA,CLR  ft,METAR CYAT 021000Z AUTO 20005KT 160V230 9SM CLR M02/M03 A2988 RMK SLP122,2025-11-02T10:24:57Z,2025-11-02T05:24:57Z
CYAT,2025-11-02T11:00:00Z,2025-11-02T06:00:00Z,VFR,-2,-2,100,200,6,14500,29.87,NA,OVC  ft,METAR CYAT 021100Z AUTO 20006KT 9SM OVC034 M02/M02 A2987 RMK SLP119,2025-11-02T11:19:29Z,2025-11-02T06:19:29Z
CYAT,2025-11-02T12:00:00Z,2025-11-02T07:00:00Z,VFR,-1,-2,93,200,7,14500,29.85,NA,OVC  ft,METAR CYAT 021200Z AUTO 20007KT 9SM OVC032 M01/M02 A2985 RMK SLP112,2025-11-02T12:48:24Z,2025-11-02T07:48:24Z
CYAT,2025-11-02T13:00:00Z,2025-11-02T08:00:00Z,MVFR,0,-1,93,170,7,14500,29.82,NA,OVC  ft,METAR CYAT 021300Z AUTO 17007KT 9SM OVC030 M00/M01 A2982 RMK SLP102,2025-11-02T13:28:10Z,2025-11-02T08:28:10Z
CYBC,2025-11-01T04:00:00Z,2025-11-01T00:00:00Z,MVFR,8,5,82,30,13,14500,28.85,NA,OVC  ft,METAR CYBC 010400Z AUTO 03013G19KT 9SM OVC022 08/05 A2885 RMK SLP771 DENSITY ALT 500FT,2025-11-01T04:28:34Z,2025-11-01T00:28:34Z
CYBC,2025-11-01T05:00:00Z,2025-11-01T01:00:00Z,MVFR,7,5,87,360,9,14500,28.85,NA,OVC  ft,METAR CYBC 010500Z AUTO 36009KT 9SM OVC020 07/05 A2885 RMK SLP773 DENSITY ALT 400FT,2025-11-01T05:25:07Z,2025-11-01T01:25:07Z
CYBC,2025-11-01T06:27:00Z,2025-11-01T02:27:00Z,MVFR,7,5,87,340,7,14500,28.88,NA,OVC  ft,SPECI CYBC 010627Z AUTO 34007G15KT 300V020 9SM OVC028 07/05 A2888 RMK SLP781 DENSITY ALT 300FT,2025-11-01T06:35:14Z,2025-11-01T02:35:14Z
CYBC,2025-11-01T07:00:00Z,2025-11-01T03:00:00Z,VFR,7,5,87,340,6,14500,28.89,NA,OVC  ft,METAR CYBC 010700Z AUTO 34006KT 300V030 9SM -RA OVC032 07/05 A2889 RMK SLP786 DENSITY ALT 300FT,2025-11-01T07:23:04Z,2025-11-01T03:23:04Z
CYBC,2025-11-01T08:00:00Z,2025-11-01T04:00:00Z,VFR,6,5,93,330,7,14500,28.91,NA,OVC  ft,METAR CYBC 010800Z AUTO 33007KT 300V360 9SM -RA OVC036 06/05 A2891 RMK SLP793,2025-11-01T08:30:54Z,2025-11-01T04:30:54Z
CYBC,2025-11-01T09:00:00Z,2025-11-01T05:00:00Z,VFR,6,4,87,320,9,14500,28.94,NA,FEW  ft; OVC  ft,METAR CYBC 010900Z AUTO 32009G16KT 9SM -RA FEW044 OVC055 06/04 A2894 RMK SLP803,2025-11-01T09:24:39Z,2025-11-01T05:24:39Z
CYBC,2025-11-01T10:00:00Z,2025-11-01T06:00:00Z,VFR,5,3,87,310,9,14500,28.97,NA,BKN  ft; OVC  ft,METAR CYBC 011000Z AUTO 31009KT 9SM BKN060 OVC072 05/03 A2897 RMK SLP813,2025-11-01T10:25:46Z,2025-11-01T06:25:46Z
CYBC,2025-11-01T11:00:00Z,2025-11-01T07:00:00Z,VFR,6,4,87,310,8,14500,29.01,NA,BKN  ft; OVC  ft,METAR CYBC 011100Z AUTO 31008KT 9SM -RA BKN060 OVC074 06/04 A2901 RMK SLP825,2025-11-01T11:19:35Z,2025-11-01T07:19:35Z
CYBC,2025-11-01T12:00:00Z,2025-11-01T08:00:00Z,VFR,6,3,81,310,10,14500,29.04,NA,OVC  ft,METAR CYBC 011200Z AUTO 31010G16KT 9SM OVC086 06/03 A2904 RMK SLP837,2025-11-01T12:49:08Z,2025-11-01T08:49:08Z
CYBC,2025-11-01T13:00:00Z,2025-11-01T09:00:00Z,VFR,7,3,76,310,6,14500,29.09,NA,FEW  ft; BKN  ft; OVC  ft,METAR CYBC 011300Z AUTO 31006G18KT 9SM FEW027 BKN086 OVC100 07/03 A2909 RMK SLP853,2025-11-01T13:28:54Z,2025-11-01T09:28:54Z
CYBC,2025-11-01T14:00:00Z,2025-11-01T10:00:00Z,MVFR,7,3,76,300,13,14500,29.11,NA,BKN  ft; OVC  ft,METAR CYBC 011400Z AUTO 30013G19KT 280V350 9SM BKN028 OVC086 07/03 A2911 RMK SLP859,2025-11-01T14:22:18Z,2025-11-01T10:22:18Z
CYBC,2025-11-01T15:00:00Z,2025-11-01T11:00:00Z,MVFR,8,4,76,300,8,14500,29.15,NA,OVC  ft,METAR CYBC 011500Z AUTO 30008KT 280V360 9SM OVC030 08/04 A2915 RMK SLP874,2025-11-01T15:22:38Z,2025-11-01T11:22:38Z
CYBC,2025-11-01T16:00:00Z,2025-11-01T12:00:00Z,MVFR,8,3,71,320,9,14500,29.18,NA,BKN  ft; OVC  ft,METAR CYBC 011600Z AUTO 32009G16KT 290V010 9SM BKN030 OVC076 08/03 A2918 RMK SLP885,2025-11-01T16:28:38Z,2025-11-01T12:28:38Z
CYBC,2025-11-01T17:00:00Z,2025-11-01T13:00:00Z,MVFR,7,3,76,310,7,14500,29.23,NA,BKN  ft; OVC  ft,METAR CYBC 011700Z AUTO 31007G18KT 290V360 9SM -RA BKN030 OVC060 07/03 A2923 RMK SLP901,2025-11-01T17:20:04Z,2025-11-01T13:20:04Z
CYBC,2025-11-01T18:10:00Z,2025-11-01T14:10:00Z,VFR,7,3,76,320,10,14500,29.28,NA,OVC  ft,SPECI CYBC 011810Z AUTO 32010G23KT 9SM OVC046 07/03 A2928 RMK SLP919,2025-11-01T18:32:55Z,2025-11-01T14:32:55Z
CYBC,2025-11-01T19:00:00Z,2025-11-01T15:00:00Z,VFR,7,3,76,310,11,14500,29.33,NA,OVC  ft,METAR CYBC 011900Z AUTO 31011G17KT 9SM -RA OVC047 07/03 A2933 RMK SLP933,2025-11-01T19:18:52Z,2025-11-01T15:18:52Z
CYBC,2025-11-01T20:00:00Z,2025-11-01T16:00:00Z,VFR,7,3,76,320,8,14500,29.38,NA,OVC  ft,METAR CYBC 012000Z AUTO 32008G20KT 290V360 9SM -RA OVC049 07/03 A2938 RMK PRESRR SLP953,2025-11-01T20:25:27Z,2025-11-01T16:25:27Z
CYBC,2025-11-01T21:00:00Z,2025-11-01T17:00:00Z,VFR,6,3,81,320,9,14500,29.44,NA,FEW  ft; OVC  ft,METAR CYBC 012100Z AUTO 32009G15KT 290V360 9SM FEW028 OVC076 06/03 A2944 RMK SLP971,2025-11-01T21:21:12Z,2025-11-01T17:21:12Z
CYBC,2025-11-01T22:15:00Z,2025-11-01T18:15:00Z,MVFR,6,3,81,330,5,14500,29.51,NA,BKN  ft; OVC  ft,SPECI CYBC 012215Z AUTO 33005KT 300V360 9SM -RA BKN027 OVC091 06/03 A2951 RMK PRESRR SLP997,2025-11-01T22:23:06Z,2025-11-01T18:23:06Z
CYBC,2025-11-01T23:00:00Z,2025-11-01T19:00:00Z,VFR,6,1,71,360,9,14500,29.55,NA,FEW  ft; OVC  ft,METAR CYBC 012300Z AUTO 36009G16KT 300V020 9SM FEW035 OVC086 06/01 A2955 RMK SLP010,2025-11-01T23:22:49Z,2025-11-01T19:22:49Z
CYBC,2025-11-02T01:00:00Z,2025-11-01T21:00:00Z,VFR,6,1,71,310,6,14500,29.64,NA,FEW  ft; OVC  ft,METAR CYBC 020100Z AUTO 31006KT 280V010 9SM FEW030 OVC100 06/01 A2964 RMK SLP040,2025-11-02T02:08:18Z,2025-11-01T22:08:18Z
CYBC,2025-11-02T02:00:00Z,2025-11-01T22:00:00Z,VFR,5,1,76,310,6,14500,29.68,NA,BKN  ft; OVC  ft,METAR CYBC 020200Z AUTO 31006KT 280V340 9SM BKN110 OVC140 05/01 A2968 RMK PRESRR SLP055,2025-11-02T02:25:14Z,2025-11-01T22:25:14Z
CYBC,2025-11-02T03:00:00Z,2025-11-01T23:00:00Z,VFR,5,0,70,310,6,14500,29.72,NA,OVC  ft,METAR CYBC 020300Z AUTO 31006KT 9SM OVC110 05/00 A2972 RMK SLP066,2025-11-02T03:49:53Z,2025-11-01T23:49:53Z
CYBC,2025-11-02T04:00:00Z,2025-11-02T00:00:00Z,VFR,4,0,75,320,8,14500,29.75,NA,FEW  ft,METAR CYBC 020400Z AUTO 32008KT 9SM FEW110 04/M00 A2975 RMK SLP077,2025-11-02T04:30:22Z,2025-11-02T00:30:22Z
CYBC,2025-11-02T05:00:00Z,2025-11-02T01:00:00Z,VFR,5,0,70,300,6,14500,29.79,NA,BKN  ft; OVC  ft,METAR CYBC 020500Z AUTO 30006KT 9SM BKN096 OVC130 05/M00 A2979 RMK SLP091,2025-11-02T05:25:48Z,2025-11-02T01:25:48Z
CYBC,2025-11-02T06:00:00Z,2025-11-02T01:00:00Z,VFR,4,0,75,290,6,14500,29.83,NA,OVC  ft,METAR CYBC 020600Z AUTO 29006KT 9SM OVC120 04/M00 A2983 RMK SLP103,2025-11-02T06:36:54Z,2025-11-02T01:36:54Z
CYBC,2025-11-02T07:00:00Z,2025-11-02T02:00:00Z,VFR,2,-1,81,270,5,14500,29.85,NA,CLR  ft,METAR CYBC 020700Z AUTO 27005KT 9SM CLR 02/M01 A2985 RMK SLP112,2025-11-02T07:23:40Z,2025-11-02T02:23:40Z
CYBC,2025-11-02T08:00:00Z,2025-11-02T03:00:00Z,VFR,0,-2,87,270,4,14500,29.88,NA,CLR  ft,METAR CYBC 020800Z AUTO 27004KT 9SM CLR 00/M02 A2988 RMK SLP120,2025-11-02T08:30:01Z,2025-11-02T03:30:01Z
CYBC,2025-11-02T09:00:00Z,2025-11-02T04:00:00Z,VFR,1,-1,87,290,3,14500,29.9,NA,FEW  ft,METAR CYBC 020900Z AUTO 29003KT 280V350 9SM FEW091 01/M01 A2990 RMK SLP129,2025-11-02T09:23:23Z,2025-11-02T04:23:23Z
CYBC,2025-11-02T10:00:00Z,2025-11-02T05:00:00Z,VFR,0,-1,93,200,5,14500,29.94,NA,OVC  ft,METAR CYBC 021000Z AUTO 20005KT 9SM OVC091 M00/M01 A2994 RMK SLP140,2025-11-02T10:25:00Z,2025-11-02T05:25:00Z
CYBC,2025-11-02T11:00:00Z,2025-11-02T06:00:00Z,VFR,2,0,87,280,6,14500,29.96,NA,OVC  ft,METAR CYBC 021100Z AUTO 28006KT 9SM OVC086 02/M00 A2996 RMK SLP147,2025-11-02T11:19:33Z,2025-11-02T06:19:33Z
CYBC,2025-11-02T12:00:00Z,2025-11-02T07:00:00Z,VFR,2,0,87,240,4,14500,29.99,NA,FEW  ft; OVC  ft,METAR CYBC 021200Z AUTO 24004KT 9SM FEW028 OVC086 02/00 A2999 RMK SLP158,2025-11-02T12:48:27Z,2025-11-02T07:48:27Z
CYBC,2025-11-02T13:00:00Z,2025-11-02T08:00:00Z,VFR,2,1,93,250,5,14500,30.01,NA,SCT  ft; SCT  ft; BKN  ft,METAR CYBC 021300Z AUTO 25005KT 9SM SCT034 SCT060 BKN083 02/01 A3001 RMK SLP165,2025-11-02T13:28:14Z,2025-11-02T08:28:14Z
CYBK,2025-11-01T04:18:00Z,2025-11-01T00:18:00Z,IFR,-3,-4,93,150,11,4800,29.85,NA,OVC  ft,SPECI CYBK 010418Z 15011KT 3SM -SN OVC009 M03/M04 A2985 RMK SC8 SLP111,2025-11-01T04:28:35Z,2025-11-01T00:28:35Z
CYBK,2025-11-01T05:00:00Z,2025-11-01T01:00:00Z,IFR,-3,-4,93,160,8,24100,29.84,NA,OVC  ft,METAR CYBK 010500Z 16008KT 15SM -SN OVC008 M03/M04 A2984 RMK SC8 SLP108,2025-11-01T05:25:08Z,2025-11-01T01:25:08Z
CYBK,2025-11-01T06:00:00Z,2025-11-01T02:00:00Z,IFR,-3,-4,93,170,6,24100,29.81,NA,OVC  ft,METAR CYBK 010600Z 17006KT 15SM -SN OVC008 M03/M04 A2981 RMK SC8 SLP099,2025-11-01T06:35:15Z,2025-11-01T02:35:15Z
CYBK,2025-11-01T07:00:00Z,2025-11-01T03:00:00Z,IFR,-3,-4,93,150,8,24100,29.8,NA,OVC  ft,METAR CYBK 010700Z 15008KT 15SM -SN OVC007 M03/M04 A2980 RMK SC8 SLP096,2025-11-01T07:23:05Z,2025-11-01T03:23:05Z
CYBK,2025-11-01T08:00:00Z,2025-11-01T04:00:00Z,IFR,-2,-3,93,150,9,24100,29.78,NA,OVC  ft,METAR CYBK 010800Z 15009KT 15SM -SN OVC009 M02/M03 A2978 RMK SC8 SLP090,2025-11-01T08:30:54Z,2025-11-01T04:30:54Z
CYBK,2025-11-01T09:21:00Z,2025-11-01T05:21:00Z,MVFR,-2,-3,93,150,11,24100,29.75,NA,OVC  ft,SPECI CYBK 010921Z 15011KT 15SM OVC013 M02/M03 A2975 RMK SC8 SLP080,2025-11-01T09:24:40Z,2025-11-01T05:24:40Z
CYBK,2025-11-01T10:00:00Z,2025-11-01T06:00:00Z,MVFR,-2,-3,93,150,12,40200,29.74,NA,OVC  ft,METAR CYBK 011000Z 15012KT 25SM OVC012 M02/M03 A2974 RMK SC8 SLP075,2025-11-01T10:25:48Z,2025-11-01T06:25:48Z
CYBK,2025-11-01T11:00:00Z,2025-11-01T07:00:00Z,MVFR,-2,-3,93,150,12,24100,29.72,NA,FEW  ft; OVC  ft,METAR CYBK 011100Z 15012KT 15SM FEW010 OVC020 M02/M03 A2972 RMK SC1SC8 SLP067,2025-11-01T11:19:36Z,2025-11-01T07:19:36Z
CYBK,2025-11-01T12:00:00Z,2025-11-01T08:00:00Z,MVFR,-2,-2,100,140,13,24100,29.69,NA,FEW  ft; OVC  ft,METAR CYBK 011200Z 14013KT 15SM FEW001 OVC019 M02/M02 A2969 RMK SC1SC7 SLP059,2025-11-01T12:49:09Z,2025-11-01T08:49:09Z
CYBK,2025-11-01T13:00:00Z,2025-11-01T09:00:00Z,IFR,-1,-2,93,140,14,24100,29.67,NA,BKN  ft; OVC  ft,METAR CYBK 011300Z 14014KT 15SM -SN BKN006 OVC016 M01/M02 A2967 RMK SC7SC1 SLP051,2025-11-01T13:28:55Z,2025-11-01T09:28:55Z
CYBK,2025-11-01T14:00:00Z,2025-11-01T10:00:00Z,LIFR,-2,-3,93,150,15,24100,29.65,NA,BKN  ft; OVC  ft,METAR CYBK 011400Z 15015KT 15SM -SN BKN004 OVC012 M02/M03 A2965 RMK SC7SC1 SLP044,2025-11-01T14:22:19Z,2025-11-01T10:22:19Z
CYBK,2025-11-01T15:12:00Z,2025-11-01T11:12:00Z,IFR,-1,-3,86,140,14,4800,29.61,NA,OVC  ft,SPECI CYBK 011512Z 14014KT 3SM -SN DRSN OVC009 M01/M03 A2961 RMK SC8 SLP032,2025-11-01T15:22:39Z,2025-11-01T11:22:39Z
CYBK,2025-11-01T16:00:00Z,2025-11-01T12:00:00Z,MVFR,-1,-2,93,130,15,24100,29.6,NA,OVC  ft,METAR CYBK 011600Z 13015KT 15SM -SN DRSN OVC010 M01/M02 A2960 RMK SC8 RAG BASE SLP026,2025-11-01T16:28:39Z,2025-11-01T12:28:39Z
CYBK,2025-11-01T17:00:00Z,2025-11-01T13:00:00Z,IFR,-1,-2,93,130,17,9999,29.56,NA,OVC  ft,METAR CYBK 011700Z 13017KT 10SM -SN DRSN OVC006 M01/M02 A2956 RMK SC8 RAG BASE SLP015,2025-11-01T17:20:05Z,2025-11-01T13:20:05Z
CYBK,2025-11-01T18:09:00Z,2025-11-01T14:09:00Z,IFR,-1,-2,93,150,18,9700,29.54,NA,OVC  ft,SPECI CYBK 011809Z 15018KT 6SM -SN DRSN OVC008 M01/M02 A2954 RMK SC8 RAG BASE SLP007,2025-11-01T18:32:56Z,2025-11-01T14:32:56Z
CYBK,2025-11-01T19:00:00Z,2025-11-01T15:00:00Z,MVFR,0,-2,87,140,17,32200,29.52,NA,OVC  ft,METAR CYBK 011900Z 14017KT 20SM DRSN OVC011 M00/M02 A2952 RMK SC8 RAG BASE SLP998,2025-11-01T19:18:53Z,2025-11-01T15:18:53Z
CYBK,2025-11-01T20:00:00Z,2025-11-01T16:00:00Z,IFR,0,-2,87,140,16,24100,29.47,NA,OVC  ft,METAR CYBK 012000Z 14016KT 15SM DRSN OVC009 M00/M02 A2947 RMK SC8 PRESFR SLP983,2025-11-01T20:25:28Z,2025-11-01T16:25:28Z
CYBK,2025-11-01T21:00:00Z,2025-11-01T17:00:00Z,IFR,-1,-1,100,140,15,24100,29.45,NA,OVC  ft,METAR CYBK 012100Z 14015KT 15SM -SN OVC007 M01/M01 A2945 RMK SC8 SLP975,2025-11-01T21:21:12Z,2025-11-01T17:21:12Z
CYBK,2025-11-01T22:00:00Z,2025-11-01T18:00:00Z,IFR,-1,-2,93,140,18,24100,29.42,NA,BKN  ft; OVC  ft,METAR CYBK 012200Z 14018KT 15SM -SN BKN006 OVC012 M01/M02 A2942 RMK SC7SC1 RAG BASE SLP965,2025-11-01T22:23:07Z,2025-11-01T18:23:07Z
CYBK,2025-11-01T23:00:00Z,2025-11-01T19:00:00Z,IFR,-1,-2,93,140,17,24100,29.4,NA,BKN  ft; OVC  ft,METAR CYBK 012300Z 14017KT 15SM -SN BKN005 OVC012 M01/M02 A2940 RMK SC6SC2 SLP958,2025-11-01T23:22:50Z,2025-11-01T19:22:50Z
CYBK,2025-11-02T01:00:00Z,2025-11-01T21:00:00Z,MVFR,-1,-3,86,140,16,24100,29.36,NA,FEW  ft; OVC  ft,METAR CYBK 020100Z 14016KT 15SM FEW010 OVC016 M01/M03 A2936 RMK SC2SC6 SLP946,2025-11-02T02:08:18Z,2025-11-01T22:08:18Z
CYBK,2025-11-02T02:20:00Z,2025-11-01T22:20:00Z,MVFR,-1,-2,93,130,17,24100,29.33,NA,FEW  ft; OVC  ft,SPECI CYBK 020220Z 13017KT 15SM FEW011 OVC019 M01/M02 A2933 RMK SC2SC6 SLP934,2025-11-02T02:25:15Z,2025-11-01T22:25:15Z
CYBK,2025-11-02T03:00:00Z,2025-11-01T23:00:00Z,MVFR,-1,-2,93,140,16,24100,29.31,NA,SCT  ft; OVC  ft,METAR CYBK 020300Z 14016KT 15SM SCT012 OVC019 M01/M02 A2931 RMK SC3SC5 SLP930,2025-11-02T03:49:54Z,2025-11-01T23:49:54Z
CYBK,2025-11-02T04:00:00Z,2025-11-02T00:00:00Z,MVFR,-1,-2,93,140,16,24100,29.29,NA,SCT  ft; OVC  ft,METAR CYBK 020400Z 14016KT 15SM SCT012 OVC020 M01/M02 A2929 RMK SC3SC5 SLP923,2025-11-02T04:30:23Z,2025-11-02T00:30:23Z
CYBK,2025-11-02T05:00:00Z,2025-11-02T01:00:00Z,MVFR,-1,-2,93,130,18,9999,29.27,NA,SCT  ft; OVC  ft,METAR CYBK 020500Z 13018KT 10SM -SN SCT009 OVC020 M01/M02 A2927 RMK SC3SC5 SLP915,2025-11-02T05:25:49Z,2025-11-02T01:25:49Z
CYBK,2025-11-02T06:00:00Z,2025-11-02T01:00:00Z,MVFR,-1,-2,93,140,17,9999,29.25,NA,SCT  ft; OVC  ft,METAR CYBK 020600Z 14017KT 10SM -SN SCT009 OVC020 M01/M02 A2925 RMK SC4SC4 SLP910,2025-11-02T06:36:55Z,2025-11-02T01:36:55Z
CYBK,2025-11-02T07:00:00Z,2025-11-02T02:00:00Z,MVFR,-1,-2,93,140,19,9999,29.24,NA,SCT  ft; OVC  ft,METAR CYBK 020700Z 14019KT 10SM -SN SCT009 OVC023 M01/M02 A2924 RMK SC4SC4 SLP904,2025-11-02T07:23:40Z,2025-11-02T02:23:40Z
CYBK,2025-11-02T08:21:00Z,2025-11-02T03:21:00Z,IFR,-1,-2,93,130,17,9999,29.21,NA,OVC  ft,SPECI CYBK 020821Z 13017KT 10SM -SN OVC007 M01/M02 A2921 RMK SC8 SLP896,2025-11-02T08:30:06Z,2025-11-02T03:30:06Z
CYBK,2025-11-02T09:00:00Z,2025-11-02T04:00:00Z,IFR,-1,-2,93,130,16,24100,29.2,NA,OVC  ft,METAR CYBK 020900Z 13016KT 15SM -SN OVC007 M01/M02 A2920 RMK SC8 SLP891,2025-11-02T09:23:24Z,2025-11-02T04:23:24Z
CYBK,2025-11-02T10:00:00Z,2025-11-02T05:00:00Z,IFR,-1,-2,93,130,15,24100,29.19,NA,OVC  ft,METAR CYBK 021000Z 13015KT 15SM -SN OVC009 M01/M02 A2919 RMK SC8 SLP887,2025-11-02T10:25:01Z,2025-11-02T05:25:01Z
CYBK,2025-11-02T11:00:00Z,2025-11-02T06:00:00Z,IFR,-1,-1,100,130,16,9700,29.17,NA,OVC  ft,METAR CYBK 021100Z 13016KT 6SM -SN OVC009 M01/M01 A2917 RMK SC8 SLP881,2025-11-02T11:19:34Z,2025-11-02T06:19:34Z
CYBK,2025-11-02T12:00:00Z,2025-11-02T07:00:00Z,IFR,0,-1,93,130,15,9700,29.15,NA,OVC  ft,METAR CYBK 021200Z 13015KT 6SM -SN OVC008 M00/M01 A2915 RMK SC8 SLP876,2025-11-02T12:48:28Z,2025-11-02T07:48:28Z
CYBK,2025-11-02T13:00:00Z,2025-11-02T08:00:00Z,MVFR,0,-1,93,130,15,8000,29.14,NA,SCT  ft; OVC  ft,METAR CYBK 021300Z 13015KT 5SM -SN SCT008 OVC021 M00/M01 A2914 RMK SC7SC1 SLP871,2025-11-02T13:28:15Z,2025-11-02T08:28:15Z
CYBR,2025-11-01T04:00:00Z,2025-11-01T00:00:00Z,MVFR,1,-2,81,90,8,14500,30.17,NA,OVC  ft,METAR CYBR 010400Z AUTO 09008KT 9SM OVC025 01/M02 A3017 RMK SLP239,2025-11-01T04:28:34Z,2025-11-01T00:28:34Z
CYBR,2025-11-01T05:00:00Z,2025-11-01T01:00:00Z,MVFR,1,-2,81,70,6,14500,30.18,NA,OVC  ft,METAR CYBR 010500Z AUTO 07006KT 9SM OVC023 01/M02 A3018 RMK SLP242,2025-11-01T05:25:07Z,2025-11-01T01:25:07Z
CYBR,2025-11-01T06:00:00Z,2025-11-01T02:00:00Z,MVFR,1,-2,81,100,3,14500,30.17,NA,OVC  ft,METAR CYBR 010600Z AUTO 10003KT 9SM OVC021 01/M02 A3017 RMK SLP239,2025-11-01T06:35:13Z,2025-11-01T02:35:13Z
CYBR,2025-11-01T07:00:00Z,2025-11-01T03:00:00Z,MVFR,1,-2,81,110,2,14500,30.16,NA,OVC  ft,METAR CYBR 010700Z AUTO 11002KT 9SM OVC021 01/M02 A3016 RMK SLP238,2025-11-01T07:23:02Z,2025-11-01T03:23:02Z
CYBR,2025-11-01T08:00:00Z,2025-11-01T04:00:00Z,MVFR,1,-2,81,150,3,14500,30.16,NA,OVC  ft,METAR CYBR 010800Z AUTO 15003KT 9SM OVC021 01/M02 A3016 RMK SLP236,2025-11-01T08:30:53Z,2025-11-01T04:30:53Z
CYBR,2025-11-01T09:00:00Z,2025-11-01T05:00:00Z,MVFR,0,-1,93,140,4,14500,30.14,NA,OVC  ft,METAR CYBR 010900Z AUTO 14004KT 9SM OVC021 00/M01 A3014 RMK SLP229,2025-11-01T09:24:38Z,2025-11-01T05:24:38Z
CYBR,2025-11-01T10:00:00Z,2025-11-01T06:00:00Z,MVFR,1,-2,81,170,5,14500,30.14,NA,OVC  ft,METAR CYBR 011000Z AUTO 17005KT 9SM OVC021 01/M02 A3014 RMK SLP228,2025-11-01T10:25:46Z,2025-11-01T06:25:46Z
CYBR,2025-11-01T11:00:00Z,2025-11-01T07:00:00Z,MVFR,0,-1,93,180,4,14500,30.12,NA,OVC  ft,METAR CYBR 011100Z AUTO 18004KT 140V200 9SM OVC019 00/M01 A3012 RMK SLP223,2025-11-01T11:19:35Z,2025-11-01T07:19:35Z
CYBR,2025-11-01T12:00:00Z,2025-11-01T08:00:00Z,MVFR,1,-1,87,210,7,24100,30.1,NA,OVC  ft,METAR CYBR 011200Z 21007KT 15SM OVC019 01/M01 A3010 RMK SC8 SLP217,2025-11-01T12:49:07Z,2025-11-01T08:49:07Z
CYBR,2025-11-01T13:00:00Z,2025-11-01T09:00:00Z,MVFR,1,-2,81,220,11,24100,30.07,NA,OVC  ft,METAR CYBR 011300Z 22011KT 15SM OVC021 01/M02 A3007 RMK SC8 SLP206,2025-11-01T13:28:53Z,2025-11-01T09:28:53Z
CYBR,2025-11-01T14:00:00Z,2025-11-01T10:00:00Z,MVFR,1,-2,81,220,15,24100,30.07,NA,OVC  ft,METAR CYBR 011400Z 22015KT 15SM OVC019 01/M02 A3007 RMK SC8 SLP207,2025-11-01T14:22:17Z,2025-11-01T10:22:17Z
CYBR,2025-11-01T15:00:00Z,2025-11-01T11:00:00Z,MVFR,1,-3,75,220,14,24100,30.06,NA,OVC  ft,METAR CYBR 011500Z 22014KT 15SM OVC019 01/M03 A3006 RMK SC8 SLP204,2025-11-01T15:22:38Z,2025-11-01T11:22:38Z
CYBR,2025-11-01T16:00:00Z,2025-11-01T12:00:00Z,MVFR,1,-2,81,220,15,24100,30.05,NA,OVC  ft,METAR CYBR 011600Z 22015KT 15SM OVC015 01/M02 A3005 RMK SC8 SLP199,2025-11-01T16:28:38Z,2025-11-01T12:28:38Z
CYBR,2025-11-01T17:00:00Z,2025-11-01T13:00:00Z,MVFR,1,-2,81,200,9,24100,30.02,NA,BKN  ft; OVC  ft,METAR CYBR 011700Z 20009G17KT 15SM BKN015 OVC240 01/M02 A3002 RMK SC5CI3 SLP190,2025-11-01T17:20:03Z,2025-11-01T13:20:03Z
CYBR,2025-11-01T18:00:00Z,2025-11-01T14:00:00Z,MVFR,3,-1,75,180,14,24100,29.98,NA,BKN  ft; OVC  ft,METAR CYBR 011800Z 18014G20KT 15SM BKN019 OVC220 03/M01 A2998 RMK SC5CI3 PRESFR SLP176,2025-11-01T18:32:55Z,2025-11-01T14:32:55Z
CYBR,2025-11-01T19:00:00Z,2025-11-01T15:00:00Z,VFR,3,-1,75,180,10,24100,29.96,NA,FEW  ft; OVC  ft,METAR CYBR 011900Z 18010G16KT 15SM FEW020 OVC210 03/M01 A2996 RMK SC2CI6 SLP167,2025-11-01T19:18:51Z,2025-11-01T15:18:51Z
CYBR,2025-11-01T20:00:00Z,2025-11-01T16:00:00Z,VFR,4,-1,70,170,14,24100,29.91,NA,FEW  ft; BKN  ft,METAR CYBR 012000Z 17014G19KT 15SM FEW180 BKN240 04/M01 A2991 RMK AC2CI4 SLP150,2025-11-01T20:25:27Z,2025-11-01T16:25:27Z
CYBR,2025-11-01T21:00:00Z,2025-11-01T17:00:00Z,VFR,5,0,70,180,16,24100,29.86,NA,BKN  ft; BKN  ft,METAR CYBR 012100Z 18016G24KT 15SM BKN170 BKN220 05/M00 A2986 RMK AC6CI1 SLP134,2025-11-01T21:21:11Z,2025-11-01T17:21:11Z
CYBR,2025-11-01T22:00:00Z,2025-11-01T18:00:00Z,VFR,6,0,66,180,13,24100,29.83,NA,SCT  ft; SCT  ft; BKN  ft,METAR CYBR 012200Z 18013G19KT 15SM SCT130 SCT180 BKN220 06/M00 A2983 RMK AC3AC1CI1 SLP123,2025-11-01T22:23:05Z,2025-11-01T18:23:05Z
CYBR,2025-11-01T23:00:00Z,2025-11-01T19:00:00Z,VFR,5,0,70,180,14,24100,29.8,NA,SCT  ft,METAR CYBR 012300Z 18014KT 15SM SCT240 05/M00 A2980 RMK CI3 SLP111,2025-11-01T23:22:49Z,2025-11-01T19:22:49Z
CYBR,2025-11-02T02:00:00Z,2025-11-01T22:00:00Z,VFR,3,0,81,190,9,24100,29.72,NA,OVC  ft,METAR CYBR 020200Z 19009G15KT 15SM OVC230 03/00 A2972 RMK CI8 SLP085,2025-11-02T02:08:17Z,2025-11-01T22:08:17Z
CYBR,2025-11-02T03:00:00Z,2025-11-01T23:00:00Z,VFR,4,1,81,190,8,24100,29.69,NA,SCT  ft; OVC  ft,METAR CYBR 020300Z 19008KT 15SM SCT160 OVC240 04/01 A2969 RMK AC3CI5 LAST STFD OBS/NEXT 021300Z SLP074,2025-11-02T03:49:52Z,2025-11-01T23:49:52Z
CYBR,2025-11-02T04:00:00Z,2025-11-02T00:00:00Z,VFR,4,1,81,180,4,14500,29.64,NA,FEW  ft; SCT  ft; BKN  ft,METAR CYBR 020400Z AUTO 18004KT 9SM FEW140 SCT200 BKN220 04/01 A2964 RMK SLP057,2025-11-02T04:30:21Z,2025-11-02T00:30:21Z
CYBR,2025-11-02T05:00:00Z,2025-11-02T01:00:00Z,VFR,5,1,76,190,6,14500,29.59,NA,SCT  ft; BKN  ft; BKN  ft,METAR CYBR 020500Z AUTO 19006KT 9SM SCT110 BKN130 BKN160 05/01 A2959 RMK SLP041,2025-11-02T05:25:48Z,2025-11-02T01:25:48Z
CYBR,2025-11-02T06:33:00Z,2025-11-02T01:33:00Z,VFR,6,2,76,180,9,14500,29.52,NA,BKN  ft; OVC  ft,SPECI CYBR 020633Z AUTO 18009KT 9SM -RA BKN091 OVC110 06/02 A2952 RMK SLP013,2025-11-02T06:36:54Z,2025-11-02T01:36:54Z
CYBR,2025-11-02T07:00:00Z,2025-11-02T02:00:00Z,VFR,6,3,81,190,8,14500,29.51,NA,OVC  ft,METAR CYBR 020700Z AUTO 19008KT 9SM -RA OVC091 06/03 A2951 RMK SLP010,2025-11-02T07:23:39Z,2025-11-02T02:23:39Z
CYBR,2025-11-02T08:00:00Z,2025-11-02T03:00:00Z,VFR,7,3,76,200,8,14500,29.44,NA,OVC  ft,METAR CYBR 020800Z AUTO 20008KT 180V260 9SM OVC100 07/03 A2944 RMK SLP986,2025-11-02T08:30:00Z,2025-11-02T03:30:00Z
CYBR,2025-11-02T09:00:00Z,2025-11-02T04:00:00Z,VFR,6,2,76,220,9,14500,29.41,NA,FEW  ft,METAR CYBR 020900Z AUTO 22009KT 9SM FEW120 06/02 A2941 RMK SLP977,2025-11-02T09:23:22Z,2025-11-02T04:23:22Z
CYBR,2025-11-02T10:00:00Z,2025-11-02T05:00:00Z,VFR,8,2,66,230,15,14500,29.38,NA,CLR  ft,METAR CYBR 021000Z AUTO 23015G20KT 9SM CLR 08/02 A2938 RMK SLP963,2025-11-02T10:24:59Z,2025-11-02T05:24:59Z
CYBR,2025-11-02T11:00:00Z,2025-11-02T06:00:00Z,VFR,8,3,71,230,16,14500,29.37,NA,CLR  ft,METAR CYBR 021100Z AUTO 23016KT 9SM CLR 08/03 A2937 RMK SLP959,2025-11-02T11:19:32Z,2025-11-02T06:19:32Z
CYBR,2025-11-02T12:00:00Z,2025-11-02T07:00:00Z,VFR,9,3,66,240,15,14500,29.36,NA,CLR  ft,METAR CYBR 021200Z AUTO 24015G21KT 9SM CLR 09/03 A2936 RMK SLP957 DENSITY ALT 1600FT,2025-11-02T12:48:26Z,2025-11-02T07:48:26Z
CYBR,2025-11-02T13:00:00Z,2025-11-02T08:00:00Z,VFR,9,4,71,250,16,24100,29.35,NA,FEW  ft,METAR CYBR 021300Z 25016G26KT 15SM FEW080 09/04 A2935 RMK AC1 AC TR SLP955 DENSITY ALT 1600FT,2025-11-02T13:28:13Z,2025-11-02T08:28:13Z
CYCO,2025-11-01T04:00:00Z,2025-11-01T00:00:00Z,MVFR,-1,-3,86,80,18,24100,29.34,NA,OVC  ft,METAR CYCO 010400Z 08018G24KT 15SM DRSN OVC017 M01/M03 A2934 RMK SC8 SLP940,2025-11-01T04:28:36Z,2025-11-01T00:28:36Z
CYCO,2025-11-01T05:00:00Z,2025-11-01T01:00:00Z,MVFR,-1,-3,86,90,22,24100,29.31,NA,OVC  ft,METAR CYCO 010500Z 09022KT 15SM DRSN OVC016 M01/M03 A2931 RMK SC8 SLP930,2025-11-01T05:25:08Z,2025-11-01T01:25:08Z
CYCO,2025-11-01T06:00:00Z,2025-11-01T02:00:00Z,MVFR,0,-2,87,90,23,24100,29.27,NA,OVC  ft,METAR CYCO 010600Z 09023G28KT 15SM DRSN OVC018 M00/M02 A2927 RMK SC8 SLP915,2025-11-01T06:35:15Z,2025-11-01T02:35:15Z
CYCO,2025-11-01T07:00:00Z,2025-11-01T03:00:00Z,VFR,0,-2,87,90,23,24100,29.22,NA,SCT  ft; OVC  ft,METAR CYCO 010700Z 09023G28KT 15SM DRSN SCT016 OVC120 M00/M02 A2922 RMK SC3AC5 PRESFR SLP900,2025-11-01T07:23:05Z,2025-11-01T03:23:05Z
CYCO,2025-11-01T08:00:00Z,2025-11-01T04:00:00Z,VFR,0,-2,87,100,20,24100,29.19,NA,OVC  ft,METAR CYCO 010800Z 10020G32KT 15SM OVC110 00/M02 A2919 RMK AS8 SLP888,2025-11-01T08:30:55Z,2025-11-01T04:30:55Z
CYCO,2025-11-01T09:00:00Z,2025-11-01T05:00:00Z,VFR,1,-1,87,90,21,24100,29.16,NA,OVC  ft,METAR CYCO 010900Z 09021G26KT 15SM OVC096 01/M01 A2916 RMK AC8 SLP880,2025-11-01T09:24:40Z,2025-11-01T05:24:40Z
CYCO,2025-11-01T10:00:00Z,2025-11-01T06:00:00Z,MVFR,0,-2,87,90,24,24100,29.13,NA,BKN  ft; OVC  ft,METAR CYCO 011000Z 09024G31KT 15SM BKN024 OVC100 00/M02 A2913 RMK SC6AC2 SLP868,2025-11-01T10:25:48Z,2025-11-01T06:25:48Z
CYCO,2025-11-01T11:00:00Z,2025-11-01T07:00:00Z,MVFR,0,-1,93,90,22,9700,29.1,NA,OVC  ft,METAR CYCO 011100Z 09022G27KT 6SM -RASN OVC022 00/M01 A2910 RMK SC8 SLP858,2025-11-01T11:19:36Z,2025-11-01T07:19:36Z
CYCO,2025-11-01T12:28:00Z,2025-11-01T08:28:00Z,MVFR,0,-1,93,90,20,9999,29.06,NA,BKN  ft; OVC  ft,SPECI CYCO 011228Z 09020G29KT 10SM -SN BKN023 OVC053 00/M01 A2906 RMK SC7SC1 SLP844,2025-11-01T12:49:09Z,2025-11-01T08:49:09Z
CYCO,2025-11-01T13:00:00Z,2025-11-01T09:00:00Z,MVFR,0,-1,93,90,22,24100,29.05,NA,BKN  ft; OVC  ft,METAR CYCO 011300Z 09022G28KT 15SM BKN022 OVC052 00/M01 A2905 RMK SC6SC2 SLP841,2025-11-01T13:28:55Z,2025-11-01T09:28:55Z
CYCO,2025-11-01T14:00:00Z,2025-11-01T10:00:00Z,MVFR,0,-1,93,100,17,19300,29.02,NA,BKN  ft; OVC  ft,METAR CYCO 011400Z 10017G27KT 12SM -SN DRSN BKN021 OVC033 00/M01 A2902 RMK SC6SC2 SLP832,2025-11-01T14:22:19Z,2025-11-01T10:22:19Z
CYCO,2025-11-01T15:08:00Z,2025-11-01T11:08:00Z,LIFR,0,-1,93,100,18,1600,29,NA,BKN  ft; OVC  ft,SPECI CYCO 011508Z 10018G23KT 1SM -SN DRSN BKN004 OVC011 00/M01 A2900 RMK SN4ST2ST2 VIS VRB 3/4-11/4 SLP825,2025-11-01T15:22:39Z,2025-11-01T11:22:39Z
CYCO,2025-11-01T16:00:00Z,2025-11-01T12:00:00Z,LIFR,0,0,100,100,16,1600,28.98,NA,OVC  ft,METAR CYCO 011600Z 10016KT 1SM -SN DRSN OVC003 00/M00 A2898 RMK SN4ST4 /S01/ SLP818,2025-11-01T16:28:39Z,2025-11-01T12:28:39Z
CYCO,2025-11-01T17:00:00Z,2025-11-01T13:00:00Z,LIFR,0,0,100,100,16,3200,28.96,NA,OVC  ft,METAR CYCO 011700Z 10016G24KT 2SM -SN DRSN OVC003 00/M00 A2896 RMK SN2ST6 SLP812,2025-11-01T17:20:06Z,2025-11-01T13:20:06Z
CYCO,2025-11-01T18:00:00Z,2025-11-01T14:00:00Z,MVFR,0,0,100,90,14,9700,28.95,NA,SCT  ft; BKN  ft; OVC  ft,METAR CYCO 011800Z 09014G20KT 6SM -SN SCT004 BKN011 OVC047 00/M00 A2895 RMK ST3ST4SC1 /S02/ SLP808,2025-11-01T18:32:56Z,2025-11-01T14:32:56Z
CYCO,2025-11-01T19:00:00Z,2025-11-01T15:00:00Z,MVFR,0,0,100,90,14,9700,28.94,NA,FEW  ft; BKN  ft; OVC  ft,METAR CYCO 011900Z 09014KT 6SM -PL FEW004 BKN024 OVC038 00/00 A2894 RMK ST2SC4SC2 SLP803,2025-11-01T19:18:54Z,2025-11-01T15:18:54Z
CYCO,2025-11-01T20:00:00Z,2025-11-01T16:00:00Z,MVFR,0,0,100,90,13,12900,28.93,NA,FEW  ft; BKN  ft; OVC  ft,METAR CYCO 012000Z 09013KT 8SM -PL FEW011 BKN023 OVC043 00/00 A2893 RMK SF1SC4SC3 SLP800,2025-11-01T20:25:28Z,2025-11-01T16:25:28Z
CYCO,2025-11-01T21:00:00Z,2025-11-01T17:00:00Z,MVFR,1,0,93,90,12,19300,28.92,NA,FEW  ft; BKN  ft; OVC  ft,METAR CYCO 012100Z 09012KT 12SM -PL FEW010 BKN021 OVC042 01/M00 A2892 RMK ST1SC5SC3 ST TR SLP798,2025-11-01T21:21:12Z,2025-11-01T17:21:12Z
CYCO,2025-11-01T22:00:00Z,2025-11-01T18:00:00Z,MVFR,1,0,93,100,9,19300,28.92,NA,FEW  ft; BKN  ft; OVC  ft,METAR CYCO 012200Z 10009KT 12SM VCSH FEW008 BKN020 OVC053 01/00 A2892 RMK ST1SC7SC1 ST TR SLP798,2025-11-01T22:23:07Z,2025-11-01T18:23:07Z
CYCO,2025-11-01T23:00:00Z,2025-11-01T19:00:00Z,MVFR,1,0,93,110,8,19300,28.92,NA,FEW  ft; BKN  ft; OVC  ft,METAR CYCO 012300Z 11008KT 12SM -RA FEW006 BKN021 OVC054 01/00 A2892 RMK ST1SC7SC1 ST TR SLP798,2025-11-01T23:22:50Z,2025-11-01T19:22:50Z
CYCO,2025-11-02T01:00:00Z,2025-11-01T21:00:00Z,MVFR,1,0,93,130,5,24100,28.93,NA,BKN  ft; OVC  ft,METAR CYCO 020100Z 13005KT 15SM BKN018 OVC028 01/00 A2893 RMK SC6SC2 SLP801,2025-11-02T02:08:19Z,2025-11-01T22:08:19Z
CYCO,2025-11-02T02:00:00Z,2025-11-01T22:00:00Z,MVFR,1,0,93,140,4,24100,28.93,NA,BKN  ft; OVC  ft,METAR CYCO 020200Z 14004KT 15SM BKN030 OVC078 01/00 A2893 RMK SC6AC2 SLP801,2025-11-02T02:25:15Z,2025-11-01T22:25:15Z
CYCO,2025-11-02T03:00:00Z,2025-11-01T23:00:00Z,MVFR,1,0,93,130,4,24100,28.93,NA,BKN  ft; OVC  ft,METAR CYCO 020300Z 13004KT 15SM BKN015 OVC038 01/00 A2893 RMK ST7SC1 SLP802,2025-11-02T03:49:54Z,2025-11-01T23:49:54Z
CYCO,2025-11-02T04:00:00Z,2025-11-02T00:00:00Z,VFR,1,1,100,220,4,24100,28.93,NA,FEW  ft; BKN  ft; OVC  ft,METAR CYCO 020400Z 22004KT 15SM FEW016 BKN040 OVC078 01/01 A2893 RMK ST1SC6AC1 SLP802,2025-11-02T04:30:23Z,2025-11-02T00:30:23Z
CYCO,2025-11-02T05:00:00Z,2025-11-02T01:00:00Z,VFR,0,0,100,320,2,24100,28.94,NA,OVC  ft,METAR CYCO 020500Z 32002KT 15SM OVC037 00/M00 A2894 RMK SC8 SLP804,2025-11-02T05:25:49Z,2025-11-02T01:25:49Z
CYCO,2025-11-02T06:00:00Z,2025-11-02T01:00:00Z,MVFR,0,0,100,360,3,24100,28.95,NA,OVC  ft,METAR CYCO 020600Z 36003KT 15SM OVC025 00/M00 A2895 RMK SC8 SLP807,2025-11-02T06:36:56Z,2025-11-02T01:36:56Z
CYCO,2025-11-02T07:00:00Z,2025-11-02T02:00:00Z,MVFR,0,0,100,0,0,24100,28.95,NA,OVC  ft,METAR CYCO 020700Z 00000KT 15SM -SN OVC012 00/M00 A2895 RMK ST8 SLP808,2025-11-02T07:23:41Z,2025-11-02T02:23:41Z
CYCO,2025-11-02T08:10:00Z,2025-11-02T03:10:00Z,MVFR,0,0,100,200,6,9700,28.96,NA,OVC  ft,SPECI CYCO 020810Z 20006KT 6SM -RA OVC010 00/00 A2896 RMK ST8 SLP811,2025-11-02T08:30:06Z,2025-11-02T03:30:06Z
CYCO,2025-11-02T09:19:00Z,2025-11-02T04:19:00Z,MVFR,1,0,93,210,6,9999,28.96,NA,SCT  ft; OVC  ft,SPECI CYCO 020919Z 21006KT 10SM -RASN SCT012 OVC028 01/00 A2896 RMK ST3SC5 SLP812,2025-11-02T09:23:24Z,2025-11-02T04:23:24Z
CYCO,2025-11-02T10:13:00Z,2025-11-02T05:13:00Z,MVFR,1,0,93,230,7,9999,28.97,NA,BKN  ft; OVC  ft,SPECI CYCO 021013Z 23007KT 10SM -RASN BKN014 OVC047 01/00 A2897 RMK ST7SC1 SLP813,2025-11-02T10:25:01Z,2025-11-02T05:25:01Z
CYCO,2025-11-02T11:00:00Z,2025-11-02T06:00:00Z,VFR,1,0,93,240,7,24100,28.97,NA,FEW  ft; OVC  ft,METAR CYCO 021100Z 24007KT 15SM -SN FEW014 OVC045 01/M00 A2897 RMK ST2SC6 SN WET SLP814,2025-11-02T11:19:34Z,2025-11-02T06:19:34Z
CYCO,2025-11-02T12:00:00Z,2025-11-02T07:00:00Z,VFR,1,0,93,240,7,24100,28.97,NA,OVC  ft,METAR CYCO 021200Z CCA 24007KT 15SM OVC047 01/M00 A2897 RMK SC8 SN WET SLP815,2025-11-02T12:48:28Z,2025-11-02T07:48:28Z
CYCO,2025-11-02T13:00:00Z,2025-11-02T08:00:00Z,MVFR,0,0,100,350,3,24100,28.98,NA,BKN  ft,METAR CYCO 021300Z 35003KT 15SM -SN BKN012 00/M00 A2898 RMK ST7 SLP817,2025-11-02T13:28:15Z,2025-11-02T08:28:15Z
CYEG,2025-11-01T04:00:00Z,2025-11-01T00:00:00Z,VFR,7,-2,53,150,12,32200,29.51,NA,BKN  ft; BKN  ft,METAR CYEG 010400Z 15012G17KT 20SM BKN170 BKN230 07/M02 A2951 RMK AC5CI2 SLP020,2025-11-01T04:28:33Z,2025-11-01T00:28:33Z
CYEG,2025-11-01T05:00:00Z,2025-11-01T01:00:00Z,VFR,7,-2,53,150,7,32200,29.51,NA,FEW  ft; BKN  ft; BKN  ft,METAR CYEG 010500Z 15007KT 20SM FEW150 BKN190 BKN230 07/M02 A2951 RMK AC2AC4CI1 SLP018,2025-11-01T05:25:06Z,2025-11-01T01:25:06Z
CYEG,2025-11-01T06:00:00Z,2025-11-01T02:00:00Z,VFR,5,-3,57,160,5,32200,29.51,NA,BKN  ft; BKN  ft,METAR CYEG 010600Z 16005KT 20SM BKN140 BKN230 05/M03 A2951 RMK AC5CI1 SLP016,2025-11-01T06:35:13Z,2025-11-01T02:35:13Z
CYEG,2025-11-01T07:08:00Z,2025-11-01T03:08:00Z,VFR,2,-4,65,180,3,32200,29.51,NA,SCT  ft; BKN  ft,SPECI CYEG 010708Z 18003KT 20SM SCT110 BKN150 02/M04 A2951 RMK AC4AC1 SLP015,2025-11-01T07:23:01Z,2025-11-01T03:23:01Z
CYEG,2025-11-01T08:00:00Z,2025-11-01T04:00:00Z,VFR,0,-4,75,190,8,32200,29.51,NA,FEW  ft,METAR CYEG 010800Z 19008KT 20SM FEW150 00/M04 A2951 RMK AC1 SLP019,2025-11-01T08:30:53Z,2025-11-01T04:30:53Z
CYEG,2025-11-01T09:00:00Z,2025-11-01T05:00:00Z,VFR,-1,-4,80,240,4,32200,29.54,NA,FEW  ft,METAR CYEG 010900Z 24004KT 20SM FEW150 M01/M04 A2954 RMK AC1 AC TR SLP029,2025-11-01T09:24:38Z,2025-11-01T05:24:38Z
CYEG,2025-11-01T10:00:00Z,2025-11-01T06:00:00Z,VFR,2,-4,65,280,5,32200,29.57,NA,FEW  ft,METAR CYEG 011000Z 28005KT 20SM FEW150 02/M04 A2957 RMK AC1 AC TR SLP035,2025-11-01T10:25:45Z,2025-11-01T06:25:45Z
CYEG,2025-11-01T11:00:00Z,2025-11-01T07:00:00Z,VFR,0,-4,75,200,7,32200,29.57,NA,SKC  ft,METAR CYEG 011100Z 20007KT 20SM SKC M00/M04 A2957 RMK SLP040,2025-11-01T11:19:34Z,2025-11-01T07:19:34Z
CYEG,2025-11-01T12:00:00Z,2025-11-01T08:00:00Z,VFR,0,-4,75,210,3,32200,29.6,NA,SKC  ft,METAR CYEG 011200Z 21003KT 160V230 20SM SKC M00/M04 A2960 RMK SLP049,2025-11-01T12:49:07Z,2025-11-01T08:49:07Z
CYEG,2025-11-01T13:00:00Z,2025-11-01T09:00:00Z,VFR,-2,-4,86,190,5,32200,29.62,NA,SKC  ft,METAR CYEG 011300Z 19005KT 20SM SKC M02/M04 A2962 RMK FROIN SLP058,2025-11-01T13:28:53Z,2025-11-01T09:28:53Z
CYEG,2025-11-01T14:00:00Z,2025-11-01T10:00:00Z,VFR,-3,-5,86,190,7,32200,29.62,NA,FEW  ft; SCT  ft,METAR CYEG 011400Z 19007KT 20SM FEW120 SCT230 M03/M05 A2962 RMK AC1CI4 AC TR SLP058,2025-11-01T14:22:17Z,2025-11-01T10:22:17Z
CYEG,2025-11-01T15:00:00Z,2025-11-01T11:00:00Z,VFR,-2,-4,86,170,2,32200,29.6,NA,FEW  ft; BKN  ft,METAR CYEG 011500Z 17002KT 20SM FEW100 BKN210 M02/M04 A2960 RMK AC1CI6 AC TR VIRGA SLP051,2025-11-01T15:22:37Z,2025-11-01T11:22:37Z
CYEG,2025-11-01T16:00:00Z,2025-11-01T12:00:00Z,VFR,-1,-3,86,160,6,32200,29.59,NA,FEW  ft; BKN  ft,METAR CYEG 011600Z 16006KT 20SM FEW100 BKN210 M01/M03 A2959 RMK AC1CI5 AC TR SLP046,2025-11-01T16:28:37Z,2025-11-01T12:28:37Z
CYEG,2025-11-01T17:00:00Z,2025-11-01T13:00:00Z,VFR,4,-1,70,200,8,32200,29.6,NA,FEW  ft; BKN  ft,METAR CYEG 011700Z 20008KT 20SM FEW100 BKN220 04/M01 A2960 RMK AC1CI6 AC TR SLP047,2025-11-01T17:20:02Z,2025-11-01T13:20:02Z
CYEG,2025-11-01T18:00:00Z,2025-11-01T14:00:00Z,VFR,8,1,62,180,5,32200,29.57,NA,BKN  ft; BKN  ft,METAR CYEG 011800Z 18005KT 20SM BKN130 BKN250 08/01 A2957 RMK AC5CI2 SLP035,2025-11-01T18:32:54Z,2025-11-01T14:32:54Z
CYEG,2025-11-01T19:00:00Z,2025-11-01T15:00:00Z,VFR,9,1,58,0,0,32200,29.52,NA,BKN  ft; BKN  ft; BKN  ft,METAR CYEG 011900Z 00000KT 20SM BKN110 BKN140 BKN250 09/01 A2952 RMK AC6AC1CI1 CI TR PRESFR SLP018 DENSITY ALT 2700FT,2025-11-01T19:18:51Z,2025-11-01T15:18:51Z
CYEG,2025-11-01T20:00:00Z,2025-11-01T16:00:00Z,VFR,10,2,58,70,5,32200,29.48,NA,BKN  ft; BKN  ft,METAR CYEG 012000Z 07005KT 20SM BKN091 BKN250 10/02 A2948 RMK AS7CI1 CI TR PRESFR SLP005 DENSITY ALT 2800FT,2025-11-01T20:25:26Z,2025-11-01T16:25:26Z
CYEG,2025-11-01T21:00:00Z,2025-11-01T17:00:00Z,VFR,9,1,58,180,2,32200,29.46,NA,SCT  ft; OVC  ft,METAR CYEG 012100Z 18002KT 20SM SCT084 OVC095 09/01 A2946 RMK AC4AC4 XTNSV VIRGA SLP998 DENSITY ALT 2900FT,2025-11-01T21:21:11Z,2025-11-01T17:21:11Z
CYEG,2025-11-01T22:00:00Z,2025-11-01T18:00:00Z,VFR,10,1,54,80,4,32200,29.41,NA,FEW  ft; BKN  ft,METAR CYEG 012200Z 08004KT 20SM FEW064 BKN081 10/01 A2941 RMK SC2AS5 XTNSV VIRGA SLP979 DENSITY ALT 3000FT,2025-11-01T22:23:05Z,2025-11-01T18:23:05Z
CYEG,2025-11-01T23:17:00Z,2025-11-01T19:17:00Z,VFR,8,3,71,350,8,9700,29.4,NA,BKN  ft,SPECI CYEG 012317Z 35008KT 6SM -RA BR FU BKN036 08/03 A2940 RMK SC7 SLP982 DENSITY ALT 2700FT,2025-11-01T23:22:48Z,2025-11-01T19:22:48Z
CYEG,2025-11-02T01:55:00Z,2025-11-01T21:55:00Z,VFR,5,4,93,20,3,32200,29.41,NA,BKN  ft; BKN  ft,SPECI CYEG 020155Z 02003KT 20SM BKN042 BKN075 05/04 A2941 RMK SC6AC1 SLP990,2025-11-02T02:08:17Z,2025-11-01T22:08:17Z
CYEG,2025-11-02T02:00:00Z,2025-11-01T22:00:00Z,VFR,5,4,93,30,4,32200,29.41,NA,BKN  ft; BKN  ft,METAR CYEG 020200Z 03004KT 20SM BKN042 BKN075 05/04 A2941 RMK SC6AC1 SLP989,2025-11-02T02:25:13Z,2025-11-01T22:25:13Z
CYEG,2025-11-02T03:00:00Z,2025-11-01T23:00:00Z,VFR,4,4,100,0,0,32200,29.44,NA,BKN  ft; BKN  ft,METAR CYEG 020300Z 00000KT 20SM BKN038 BKN063 04/04 A2944 RMK SC5SC2 SLP997,2025-11-02T03:49:52Z,2025-11-01T23:49:52Z
CYEG,2025-11-02T04:00:00Z,2025-11-02T00:00:00Z,MVFR,5,5,100,320,13,24100,29.49,NA,OVC  ft,METAR CYEG 020400Z 32013KT 15SM OVC028 05/05 A2949 RMK SC8 PRESRR SLP015,2025-11-02T04:30:21Z,2025-11-02T00:30:21Z
CYEG,2025-11-02T05:10:00Z,2025-11-02T01:10:00Z,IFR,3,2,93,300,18,19300,29.59,NA,BKN  ft; OVC  ft,SPECI CYEG 020510Z 30018G25KT 12SM RA BKN009 OVC013 03/02 A2959 RMK SC6SC2 SLP047,2025-11-02T05:25:47Z,2025-11-02T01:25:47Z
CYEG,2025-11-02T06:31:00Z,2025-11-02T01:31:00Z,VFR,2,1,93,270,4,32200,29.61,NA,SCT  ft; BKN  ft,SPECI CYEG 020631Z 27004KT 20SM SCT050 BKN095 02/01 A2961 RMK SC3AC4 SLP048,2025-11-02T06:36:53Z,2025-11-02T01:36:53Z
CYEG,2025-11-02T07:00:00Z,2025-11-02T02:00:00Z,VFR,1,1,100,250,8,32200,29.63,NA,SCT  ft; BKN  ft,METAR CYEG 020700Z 25008KT 20SM SCT057 BKN110 01/01 A2963 RMK SC4AC3 SLP056,2025-11-02T07:23:39Z,2025-11-02T02:23:39Z
CYEG,2025-11-02T08:00:00Z,2025-11-02T03:00:00Z,VFR,1,0,93,260,8,32200,29.66,NA,SCT  ft; SCT  ft,METAR CYEG 020800Z 26008KT 20SM SCT140 SCT180 01/M00 A2966 RMK AC3AC1 SLP068,2025-11-02T08:30:00Z,2025-11-02T03:30:00Z
CYEG,2025-11-02T09:00:00Z,2025-11-02T04:00:00Z,VFR,1,-1,87,270,11,32200,29.69,NA,SCT  ft,METAR CYEG 020900Z 27011KT 20SM SCT140 01/M01 A2969 RMK AC3 SLP077,2025-11-02T09:23:22Z,2025-11-02T04:23:22Z
CYEG,2025-11-02T10:00:00Z,2025-11-02T05:00:00Z,VFR,1,-1,87,270,9,32200,29.71,NA,FEW  ft,METAR CYEG 021000Z 27009KT 20SM FEW150 01/M01 A2971 RMK AC2 SLP085,2025-11-02T10:24:59Z,2025-11-02T05:24:59Z
CYEG,2025-11-02T11:00:00Z,2025-11-02T06:00:00Z,VFR,-1,-2,93,250,6,32200,29.72,NA,FEW  ft,METAR CYEG 021100Z 25006KT 20SM FEW150 M01/M02 A2972 RMK AC1 SLP091,2025-11-02T11:19:31Z,2025-11-02T06:19:31Z
CYEG,2025-11-02T12:00:00Z,2025-11-02T07:00:00Z,VFR,-1,-3,86,230,9,32200,29.73,NA,FEW  ft,METAR CYEG 021200Z 23009KT 20SM FEW150 M01/M03 A2973 RMK AC1 AC TR SLP097,2025-11-02T12:48:25Z,2025-11-02T07:48:25Z
CYEG,2025-11-02T13:00:00Z,2025-11-02T08:00:00Z,VFR,-1,-3,86,230,9,32200,29.75,NA,FEW  ft,METAR CYEG 021300Z 23009KT 20SM FEW150 M01/M03 A2975 RMK AC1 AC TR SLP103,2025-11-02T13:28:12Z,2025-11-02T08:28:12Z
CYER,2025-11-01T04:11:00Z,2025-11-01T00:11:00Z,LIFR,0,NA,NA,290,6,14500,30.02,NA,BKN  ft; BKN  ft; BKN  ft,SPECI CYER 010411Z AUTO 29006KT 9SM BKN003 BKN018 BKN028 M00/ A3002 RMK DP MISG SLP168,2025-11-01T04:28:32Z,2025-11-01T00:28:32Z
CYER,2025-11-01T05:20:00Z,2025-11-01T01:20:00Z,LIFR,0,NA,NA,300,8,8000,30.02,NA,BKN  ft; BKN  ft; OVC  ft,SPECI CYER 010520Z AUTO 30008KT 5SM -SN BKN003 BKN016 OVC021 00/ A3002 RMK DP MISG SLP167,2025-11-01T05:25:05Z,2025-11-01T01:25:05Z
CYER,2025-11-01T06:14:00Z,2025-11-01T02:14:00Z,IFR,0,NA,NA,300,7,14500,30.01,NA,BKN  ft; BKN  ft; BKN  ft; OVC  ft,SPECI CYER 010614Z AUTO 30007KT 9SM BKN005 BKN008 BKN026 OVC042 M00/ A3001 RMK DP MISG SLP166,2025-11-01T06:35:11Z,2025-11-01T02:35:11Z
CYER,2025-11-01T07:16:00Z,2025-11-01T03:16:00Z,MVFR,0,NA,NA,300,7,6400,30.02,NA,SCT  ft; BKN  ft; OVC  ft,SPECI CYER 010716Z AUTO 30007KT 4SM -SN SCT005 BKN013 OVC018 M00/ A3002 RMK DP MISG SLP167,2025-11-01T07:22:57Z,2025-11-01T03:22:57Z
CYER,2025-11-01T08:00:00Z,2025-11-01T04:00:00Z,IFR,-1,NA,NA,290,5,14500,30.01,NA,BKN  ft; OVC  ft,METAR CYER 010800Z AUTO 29005KT 9SM BKN005 OVC039 M01/ A3001 RMK DP MISG SLP164,2025-11-01T08:30:51Z,2025-11-01T04:30:51Z
CYER,2025-11-01T09:15:00Z,2025-11-01T05:15:00Z,VFR,-2,NA,NA,290,7,14500,30.01,NA,FEW  ft; SCT  ft,SPECI CYER 010915Z AUTO 29007KT 9SM FEW009 SCT240 M02/ A3001 RMK DP MISG SLP165,2025-11-01T09:24:37Z,2025-11-01T05:24:37Z
CYER,2025-11-01T10:13:00Z,2025-11-01T06:13:00Z,IFR,0,NA,NA,290,8,3600,30,NA,SCT  ft; OVC  ft,SPECI CYER 011013Z AUTO 29008KT 2 1/4SM BR SCT004 OVC017 M00/ A3000 RMK DP MISG SLP163,2025-11-01T10:25:44Z,2025-11-01T06:25:44Z
CYER,2025-11-01T11:00:00Z,2025-11-01T07:00:00Z,IFR,0,NA,NA,290,9,2000,30.01,NA,BKN  ft; OVC  ft,METAR CYER 011100Z AUTO 29009KT 1 1/4SM BR BKN006 OVC011 M00/ A3001 RMK ICE INTMT DP MISG SLP166,2025-11-01T11:19:33Z,2025-11-01T07:19:33Z
CYER,2025-11-01T12:43:00Z,2025-11-01T08:43:00Z,LIFR,-1,NA,NA,290,9,2800,30.02,NA,BKN  ft; OVC  ft,SPECI CYER 011243Z AUTO 29009KT 1 3/4SM BR BKN004 OVC008 M01/ A3002 RMK VIS VRB 1-3 DP MISG SLP168,2025-11-01T12:49:05Z,2025-11-01T08:49:05Z
CYER,2025-11-01T13:24:00Z,2025-11-01T09:24:00Z,LIFR,-2,NA,NA,290,8,11300,30.02,NA,BKN  ft; OVC  ft,SPECI CYER 011324Z AUTO 29008G15KT 7SM BKN004 OVC010 M02/ A3002 RMK ICE INTMT DP MISG SLP170,2025-11-01T13:28:51Z,2025-11-01T09:28:51Z
CYER,2025-11-01T14:00:00Z,2025-11-01T10:00:00Z,IFR,-2,NA,NA,290,10,14500,30.03,NA,BKN  ft; OVC  ft,METAR CYER 011400Z AUTO 29010G15KT 9SM BKN006 OVC029 M02/ A3003 RMK ICE PAST HR DP MISG SLP172,2025-11-01T14:22:15Z,2025-11-01T10:22:15Z
CYER,2025-11-01T15:00:00Z,2025-11-01T11:00:00Z,IFR,-2,NA,NA,270,8,14500,30.02,NA,OVC  ft,METAR CYER 011500Z AUTO 27008KT 9SM OVC006 M02/ A3002 RMK DP MISG SLP169,2025-11-01T15:22:36Z,2025-11-01T11:22:36Z
CYER,2025-11-01T16:19:00Z,2025-11-01T12:19:00Z,IFR,-1,-1,100,250,8,14500,30.01,NA,BKN  ft,SPECI CYER 011619Z AUTO 25008KT 9SM BKN008 M01/M01 A3001 RMK SLP165,2025-11-01T16:28:36Z,2025-11-01T12:28:36Z
CYER,2025-11-01T17:08:00Z,2025-11-01T13:08:00Z,MVFR,-1,-1,100,270,8,14500,30,NA,BKN  ft; BKN  ft,SPECI CYER 011708Z AUTO 27008KT 9SM -SN BKN010 BKN250 M01/M01 A3000 RMK SLP163,2025-11-01T17:19:59Z,2025-11-01T13:19:59Z
CYER,2025-11-01T18:00:00Z,2025-11-01T14:00:00Z,MVFR,0,-1,93,260,7,14500,29.99,NA,OVC  ft,METAR CYER 011800Z AUTO 26007KT 9SM OVC010 M00/M01 A2999 RMK SLP158,2025-11-01T18:32:52Z,2025-11-01T14:32:52Z
CYER,2025-11-01T19:00:00Z,2025-11-01T15:00:00Z,MVFR,0,-1,93,250,11,14500,29.97,NA,BKN  ft; OVC  ft,METAR CYER 011900Z AUTO 25011G16KT 9SM BKN012 OVC240 00/M01 A2997 RMK SLP153,2025-11-01T19:18:49Z,2025-11-01T15:18:49Z
CYER,2025-11-01T20:00:00Z,2025-11-01T16:00:00Z,MVFR,1,-1,87,230,8,14500,29.94,NA,BKN  ft; BKN  ft,METAR CYER 012000Z AUTO 23008KT 9SM BKN014 BKN240 01/M01 A2994 RMK SLP142,2025-11-01T20:25:25Z,2025-11-01T16:25:25Z
CYER,2025-11-01T21:00:00Z,2025-11-01T17:00:00Z,VFR,0,-1,93,220,6,14500,29.9,NA,SCT  ft,METAR CYER 012100Z AUTO 22006KT 9SM SCT240 00/M01 A2990 RMK SLP128,2025-11-01T21:21:10Z,2025-11-01T17:21:10Z
CYER,2025-11-01T22:00:00Z,2025-11-01T18:00:00Z,VFR,0,-1,93,230,7,14500,29.9,NA,SCT  ft; BKN  ft,METAR CYER 012200Z AUTO 23007KT 9SM SCT220 BKN240 M00/M01 A2990 RMK SLP127,2025-11-01T22:23:03Z,2025-11-01T18:23:03Z
CYER,2025-11-01T23:00:00Z,2025-11-01T19:00:00Z,MVFR,0,-1,93,230,6,14500,29.89,NA,OVC  ft,METAR CYER 012300Z AUTO 23006KT 9SM OVC015 M00/M01 A2989 RMK SLP126,2025-11-01T23:22:47Z,2025-11-01T19:22:47Z
CYER,2025-11-02T01:20:00Z,2025-11-01T21:20:00Z,MVFR,0,-1,93,190,9,14500,29.84,NA,BKN  ft; BKN  ft,SPECI CYER 020120Z AUTO 19009KT 9SM BKN019 BKN250 M00/M01 A2984 RMK PRESFR SLP108,2025-11-02T02:08:15Z,2025-11-01T22:08:15Z
CYER,2025-11-02T02:00:00Z,2025-11-01T22:00:00Z,MVFR,0,-1,93,190,9,14500,29.8,NA,BKN  ft; OVC  ft,METAR CYER 020200Z AUTO 19009KT 9SM BKN015 OVC240 M00/M01 A2980 RMK SLP094,2025-11-02T02:25:11Z,2025-11-01T22:25:11Z
CYER,2025-11-02T03:03:00Z,2025-11-01T23:03:00Z,MVFR,0,0,100,210,9,14500,29.78,NA,BKN  ft; BKN  ft,SPECI CYER 020303Z AUTO 21009KT 9SM BKN020 BKN240 M00/M00 A2978 RMK SLP086,2025-11-02T03:49:50Z,2025-11-01T23:49:50Z
CYER,2025-11-02T04:15:00Z,2025-11-02T00:15:00Z,VFR,0,0,100,190,8,14500,29.74,NA,SCT  ft; BKN  ft,SPECI CYER 020415Z AUTO 19008KT 9SM SCT020 BKN240 M00/M00 A2974 RMK SLP074,2025-11-02T04:30:15Z,2025-11-02T00:30:15Z
CYER,2025-11-02T05:00:00Z,2025-11-02T01:00:00Z,VFR,-1,-1,100,190,7,14500,29.73,NA,FEW  ft; BKN  ft,METAR CYER 020500Z AUTO 19007KT 9SM FEW130 BKN240 M01/M01 A2973 RMK SLP069,2025-11-02T05:25:46Z,2025-11-02T01:25:46Z
CYER,2025-11-02T06:00:00Z,2025-11-02T01:00:00Z,VFR,0,0,100,190,11,14500,29.68,NA,OVC  ft,METAR CYER 020600Z AUTO 19011G16KT 9SM OVC120 M00/M00 A2968 RMK PRESFR SLP053,2025-11-02T06:36:52Z,2025-11-02T01:36:52Z
CYER,2025-11-02T07:00:00Z,2025-11-02T02:00:00Z,VFR,0,0,100,210,11,14500,29.65,NA,BKN  ft; OVC  ft,METAR CYER 020700Z AUTO 21011KT 9SM BKN120 OVC190 00/M00 A2965 RMK SLP045,2025-11-02T07:23:37Z,2025-11-02T02:23:37Z
CYER,2025-11-02T08:00:00Z,2025-11-02T03:00:00Z,VFR,0,-1,93,210,11,14500,29.62,NA,SCT  ft; BKN  ft; BKN  ft; OVC  ft,METAR CYER 020800Z AUTO 21011KT 9SM SCT025 BKN110 BKN170 OVC200 00/M01 A2962 RMK SLP034,2025-11-02T08:29:58Z,2025-11-02T03:29:58Z
CYER,2025-11-02T09:00:00Z,2025-11-02T04:00:00Z,VFR,0,-1,93,200,10,14500,29.58,NA,BKN  ft; BKN  ft; BKN  ft,METAR CYER 020900Z AUTO 20010G15KT 9SM BKN150 BKN200 BKN250 00/M01 A2958 RMK SLP021,2025-11-02T09:23:20Z,2025-11-02T04:23:20Z
CYER,2025-11-02T10:00:00Z,2025-11-02T05:00:00Z,VFR,0,0,100,190,10,14500,29.55,NA,FEW  ft; OVC  ft,METAR CYER 021000Z AUTO 19010G15KT 9SM FEW120 OVC150 00/M00 A2955 RMK SLP008,2025-11-02T10:24:57Z,2025-11-02T05:24:57Z
CYER,2025-11-02T11:00:00Z,2025-11-02T06:00:00Z,VFR,0,0,100,200,9,14500,29.53,NA,SCT  ft; OVC  ft,METAR CYER 021100Z AUTO 20009G16KT 9SM SCT027 OVC140 00/M00 A2953 RMK SLP002,2025-11-02T11:19:29Z,2025-11-02T06:19:29Z
CYER,2025-11-02T12:00:00Z,2025-11-02T07:00:00Z,MVFR,1,0,93,200,9,14500,29.5,NA,BKN  ft; OVC  ft,METAR CYER 021200Z AUTO 20009G15KT 9SM BKN027 OVC081 01/M00 A2950 RMK SLP993,2025-11-02T12:48:23Z,2025-11-02T07:48:23Z
CYER,2025-11-02T13:14:00Z,2025-11-02T08:14:00Z,VFR,1,0,93,190,8,14500,29.46,NA,BKN  ft; OVC  ft,SPECI CYER 021314Z AUTO 19008KT 9SM BKN050 OVC071 01/00 A2946 RMK SLP980,2025-11-02T13:28:10Z,2025-11-02T08:28:10Z
CYFB,2025-11-01T04:00:00Z,2025-11-01T00:00:00Z,VFR,-10,-13,79,360,4,24100,29.98,NA,SKC  ft,METAR CYFB 010400Z 36004KT 270V020 15SM SKC M10/M13 A2998 RMK SLP158,2025-11-01T04:28:35Z,2025-11-01T00:28:35Z
CYFB,2025-11-01T05:00:00Z,2025-11-01T01:00:00Z,VFR,-13,-16,78,350,5,24100,29.98,NA,FEW  ft,METAR CYFB 010500Z 35005KT 15SM FEW030 M13/M16 A2998 RMK SC1 SC TR SLP157,2025-11-01T05:25:08Z,2025-11-01T01:25:08Z
CYFB,2025-11-01T06:00:00Z,2025-11-01T02:00:00Z,VFR,-12,-14,85,360,4,24100,29.97,NA,FEW  ft,METAR CYFB 010600Z 36004KT 15SM FEW030 M12/M14 A2997 RMK SC1 SC TR SLP156,2025-11-01T06:35:14Z,2025-11-01T02:35:14Z
CYFB,2025-11-01T07:00:00Z,2025-11-01T03:00:00Z,VFR,-13,-15,85,340,6,24100,29.97,NA,FEW  ft,METAR CYFB 010700Z 34006KT 15SM FEW030 M13/M15 A2997 RMK SC1 SC TR SLP154,2025-11-01T07:23:05Z,2025-11-01T03:23:05Z
CYFB,2025-11-01T08:00:00Z,2025-11-01T04:00:00Z,VFR,-12,-14,85,320,6,24100,29.96,NA,FEW  ft,METAR CYFB 010800Z 32006KT 15SM FEW030 M12/M14 A2996 RMK SC1 SC TR SLP150,2025-11-01T08:30:54Z,2025-11-01T04:30:54Z
CYFB,2025-11-01T09:00:00Z,2025-11-01T05:00:00Z,VFR,-13,-15,85,350,8,24100,29.94,NA,FEW  ft,METAR CYFB 010900Z 35008KT 15SM FEW030 M13/M15 A2994 RMK SC1 SC TR SLP145,2025-11-01T09:24:40Z,2025-11-01T05:24:40Z
CYFB,2025-11-01T10:00:00Z,2025-11-01T06:00:00Z,VFR,-13,-16,78,330,8,24100,29.94,NA,FEW  ft,METAR CYFB 011000Z 33008KT 15SM FEW030 M13/M16 A2994 RMK SC1 SC TR SLP145,2025-11-01T10:25:47Z,2025-11-01T06:25:47Z
CYFB,2025-11-01T11:00:00Z,2025-11-01T07:00:00Z,VFR,-14,-16,85,330,8,24100,29.94,NA,SKC  ft,METAR CYFB 011100Z 33008KT 15SM SKC M14/M16 A2994 RMK SLP143,2025-11-01T11:19:36Z,2025-11-01T07:19:36Z
CYFB,2025-11-01T12:00:00Z,2025-11-01T08:00:00Z,VFR,-13,-15,85,320,11,48300,29.92,NA,FEW  ft,METAR CYFB 011200Z 32011KT 30SM FEW030 M13/M15 A2992 RMK SC1 SC TR SLP138,2025-11-01T12:49:09Z,2025-11-01T08:49:09Z
CYFB,2025-11-01T13:00:00Z,2025-11-01T09:00:00Z,VFR,-14,-16,85,340,7,48300,29.92,NA,FEW  ft,METAR CYFB 011300Z 34007KT 30SM FEW030 M14/M16 A2992 RMK SC1 SC TR SLP139,2025-11-01T13:28:55Z,2025-11-01T09:28:55Z
CYFB,2025-11-01T14:00:00Z,2025-11-01T10:00:00Z,VFR,-12,-15,79,310,10,48300,29.91,NA,FEW  ft; FEW  ft,METAR CYFB 011400Z 31010KT 30SM FEW030 FEW250 M12/M15 A2991 RMK SC1CI1 SC TR CI TR SLP134,2025-11-01T14:22:18Z,2025-11-01T10:22:18Z
CYFB,2025-11-01T15:00:00Z,2025-11-01T11:00:00Z,VFR,-11,-14,79,310,11,48300,29.9,NA,FEW  ft; FEW  ft,METAR CYFB 011500Z 31011KT 30SM FEW030 FEW250 M11/M14 A2990 RMK SC1CI1 SC TR CI TR SLP130,2025-11-01T15:22:39Z,2025-11-01T11:22:39Z
CYFB,2025-11-01T16:00:00Z,2025-11-01T12:00:00Z,VFR,-10,-13,79,320,9,48300,29.89,NA,FEW  ft; FEW  ft,METAR CYFB 011600Z 32009KT 30SM FEW030 FEW250 M10/M13 A2989 RMK SC1CI1 SC TR CI TR SLP128,2025-11-01T16:28:39Z,2025-11-01T12:28:39Z
CYFB,2025-11-01T17:00:00Z,2025-11-01T13:00:00Z,VFR,-10,-13,79,320,10,48300,29.88,NA,FEW  ft; FEW  ft,METAR CYFB 011700Z 32010KT 30SM FEW015 FEW250 M10/M13 A2988 RMK SC1CI1 SC TR CI TR SLP124,2025-11-01T17:20:05Z,2025-11-01T13:20:05Z
CYFB,2025-11-01T18:00:00Z,2025-11-01T14:00:00Z,VFR,-10,-13,79,320,7,48300,29.87,NA,FEW  ft; FEW  ft,METAR CYFB 011800Z 32007KT 30SM FEW015 FEW250 M10/M13 A2987 RMK SC1CI1 SC TR CI TR SLP122,2025-11-01T18:32:56Z,2025-11-01T14:32:56Z
CYFB,2025-11-01T19:00:00Z,2025-11-01T15:00:00Z,VFR,-11,-13,85,320,10,48300,29.86,NA,FEW  ft; FEW  ft,METAR CYFB 011900Z 32010KT 30SM FEW015 FEW250 M11/M13 A2986 RMK SC1CI1 SC TR CI TR SLP118,2025-11-01T19:18:53Z,2025-11-01T15:18:53Z
CYFB,2025-11-01T20:00:00Z,2025-11-01T16:00:00Z,VFR,-11,-14,79,320,10,48300,29.86,NA,SKC  ft,METAR CYFB 012000Z 32010KT 30SM SKC M11/M14 A2986 RMK SLP118,2025-11-01T20:25:28Z,2025-11-01T16:25:28Z
CYFB,2025-11-01T21:00:00Z,2025-11-01T17:00:00Z,VFR,-12,-14,85,320,9,48300,29.86,NA,SKC  ft,METAR CYFB 012100Z 32009KT 30SM SKC M12/M14 A2986 RMK SLP117,2025-11-01T21:21:12Z,2025-11-01T17:21:12Z
CYFB,2025-11-01T22:00:00Z,2025-11-01T18:00:00Z,VFR,-13,-15,85,320,11,24100,29.85,NA,SKC  ft,METAR CYFB 012200Z 32011KT 15SM SKC M13/M15 A2985 RMK SLP114,2025-11-01T22:23:07Z,2025-11-01T18:23:07Z
CYFB,2025-11-01T23:00:00Z,2025-11-01T19:00:00Z,VFR,-12,-14,85,320,8,24100,29.85,NA,SKC  ft,METAR CYFB 012300Z 32008KT 15SM SKC M12/M14 A2985 RMK SLP114,2025-11-01T23:22:50Z,2025-11-01T19:22:50Z
CYFB,2025-11-02T01:00:00Z,2025-11-01T21:00:00Z,VFR,-13,-14,92,320,11,24100,29.84,NA,SKC  ft,METAR CYFB 020100Z 32011KT 15SM SKC M13/M14 A2984 RMK SLP110,2025-11-02T02:08:18Z,2025-11-01T22:08:18Z
CYFB,2025-11-02T02:00:00Z,2025-11-01T22:00:00Z,VFR,-13,-15,85,320,9,24100,29.82,NA,SKC  ft,METAR CYFB 020200Z 32009KT 15SM SKC M13/M15 A2982 RMK SLP105,2025-11-02T02:25:14Z,2025-11-01T22:25:14Z
CYFB,2025-11-02T03:00:00Z,2025-11-01T23:00:00Z,VFR,-14,-16,85,320,9,24100,29.81,NA,SKC  ft,METAR CYFB 020300Z 32009KT 15SM SKC M14/M16 A2981 RMK SLP100,2025-11-02T03:49:53Z,2025-11-01T23:49:53Z
CYFB,2025-11-02T04:00:00Z,2025-11-02T00:00:00Z,VFR,-13,-15,85,330,12,24100,29.79,NA,SKC  ft,METAR CYFB 020400Z 33012KT 15SM SKC M13/M15 A2979 RMK SLP095,2025-11-02T04:30:22Z,2025-11-02T00:30:22Z
CYFB,2025-11-02T05:00:00Z,2025-11-02T01:00:00Z,VFR,-14,-16,85,330,8,24100,29.79,NA,SKC  ft,METAR CYFB 020500Z 33008KT 15SM SKC M14/M16 A2979 RMK SLP094,2025-11-02T05:25:49Z,2025-11-02T01:25:49Z
CYFB,2025-11-02T06:00:00Z,2025-11-02T01:00:00Z,VFR,-12,-14,85,310,11,24100,29.78,NA,SKC  ft,METAR CYFB 020600Z 31011KT 15SM SKC M12/M14 A2978 RMK SLP092,2025-11-02T06:36:55Z,2025-11-02T01:36:55Z
CYFB,2025-11-02T07:00:00Z,2025-11-02T02:00:00Z,VFR,-14,-16,85,320,11,24100,29.78,NA,SKC  ft,METAR CYFB 020700Z 32011KT 15SM SKC M14/M16 A2978 RMK SLP092,2025-11-02T07:23:40Z,2025-11-02T02:23:40Z
CYFB,2025-11-02T08:00:00Z,2025-11-02T03:00:00Z,VFR,-14,-15,92,330,10,24100,29.78,NA,SKC  ft,METAR CYFB 020800Z 33010KT 15SM SKC M14/M15 A2978 RMK SLP090,2025-11-02T08:30:02Z,2025-11-02T03:30:02Z
CYFB,2025-11-02T09:00:00Z,2025-11-02T04:00:00Z,VFR,-14,-16,85,320,10,24100,29.77,NA,SKC  ft,METAR CYFB 020900Z 32010KT 15SM SKC M14/M16 A2977 RMK SLP086,2025-11-02T09:23:23Z,2025-11-02T04:23:23Z
CYFB,2025-11-02T10:00:00Z,2025-11-02T05:00:00Z,VFR,-12,-14,85,320,9,24100,29.76,NA,SKC  ft,METAR CYFB 021000Z 32009KT 15SM SKC M12/M14 A2976 RMK SLP083,2025-11-02T10:25:00Z,2025-11-02T05:25:00Z
CYFB,2025-11-02T11:00:00Z,2025-11-02T06:00:00Z,VFR,-14,-15,92,320,9,24100,29.75,NA,FEW  ft,METAR CYFB 021100Z 32009KT 15SM FEW030 M14/M15 A2975 RMK SC1 SC TR SLP081,2025-11-02T11:19:34Z,2025-11-02T06:19:34Z
CYFB,2025-11-02T12:00:00Z,2025-11-02T07:00:00Z,VFR,-15,-16,92,330,10,48300,29.76,NA,FEW  ft,METAR CYFB 021200Z 33010KT 30SM FEW030 M15/M16 A2976 RMK SC1 SC TR FG BANK DIST S-W OVR BAY FROIN SLP082,2025-11-02T12:48:27Z,2025-11-02T07:48:27Z
CYFB,2025-11-02T13:00:00Z,2025-11-02T08:00:00Z,VFR,-15,-17,85,340,6,48300,29.75,NA,FEW  ft; FEW  ft; FEW  ft,METAR CYFB 021300Z 34006KT 30SM FEW001 FEW030 FEW260 M15/M17 A2975 RMK ST1SC1CI1 ST TR SC TR SEA SMOKE OVR BAY SLP079,2025-11-02T13:28:15Z,2025-11-02T08:28:15Z
CYFC,2025-11-01T04:00:00Z,2025-11-01T00:00:00Z,VFR,10,5,71,240,15,14500,28.91,NA,BKN  ft; BKN  ft; BKN  ft; OVC  ft,METAR CYFC 010400Z AUTO 24015G30KT 210V270 9SM BKN060 BKN071 BKN097 OVC130 10/05 A2891 RMK SLP793 DENSITY ALT 700FT,2025-11-01T04:28:35Z,2025-11-01T00:28:35Z
CYFC,2025-11-01T05:05:00Z,2025-11-01T01:05:00Z,VFR,9,5,76,230,15,14500,28.92,NA,FEW  ft; BKN  ft; OVC  ft,SPECI CYFC 010505Z AUTO 23015G24KT 9SM FEW044 BKN066 OVC082 09/05 A2892 RMK SLP796 DENSITY ALT 600FT,2025-11-01T05:25:07Z,2025-11-01T01:25:07Z
CYFC,2025-11-01T06:22:00Z,2025-11-01T02:22:00Z,MVFR,8,7,93,220,10,9700,28.93,NA,FEW  ft; BKN  ft; BKN  ft; OVC  ft,SPECI CYFC 010622Z AUTO 22010G18KT 6SM -RA BR FEW018 BKN022 BKN029 OVC039 08/07 A2893 RMK SLP800 DENSITY ALT 400FT,2025-11-01T06:35:14Z,2025-11-01T02:35:14Z
CYFC,2025-11-01T07:18:00Z,2025-11-01T03:18:00Z,MVFR,8,6,87,230,14,14500,28.94,NA,FEW  ft; BKN  ft; BKN  ft; OVC  ft,SPECI CYFC 010718Z AUTO 23014G25KT 9SM -RA FEW021 BKN026 BKN039 OVC060 08/06 A2894 RMK SLP803 DENSITY ALT 400FT,2025-11-01T07:23:04Z,2025-11-01T03:23:04Z
CYFC,2025-11-01T08:17:00Z,2025-11-01T04:17:00Z,MVFR,7,6,93,230,14,14500,28.96,NA,FEW  ft; BKN  ft; OVC  ft,SPECI CYFC 010817Z AUTO 23014G22KT 9SM FEW022 BKN030 OVC045 07/06 A2896 RMK SLP810 DENSITY ALT 300FT,2025-11-01T08:30:54Z,2025-11-01T04:30:54Z
CYFC,2025-11-01T09:13:00Z,2025-11-01T05:13:00Z,VFR,7,5,87,230,15,14500,28.99,NA,FEW  ft; SCT  ft; BKN  ft; OVC  ft,SPECI CYFC 010913Z AUTO 23015G25KT 9SM -RA FEW021 SCT027 BKN033 OVC048 07/05 A2899 RMK SLP820 DENSITY ALT 300FT,2025-11-01T09:24:39Z,2025-11-01T05:24:39Z
CYFC,2025-11-01T10:17:00Z,2025-11-01T06:17:00Z,MVFR,8,6,87,240,11,14500,29.04,NA,FEW  ft; BKN  ft; OVC  ft,SPECI CYFC 011017Z AUTO 24011G20KT 210V280 9SM FEW021 BKN027 OVC032 08/06 A2904 RMK SLP835 DENSITY ALT 300FT,2025-11-01T10:25:46Z,2025-11-01T06:25:46Z
CYFC,2025-11-01T11:00:00Z,2025-11-01T07:00:00Z,MVFR,8,6,87,240,13,14500,29.07,NA,SCT  ft; BKN  ft; OVC  ft,METAR CYFC 011100Z AUTO 24013G20KT 9SM SCT015 BKN022 OVC029 08/06 A2907 RMK SLP848,2025-11-01T11:19:35Z,2025-11-01T07:19:35Z
CYFC,2025-11-01T12:00:00Z,2025-11-01T08:00:00Z,VFR,8,4,76,270,12,14500,29.14,NA,FEW  ft,METAR CYFC 011200Z AUTO 27012G26KT 9SM FEW025 08/04 A2914 RMK SLP869,2025-11-01T12:49:08Z,2025-11-01T08:49:08Z
CYFC,2025-11-01T13:00:00Z,2025-11-01T09:00:00Z,VFR,8,5,82,260,10,14500,29.19,NA,FEW  ft; SCT  ft; OVC  ft,METAR CYFC 011300Z AUTO 26010G24KT 230V290 9SM FEW024 SCT029 OVC035 08/05 A2919 RMK SLP889,2025-11-01T13:28:55Z,2025-11-01T09:28:55Z
CYFC,2025-11-01T14:00:00Z,2025-11-01T10:00:00Z,VFR,9,3,66,260,15,14500,29.24,NA,OVC  ft,METAR CYFC 011400Z AUTO 26015G28KT 230V300 9SM OVC032 09/03 A2924 RMK PRESRR SLP904,2025-11-01T14:22:18Z,2025-11-01T10:22:18Z
CYFC,2025-11-01T15:00:00Z,2025-11-01T11:00:00Z,VFR,10,3,62,260,13,14500,29.29,NA,OVC  ft,METAR CYFC 011500Z AUTO 26013G24KT 230V300 9SM OVC034 10/03 A2929 RMK SLP920,2025-11-01T15:22:39Z,2025-11-01T11:22:39Z
CYFC,2025-11-01T16:00:00Z,2025-11-01T12:00:00Z,VFR,10,3,62,260,14,14500,29.3,NA,OVC  ft,METAR CYFC 011600Z AUTO 26014G25KT 230V310 9SM OVC038 10/03 A2930 RMK SLP924 DENSITY ALT 300FT,2025-11-01T16:28:38Z,2025-11-01T12:28:38Z
CYFC,2025-11-01T17:00:00Z,2025-11-01T13:00:00Z,VFR,11,3,58,280,16,14500,29.32,NA,BKN  ft; OVC  ft,METAR CYFC 011700Z AUTO 28016G31KT 9SM BKN040 OVC050 11/03 A2932 RMK SLP930 DENSITY ALT 300FT,2025-11-01T17:20:05Z,2025-11-01T13:20:05Z
CYFC,2025-11-01T18:00:00Z,2025-11-01T14:00:00Z,VFR,11,3,58,250,13,14500,29.35,NA,OVC  ft,METAR CYFC 011800Z AUTO 25013G26KT 230V310 9SM OVC042 11/03 A2935 RMK SLP941 DENSITY ALT 300FT,2025-11-01T18:32:55Z,2025-11-01T14:32:55Z
CYFC,2025-11-01T19:00:00Z,2025-11-01T15:00:00Z,VFR,10,2,58,250,15,14500,29.39,NA,BKN  ft; OVC  ft,METAR CYFC 011900Z AUTO 25015G26KT 220V290 9SM BKN046 OVC055 10/02 A2939 RMK SLP955,2025-11-01T19:18:53Z,2025-11-01T15:18:53Z
CYFC,2025-11-01T20:00:00Z,2025-11-01T16:00:00Z,VFR,10,2,58,270,12,14500,29.43,NA,OVC  ft,METAR CYFC 012000Z AUTO 27012G28KT 9SM OVC047 10/02 A2943 RMK SLP969,2025-11-01T20:25:28Z,2025-11-01T16:25:28Z
CYFC,2025-11-01T21:00:00Z,2025-11-01T17:00:00Z,VFR,10,1,54,280,14,14500,29.48,NA,OVC  ft,METAR CYFC 012100Z AUTO 28014G31KT 240V310 9SM OVC047 10/01 A2948 RMK PRESRR SLP987,2025-11-01T21:21:12Z,2025-11-01T17:21:12Z
CYFC,2025-11-01T22:00:00Z,2025-11-01T18:00:00Z,VFR,9,1,58,260,14,14500,29.54,NA,OVC  ft,METAR CYFC 012200Z AUTO 26014G29KT 9SM OVC050 09/01 A2954 RMK SLP004,2025-11-01T22:23:06Z,2025-11-01T18:23:06Z
CYFC,2025-11-01T23:00:00Z,2025-11-01T19:00:00Z,VFR,9,1,58,280,17,14500,29.59,NA,OVC  ft,METAR CYFC 012300Z AUTO 28017G33KT 230V330 9SM OVC047 09/01 A2959 RMK PRESRR SLP023,2025-11-01T23:22:49Z,2025-11-01T19:22:49Z
CYFC,2025-11-02T01:00:00Z,2025-11-01T21:00:00Z,VFR,7,0,61,300,15,14500,29.68,NA,FEW  ft; SCT  ft,METAR CYFC 020100Z AUTO 30015G40KT 250V330 9SM FEW043 SCT055 07/00 A2968 RMK SLP052,2025-11-02T02:08:18Z,2025-11-01T22:08:18Z
CYFC,2025-11-02T02:00:00Z,2025-11-01T22:00:00Z,VFR,7,1,66,290,13,14500,29.7,NA,OVC  ft,METAR CYFC 020200Z AUTO 29013G27KT 250V320 9SM OVC037 07/01 A2970 RMK SLP061,2025-11-02T02:25:14Z,2025-11-01T22:25:14Z
CYFC,2025-11-02T03:00:00Z,2025-11-01T23:00:00Z,VFR,7,0,61,300,15,14500,29.75,NA,OVC  ft,METAR CYFC 020300Z AUTO 30015G24KT 260V320 9SM OVC035 07/M00 A2975 RMK SLP075,2025-11-02T03:49:53Z,2025-11-01T23:49:53Z
CYFC,2025-11-02T04:00:00Z,2025-11-02T00:00:00Z,VFR,6,0,66,280,8,14500,29.78,NA,OVC  ft,METAR CYFC 020400Z AUTO 28008G18KT 250V310 9SM OVC035 06/M00 A2978 RMK SLP087,2025-11-02T04:30:22Z,2025-11-02T00:30:22Z
CYFC,2025-11-02T05:00:00Z,2025-11-02T01:00:00Z,VFR,6,0,66,280,8,14500,29.82,NA,OVC  ft,METAR CYFC 020500Z AUTO 28008G19KT 9SM OVC035 06/M00 A2982 RMK SLP100,2025-11-02T05:25:48Z,2025-11-02T01:25:48Z
CYFC,2025-11-02T06:00:00Z,2025-11-02T01:00:00Z,VFR,6,0,66,290,10,14500,29.84,NA,OVC  ft,METAR CYFC 020600Z AUTO 29010G22KT 250V330 9SM OVC033 06/M00 A2984 RMK SLP108,2025-11-02T06:36:55Z,2025-11-02T01:36:55Z
CYFC,2025-11-02T07:00:00Z,2025-11-02T02:00:00Z,VFR,5,0,70,280,9,14500,29.86,NA,SCT  ft,METAR CYFC 020700Z AUTO 28009G19KT 260V330 9SM SCT031 05/M00 A2986 RMK SLP115,2025-11-02T07:23:40Z,2025-11-02T02:23:40Z
CYFC,2025-11-02T08:00:00Z,2025-11-02T03:00:00Z,VFR,5,0,70,290,7,14500,29.9,NA,OVC  ft,METAR CYFC 020800Z AUTO 29007KT 9SM OVC031 05/M00 A2990 RMK SLP126,2025-11-02T08:30:01Z,2025-11-02T03:30:01Z
CYFC,2025-11-02T09:00:00Z,2025-11-02T04:00:00Z,VFR,4,0,75,270,4,14500,29.93,NA,FEW  ft,METAR CYFC 020900Z AUTO 27004KT 200V350 9SM FEW029 04/M00 A2993 RMK SLP136,2025-11-02T09:23:23Z,2025-11-02T04:23:23Z
CYFC,2025-11-02T10:00:00Z,2025-11-02T05:00:00Z,MVFR,4,0,75,280,5,14500,29.96,NA,OVC  ft,METAR CYFC 021000Z AUTO 28005KT 9SM OVC029 04/M00 A2996 RMK SLP149,2025-11-02T10:25:00Z,2025-11-02T05:25:00Z
CYFC,2025-11-02T11:14:00Z,2025-11-02T06:14:00Z,VFR,2,-1,81,240,4,14500,30,NA,FEW  ft,SPECI CYFC 021114Z AUTO 24004KT 9SM FEW029 02/M01 A3000 RMK SLP161,2025-11-02T11:19:33Z,2025-11-02T06:19:33Z
CYFC,2025-11-02T12:00:00Z,2025-11-02T07:00:00Z,VFR,3,0,81,250,4,14500,30.02,NA,CLR  ft,METAR CYFC 021200Z AUTO 25004KT 9SM CLR 03/M00 A3002 RMK SLP170,2025-11-02T12:48:27Z,2025-11-02T07:48:27Z
CYFC,2025-11-02T13:00:00Z,2025-11-02T08:00:00Z,VFR,5,-1,66,290,11,14500,30.05,NA,CLR  ft,METAR CYFC 021300Z AUTO 29011G16KT 250V320 9SM CLR 05/M01 A3005 RMK SLP180,2025-11-02T13:28:14Z,2025-11-02T08:28:14Z
CYGK,2025-11-01T03:00:00Z,2025-10-31T23:00:00Z,MVFR,4,3,93,280,12,8000,29.58,NA,OVC  ft,METAR CYGK 010300Z 28012G23KT 5SM -RA BR OVC014 04/03 A2958 RMK SC8 LAST STFD OBS/NXT 011000Z SLP022,2025-11-01T04:28:33Z,2025-11-01T00:28:33Z
CYGK,2025-11-01T10:00:00Z,2025-11-01T06:00:00Z,VFR,5,2,81,270,10,24100,29.78,NA,OVC  ft,METAR CYGK 011000Z 27010KT 15SM OVC040 05/02 A2978 RMK SC8 SLP090,2025-11-01T10:25:44Z,2025-11-01T06:25:44Z
CYGK,2025-11-01T11:00:00Z,2025-11-01T07:00:00Z,VFR,4,2,87,270,8,24100,29.81,NA,OVC  ft,METAR CYGK 011100Z 27008KT 15SM OVC040 04/02 A2981 RMK SC8 SLP100,2025-11-01T11:19:33Z,2025-11-01T07:19:33Z
CYGK,2025-11-01T12:00:00Z,2025-11-01T08:00:00Z,VFR,4,1,81,270,9,24100,29.84,NA,FEW  ft; BKN  ft,METAR CYGK 011200Z 27009G15KT 15SM FEW015 BKN040 04/01 A2984 RMK SC1SC6 SLP110,2025-11-01T12:49:06Z,2025-11-01T08:49:06Z
CYGK,2025-11-01T13:00:00Z,2025-11-01T09:00:00Z,VFR,4,1,81,270,9,24100,29.88,NA,FEW  ft; BKN  ft,METAR CYGK 011300Z 27009KT 15SM FEW015 BKN045 04/01 A2988 RMK SC1SC6 SLP125,2025-11-01T13:28:52Z,2025-11-01T09:28:52Z
CYGK,2025-11-01T14:00:00Z,2025-11-01T10:00:00Z,VFR,4,2,87,290,7,24100,29.91,NA,FEW  ft; BKN  ft,METAR CYGK 011400Z 29007KT 15SM FEW015 BKN045 04/02 A2991 RMK CF1SC6 SLP132,2025-11-01T14:22:16Z,2025-11-01T10:22:16Z
CYGK,2025-11-01T15:00:00Z,2025-11-01T11:00:00Z,VFR,5,1,76,300,8,24100,29.93,NA,SCT  ft; BKN  ft,METAR CYGK 011500Z 30008KT 15SM SCT022 BKN045 05/01 A2993 RMK CU3SC4 SLP139,2025-11-01T15:22:37Z,2025-11-01T11:22:37Z
CYGK,2025-11-01T16:00:00Z,2025-11-01T12:00:00Z,VFR,6,-1,61,310,9,24100,29.94,NA,FEW  ft; BKN  ft,METAR CYGK 011600Z CCA 31009G16KT 15SM VCSH FEW025 BKN039 06/M01 A2994 RMK SC1SC6 SLP145,2025-11-01T16:28:36Z,2025-11-01T12:28:36Z
CYGK,2025-11-01T17:00:00Z,2025-11-01T13:00:00Z,VFR,6,-1,61,330,13,24100,29.94,NA,OVC  ft,METAR CYGK 011700Z CCA 33013KT 15SM VCSH OVC032 06/M01 A2994 RMK SC8 SLP145,2025-11-01T17:20:01Z,2025-11-01T13:20:01Z
CYGK,2025-11-01T18:00:00Z,2025-11-01T14:00:00Z,VFR,6,0,66,310,9,24100,29.97,NA,FEW  ft; OVC  ft,METAR CYGK 011800Z 31009G16KT 15SM VCSH FEW020 OVC040 06/M00 A2997 RMK CU2SC6 SLP152,2025-11-01T18:32:53Z,2025-11-01T14:32:53Z
CYGK,2025-11-01T19:00:00Z,2025-11-01T15:00:00Z,VFR,6,0,66,270,8,24100,29.97,NA,FEW  ft; OVC  ft,METAR CYGK 011900Z 27008KT 250V320 15SM VCSH FEW019 OVC042 06/M00 A2997 RMK CU2SC6 SLP155,2025-11-01T19:18:50Z,2025-11-01T15:18:50Z
CYGK,2025-11-01T20:00:00Z,2025-11-01T16:00:00Z,VFR,6,1,71,290,7,24100,30,NA,SCT  ft; BKN  ft,METAR CYGK 012000Z 29007KT 15SM VCSH SCT029 BKN042 06/01 A3000 RMK CU4SC3 SLP163,2025-11-01T20:25:25Z,2025-11-01T16:25:25Z
CYGK,2025-11-01T21:00:00Z,2025-11-01T17:00:00Z,VFR,5,0,70,310,5,24100,30.02,NA,SCT  ft; OVC  ft,METAR CYGK 012100Z 31005KT 15SM VCSH SCT025 OVC033 05/00 A3002 RMK CU3SC5 SLP170,2025-11-01T21:21:10Z,2025-11-01T17:21:10Z
CYGK,2025-11-01T22:00:00Z,2025-11-01T18:00:00Z,VFR,6,0,66,300,10,24100,30.04,NA,FEW  ft; OVC  ft,METAR CYGK 012200Z 30010KT 15SM VCSH FEW025 OVC042 06/M00 A3004 RMK CU2SC6 SLP178,2025-11-01T22:23:04Z,2025-11-01T18:23:04Z
CYGK,2025-11-01T23:00:00Z,2025-11-01T19:00:00Z,VFR,5,1,76,280,4,24100,30.07,NA,BKN  ft,METAR CYGK 012300Z 28004KT 15SM BKN040 05/01 A3007 RMK SC7 SLP188,2025-11-01T23:22:48Z,2025-11-01T19:22:48Z
CYGK,2025-11-02T01:00:00Z,2025-11-01T21:00:00Z,VFR,5,0,70,300,5,24100,30.11,NA,OVC  ft,METAR CYGK 020100Z 30005KT 15SM OVC040 05/M00 A3011 RMK SC8 SLP200,2025-11-02T02:08:16Z,2025-11-01T22:08:16Z
CYGK,2025-11-02T02:00:00Z,2025-11-01T22:00:00Z,VFR,5,-1,66,290,5,24100,30.13,NA,OVC  ft,METAR CYGK 020200Z 29005KT 15SM OVC042 05/M01 A3013 RMK SC8 SLP207,2025-11-02T02:25:12Z,2025-11-01T22:25:12Z
CYGK,2025-11-02T03:00:00Z,2025-11-01T23:00:00Z,VFR,4,-2,65,290,5,24100,30.12,NA,OVC  ft,METAR CYGK 020300Z 29005KT 15SM OVC043 04/M02 A3012 RMK SC8 LAST STFD OBS/NXT 021100Z SLP206,2025-11-02T03:49:51Z,2025-11-01T23:49:51Z
CYGK,2025-11-02T11:00:00Z,2025-11-02T06:00:00Z,VFR,0,-3,80,290,7,24100,30.24,NA,BKN  ft,METAR CYGK 021100Z 29007KT 15SM BKN040 00/M03 A3024 RMK SC5 SLP247,2025-11-02T11:19:30Z,2025-11-02T06:19:30Z
CYGK,2025-11-02T12:00:00Z,2025-11-02T07:00:00Z,VFR,2,-3,70,310,7,24100,30.26,NA,BKN  ft,METAR CYGK 021200Z 31007KT 15SM BKN042 02/M03 A3026 RMK SC7 SLP254,2025-11-02T12:48:24Z,2025-11-02T07:48:24Z
CYGK,2025-11-02T13:00:00Z,2025-11-02T08:00:00Z,VFR,3,-2,70,320,7,24100,30.29,NA,BKN  ft,METAR CYGK 021300Z 32007KT 15SM BKN042 03/M02 A3029 RMK SC7 SLP263,2025-11-02T13:28:11Z,2025-11-02T08:28:11Z
CYHU,2025-10-31T18:00:00Z,2025-10-31T14:00:00Z,IFR,9,9,100,240,18,4800,28.96,NA,BKN  ft; OVC  ft,METAR CYHU 311800Z AUTO 24018G24KT 3SM RA BR BKN009 OVC013 09/09 A2896 RMK PCPN 3.2MM PAST HR SLP809 DENSITY ALT 600FT,2025-11-01T04:28:34Z,2025-11-01T00:28:34Z
CYHU,2025-11-01T10:00:00Z,2025-11-01T06:00:00Z,VFR,7,2,71,270,15,14500,29.52,NA,OVC  ft,METAR CYHU 011000Z AUTO 27015G24KT 9SM OVC035 07/02 A2952 RMK TS/LTNG TEMPO UNAVBL SLP001,2025-11-01T10:25:46Z,2025-11-01T06:25:46Z
CYHU,2025-11-01T11:00:00Z,2025-11-01T07:00:00Z,VFR,6,2,76,260,14,14500,29.56,NA,FEW  ft,METAR CYHU 011100Z AUTO 26014G23KT 9SM FEW033 06/02 A2956 RMK SLP014,2025-11-01T11:19:35Z,2025-11-01T07:19:35Z
CYHU,2025-11-01T12:00:00Z,2025-11-01T08:00:00Z,VFR,6,2,76,260,14,14500,29.61,NA,OVC  ft,METAR CYHU 011200Z AUTO 26014G24KT 9SM OVC033 06/02 A2961 RMK SLP030,2025-11-01T12:49:07Z,2025-11-01T08:49:07Z
CYHU,2025-11-01T13:00:00Z,2025-11-01T09:00:00Z,VFR,6,2,76,260,16,14500,29.65,NA,OVC  ft,METAR CYHU 011300Z AUTO 26016G24KT 9SM OVC033 06/02 A2965 RMK SLP045,2025-11-01T13:28:53Z,2025-11-01T09:28:53Z
CYHU,2025-11-01T14:00:00Z,2025-11-01T10:00:00Z,VFR,6,1,71,270,11,14500,29.7,NA,OVC  ft,METAR CYHU 011400Z AUTO 27011G21KT 9SM OVC033 06/01 A2970 RMK PRESRR SLP060,2025-11-01T14:22:17Z,2025-11-01T10:22:17Z
CYHU,2025-11-01T15:00:00Z,2025-11-01T11:00:00Z,VFR,7,1,66,280,14,14500,29.73,NA,OVC  ft,METAR CYHU 011500Z AUTO 28014G22KT 9SM OVC032 07/01 A2973 RMK SLP069,2025-11-01T15:22:38Z,2025-11-01T11:22:38Z
CYHU,2025-11-01T16:00:00Z,2025-11-01T12:00:00Z,VFR,6,0,66,290,16,14500,29.75,NA,BKN  ft; BKN  ft,METAR CYHU 011600Z AUTO 29016G25KT 9SM BKN034 BKN041 06/00 A2975 RMK SLP078,2025-11-01T16:28:38Z,2025-11-01T12:28:38Z
CYHU,2025-11-01T17:00:00Z,2025-11-01T13:00:00Z,VFR,7,0,61,270,15,14500,29.77,NA,FEW  ft; BKN  ft; OVC  ft,METAR CYHU 011700Z AUTO 27015G21KT 9SM FEW030 BKN038 OVC045 07/00 A2977 RMK SLP085,2025-11-01T17:20:03Z,2025-11-01T13:20:03Z
CYHU,2025-11-01T18:00:00Z,2025-11-01T14:00:00Z,VFR,6,0,66,270,13,14500,29.8,NA,OVC  ft,METAR CYHU 011800Z AUTO 27013G24KT 9SM OVC038 06/M00 A2980 RMK SLP093,2025-11-01T18:32:55Z,2025-11-01T14:32:55Z
CYHU,2025-11-01T19:00:00Z,2025-11-01T15:00:00Z,VFR,7,-2,53,290,13,14500,29.82,NA,OVC  ft,METAR CYHU 011900Z AUTO 29013G24KT 9SM OVC042 07/M02 A2982 RMK SLP102,2025-11-01T19:18:52Z,2025-11-01T15:18:52Z
CYHU,2025-11-01T20:00:00Z,2025-11-01T16:00:00Z,VFR,6,-2,57,280,17,14500,29.86,NA,OVC  ft,METAR CYHU 012000Z AUTO 28017G23KT 9SM OVC044 06/M02 A2986 RMK SLP114,2025-11-01T20:25:27Z,2025-11-01T16:25:27Z
CYHU,2025-11-01T21:00:00Z,2025-11-01T17:00:00Z,VFR,6,-1,61,270,16,14500,29.89,NA,OVC  ft,METAR CYHU 012100Z AUTO 27016KT 9SM OVC046 06/M01 A2989 RMK SLP126,2025-11-01T21:21:11Z,2025-11-01T17:21:11Z
CYHU,2025-11-01T22:00:00Z,2025-11-01T18:00:00Z,VFR,6,-1,61,280,12,14500,29.92,NA,OVC  ft,METAR CYHU 012200Z AUTO 28012G20KT 9SM OVC046 06/M01 A2992 RMK SLP136,2025-11-01T22:23:06Z,2025-11-01T18:23:06Z
CYHU,2025-11-01T23:00:00Z,2025-11-01T19:00:00Z,VFR,5,-2,61,310,9,14500,29.96,NA,FEW  ft,METAR CYHU 012300Z AUTO 31009G16KT 9SM FEW046 05/M02 A2996 RMK SLP148,2025-11-01T23:22:49Z,2025-11-01T19:22:49Z
CYHU,2025-11-02T01:00:00Z,2025-11-01T21:00:00Z,VFR,3,-1,75,260,7,14500,30.01,NA,CLR  ft,METAR CYHU 020100Z AUTO 26007KT 9SM CLR 03/M01 A3001 RMK SLP164,2025-11-02T02:08:17Z,2025-11-01T22:08:17Z
CYHU,2025-11-02T02:00:00Z,2025-11-01T22:00:00Z,VFR,3,-1,75,250,10,14500,30.02,NA,CLR  ft,METAR CYHU 020200Z AUTO 25010KT 9SM CLR 03/M01 A3002 RMK SLP170,2025-11-02T02:25:13Z,2025-11-01T22:25:13Z
CYHU,2025-11-02T03:00:00Z,2025-11-01T23:00:00Z,VFR,3,-1,75,250,6,14500,30.04,NA,CLR  ft,METAR CYHU 020300Z AUTO 25006KT 9SM CLR 03/M01 A3004 RMK SLP176,2025-11-02T03:49:52Z,2025-11-01T23:49:52Z
CYHU,2025-11-02T04:00:00Z,2025-11-02T00:00:00Z,VFR,4,0,75,270,8,14500,30.05,NA,BKN  ft,METAR CYHU 020400Z AUTO 27008KT 9SM BKN047 04/M00 A3005 RMK SLP178,2025-11-02T04:30:21Z,2025-11-02T00:30:21Z
CYHU,2025-11-02T05:00:00Z,2025-11-02T01:00:00Z,VFR,5,0,70,280,6,14500,30.07,NA,OVC  ft,METAR CYHU 020500Z AUTO 28006KT 9SM OVC045 05/M00 A3007 RMK SLP184,2025-11-02T05:25:48Z,2025-11-02T01:25:48Z
CYHU,2025-11-02T06:00:00Z,2025-11-02T01:00:00Z,VFR,5,0,70,280,8,14500,30.08,NA,OVC  ft,METAR CYHU 020600Z AUTO 28008KT 9SM OVC045 05/M00 A3008 RMK SLP189,2025-11-02T06:36:54Z,2025-11-02T01:36:54Z
CYHU,2025-11-02T07:00:00Z,2025-11-02T02:00:00Z,VFR,5,-1,66,280,7,14500,30.09,NA,OVC  ft,METAR CYHU 020700Z AUTO 28007KT 9SM OVC043 05/M01 A3009 RMK SLP193,2025-11-02T07:23:39Z,2025-11-02T02:23:39Z
CYHU,2025-11-02T08:00:00Z,2025-11-02T03:00:00Z,VFR,5,-1,66,290,7,14500,30.11,NA,OVC  ft,METAR CYHU 020800Z AUTO 29007KT 9SM OVC039 05/M01 A3011 RMK SLP200,2025-11-02T08:30:00Z,2025-11-02T03:30:00Z
CYHU,2025-11-02T09:00:00Z,2025-11-02T04:00:00Z,VFR,5,0,70,300,7,14500,30.14,NA,OVC  ft,METAR CYHU 020900Z AUTO 30007KT 9SM OVC039 05/M00 A3014 RMK SLP209,2025-11-02T09:23:22Z,2025-11-02T04:23:22Z
CYHU,2025-11-02T10:00:00Z,2025-11-02T05:00:00Z,VFR,4,-1,70,310,5,14500,30.17,NA,OVC  ft,METAR CYHU 021000Z AUTO 31005KT 9SM OVC039 04/M01 A3017 RMK SLP220,2025-11-02T10:24:59Z,2025-11-02T05:24:59Z
CYHU,2025-11-02T11:00:00Z,2025-11-02T06:00:00Z,VFR,4,-1,70,280,2,14500,30.19,NA,OVC  ft,METAR CYHU 021100Z AUTO 28002KT 9SM OVC039 04/M01 A3019 RMK SLP227,2025-11-02T11:19:32Z,2025-11-02T06:19:32Z
CYHU,2025-11-02T12:00:00Z,2025-11-02T07:00:00Z,VFR,4,0,75,230,4,14500,30.21,NA,OVC  ft,METAR CYHU 021200Z AUTO 23004KT 210V300 9SM OVC041 04/00 A3021 RMK SLP232,2025-11-02T12:48:26Z,2025-11-02T07:48:26Z
CYHU,2025-11-02T13:00:00Z,2025-11-02T08:00:00Z,VFR,5,0,70,280,3,14500,30.23,NA,OVC  ft,METAR CYHU 021300Z AUTO 28003KT 9SM OVC043 05/M00 A3023 RMK SLP241,2025-11-02T13:28:13Z,2025-11-02T08:28:13Z
CYHZ,2025-11-01T04:00:00Z,2025-11-01T00:00:00Z,MVFR,11,8,82,230,21,24100,29.04,NA,BKN  ft; OVC  ft,METAR CYHZ 010400Z 23021G28KT 15SM BKN021 OVC085 11/08 A2904 RMK SC7AC1 SLP836 DENSITY ALT 1100FT,2025-11-01T04:28:35Z,2025-11-01T00:28:35Z
CYHZ,2025-11-01T05:00:00Z,2025-11-01T01:00:00Z,VFR,10,7,82,240,27,24100,29.05,NA,OVC  ft,METAR CYHZ 010500Z 24027G38KT 15SM OVC041 10/07 A2905 RMK SC8 SLP839 DENSITY ALT 1100FT,2025-11-01T05:25:07Z,2025-11-01T01:25:07Z
CYHZ,2025-11-01T06:00:00Z,2025-11-01T02:00:00Z,MVFR,10,6,76,240,27,24100,29.05,NA,BKN  ft; OVC  ft,METAR CYHZ 010600Z 24027G36KT 15SM BKN021 OVC037 10/06 A2905 RMK SC6SC2 SLP842 DENSITY ALT 1000FT,2025-11-01T06:35:14Z,2025-11-01T02:35:14Z
CYHZ,2025-11-01T07:00:00Z,2025-11-01T03:00:00Z,VFR,9,6,82,240,23,24100,29.06,NA,FEW  ft; OVC  ft,METAR CYHZ 010700Z 24023G37KT 15SM FEW022 OVC039 09/06 A2906 RMK CU2SC6 SLP844 DENSITY ALT 1000FT,2025-11-01T07:23:04Z,2025-11-01T03:23:04Z
CYHZ,2025-11-01T08:00:00Z,2025-11-01T04:00:00Z,VFR,9,6,82,230,24,24100,29.05,NA,FEW  ft; OVC  ft,METAR CYHZ 010800Z 23024G34KT 15SM FEW020 OVC040 09/06 A2905 RMK SC2SC6 SLP841 DENSITY ALT 900FT,2025-11-01T08:30:54Z,2025-11-01T04:30:54Z
CYHZ,2025-11-01T09:00:00Z,2025-11-01T05:00:00Z,MVFR,9,6,82,230,20,24100,29.06,NA,BKN  ft; OVC  ft,METAR CYHZ 010900Z 23020G27KT 15SM BKN023 OVC042 09/06 A2906 RMK SC6SC2 SLP845 DENSITY ALT 900FT,2025-11-01T09:24:39Z,2025-11-01T05:24:39Z
CYHZ,2025-11-01T10:05:00Z,2025-11-01T06:05:00Z,MVFR,8,6,87,230,23,12900,29.06,NA,BKN  ft; OVC  ft,SPECI CYHZ 011005Z 23023G31KT 8SM -RA BKN018 OVC030 08/06 A2906 RMK SC7SC1 SLP846 DENSITY ALT 800FT,2025-11-01T10:25:46Z,2025-11-01T06:25:46Z
CYHZ,2025-11-01T11:00:00Z,2025-11-01T07:00:00Z,MVFR,8,5,82,250,22,24100,29.08,NA,BKN  ft; OVC  ft,METAR CYHZ 011100Z 25022G34KT 15SM BKN018 OVC032 08/05 A2908 RMK SC7SC1 SLP852 DENSITY ALT 800FT,2025-11-01T11:19:35Z,2025-11-01T07:19:35Z
CYHZ,2025-11-01T12:00:00Z,2025-11-01T08:00:00Z,MVFR,8,6,87,260,20,24100,29.12,NA,BKN  ft,METAR CYHZ 011200Z 26020G29KT 15SM BKN019 08/06 A2912 RMK SC7 SLP863 DENSITY ALT 800FT,2025-11-01T12:49:08Z,2025-11-01T08:49:08Z
CYHZ,2025-11-01T13:00:00Z,2025-11-01T09:00:00Z,MVFR,9,6,82,250,20,24100,29.16,NA,OVC  ft,METAR CYHZ 011300Z 25020G33KT 15SM OVC022 09/06 A2916 RMK SC8 PRESRR SLP878 DENSITY ALT 800FT,2025-11-01T13:28:54Z,2025-11-01T09:28:54Z
CYHZ,2025-11-01T14:00:00Z,2025-11-01T10:00:00Z,MVFR,9,5,76,260,21,24100,29.19,NA,OVC  ft,METAR CYHZ 011400Z 26021G38KT 15SM OVC025 09/05 A2919 RMK SC8 SLP887 DENSITY ALT 800FT,2025-11-01T14:22:18Z,2025-11-01T10:22:18Z
CYHZ,2025-11-01T15:00:00Z,2025-11-01T11:00:00Z,MVFR,9,6,82,260,20,24100,29.23,NA,OVC  ft,METAR CYHZ 011500Z 26020G26KT 15SM OVC023 09/06 A2923 RMK SC8 SLP902 DENSITY ALT 700FT,2025-11-01T15:22:39Z,2025-11-01T11:22:39Z
CYHZ,2025-11-01T16:00:00Z,2025-11-01T12:00:00Z,MVFR,9,5,76,280,20,24100,29.24,NA,BKN  ft,METAR CYHZ 011600Z 28020G28KT 15SM BKN027 09/05 A2924 RMK SC7 SLP907 DENSITY ALT 700FT,2025-11-01T16:28:38Z,2025-11-01T12:28:38Z
CYHZ,2025-11-01T17:00:00Z,2025-11-01T13:00:00Z,MVFR,10,4,67,260,19,24100,29.28,NA,OVC  ft,METAR CYHZ 011700Z 26019G26KT 15SM OVC029 10/04 A2928 RMK SC8 SLP918 DENSITY ALT 700FT,2025-11-01T17:20:04Z,2025-11-01T13:20:04Z
CYHZ,2025-11-01T18:00:00Z,2025-11-01T14:00:00Z,VFR,10,4,67,280,17,24100,29.3,NA,BKN  ft,METAR CYHZ 011800Z 28017G31KT 15SM BKN032 10/04 A2930 RMK SC8 SLP927 DENSITY ALT 800FT,2025-11-01T18:32:55Z,2025-11-01T14:32:55Z
CYHZ,2025-11-01T19:00:00Z,2025-11-01T15:00:00Z,VFR,10,4,67,270,19,24100,29.35,NA,OVC  ft,METAR CYHZ 011900Z 27019G29KT 15SM OVC035 10/04 A2935 RMK SC8 SLP942 DENSITY ALT 700FT,2025-11-01T19:18:52Z,2025-11-01T15:18:52Z
CYHZ,2025-11-01T20:00:00Z,2025-11-01T16:00:00Z,VFR,10,4,67,270,19,24100,29.39,NA,OVC  ft,METAR CYHZ 012000Z 27019G29KT 15SM OVC031 10/04 A2939 RMK SC8 SLP958,2025-11-01T20:25:28Z,2025-11-01T16:25:28Z
CYHZ,2025-11-01T21:00:00Z,2025-11-01T17:00:00Z,VFR,10,4,67,270,23,24100,29.43,NA,BKN  ft,METAR CYHZ 012100Z 27023G32KT 230V310 15SM -RA BKN035 10/04 A2943 RMK SC7 SLP971,2025-11-01T21:21:12Z,2025-11-01T17:21:12Z
CYHZ,2025-11-01T22:00:00Z,2025-11-01T18:00:00Z,VFR,9,4,71,270,17,24100,29.48,NA,BKN  ft; BKN  ft,METAR CYHZ 012200Z 27017G24KT 15SM BKN032 BKN050 09/04 A2948 RMK SC5SC2 SLP986,2025-11-01T22:23:06Z,2025-11-01T18:23:06Z
CYHZ,2025-11-01T23:00:00Z,2025-11-01T19:00:00Z,VFR,9,3,66,280,24,24100,29.52,NA,FEW  ft; OVC  ft,METAR CYHZ 012300Z 28024G30KT 15SM FEW036 OVC048 09/03 A2952 RMK SC2SC6 PRESRR SLP002,2025-11-01T23:22:49Z,2025-11-01T19:22:49Z
CYHZ,2025-11-02T01:00:00Z,2025-11-01T21:00:00Z,VFR,8,2,66,290,14,24100,29.59,NA,OVC  ft,METAR CYHZ 020100Z 29014G24KT 15SM OVC036 08/02 A2959 RMK SC8 SLP024,2025-11-02T02:08:18Z,2025-11-01T22:08:18Z
CYHZ,2025-11-02T02:00:00Z,2025-11-01T22:00:00Z,VFR,8,2,66,280,17,24100,29.61,NA,BKN  ft,METAR CYHZ 020200Z 28017G28KT 15SM BKN037 08/02 A2961 RMK SC7 SLP033,2025-11-02T02:25:14Z,2025-11-01T22:25:14Z
CYHZ,2025-11-02T03:00:00Z,2025-11-01T23:00:00Z,VFR,8,2,66,280,15,24100,29.64,NA,BKN  ft,METAR CYHZ 020300Z 28015G22KT 15SM BKN038 08/02 A2964 RMK SC7 SLP043,2025-11-02T03:49:53Z,2025-11-01T23:49:53Z
CYHZ,2025-11-02T04:00:00Z,2025-11-02T00:00:00Z,VFR,7,2,71,280,13,24100,29.68,NA,BKN  ft,METAR CYHZ 020400Z 28013G22KT 15SM BKN037 07/02 A2968 RMK SC7 SLP055,2025-11-02T04:30:22Z,2025-11-02T00:30:22Z
CYHZ,2025-11-02T05:00:00Z,2025-11-02T01:00:00Z,VFR,7,1,66,300,18,24100,29.71,NA,SCT  ft,METAR CYHZ 020500Z 30018G25KT 15SM SCT030 07/01 A2971 RMK SC4 SLP067,2025-11-02T05:25:48Z,2025-11-02T01:25:48Z
CYHZ,2025-11-02T06:00:00Z,2025-11-02T01:00:00Z,VFR,7,2,71,290,17,24100,29.74,NA,BKN  ft,METAR CYHZ 020600Z 29017G23KT 15SM BKN036 07/02 A2974 RMK SC5 SLP078,2025-11-02T06:36:55Z,2025-11-02T01:36:55Z
CYHZ,2025-11-02T07:00:00Z,2025-11-02T02:00:00Z,VFR,6,1,71,310,17,24100,29.77,NA,FEW  ft,METAR CYHZ 020700Z 31017G26KT 15SM FEW033 06/01 A2977 RMK SC1 SLP087,2025-11-02T07:23:40Z,2025-11-02T02:23:40Z
CYHZ,2025-11-02T08:00:00Z,2025-11-02T03:00:00Z,VFR,5,1,76,290,12,24100,29.81,NA,FEW  ft,METAR CYHZ 020800Z 29012G20KT 15SM FEW033 05/01 A2981 RMK SC1 SC TR SLP100,2025-11-02T08:30:01Z,2025-11-02T03:30:01Z
CYHZ,2025-11-02T09:00:00Z,2025-11-02T04:00:00Z,VFR,5,1,76,290,13,24100,29.84,NA,FEW  ft,METAR CYHZ 020900Z 29013G19KT 15SM FEW030 05/01 A2984 RMK SC1 SC TR SLP110,2025-11-02T09:23:23Z,2025-11-02T04:23:23Z
CYHZ,2025-11-02T10:00:00Z,2025-11-02T05:00:00Z,VFR,5,1,76,290,17,24100,29.87,NA,FEW  ft,METAR CYHZ 021000Z 29017KT 15SM FEW030 05/01 A2987 RMK SC1 SC TR SLP119,2025-11-02T10:25:00Z,2025-11-02T05:25:00Z
CYHZ,2025-11-02T11:00:00Z,2025-11-02T06:00:00Z,VFR,4,1,81,300,13,24100,29.9,NA,FEW  ft,METAR CYHZ 021100Z 30013G19KT 15SM FEW030 04/01 A2990 RMK SC1 SC TR SLP129,2025-11-02T11:19:33Z,2025-11-02T06:19:33Z
CYHZ,2025-11-02T12:00:00Z,2025-11-02T07:00:00Z,VFR,5,1,76,300,9,24100,29.94,NA,FEW  ft,METAR CYHZ 021200Z 30009KT 15SM FEW030 05/01 A2994 RMK SC1 SC TR SLP146,2025-11-02T12:48:27Z,2025-11-02T07:48:27Z
CYHZ,2025-11-02T13:00:00Z,2025-11-02T08:00:00Z,VFR,6,1,71,300,12,24100,29.98,NA,SCT  ft,METAR CYHZ 021300Z 30012KT 270V330 15SM SCT024 06/01 A2998 RMK SC3 SLP157,2025-11-02T13:28:14Z,2025-11-02T08:28:14Z
CYLW,2025-11-01T04:00:00Z,2025-11-01T00:00:00Z,VFR,7,3,76,180,4,14500,29.92,NA,OVC  ft,METAR CYLW 010400Z AUTO 18004KT 150V240 9SM OVC071 07/03 A2992 RMK SLP147,2025-11-01T04:28:33Z,2025-11-01T00:28:33Z
CYLW,2025-11-01T05:00:00Z,2025-11-01T01:00:00Z,VFR,9,3,66,230,6,14500,29.91,NA,OVC  ft,METAR CYLW 010500Z AUTO 23006KT 150V260 9SM OVC066 09/03 A2991 RMK SLP144,2025-11-01T05:25:06Z,2025-11-01T01:25:06Z
CYLW,2025-11-01T06:26:00Z,2025-11-01T02:26:00Z,VFR,8,3,71,150,5,14500,29.92,NA,OVC  ft,SPECI CYLW 010626Z AUTO 15005KT 110V190 9SM OVC060 08/03 A2992 RMK SLP144,2025-11-01T06:35:12Z,2025-11-01T02:35:12Z
CYLW,2025-11-01T07:00:00Z,2025-11-01T03:00:00Z,VFR,9,3,66,180,3,14500,29.92,NA,OVC  ft,METAR CYLW 010700Z AUTO 18003KT 140V240 9SM OVC055 09/03 A2992 RMK SLP145,2025-11-01T07:23:00Z,2025-11-01T03:23:00Z
CYLW,2025-11-01T08:00:00Z,2025-11-01T04:00:00Z,VFR,8,3,71,0,0,14500,29.92,NA,OVC  ft,METAR CYLW 010800Z AUTO 00000KT 9SM OVC066 08/03 A2992 RMK SLP146,2025-11-01T08:30:52Z,2025-11-01T04:30:52Z
CYLW,2025-11-01T09:00:00Z,2025-11-01T05:00:00Z,VFR,8,4,76,210,3,14500,29.91,NA,FEW  ft; SCT  ft; OVC  ft,METAR CYLW 010900Z AUTO 21003KT 090V230 9SM FEW055 SCT077 OVC094 08/04 A2991 RMK SLP141,2025-11-01T09:24:38Z,2025-11-01T05:24:38Z
CYLW,2025-11-01T10:00:00Z,2025-11-01T06:00:00Z,VFR,8,4,76,140,5,14500,29.91,NA,SCT  ft; BKN  ft; OVC  ft,METAR CYLW 011000Z AUTO 14005KT 110V190 9SM SCT055 BKN081 OVC093 08/04 A2991 RMK SLP139,2025-11-01T10:25:45Z,2025-11-01T06:25:45Z
CYLW,2025-11-01T11:06:00Z,2025-11-01T07:06:00Z,VFR,8,4,76,150,5,14500,29.89,NA,BKN  ft; OVC  ft,SPECI CYLW 011106Z AUTO 15005KT 120V190 9SM -RA BKN060 OVC074 08/04 A2989 RMK SLP133,2025-11-01T11:19:34Z,2025-11-01T07:19:34Z
CYLW,2025-11-01T12:00:00Z,2025-11-01T08:00:00Z,VFR,7,4,81,200,3,14500,29.86,NA,OVC  ft,METAR CYLW 011200Z AUTO 20003KT 110V220 9SM OVC042 07/04 A2986 RMK SLP123,2025-11-01T12:49:06Z,2025-11-01T08:49:06Z
CYLW,2025-11-01T13:00:00Z,2025-11-01T09:00:00Z,VFR,6,4,87,170,6,14500,29.82,NA,BKN  ft,METAR CYLW 011300Z AUTO 17006KT 9SM BKN055 06/04 A2982 RMK SLP111,2025-11-01T13:28:52Z,2025-11-01T09:28:52Z
CYLW,2025-11-01T14:00:00Z,2025-11-01T10:00:00Z,VFR,7,4,81,0,2,14500,29.78,NA,OVC  ft,METAR CYLW 011400Z AUTO VRB02KT 9SM -RA OVC032 07/04 A2978 RMK SLP094,2025-11-01T14:22:16Z,2025-11-01T10:22:16Z
CYLW,2025-11-01T15:10:00Z,2025-11-01T11:10:00Z,VFR,7,5,87,170,4,14500,29.71,NA,SCT  ft; BKN  ft; OVC  ft,SPECI CYLW 011510Z AUTO 17004KT 120V190 9SM -RA SCT028 BKN033 OVC047 07/05 A2971 RMK SLP073,2025-11-01T15:22:37Z,2025-11-01T11:22:37Z
CYLW,2025-11-01T16:22:00Z,2025-11-01T12:22:00Z,MVFR,7,5,87,150,7,14500,29.67,NA,FEW  ft; BKN  ft; OVC  ft,SPECI CYLW 011622Z AUTO 15007KT 9SM FEW017 BKN023 OVC029 07/05 A2967 RMK SLP056,2025-11-01T16:28:37Z,2025-11-01T12:28:37Z
CYLW,2025-11-01T17:00:00Z,2025-11-01T13:00:00Z,MVFR,7,5,87,120,5,14500,29.64,NA,OVC  ft,METAR CYLW 011700Z AUTO 12005KT 100V180 9SM -RA OVC025 07/05 A2964 RMK SLP047,2025-11-01T17:20:02Z,2025-11-01T13:20:02Z
CYLW,2025-11-01T18:12:00Z,2025-11-01T14:12:00Z,MVFR,8,6,87,0,2,14500,29.59,NA,BKN  ft; OVC  ft,SPECI CYLW 011812Z AUTO VRB02KT 9SM BKN027 OVC034 08/06 A2959 RMK PRESFR SLP028,2025-11-01T18:32:54Z,2025-11-01T14:32:54Z
CYLW,2025-11-01T19:02:00Z,2025-11-01T15:02:00Z,VFR,10,6,76,80,4,14500,29.58,NA,FEW  ft; BKN  ft; BKN  ft; OVC  ft,SPECI CYLW 011902Z AUTO 08004KT 010V160 9SM -RA FEW029 BKN035 BKN042 OVC049 10/06 A2958 RMK SLP025,2025-11-01T19:18:50Z,2025-11-01T15:18:50Z
CYLW,2025-11-01T20:01:00Z,2025-11-01T16:01:00Z,MVFR,10,6,76,0,4,14500,29.6,NA,BKN  ft; OVC  ft,SPECI CYLW 012001Z AUTO VRB04KT 9SM BKN022 OVC027 10/06 A2960 RMK SLP031,2025-11-01T20:25:26Z,2025-11-01T16:25:26Z
CYLW,2025-11-01T21:18:00Z,2025-11-01T17:18:00Z,MVFR,9,7,87,160,9,14500,29.65,NA,SCT  ft; BKN  ft; OVC  ft,SPECI CYLW 012118Z AUTO 16009KT 9SM -RA SCT016 BKN023 OVC071 09/07 A2965 RMK PCPN 0.5MM PAST HR SLP050,2025-11-01T21:21:11Z,2025-11-01T17:21:11Z
CYLW,2025-11-01T22:00:00Z,2025-11-01T18:00:00Z,VFR,10,7,82,210,6,14500,29.67,NA,FEW  ft; SCT  ft; OVC  ft,METAR CYLW 012200Z AUTO 21006KT 9SM FEW020 SCT081 OVC110 10/07 A2967 RMK PCPN 0.5MM PAST HR SLP058,2025-11-01T22:23:05Z,2025-11-01T18:23:05Z
CYLW,2025-11-01T23:00:00Z,2025-11-01T19:00:00Z,VFR,10,7,82,210,10,14500,29.69,NA,FEW  ft,METAR CYLW 012300Z AUTO 21010G18KT 170V240 9SM FEW015 10/07 A2969 RMK PRESRR SLP064,2025-11-01T23:22:48Z,2025-11-01T19:22:48Z
CYLW,2025-11-02T01:00:00Z,2025-11-01T21:00:00Z,VFR,9,6,82,140,12,14500,29.76,NA,FEW  ft,METAR CYLW 020100Z AUTO 14012G17KT 9SM FEW066 09/06 A2976 RMK SLP090,2025-11-02T02:08:16Z,2025-11-01T22:08:16Z
CYLW,2025-11-02T02:00:00Z,2025-11-01T22:00:00Z,VFR,10,2,58,170,19,14500,29.8,NA,FEW  ft,METAR CYLW 020200Z AUTO 17019G26KT 9SM FEW071 10/02 A2980 RMK SLP100,2025-11-02T02:25:12Z,2025-11-01T22:25:12Z
CYLW,2025-11-02T03:00:00Z,2025-11-01T23:00:00Z,VFR,10,1,54,200,7,14500,29.84,NA,CLR  ft,METAR CYLW 020300Z AUTO 20007G16KT 9SM CLR 10/01 A2984 RMK SLP116,2025-11-02T03:49:51Z,2025-11-01T23:49:51Z
CYLW,2025-11-02T04:00:00Z,2025-11-02T00:00:00Z,VFR,8,0,57,130,7,14500,29.88,NA,CLR  ft,METAR CYLW 020400Z AUTO 13007KT 9SM CLR 08/00 A2988 RMK SLP131,2025-11-02T04:30:20Z,2025-11-02T00:30:20Z
CYLW,2025-11-02T05:00:00Z,2025-11-02T01:00:00Z,VFR,9,-1,50,150,4,14500,29.92,NA,CLR  ft,METAR CYLW 020500Z AUTO 15004KT 120V190 9SM CLR 09/M01 A2992 RMK SLP143,2025-11-02T05:25:47Z,2025-11-02T01:25:47Z
CYLW,2025-11-02T06:00:00Z,2025-11-02T01:00:00Z,VFR,8,-1,53,210,15,14500,29.94,NA,CLR  ft,METAR CYLW 020600Z AUTO 21015KT 090V230 9SM CLR 08/M01 A2994 RMK SLP148,2025-11-02T06:36:53Z,2025-11-02T01:36:53Z
CYLW,2025-11-02T07:00:00Z,2025-11-02T02:00:00Z,VFR,5,-1,66,200,6,14500,29.95,NA,CLR  ft,METAR CYLW 020700Z AUTO 20006KT 180V240 9SM CLR 05/M01 A2995 RMK SLP155,2025-11-02T07:23:39Z,2025-11-02T02:23:39Z
CYLW,2025-11-02T08:00:00Z,2025-11-02T03:00:00Z,VFR,4,-1,70,0,4,14500,29.98,NA,CLR  ft,METAR CYLW 020800Z AUTO VRB04KT 9SM CLR 04/M01 A2998 RMK SLP165,2025-11-02T08:29:59Z,2025-11-02T03:29:59Z
CYLW,2025-11-02T09:00:00Z,2025-11-02T04:00:00Z,VFR,2,-1,81,0,5,14500,30.01,NA,BKN  ft,METAR CYLW 020900Z AUTO VRB05KT 9SM BKN055 02/M01 A3001 RMK SLP176,2025-11-02T09:23:21Z,2025-11-02T04:23:21Z
CYLW,2025-11-02T10:00:00Z,2025-11-02T05:00:00Z,VFR,4,0,75,210,11,14500,30.03,NA,OVC  ft,METAR CYLW 021000Z AUTO 21011KT 140V250 9SM OVC150 04/M00 A3003 RMK SLP182,2025-11-02T10:24:58Z,2025-11-02T05:24:58Z
CYLW,2025-11-02T11:00:00Z,2025-11-02T06:00:00Z,VFR,7,0,61,170,11,14500,30.07,NA,CLR  ft,METAR CYLW 021100Z AUTO 17011KT 9SM CLR 07/00 A3007 RMK SLP192,2025-11-02T11:19:31Z,2025-11-02T06:19:31Z
CYLW,2025-11-02T12:41:00Z,2025-11-02T07:41:00Z,VFR,7,-2,53,200,19,14500,30.1,NA,CLR  ft,SPECI CYLW 021241Z AUTO 20019KT 180V250 9SM CLR 07/M02 A3010 RMK SLP204,2025-11-02T12:48:25Z,2025-11-02T07:48:25Z
CYLW,2025-11-02T13:00:00Z,2025-11-02T08:00:00Z,VFR,7,-1,57,190,9,14500,30.11,NA,CLR  ft,METAR CYLW 021300Z AUTO 19009G20KT 9SM CLR 07/M01 A3011 RMK SLP207,2025-11-02T13:28:12Z,2025-11-02T08:28:12Z
CYMM,2025-11-01T04:00:00Z,2025-11-01T00:00:00Z,VFR,2,-1,81,130,15,14500,29.59,NA,OVC  ft,METAR CYMM 010400Z AUTO 13015G21KT 9SM OVC180 02/M01 A2959 RMK PRESFR SLP042,2025-11-01T04:28:33Z,2025-11-01T00:28:33Z
CYMM,2025-11-01T05:00:00Z,2025-11-01T01:00:00Z,VFR,1,-1,87,120,11,14500,29.58,NA,OVC  ft,METAR CYMM 010500Z AUTO 12011KT 9SM OVC160 01/M01 A2958 RMK SLP039,2025-11-01T05:25:06Z,2025-11-01T01:25:06Z
CYMM,2025-11-01T06:00:00Z,2025-11-01T02:00:00Z,VFR,1,-1,87,120,9,14500,29.56,NA,BKN  ft; OVC  ft,METAR CYMM 010600Z AUTO 12009KT 9SM BKN120 OVC140 01/M01 A2956 RMK SLP031,2025-11-01T06:35:13Z,2025-11-01T02:35:13Z
CYMM,2025-11-01T07:13:00Z,2025-11-01T03:13:00Z,MVFR,1,-1,87,120,7,8000,29.53,NA,SCT  ft; BKN  ft; OVC  ft,SPECI CYMM 010713Z AUTO 12007KT 5SM RA BR SCT034 BKN060 OVC110 01/M01 A2953 RMK SLP022,2025-11-01T07:23:01Z,2025-11-01T03:23:01Z
CYMM,2025-11-01T08:25:00Z,2025-11-01T04:25:00Z,VFR,1,0,93,100,7,14500,29.5,NA,OVC  ft,SPECI CYMM 010825Z AUTO 10007KT 9SM -RA OVC071 01/M00 A2950 RMK SLP010,2025-11-01T08:30:53Z,2025-11-01T04:30:53Z
CYMM,2025-11-01T09:00:00Z,2025-11-01T05:00:00Z,VFR,1,0,93,110,6,14500,29.5,NA,OVC  ft,METAR CYMM 010900Z AUTO 11006KT 9SM -RA OVC076 01/M00 A2950 RMK PCPN 0.5MM PAST HR SLP009,2025-11-01T09:24:38Z,2025-11-01T05:24:38Z
CYMM,2025-11-01T10:00:00Z,2025-11-01T06:00:00Z,VFR,1,0,93,120,5,14500,29.5,NA,SCT  ft; OVC  ft,METAR CYMM 011000Z AUTO 12005KT 9SM -RA SCT038 OVC071 01/00 A2950 RMK PCPN 1.0MM PAST HR SLP009,2025-11-01T10:25:45Z,2025-11-01T06:25:45Z
CYMM,2025-11-01T11:06:00Z,2025-11-01T07:06:00Z,VFR,1,1,100,0,0,14500,29.47,NA,FEW  ft; SCT  ft; BKN  ft; OVC  ft,SPECI CYMM 011106Z AUTO 00000KT 9SM FEW050 SCT071 BKN092 OVC120 01/01 A2947 RMK SLP001,2025-11-01T11:19:34Z,2025-11-01T07:19:34Z
CYMM,2025-11-01T12:00:00Z,2025-11-01T08:00:00Z,VFR,1,0,93,110,5,14500,29.47,NA,FEW  ft; SCT  ft; SCT  ft; BKN  ft,METAR CYMM 011200Z AUTO 11005KT 9SM FEW066 SCT085 SCT120 BKN180 01/00 A2947 RMK SLP999,2025-11-01T12:49:07Z,2025-11-01T08:49:07Z
CYMM,2025-11-01T13:00:00Z,2025-11-01T09:00:00Z,VFR,0,0,100,120,7,14500,29.46,NA,CLR  ft,METAR CYMM 011300Z AUTO 12007KT 9SM CLR 00/M00 A2946 RMK SLP996,2025-11-01T13:28:53Z,2025-11-01T09:28:53Z
CYMM,2025-11-01T14:00:00Z,2025-11-01T10:00:00Z,VFR,0,-1,93,110,5,14500,29.45,NA,CLR  ft,METAR CYMM 011400Z AUTO 11005KT 9SM CLR M00/M01 A2945 RMK SLP995,2025-11-01T14:22:17Z,2025-11-01T10:22:17Z
CYMM,2025-11-01T15:00:00Z,2025-11-01T11:00:00Z,VFR,2,0,87,220,6,14500,29.44,NA,CLR  ft,METAR CYMM 011500Z AUTO 22006KT 9SM CLR 02/00 A2944 RMK SLP989,2025-11-01T15:22:38Z,2025-11-01T11:22:38Z
CYMM,2025-11-01T16:00:00Z,2025-11-01T12:00:00Z,VFR,5,1,76,220,16,14500,29.42,NA,SCT  ft,METAR CYMM 011600Z AUTO 22016KT 9SM SCT170 05/01 A2942 RMK SLP981,2025-11-01T16:28:37Z,2025-11-01T12:28:37Z
CYMM,2025-11-01T17:00:00Z,2025-11-01T13:00:00Z,VFR,7,2,71,230,14,14500,29.42,NA,CLR  ft,METAR CYMM 011700Z AUTO 23014G20KT 9SM CLR 07/02 A2942 RMK SLP979,2025-11-01T17:20:02Z,2025-11-01T13:20:02Z
CYMM,2025-11-01T18:00:00Z,2025-11-01T14:00:00Z,VFR,9,2,62,240,17,14500,29.39,NA,CLR  ft,METAR CYMM 011800Z AUTO 24017G24KT 9SM CLR 09/02 A2939 RMK SLP970,2025-11-01T18:32:54Z,2025-11-01T14:32:54Z
CYMM,2025-11-01T19:00:00Z,2025-11-01T15:00:00Z,VFR,9,2,62,250,14,14500,29.39,NA,CLR  ft,METAR CYMM 011900Z AUTO 25014G21KT 9SM CLR 09/02 A2939 RMK SLP969 DENSITY ALT 1500FT,2025-11-01T19:18:51Z,2025-11-01T15:18:51Z
CYMM,2025-11-01T20:00:00Z,2025-11-01T16:00:00Z,VFR,10,2,58,260,10,14500,29.38,NA,CLR  ft,METAR CYMM 012000Z AUTO 26010G15KT 9SM CLR 10/02 A2938 RMK SLP964 DENSITY ALT 1600FT,2025-11-01T20:25:26Z,2025-11-01T16:25:26Z
CYMM,2025-11-01T21:00:00Z,2025-11-01T17:00:00Z,VFR,10,1,54,250,10,14500,29.36,NA,CLR  ft,METAR CYMM 012100Z AUTO 25010G18KT 9SM CLR 10/01 A2936 RMK SLP960 DENSITY ALT 1500FT,2025-11-01T21:21:11Z,2025-11-01T17:21:11Z
CYMM,2025-11-01T22:00:00Z,2025-11-01T18:00:00Z,VFR,10,1,54,230,8,14500,29.36,NA,CLR  ft,METAR CYMM 012200Z AUTO 23008G16KT 9SM CLR 10/01 A2936 RMK SLP960 DENSITY ALT 1600FT,2025-11-01T22:23:05Z,2025-11-01T18:23:05Z
CYMM,2025-11-01T23:00:00Z,2025-11-01T19:00:00Z,VFR,8,0,57,220,7,14500,29.36,NA,CLR  ft,METAR CYMM 012300Z AUTO 22007KT 9SM CLR 08/00 A2936 RMK SLP959,2025-11-01T23:22:48Z,2025-11-01T19:22:48Z
CYMM,2025-11-02T01:00:00Z,2025-11-01T21:00:00Z,VFR,5,-1,66,210,9,14500,29.35,NA,FEW  ft,METAR CYMM 020100Z AUTO 21009KT 9SM FEW200 05/M01 A2935 RMK SLP956,2025-11-02T02:08:17Z,2025-11-01T22:08:17Z
CYMM,2025-11-02T02:00:00Z,2025-11-01T22:00:00Z,VFR,5,0,70,210,10,14500,29.34,NA,SCT  ft,METAR CYMM 020200Z AUTO 21010KT 9SM SCT230 05/M00 A2934 RMK SLP956,2025-11-02T02:25:13Z,2025-11-01T22:25:13Z
CYMM,2025-11-02T03:00:00Z,2025-11-01T23:00:00Z,VFR,4,0,75,210,11,14500,29.34,NA,FEW  ft,METAR CYMM 020300Z AUTO 21011KT 9SM FEW160 04/M00 A2934 RMK SLP953,2025-11-02T03:49:52Z,2025-11-01T23:49:52Z
CYMM,2025-11-02T04:00:00Z,2025-11-02T00:00:00Z,VFR,4,-1,70,220,14,14500,29.34,NA,CLR  ft,METAR CYMM 020400Z AUTO 22014G21KT 9SM CLR 04/M01 A2934 RMK SLP951,2025-11-02T04:30:21Z,2025-11-02T00:30:21Z
CYMM,2025-11-02T05:00:00Z,2025-11-02T01:00:00Z,VFR,4,0,75,230,9,14500,29.35,NA,BKN  ft,METAR CYMM 020500Z AUTO 23009KT 9SM BKN150 04/M00 A2935 RMK SLP955,2025-11-02T05:25:47Z,2025-11-02T01:25:47Z
CYMM,2025-11-02T06:00:00Z,2025-11-02T01:00:00Z,VFR,4,-1,70,230,10,14500,29.35,NA,OVC  ft,METAR CYMM 020600Z AUTO 23010G15KT 9SM OVC160 04/M01 A2935 RMK SLP956,2025-11-02T06:36:53Z,2025-11-02T01:36:53Z
CYMM,2025-11-02T07:00:00Z,2025-11-02T02:00:00Z,VFR,3,-2,70,230,9,14500,29.37,NA,BKN  ft; BKN  ft,METAR CYMM 020700Z AUTO 23009KT 9SM BKN140 BKN160 03/M02 A2937 RMK SLP961,2025-11-02T07:23:39Z,2025-11-02T02:23:39Z
CYMM,2025-11-02T08:00:00Z,2025-11-02T03:00:00Z,VFR,3,-2,70,230,8,14500,29.39,NA,SCT  ft; BKN  ft; BKN  ft,METAR CYMM 020800Z AUTO 23008KT 9SM SCT076 BKN160 BKN180 03/M02 A2939 RMK SLP968,2025-11-02T08:30:00Z,2025-11-02T03:30:00Z
CYMM,2025-11-02T09:13:00Z,2025-11-02T04:13:00Z,VFR,3,-2,70,240,9,14500,29.41,NA,BKN  ft; OVC  ft,SPECI CYMM 020913Z AUTO 24009KT 9SM -RA BKN071 OVC084 03/M02 A2941 RMK SLP976,2025-11-02T09:23:22Z,2025-11-02T04:23:22Z
CYMM,2025-11-02T10:14:00Z,2025-11-02T05:14:00Z,VFR,3,-1,75,200,6,14500,29.43,NA,BKN  ft; BKN  ft; OVC  ft,SPECI CYMM 021014Z AUTO 20006KT 180V300 9SM BKN046 BKN055 OVC072 03/M01 A2943 RMK SLP981,2025-11-02T10:24:59Z,2025-11-02T05:24:59Z
CYMM,2025-11-02T11:00:00Z,2025-11-02T06:00:00Z,VFR,3,-2,70,240,7,14500,29.45,NA,OVC  ft,METAR CYMM 021100Z AUTO 24007KT 9SM OVC110 03/M02 A2945 RMK SLP989,2025-11-02T11:19:32Z,2025-11-02T06:19:32Z
CYMM,2025-11-02T12:00:00Z,2025-11-02T07:00:00Z,VFR,3,-2,70,240,7,14500,29.47,NA,FEW  ft; BKN  ft; OVC  ft,METAR CYMM 021200Z AUTO 24007KT 9SM FEW076 BKN093 OVC110 03/M02 A2947 RMK SLP997,2025-11-02T12:48:25Z,2025-11-02T07:48:25Z
CYMM,2025-11-02T13:00:00Z,2025-11-02T08:00:00Z,VFR,3,-3,65,230,9,14500,29.48,NA,BKN  ft; BKN  ft; OVC  ft,METAR CYMM 021300Z AUTO 23009KT 9SM BKN091 BKN110 OVC170 03/M03 A2948 RMK SLP001,2025-11-02T13:28:12Z,2025-11-02T08:28:12Z
CYMO,2025-11-01T04:26:00Z,2025-11-01T00:26:00Z,VFR,2,2,100,330,7,14500,29.77,NA,FEW  ft; BKN  ft; OVC  ft,SPECI CYMO 010426Z AUTO 33007KT 9SM -RA FEW015 BKN035 OVC046 02/02 A2977 RMK SLP085,2025-11-01T04:28:32Z,2025-11-01T00:28:32Z
CYMO,2025-11-01T05:00:00Z,2025-11-01T01:00:00Z,VFR,2,1,93,310,7,14500,29.78,NA,SCT  ft; SCT  ft; BKN  ft; BKN  ft,METAR CYMO 010500Z AUTO 31007KT 9SM SCT014 SCT028 BKN033 BKN050 02/01 A2978 RMK SLP086,2025-11-01T05:25:05Z,2025-11-01T01:25:05Z
CYMO,2025-11-01T06:00:00Z,2025-11-01T02:00:00Z,VFR,1,1,100,320,10,14500,29.79,NA,BKN  ft,METAR CYMO 010600Z AUTO 32010KT 9SM BKN036 01/01 A2979 RMK SLP090,2025-11-01T06:35:11Z,2025-11-01T02:35:11Z
CYMO,2025-11-01T07:00:00Z,2025-11-01T03:00:00Z,VFR,1,0,93,300,7,14500,29.8,NA,FEW  ft,METAR CYMO 010700Z AUTO 30007KT 9SM FEW017 01/00 A2980 RMK SLP093,2025-11-01T07:22:58Z,2025-11-01T03:22:58Z
CYMO,2025-11-01T08:28:00Z,2025-11-01T04:28:00Z,IFR,1,1,100,310,7,14500,29.81,NA,BKN  ft; BKN  ft; OVC  ft,SPECI CYMO 010828Z AUTO 31007KT 9SM BKN008 BKN019 OVC023 01/01 A2981 RMK SLP097,2025-11-01T08:30:51Z,2025-11-01T04:30:51Z
CYMO,2025-11-01T09:16:00Z,2025-11-01T05:16:00Z,IFR,1,1,100,290,7,14500,29.83,NA,OVC  ft,SPECI CYMO 010916Z AUTO 29007KT 9SM -RA OVC006 01/01 A2983 RMK SLP102,2025-11-01T09:24:37Z,2025-11-01T05:24:37Z
CYMO,2025-11-01T10:00:00Z,2025-11-01T06:00:00Z,IFR,1,1,100,300,8,14500,29.84,NA,OVC  ft,METAR CYMO 011000Z AUTO 30008KT 9SM -RA OVC006 01/01 A2984 RMK SLP107,2025-11-01T10:25:44Z,2025-11-01T06:25:44Z
CYMO,2025-11-01T11:00:00Z,2025-11-01T07:00:00Z,IFR,1,1,100,310,8,14500,29.85,NA,OVC  ft,METAR CYMO 011100Z AUTO 31008KT 9SM -RA OVC008 01/01 A2985 RMK SLP112,2025-11-01T11:19:33Z,2025-11-01T07:19:33Z
CYMO,2025-11-01T12:43:00Z,2025-11-01T08:43:00Z,IFR,2,1,93,300,9,14500,29.88,NA,OVC  ft,SPECI CYMO 011243Z AUTO 30009KT 9SM -RA OVC008 02/01 A2988 RMK SLP122,2025-11-01T12:49:05Z,2025-11-01T08:49:05Z
CYMO,2025-11-01T13:00:00Z,2025-11-01T09:00:00Z,IFR,2,1,93,310,9,14500,29.89,NA,OVC  ft,METAR CYMO 011300Z AUTO 31009G15KT 9SM OVC008 02/01 A2989 RMK SLP124,2025-11-01T13:28:51Z,2025-11-01T09:28:51Z
CYMO,2025-11-01T14:14:00Z,2025-11-01T10:14:00Z,MVFR,2,1,93,300,11,14500,29.91,NA,BKN  ft; BKN  ft; BKN  ft,SPECI CYMO 011414Z AUTO 30011G18KT 9SM -RA BKN010 BKN024 BKN045 02/01 A2991 RMK SLP131,2025-11-01T14:22:15Z,2025-11-01T10:22:15Z
CYMO,2025-11-01T15:07:00Z,2025-11-01T11:07:00Z,MVFR,3,1,87,300,9,14500,29.93,NA,FEW  ft; BKN  ft; OVC  ft,SPECI CYMO 011507Z AUTO 30009KT 9SM FEW009 BKN014 OVC026 03/01 A2993 RMK SLP137,2025-11-01T15:22:36Z,2025-11-01T11:22:36Z
CYMO,2025-11-01T16:00:00Z,2025-11-01T12:00:00Z,MVFR,3,1,87,310,10,14500,29.94,NA,BKN  ft; BKN  ft; OVC  ft,METAR CYMO 011600Z AUTO 31010G15KT 9SM BKN014 BKN021 OVC034 03/01 A2994 RMK SLP142,2025-11-01T16:28:36Z,2025-11-01T12:28:36Z
CYMO,2025-11-01T17:13:00Z,2025-11-01T13:13:00Z,VFR,4,0,75,290,8,14500,29.95,NA,SCT  ft; SCT  ft; BKN  ft; OVC  ft,SPECI CYMO 011713Z AUTO 29008G15KT 9SM SCT021 SCT027 BKN033 OVC043 04/00 A2995 RMK SLP145,2025-11-01T17:20:00Z,2025-11-01T13:20:00Z
CYMO,2025-11-01T18:00:00Z,2025-11-01T14:00:00Z,MVFR,4,-2,65,300,10,14500,29.96,NA,BKN  ft; OVC  ft,METAR CYMO 011800Z AUTO 30010G15KT 9SM BKN030 OVC041 04/M02 A2996 RMK SLP146,2025-11-01T18:32:53Z,2025-11-01T14:32:53Z
CYMO,2025-11-01T19:00:00Z,2025-11-01T15:00:00Z,VFR,3,-1,75,320,10,14500,29.96,NA,OVC  ft,METAR CYMO 011900Z AUTO 32010G16KT 9SM OVC034 03/M01 A2996 RMK SLP149,2025-11-01T19:18:49Z,2025-11-01T15:18:49Z
CYMO,2025-11-01T20:00:00Z,2025-11-01T16:00:00Z,VFR,3,-1,75,310,6,14500,29.98,NA,FEW  ft; BKN  ft; BKN  ft,METAR CYMO 012000Z AUTO 31006KT 9SM FEW028 BKN037 BKN044 03/M01 A2998 RMK SLP153,2025-11-01T20:25:25Z,2025-11-01T16:25:25Z
CYMO,2025-11-01T21:00:00Z,2025-11-01T17:00:00Z,VFR,2,0,87,260,6,14500,29.99,NA,FEW  ft,METAR CYMO 012100Z AUTO 26006KT 9SM FEW037 02/00 A2999 RMK SLP157,2025-11-01T21:21:10Z,2025-11-01T17:21:10Z
CYMO,2025-11-01T22:00:00Z,2025-11-01T18:00:00Z,VFR,1,-1,87,260,7,14500,30,NA,FEW  ft; SCT  ft,METAR CYMO 012200Z AUTO 26007KT 9SM FEW046 SCT055 01/M01 A3000 RMK SLP162,2025-11-01T22:23:03Z,2025-11-01T18:23:03Z
CYMO,2025-11-01T23:00:00Z,2025-11-01T19:00:00Z,VFR,0,-1,93,270,5,14500,30.02,NA,BKN  ft,METAR CYMO 012300Z AUTO 27005KT 9SM BKN045 M00/M01 A3002 RMK SLP167,2025-11-01T23:22:47Z,2025-11-01T19:22:47Z
CYMO,2025-11-02T01:00:00Z,2025-11-01T21:00:00Z,VFR,-1,-2,93,250,6,14500,30.02,NA,BKN  ft,METAR CYMO 020100Z AUTO 25006KT 9SM BKN041 M01/M02 A3002 RMK SLP168,2025-11-02T02:08:15Z,2025-11-01T22:08:15Z
CYMO,2025-11-02T02:00:00Z,2025-11-01T22:00:00Z,VFR,-1,-2,93,240,6,14500,30.02,NA,SCT  ft,METAR CYMO 020200Z AUTO 24006KT 9SM SCT039 M01/M02 A3002 RMK SLP168,2025-11-02T02:25:11Z,2025-11-01T22:25:11Z
CYMO,2025-11-02T03:00:00Z,2025-11-01T23:00:00Z,VFR,-2,-2,100,260,7,14500,30.01,NA,SCT  ft,METAR CYMO 020300Z AUTO 26007KT 9SM SCT035 M02/M02 A3001 RMK SLP166,2025-11-02T03:49:50Z,2025-11-01T23:49:50Z
CYMO,2025-11-02T04:00:00Z,2025-11-02T00:00:00Z,VFR,-2,-2,100,250,7,14500,30.02,NA,OVC  ft,METAR CYMO 020400Z AUTO 25007KT 9SM OVC039 M02/M02 A3002 RMK SLP169,2025-11-02T04:30:19Z,2025-11-02T00:30:19Z
CYMO,2025-11-02T05:00:00Z,2025-11-02T01:00:00Z,VFR,-2,-3,93,250,6,14500,30.03,NA,FEW  ft,METAR CYMO 020500Z AUTO 25006KT 9SM FEW180 M02/M03 A3003 RMK SLP171,2025-11-02T05:25:46Z,2025-11-02T01:25:46Z
CYMO,2025-11-02T06:00:00Z,2025-11-02T01:00:00Z,VFR,-3,-3,100,270,6,14500,30.03,NA,CLR  ft,METAR CYMO 020600Z AUTO 27006KT 9SM CLR M03/M03 A3003 RMK SLP173,2025-11-02T06:36:52Z,2025-11-02T01:36:52Z
CYMO,2025-11-02T07:00:00Z,2025-11-02T02:00:00Z,MVFR,-2,-3,93,250,4,14500,30.04,NA,BKN  ft,METAR CYMO 020700Z AUTO 25004KT 9SM BKN030 M02/M03 A3004 RMK SLP174,2025-11-02T07:23:38Z,2025-11-02T02:23:38Z
CYMO,2025-11-02T08:00:00Z,2025-11-02T03:00:00Z,MVFR,-1,-2,93,220,6,14500,30.03,NA,OVC  ft,METAR CYMO 020800Z AUTO 22006KT 9SM OVC030 M01/M02 A3003 RMK SLP173,2025-11-02T08:29:58Z,2025-11-02T03:29:58Z
CYMO,2025-11-02T09:00:00Z,2025-11-02T04:00:00Z,VFR,0,-2,87,210,8,14500,30.03,NA,OVC  ft,METAR CYMO 020900Z AUTO 21008KT 9SM OVC032 M00/M02 A3003 RMK SLP170,2025-11-02T09:23:20Z,2025-11-02T04:23:20Z
CYMO,2025-11-02T10:00:00Z,2025-11-02T05:00:00Z,VFR,-1,-2,93,190,8,14500,30,NA,SCT  ft,METAR CYMO 021000Z AUTO 19008KT 9SM SCT036 M01/M02 A3000 RMK SLP160,2025-11-02T10:24:57Z,2025-11-02T05:24:57Z
CYMO,2025-11-02T11:00:00Z,2025-11-02T06:00:00Z,VFR,-1,-2,93,190,7,14500,29.99,NA,OVC  ft,METAR CYMO 021100Z AUTO 19007KT 9SM OVC036 M01/M02 A2999 RMK SLP158,2025-11-02T11:19:29Z,2025-11-02T06:19:29Z
CYMO,2025-11-02T12:25:00Z,2025-11-02T07:25:00Z,VFR,0,-2,87,200,7,14500,29.97,NA,OVC  ft,SPECI CYMO 021225Z AUTO 20007KT 9SM OVC034 00/M02 A2997 RMK SLP152,2025-11-02T12:48:24Z,2025-11-02T07:48:24Z
CYMO,2025-11-02T13:00:00Z,2025-11-02T08:00:00Z,VFR,0,-2,87,200,8,14500,29.98,NA,OVC  ft,METAR CYMO 021300Z AUTO 20008KT 9SM OVC036 00/M02 A2998 RMK SLP153,2025-11-02T13:28:10Z,2025-11-02T08:28:10Z
CYOW,2025-11-01T04:00:00Z,2025-11-01T00:00:00Z,MVFR,5,3,87,280,19,9999,29.44,NA,BKN  ft; OVC  ft,METAR CYOW 010400Z 28019G27KT 10SM BKN010 OVC017 05/03 A2944 RMK SC7SC1 SLP976,2025-11-01T04:28:32Z,2025-11-01T00:28:32Z
CYOW,2025-11-01T05:00:00Z,2025-11-01T01:00:00Z,MVFR,5,2,81,290,20,9999,29.49,NA,BKN  ft; OVC  ft,METAR CYOW 010500Z 29020G28KT 10SM BKN015 OVC025 05/02 A2949 RMK SC5SC3 SLP991,2025-11-01T05:25:05Z,2025-11-01T01:25:05Z
CYOW,2025-11-01T06:00:00Z,2025-11-01T02:00:00Z,MVFR,5,2,81,290,18,24100,29.53,NA,BKN  ft,METAR CYOW 010600Z 29018G26KT 15SM BKN025 05/02 A2953 RMK SC7 PRESRR SLP005,2025-11-01T06:35:12Z,2025-11-01T02:35:12Z
CYOW,2025-11-01T07:00:00Z,2025-11-01T03:00:00Z,MVFR,5,1,76,290,15,24100,29.57,NA,BKN  ft,METAR CYOW 010700Z 29015G21KT 15SM BKN025 05/01 A2957 RMK SC7 SLP018,2025-11-01T07:23:00Z,2025-11-01T03:23:00Z
CYOW,2025-11-01T08:00:00Z,2025-11-01T04:00:00Z,MVFR,4,1,81,300,16,24100,29.59,NA,BKN  ft,METAR CYOW 010800Z 30016KT 15SM BKN028 04/01 A2959 RMK SC5 SLP025,2025-11-01T08:30:52Z,2025-11-01T04:30:52Z
CYOW,2025-11-01T09:00:00Z,2025-11-01T05:00:00Z,VFR,3,0,81,270,13,24100,29.63,NA,FEW  ft; FEW  ft,METAR CYOW 010900Z 27013G20KT 15SM FEW031 FEW070 03/M00 A2963 RMK SC1AC2 SC TR SLP038,2025-11-01T09:24:37Z,2025-11-01T05:24:37Z
CYOW,2025-11-01T10:00:00Z,2025-11-01T06:00:00Z,VFR,3,-1,75,280,15,24100,29.66,NA,FEW  ft,METAR CYOW 011000Z 28015G21KT 15SM FEW080 03/M01 A2966 RMK AC1 AC TR SLP050,2025-11-01T10:25:44Z,2025-11-01T06:25:44Z
CYOW,2025-11-01T11:00:00Z,2025-11-01T07:00:00Z,VFR,3,-1,75,280,14,24100,29.7,NA,BKN  ft,METAR CYOW 011100Z 28014KT 15SM BKN220 03/M01 A2970 RMK CI6 SLP063,2025-11-01T11:19:33Z,2025-11-01T07:19:33Z
CYOW,2025-11-01T12:00:00Z,2025-11-01T08:00:00Z,VFR,3,-2,70,270,11,24100,29.74,NA,FEW  ft; BKN  ft,METAR CYOW 011200Z 27011KT 15SM FEW010 BKN230 03/M02 A2974 RMK CF1CI5 CF TR SLP076,2025-11-01T12:49:06Z,2025-11-01T08:49:06Z
CYOW,2025-11-01T13:00:00Z,2025-11-01T09:00:00Z,VFR,4,-1,70,260,12,24100,29.78,NA,FEW  ft; BKN  ft; BKN  ft,METAR CYOW 011300Z 26012KT 15SM FEW020 BKN050 BKN230 04/M01 A2978 RMK SC2SC4CI1 SLP090,2025-11-01T13:28:52Z,2025-11-01T09:28:52Z
CYOW,2025-11-01T14:00:00Z,2025-11-01T10:00:00Z,VFR,5,0,70,280,14,24100,29.8,NA,FEW  ft; BKN  ft,METAR CYOW 011400Z 28014G19KT 15SM FEW027 BKN048 05/M00 A2980 RMK SF2SC5 SLP099,2025-11-01T14:22:16Z,2025-11-01T10:22:16Z
CYOW,2025-11-01T15:00:00Z,2025-11-01T11:00:00Z,VFR,4,-1,70,290,14,24100,29.83,NA,SCT  ft; OVC  ft,METAR CYOW 011500Z 29014G22KT 15SM SCT028 OVC036 04/M01 A2983 RMK CF3SC5 SLP108,2025-11-01T15:22:37Z,2025-11-01T11:22:37Z
CYOW,2025-11-01T16:00:00Z,2025-11-01T12:00:00Z,VFR,5,-1,66,290,11,24100,29.86,NA,OVC  ft,METAR CYOW 011600Z 29011G18KT 15SM OVC033 05/M01 A2986 RMK SC8 SLP117,2025-11-01T16:28:36Z,2025-11-01T12:28:36Z
CYOW,2025-11-01T17:00:00Z,2025-11-01T13:00:00Z,VFR,5,-2,61,300,17,24100,29.86,NA,OVC  ft,METAR CYOW 011700Z 30017KT 15SM OVC037 05/M02 A2986 RMK SC8 SLP119,2025-11-01T17:20:01Z,2025-11-01T13:20:01Z
CYOW,2025-11-01T18:00:00Z,2025-11-01T14:00:00Z,VFR,5,-1,66,300,11,24100,29.89,NA,BKN  ft,METAR CYOW 011800Z 30011G16KT 15SM BKN044 05/M01 A2989 RMK SC7 SLP126,2025-11-01T18:32:53Z,2025-11-01T14:32:53Z
CYOW,2025-11-01T19:00:00Z,2025-11-01T15:00:00Z,VFR,6,-2,57,300,10,24100,29.91,NA,OVC  ft,METAR CYOW 011900Z 30010G17KT 15SM OVC037 06/M02 A2991 RMK SC8 SLP133,2025-11-01T19:18:50Z,2025-11-01T15:18:50Z
CYOW,2025-11-01T20:00:00Z,2025-11-01T16:00:00Z,VFR,6,-1,61,290,10,24100,29.93,NA,OVC  ft,METAR CYOW 012000Z 29010G15KT 15SM OVC037 06/M01 A2993 RMK SC8 SLP141,2025-11-01T20:25:25Z,2025-11-01T16:25:25Z
CYOW,2025-11-01T21:00:00Z,2025-11-01T17:00:00Z,VFR,6,-1,61,260,8,24100,29.95,NA,BKN  ft,METAR CYOW 012100Z 26008KT 15SM BKN040 06/M01 A2995 RMK SC7 SLP150,2025-11-01T21:21:10Z,2025-11-01T17:21:10Z
CYOW,2025-11-01T22:00:00Z,2025-11-01T18:00:00Z,VFR,4,-1,70,250,7,24100,29.98,NA,BKN  ft,METAR CYOW 012200Z 25007KT 15SM BKN046 04/M01 A2998 RMK SC7 SLP157,2025-11-01T22:23:04Z,2025-11-01T18:23:04Z
CYOW,2025-11-01T23:00:00Z,2025-11-01T19:00:00Z,VFR,3,-2,70,250,5,24100,30,NA,BKN  ft,METAR CYOW 012300Z 25005KT 15SM BKN045 03/M02 A3000 RMK SC6 SLP166,2025-11-01T23:22:48Z,2025-11-01T19:22:48Z
CYOW,2025-11-02T01:00:00Z,2025-11-01T21:00:00Z,VFR,3,-1,75,220,5,24100,30.05,NA,BKN  ft,METAR CYOW 020100Z 22005KT 15SM BKN045 03/M01 A3005 RMK SC7 SLP181,2025-11-02T02:08:16Z,2025-11-01T22:08:16Z
CYOW,2025-11-02T02:00:00Z,2025-11-01T22:00:00Z,VFR,3,0,81,250,6,24100,30.07,NA,BKN  ft,METAR CYOW 020200Z 25006KT 15SM BKN042 03/M00 A3007 RMK SC7 SLP189,2025-11-02T02:25:12Z,2025-11-01T22:25:12Z
CYOW,2025-11-02T03:00:00Z,2025-11-01T23:00:00Z,VFR,3,0,81,250,5,24100,30.08,NA,BKN  ft,METAR CYOW 020300Z 25005KT 15SM BKN040 03/M00 A3008 RMK SC7 SLP193,2025-11-02T03:49:51Z,2025-11-01T23:49:51Z
CYOW,2025-11-02T04:00:00Z,2025-11-02T00:00:00Z,VFR,4,0,75,260,5,24100,30.09,NA,BKN  ft,METAR CYOW 020400Z 26005KT 15SM BKN040 04/M00 A3009 RMK SC7 SLP195,2025-11-02T04:30:20Z,2025-11-02T00:30:20Z
CYOW,2025-11-02T05:00:00Z,2025-11-02T01:00:00Z,VFR,3,0,81,260,5,24100,30.1,NA,BKN  ft,METAR CYOW 020500Z 26005KT 15SM BKN039 03/M00 A3010 RMK SC7 SLP199,2025-11-02T05:25:47Z,2025-11-02T01:25:47Z
CYOW,2025-11-02T06:00:00Z,2025-11-02T01:00:00Z,VFR,3,0,81,250,5,24100,30.12,NA,BKN  ft,METAR CYOW 020600Z 25005KT 15SM BKN038 03/M00 A3012 RMK SC7 SLP204,2025-11-02T06:36:52Z,2025-11-02T01:36:52Z
CYOW,2025-11-02T07:00:00Z,2025-11-02T02:00:00Z,VFR,3,-1,75,260,5,24100,30.13,NA,BKN  ft,METAR CYOW 020700Z 26005KT 15SM BKN037 03/M01 A3013 RMK SC7 SLP209,2025-11-02T07:23:38Z,2025-11-02T02:23:38Z
CYOW,2025-11-02T08:00:00Z,2025-11-02T03:00:00Z,VFR,3,-1,75,260,4,24100,30.14,NA,BKN  ft,METAR CYOW 020800Z 26004KT 15SM BKN038 03/M01 A3014 RMK SC7 SLP213,2025-11-02T08:29:59Z,2025-11-02T03:29:59Z
CYOW,2025-11-02T09:00:00Z,2025-11-02T04:00:00Z,VFR,4,-3,61,270,7,24100,30.16,NA,BKN  ft,METAR CYOW 020900Z 27007KT 15SM BKN039 04/M03 A3016 RMK SC7 SLP219,2025-11-02T09:23:20Z,2025-11-02T04:23:20Z
CYOW,2025-11-02T10:00:00Z,2025-11-02T05:00:00Z,VFR,3,-2,70,270,4,24100,30.19,NA,BKN  ft,METAR CYOW 021000Z 27004KT 15SM BKN041 03/M02 A3019 RMK SC7 SLP230,2025-11-02T10:24:58Z,2025-11-02T05:24:58Z
CYOW,2025-11-02T11:00:00Z,2025-11-02T06:00:00Z,VFR,3,-2,70,270,3,24100,30.2,NA,BKN  ft,METAR CYOW 021100Z 27003KT 210V290 15SM BKN043 03/M02 A3020 RMK SC7 SLP234,2025-11-02T11:19:30Z,2025-11-02T06:19:30Z
CYOW,2025-11-02T12:00:00Z,2025-11-02T07:00:00Z,VFR,3,-1,75,270,2,24100,30.23,NA,OVC  ft,METAR CYOW 021200Z 27002KT 15SM OVC044 03/M01 A3023 RMK SC8 SLP242,2025-11-02T12:48:24Z,2025-11-02T07:48:24Z
CYOW,2025-11-02T13:00:00Z,2025-11-02T08:00:00Z,VFR,3,0,81,220,3,24100,30.24,NA,OVC  ft,METAR CYOW 021300Z 22003KT 15SM OVC044 03/M00 A3024 RMK SC8 SLP248,2025-11-02T13:28:11Z,2025-11-02T08:28:11Z
CYPL,2025-11-01T04:00:00Z,2025-11-01T00:00:00Z,MVFR,0,-1,93,10,4,14500,30.04,NA,OVC  ft,METAR CYPL 010400Z AUTO 01004KT 320V070 9SM OVC027 00/M01 A3004 RMK SLP194,2025-11-01T04:28:32Z,2025-11-01T00:28:32Z
CYPL,2025-11-01T05:00:00Z,2025-11-01T01:00:00Z,MVFR,0,-1,93,360,6,14500,30.03,NA,OVC  ft,METAR CYPL 010500Z AUTO 36006KT 310V040 9SM OVC027 00/M01 A3003 RMK SLP193,2025-11-01T05:25:05Z,2025-11-01T01:25:05Z
CYPL,2025-11-01T06:07:00Z,2025-11-01T02:07:00Z,MVFR,0,-2,87,10,5,14500,30.03,NA,OVC  ft,SPECI CYPL 010607Z AUTO 01005KT 300V050 9SM OVC023 00/M02 A3003 RMK SLP193,2025-11-01T06:35:11Z,2025-11-01T02:35:11Z
CYPL,2025-11-01T07:00:00Z,2025-11-01T03:00:00Z,MVFR,0,-3,80,10,4,14500,30.03,NA,OVC  ft,METAR CYPL 010700Z AUTO 01004KT 310V060 9SM OVC021 00/M03 A3003 RMK SLP191,2025-11-01T07:22:58Z,2025-11-01T03:22:58Z
CYPL,2025-11-01T08:00:00Z,2025-11-01T04:00:00Z,MVFR,0,-4,75,330,4,14500,30.03,NA,OVC  ft,METAR CYPL 010800Z AUTO 33004KT 300V010 9SM OVC023 00/M04 A3003 RMK SLP193,2025-11-01T08:30:51Z,2025-11-01T04:30:51Z
CYPL,2025-11-01T09:22:00Z,2025-11-01T05:22:00Z,MVFR,0,-2,87,320,6,11300,30.05,NA,SCT  ft; BKN  ft; OVC  ft,SPECI CYPL 010922Z AUTO 32006KT 230V020 7SM SCT023 BKN029 OVC033 M00/M02 A3005 RMK SLP198,2025-11-01T09:24:37Z,2025-11-01T05:24:37Z
CYPL,2025-11-01T10:00:00Z,2025-11-01T06:00:00Z,IFR,-1,-2,93,310,6,14500,30.05,NA,BKN  ft; OVC  ft,METAR CYPL 011000Z AUTO 31006KT 280V030 9SM BKN008 OVC016 M01/M02 A3005 RMK SLP200,2025-11-01T10:25:44Z,2025-11-01T06:25:44Z
CYPL,2025-11-01T11:07:00Z,2025-11-01T07:07:00Z,IFR,-1,-2,93,290,5,14500,30.06,NA,OVC  ft,SPECI CYPL 011107Z AUTO 29005KT 260V330 9SM OVC006 M01/M02 A3006 RMK SLP203,2025-11-01T11:19:33Z,2025-11-01T07:19:33Z
CYPL,2025-11-01T12:00:00Z,2025-11-01T08:00:00Z,IFR,-1,-2,93,300,7,14500,30.07,NA,OVC  ft,METAR CYPL 011200Z AUTO 30007KT 260V330 9SM OVC006 M01/M02 A3007 RMK SLP205,2025-11-01T12:49:05Z,2025-11-01T08:49:05Z
CYPL,2025-11-01T13:00:00Z,2025-11-01T09:00:00Z,IFR,-1,-2,93,300,4,14500,30.07,NA,BKN  ft; OVC  ft,METAR CYPL 011300Z AUTO 30004KT 260V340 9SM BKN006 OVC024 M01/M02 A3007 RMK SLP206,2025-11-01T13:28:51Z,2025-11-01T09:28:51Z
CYPL,2025-11-01T14:00:00Z,2025-11-01T10:00:00Z,IFR,-1,-2,93,320,5,14500,30.07,NA,BKN  ft; OVC  ft,METAR CYPL 011400Z AUTO 32005KT 9SM BKN006 OVC026 M01/M02 A3007 RMK SLP207,2025-11-01T14:22:15Z,2025-11-01T10:22:15Z
CYPL,2025-11-01T15:18:00Z,2025-11-01T11:18:00Z,VFR,0,-4,75,280,4,14500,30.08,NA,SCT  ft,SPECI CYPL 011518Z AUTO 28004KT 260V320 9SM SCT016 M00/M04 A3008 RMK SLP209,2025-11-01T15:22:36Z,2025-11-01T11:22:36Z
CYPL,2025-11-01T16:10:00Z,2025-11-01T12:10:00Z,MVFR,1,-2,81,280,5,14500,30.09,NA,FEW  ft; BKN  ft; BKN  ft,SPECI CYPL 011610Z AUTO 28005KT 9SM FEW016 BKN025 BKN029 01/M02 A3009 RMK SLP211,2025-11-01T16:28:36Z,2025-11-01T12:28:36Z
CYPL,2025-11-01T17:12:00Z,2025-11-01T13:12:00Z,VFR,1,-3,75,280,3,14500,30.09,NA,SCT  ft; SCT  ft,SPECI CYPL 011712Z AUTO 28003KT 240V300 9SM SCT018 SCT032 01/M03 A3009 RMK SLP211,2025-11-01T17:20:00Z,2025-11-01T13:20:00Z
CYPL,2025-11-01T18:08:00Z,2025-11-01T14:08:00Z,MVFR,1,-3,75,290,4,14500,30.05,NA,BKN  ft,SPECI CYPL 011808Z AUTO 29004KT 260V320 9SM BKN024 01/M03 A3005 RMK SLP199,2025-11-01T18:32:53Z,2025-11-01T14:32:53Z
CYPL,2025-11-01T19:00:00Z,2025-11-01T15:00:00Z,MVFR,2,-4,65,220,7,14500,30.06,NA,BKN  ft; BKN  ft,METAR CYPL 011900Z AUTO 22007KT 9SM BKN024 BKN029 02/M04 A3006 RMK SLP201,2025-11-01T19:18:49Z,2025-11-01T15:18:49Z
CYPL,2025-11-01T20:00:00Z,2025-11-01T16:00:00Z,MVFR,2,-3,70,260,9,14500,30.04,NA,OVC  ft,METAR CYPL 012000Z AUTO 26009KT 180V290 9SM OVC026 02/M03 A3004 RMK SLP196,2025-11-01T20:25:25Z,2025-11-01T16:25:25Z
CYPL,2025-11-01T21:00:00Z,2025-11-01T17:00:00Z,MVFR,2,-4,65,220,8,14500,30.01,NA,OVC  ft,METAR CYPL 012100Z AUTO 22008KT 9SM OVC026 02/M04 A3001 RMK SLP187,2025-11-01T21:21:10Z,2025-11-01T17:21:10Z
CYPL,2025-11-01T22:00:00Z,2025-11-01T18:00:00Z,MVFR,1,-4,70,220,6,14500,29.99,NA,OVC  ft,METAR CYPL 012200Z AUTO 22006KT 9SM OVC026 01/M04 A2999 RMK SLP178,2025-11-01T22:23:04Z,2025-11-01T18:23:04Z
CYPL,2025-11-01T23:00:00Z,2025-11-01T19:00:00Z,MVFR,1,-3,75,210,7,14500,29.97,NA,BKN  ft; OVC  ft,METAR CYPL 012300Z AUTO 21007KT 9SM BKN022 OVC220 01/M03 A2997 RMK SLP172,2025-11-01T23:22:47Z,2025-11-01T19:22:47Z
CYPL,2025-11-02T01:51:00Z,2025-11-01T21:51:00Z,MVFR,0,-3,80,200,5,14500,29.93,NA,OVC  ft,SPECI CYPL 020151Z AUTO 20005KT 9SM OVC024 00/M03 A2993 RMK SLP157,2025-11-02T02:08:15Z,2025-11-01T22:08:15Z
CYPL,2025-11-02T02:00:00Z,2025-11-01T22:00:00Z,MVFR,0,-3,80,230,6,14500,29.93,NA,OVC  ft,METAR CYPL 020200Z AUTO 23006KT 9SM OVC024 00/M03 A2993 RMK SLP160,2025-11-02T02:25:11Z,2025-11-01T22:25:11Z
CYPL,2025-11-02T03:00:00Z,2025-11-01T23:00:00Z,MVFR,1,-3,75,220,9,14500,29.9,NA,OVC  ft,METAR CYPL 020300Z AUTO 22009KT 9SM OVC022 01/M03 A2990 RMK SLP148,2025-11-02T03:49:50Z,2025-11-01T23:49:50Z
CYPL,2025-11-02T04:10:00Z,2025-11-02T00:10:00Z,VFR,1,-3,75,230,11,14500,29.87,NA,SCT  ft; BKN  ft,SPECI CYPL 020410Z AUTO 23011G18KT 9SM SCT020 BKN250 01/M03 A2987 RMK SLP138,2025-11-02T04:30:19Z,2025-11-02T00:30:19Z
CYPL,2025-11-02T05:00:00Z,2025-11-02T01:00:00Z,MVFR,1,-3,75,220,8,14500,29.87,NA,OVC  ft,METAR CYPL 020500Z AUTO 22008G15KT 9SM OVC022 01/M03 A2987 RMK SLP138,2025-11-02T05:25:46Z,2025-11-02T01:25:46Z
CYPL,2025-11-02T06:00:00Z,2025-11-02T01:00:00Z,MVFR,1,-2,81,240,13,14500,29.85,NA,OVC  ft,METAR CYPL 020600Z AUTO 24013G18KT 190V260 9SM OVC020 01/M02 A2985 RMK SLP129,2025-11-02T06:36:52Z,2025-11-02T01:36:52Z
CYPL,2025-11-02T07:00:00Z,2025-11-02T02:00:00Z,MVFR,1,-2,81,230,13,14500,29.81,NA,OVC  ft,METAR CYPL 020700Z AUTO 23013G20KT 9SM OVC020 01/M02 A2981 RMK SLP114,2025-11-02T07:23:38Z,2025-11-02T02:23:38Z
CYPL,2025-11-02T08:00:00Z,2025-11-02T03:00:00Z,MVFR,1,-2,81,230,11,14500,29.79,NA,OVC  ft,METAR CYPL 020800Z AUTO 23011G21KT 9SM OVC020 01/M02 A2979 RMK SLP109,2025-11-02T08:29:58Z,2025-11-02T03:29:58Z
CYPL,2025-11-02T09:00:00Z,2025-11-02T04:00:00Z,VFR,1,-2,81,190,12,14500,29.74,NA,BKN  ft,METAR CYPL 020900Z AUTO 19012G17KT 9SM BKN250 01/M02 A2974 RMK SLP094,2025-11-02T09:23:20Z,2025-11-02T04:23:20Z
CYPL,2025-11-02T10:00:00Z,2025-11-02T05:00:00Z,VFR,1,-2,81,200,11,14500,29.7,NA,SCT  ft; OVC  ft,METAR CYPL 021000Z AUTO 20011G20KT 9SM SCT170 OVC190 01/M02 A2970 RMK SLP080,2025-11-02T10:24:57Z,2025-11-02T05:24:57Z
CYPL,2025-11-02T11:00:00Z,2025-11-02T06:00:00Z,VFR,1,-2,81,200,12,14500,29.66,NA,OVC  ft,METAR CYPL 021100Z AUTO 20012G18KT 9SM OVC140 01/M02 A2966 RMK SLP066,2025-11-02T11:19:30Z,2025-11-02T06:19:30Z
CYPL,2025-11-02T12:45:00Z,2025-11-02T07:45:00Z,VFR,2,-2,75,180,16,14500,29.55,NA,FEW  ft; SCT  ft; OVC  ft,SPECI CYPL 021245Z AUTO 18016G24KT 9SM FEW055 SCT080 OVC094 02/M02 A2955 RMK PRESFR SLP025,2025-11-02T12:48:24Z,2025-11-02T07:48:24Z
CYPL,2025-11-02T13:13:00Z,2025-11-02T08:13:00Z,VFR,2,-2,75,190,17,14500,29.52,NA,BKN  ft; OVC  ft,SPECI CYPL 021313Z AUTO 19017G25KT 9SM -RA BKN076 OVC092 02/M02 A2952 RMK SLP018,2025-11-02T13:28:10Z,2025-11-02T08:28:10Z
CYQA,2025-11-01T04:14:00Z,2025-11-01T00:14:00Z,VFR,4,1,81,320,10,14500,29.69,NA,SCT  ft; SCT  ft; BKN  ft,SPECI CYQA 010414Z AUTO 32010G21KT 9SM SCT023 SCT029 BKN041 04/01 A2969 RMK SLP066,2025-11-01T04:28:33Z,2025-11-01T00:28:33Z
CYQA,2025-11-01T05:00:00Z,2025-11-01T01:00:00Z,VFR,4,1,81,320,11,14500,29.71,NA,FEW  ft; OVC  ft,METAR CYQA 010500Z AUTO 32011G20KT 9SM FEW019 OVC041 04/01 A2971 RMK SLP071,2025-11-01T05:25:06Z,2025-11-01T01:25:06Z
CYQA,2025-11-01T06:00:00Z,2025-11-01T02:00:00Z,VFR,3,1,87,330,13,14500,29.72,NA,SCT  ft; BKN  ft,METAR CYQA 010600Z AUTO 33013G19KT 9SM SCT020 BKN043 03/01 A2972 RMK SLP078,2025-11-01T06:35:12Z,2025-11-01T02:35:12Z
CYQA,2025-11-01T07:00:00Z,2025-11-01T03:00:00Z,VFR,3,0,81,330,10,14500,29.75,NA,SCT  ft,METAR CYQA 010700Z AUTO 33010G20KT 9SM SCT045 03/00 A2975 RMK SLP086,2025-11-01T07:23:00Z,2025-11-01T03:23:00Z
CYQA,2025-11-01T08:00:00Z,2025-11-01T04:00:00Z,VFR,2,0,87,350,11,14500,29.76,NA,BKN  ft,METAR CYQA 010800Z AUTO 35011G21KT 9SM BKN045 02/M00 A2976 RMK SLP091,2025-11-01T08:30:52Z,2025-11-01T04:30:52Z
CYQA,2025-11-01T09:21:00Z,2025-11-01T05:21:00Z,VFR,3,-2,70,330,10,14500,29.79,NA,FEW  ft; SCT  ft; OVC  ft,SPECI CYQA 010921Z AUTO 33010G15KT 9SM FEW021 SCT035 OVC043 03/M02 A2979 RMK SLP101,2025-11-01T09:24:37Z,2025-11-01T05:24:37Z
CYQA,2025-11-01T10:00:00Z,2025-11-01T06:00:00Z,VFR,3,-1,75,320,7,14500,29.81,NA,OVC  ft,METAR CYQA 011000Z AUTO 32007KT 9SM OVC039 03/M01 A2981 RMK SLP105,2025-11-01T10:25:45Z,2025-11-01T06:25:45Z
CYQA,2025-11-01T11:00:00Z,2025-11-01T07:00:00Z,VFR,2,-2,75,340,10,14500,29.84,NA,OVC  ft,METAR CYQA 011100Z AUTO 34010KT 9SM OVC041 02/M02 A2984 RMK SLP117,2025-11-01T11:19:34Z,2025-11-01T07:19:34Z
CYQA,2025-11-01T12:00:00Z,2025-11-01T08:00:00Z,VFR,2,-2,75,340,8,14500,29.86,NA,BKN  ft,METAR CYQA 011200Z AUTO 34008KT 9SM BKN039 02/M02 A2986 RMK SLP124,2025-11-01T12:49:06Z,2025-11-01T08:49:06Z
CYQA,2025-11-01T13:00:00Z,2025-11-01T09:00:00Z,VFR,3,-3,65,330,12,14500,29.9,NA,OVC  ft,METAR CYQA 011300Z AUTO 33012KT 9SM OVC035 03/M03 A2990 RMK SLP136,2025-11-01T13:28:52Z,2025-11-01T09:28:52Z
CYQA,2025-11-01T14:00:00Z,2025-11-01T10:00:00Z,VFR,3,-3,65,340,9,14500,29.92,NA,OVC  ft,METAR CYQA 011400Z AUTO 34009KT 9SM OVC031 03/M03 A2992 RMK SLP144,2025-11-01T14:22:16Z,2025-11-01T10:22:16Z
CYQA,2025-11-01T15:00:00Z,2025-11-01T11:00:00Z,VFR,4,-3,61,340,11,14500,29.94,NA,OVC  ft,METAR CYQA 011500Z AUTO 34011G17KT 9SM OVC040 04/M03 A2994 RMK SLP150,2025-11-01T15:22:37Z,2025-11-01T11:22:37Z
CYQA,2025-11-01T16:00:00Z,2025-11-01T12:00:00Z,VFR,4,-3,61,320,10,14500,29.96,NA,OVC  ft,METAR CYQA 011600Z AUTO 32010G15KT 9SM OVC034 04/M03 A2996 RMK SLP158,2025-11-01T16:28:37Z,2025-11-01T12:28:37Z
CYQA,2025-11-01T17:00:00Z,2025-11-01T13:00:00Z,VFR,5,-2,61,350,14,14500,29.96,NA,OVC  ft,METAR CYQA 011700Z AUTO 35014G19KT 9SM OVC032 05/M02 A2996 RMK SLP157,2025-11-01T17:20:01Z,2025-11-01T13:20:01Z
CYQA,2025-11-01T18:00:00Z,2025-11-01T14:00:00Z,VFR,4,-3,61,320,8,14500,29.97,NA,OVC  ft,METAR CYQA 011800Z AUTO 32008G15KT 290V350 9SM OVC038 04/M03 A2997 RMK SLP161,2025-11-01T18:32:54Z,2025-11-01T14:32:54Z
CYQA,2025-11-01T19:00:00Z,2025-11-01T15:00:00Z,VFR,5,-3,57,320,9,14500,29.98,NA,OVC  ft,METAR CYQA 011900Z AUTO 32009G15KT 9SM OVC040 05/M03 A2998 RMK SLP165,2025-11-01T19:18:50Z,2025-11-01T15:18:50Z
CYQA,2025-11-01T20:00:00Z,2025-11-01T16:00:00Z,VFR,4,-3,61,350,12,14500,30,NA,OVC  ft,METAR CYQA 012000Z AUTO 35012KT 9SM OVC040 04/M03 A3000 RMK SLP171,2025-11-01T20:25:26Z,2025-11-01T16:25:26Z
CYQA,2025-11-01T21:00:00Z,2025-11-01T17:00:00Z,VFR,4,-3,61,350,7,14500,30.02,NA,OVC  ft,METAR CYQA 012100Z AUTO 35007KT 300V010 9SM OVC040 04/M03 A3002 RMK SLP177,2025-11-01T21:21:10Z,2025-11-01T17:21:10Z
CYQA,2025-11-01T22:00:00Z,2025-11-01T18:00:00Z,VFR,3,-3,65,350,4,14500,30.03,NA,OVC  ft,METAR CYQA 012200Z AUTO 35004KT 9SM OVC038 03/M03 A3003 RMK SLP182,2025-11-01T22:23:04Z,2025-11-01T18:23:04Z
CYQA,2025-11-01T23:00:00Z,2025-11-01T19:00:00Z,VFR,3,-3,65,0,2,14500,30.06,NA,OVC  ft,METAR CYQA 012300Z AUTO VRB02KT 9SM OVC036 03/M03 A3006 RMK SLP191,2025-11-01T23:22:48Z,2025-11-01T19:22:48Z
CYQA,2025-11-02T01:00:00Z,2025-11-01T21:00:00Z,VFR,2,-1,81,0,0,14500,30.08,NA,OVC  ft,METAR CYQA 020100Z AUTO 00000KT 9SM OVC036 02/M01 A3008 RMK SLP200,2025-11-02T02:08:16Z,2025-11-01T22:08:16Z
CYQA,2025-11-02T02:00:00Z,2025-11-01T22:00:00Z,VFR,2,-1,81,0,0,14500,30.1,NA,OVC  ft,METAR CYQA 020200Z AUTO 00000KT 9SM OVC036 02/M01 A3010 RMK SLP207,2025-11-02T02:25:12Z,2025-11-01T22:25:12Z
CYQA,2025-11-02T03:00:00Z,2025-11-01T23:00:00Z,VFR,1,-1,87,0,0,14500,30.11,NA,OVC  ft,METAR CYQA 020300Z AUTO 00000KT 9SM OVC038 01/M01 A3011 RMK SLP209,2025-11-02T03:49:51Z,2025-11-01T23:49:51Z
CYQA,2025-11-02T04:00:00Z,2025-11-02T00:00:00Z,VFR,1,0,93,0,0,14500,30.12,NA,OVC  ft,METAR CYQA 020400Z AUTO 00000KT 9SM OVC040 01/M00 A3012 RMK SLP212,2025-11-02T04:30:20Z,2025-11-02T00:30:20Z
CYQA,2025-11-02T05:00:00Z,2025-11-02T01:00:00Z,VFR,1,-1,87,0,0,14500,30.12,NA,OVC  ft,METAR CYQA 020500Z AUTO 00000KT 9SM OVC038 01/M01 A3012 RMK SLP213,2025-11-02T05:25:47Z,2025-11-02T01:25:47Z
CYQA,2025-11-02T06:00:00Z,2025-11-02T01:00:00Z,VFR,1,-1,87,140,2,14500,30.13,NA,OVC  ft,METAR CYQA 020600Z AUTO 14002KT 9SM OVC038 01/M01 A3013 RMK SLP214,2025-11-02T06:36:53Z,2025-11-02T01:36:53Z
CYQA,2025-11-02T07:00:00Z,2025-11-02T02:00:00Z,VFR,1,-1,87,110,2,14500,30.14,NA,OVC  ft,METAR CYQA 020700Z AUTO 11002KT 9SM OVC036 01/M01 A3014 RMK SLP218,2025-11-02T07:23:38Z,2025-11-02T02:23:38Z
CYQA,2025-11-02T08:00:00Z,2025-11-02T03:00:00Z,VFR,1,-1,87,200,2,14500,30.15,NA,OVC  ft,METAR CYQA 020800Z AUTO 20002KT 9SM OVC036 01/M01 A3015 RMK SLP223,2025-11-02T08:29:59Z,2025-11-02T03:29:59Z
CYQA,2025-11-02T09:00:00Z,2025-11-02T04:00:00Z,VFR,0,-1,93,0,0,14500,30.16,NA,OVC  ft,METAR CYQA 020900Z AUTO 00000KT 9SM OVC036 00/M01 A3016 RMK SLP227,2025-11-02T09:23:21Z,2025-11-02T04:23:21Z
CYQA,2025-11-02T10:00:00Z,2025-11-02T05:00:00Z,VFR,0,-1,93,0,0,14500,30.18,NA,OVC  ft,METAR CYQA 021000Z AUTO 00000KT 9SM OVC038 00/M01 A3018 RMK SLP234,2025-11-02T10:24:58Z,2025-11-02T05:24:58Z
CYQA,2025-11-02T11:00:00Z,2025-11-02T06:00:00Z,VFR,0,-1,93,0,0,14500,30.19,NA,OVC  ft,METAR CYQA 021100Z AUTO 00000KT 9SM OVC038 00/M01 A3019 RMK SLP237,2025-11-02T11:19:31Z,2025-11-02T06:19:31Z
CYQA,2025-11-02T12:00:00Z,2025-11-02T07:00:00Z,VFR,1,0,93,0,2,14500,30.21,NA,OVC  ft,METAR CYQA 021200Z AUTO VRB02KT 9SM OVC036 01/M00 A3021 RMK SLP243,2025-11-02T12:48:25Z,2025-11-02T07:48:25Z
CYQA,2025-11-02T13:19:00Z,2025-11-02T08:19:00Z,MVFR,2,0,87,0,0,14500,30.23,NA,BKN  ft; OVC  ft,SPECI CYQA 021319Z AUTO 00000KT 9SM -RA BKN024 OVC031 02/M00 A3023 RMK SLP249,2025-11-02T13:28:11Z,2025-11-02T08:28:11Z
CYQB,2025-11-01T04:00:00Z,2025-11-01T00:00:00Z,VFR,8,5,82,310,8,24100,28.98,NA,FEW  ft; OVC  ft,METAR CYQB 010400Z 31008G17KT 260V360 15SM FEW025 OVC051 08/05 A2898 RMK SC1SC8 SC TR PRESRR SLP818 DENSITY ALT 600FT,2025-11-01T04:28:34Z,2025-11-01T00:28:34Z
CYQB,2025-11-01T05:00:00Z,2025-11-01T01:00:00Z,VFR,8,4,76,290,6,24100,29.04,NA,FEW  ft; SCT  ft; OVC  ft,METAR CYQB 010500Z 29006KT 260V050 15SM FEW029 SCT067 OVC093 08/04 A2904 RMK SC1AC2AC5 SLP838 DENSITY ALT 500FT,2025-11-01T05:25:07Z,2025-11-01T01:25:07Z
CYQB,2025-11-01T06:00:00Z,2025-11-01T02:00:00Z,VFR,7,4,81,280,8,24100,29.09,NA,FEW  ft; BKN  ft; OVC  ft,METAR CYQB 010600Z 28008KT 15SM FEW034 BKN096 OVC130 07/04 A2909 RMK SC2AC5AC1 PRESRR SLP854,2025-11-01T06:35:13Z,2025-11-01T02:35:13Z
CYQB,2025-11-01T07:00:00Z,2025-11-01T03:00:00Z,VFR,7,3,76,270,13,24100,29.14,NA,FEW  ft; BKN  ft; OVC  ft,METAR CYQB 010700Z 27013G21KT 15SM FEW025 BKN031 OVC100 07/03 A2914 RMK SC1SC5AC3 SC TR SLP870,2025-11-01T07:23:02Z,2025-11-01T03:23:02Z
CYQB,2025-11-01T08:00:00Z,2025-11-01T04:00:00Z,MVFR,6,4,87,260,15,24100,29.18,NA,FEW  ft; BKN  ft; OVC  ft,METAR CYQB 010800Z 26015KT 15SM FEW015 BKN027 OVC100 06/04 A2918 RMK SC1SC6AC2 SC TR SLP884,2025-11-01T08:30:53Z,2025-11-01T04:30:53Z
CYQB,2025-11-01T09:00:00Z,2025-11-01T05:00:00Z,MVFR,7,3,76,260,11,24100,29.22,NA,FEW  ft; BKN  ft; OVC  ft,METAR CYQB 010900Z 26011G16KT 240V300 15SM FEW015 BKN027 OVC110 07/03 A2922 RMK SC1SC6AC2 SC TR SLP899,2025-11-01T09:24:39Z,2025-11-01T05:24:39Z
CYQB,2025-11-01T10:00:00Z,2025-11-01T06:00:00Z,MVFR,6,3,81,270,16,24100,29.26,NA,BKN  ft; BKN  ft; OVC  ft,METAR CYQB 011000Z CCA 27016G21KT 15SM BKN028 BKN110 OVC150 06/03 A2926 RMK SC5AC2AC1 SLP913,2025-11-01T10:25:46Z,2025-11-01T06:25:46Z
CYQB,2025-11-01T11:00:00Z,2025-11-01T07:00:00Z,VFR,7,3,76,260,15,48300,29.32,NA,BKN  ft; BKN  ft; BKN  ft,METAR CYQB 011100Z 26015G22KT 30SM BKN038 BKN130 BKN200 07/03 A2932 RMK SC5AC1CI1 PRESRR SLP932,2025-11-01T11:19:35Z,2025-11-01T07:19:35Z
CYQB,2025-11-01T12:00:00Z,2025-11-01T08:00:00Z,VFR,6,2,76,270,13,48300,29.37,NA,SCT  ft; BKN  ft,METAR CYQB 011200Z CCA 27013G22KT 30SM SCT035 BKN110 06/02 A2937 RMK SC4AC1 PRESRR SLP950,2025-11-01T12:49:07Z,2025-11-01T08:49:07Z
CYQB,2025-11-01T13:00:00Z,2025-11-01T09:00:00Z,VFR,6,2,76,270,13,48300,29.42,NA,SCT  ft; SCT  ft,METAR CYQB 011300Z 27013G22KT 30SM SCT030 SCT110 06/02 A2942 RMK SC4AC1 AC TR SLP967,2025-11-01T13:28:53Z,2025-11-01T09:28:53Z
CYQB,2025-11-01T14:00:00Z,2025-11-01T10:00:00Z,VFR,7,1,66,280,17,48300,29.46,NA,SCT  ft; SCT  ft,METAR CYQB 011400Z 28017G25KT 260V330 30SM SCT030 SCT110 07/01 A2946 RMK SC3AC1 AC TR SLP981,2025-11-01T14:22:17Z,2025-11-01T10:22:17Z
CYQB,2025-11-01T15:00:00Z,2025-11-01T11:00:00Z,VFR,8,1,62,280,13,48300,29.51,NA,SCT  ft; SCT  ft,METAR CYQB 011500Z 28013G23KT 250V320 30SM SCT030 SCT120 08/01 A2951 RMK SC3AC1 AC TR SLP997,2025-11-01T15:22:38Z,2025-11-01T11:22:38Z
CYQB,2025-11-01T16:00:00Z,2025-11-01T12:00:00Z,VFR,7,1,66,270,16,48300,29.56,NA,BKN  ft; BKN  ft,METAR CYQB 011600Z 27016G25KT 250V320 30SM BKN032 BKN110 07/01 A2956 RMK SC5AC1 SLP014,2025-11-01T16:28:38Z,2025-11-01T12:28:38Z
CYQB,2025-11-01T17:00:00Z,2025-11-01T13:00:00Z,VFR,7,0,61,270,14,48300,29.59,NA,BKN  ft,METAR CYQB 011700Z 27014G22KT 250V320 30SM BKN035 07/00 A2959 RMK SC7 SLP025,2025-11-01T17:20:04Z,2025-11-01T13:20:04Z
CYQB,2025-11-01T18:00:00Z,2025-11-01T14:00:00Z,VFR,7,1,66,280,13,48300,29.62,NA,BKN  ft; BKN  ft,METAR CYQB 011800Z 28013G28KT 30SM BKN035 BKN110 07/01 A2962 RMK SC6AC1 AC TR DIST SH SE SLP034,2025-11-01T18:32:55Z,2025-11-01T14:32:55Z
CYQB,2025-11-01T19:00:00Z,2025-11-01T15:00:00Z,VFR,7,1,66,270,14,48300,29.66,NA,BKN  ft; BKN  ft; BKN  ft,METAR CYQB 011900Z 27014G24KT 260V320 30SM -SHRA BKN034 BKN045 BKN120 07/01 A2966 RMK SC5SC1AC1 AC TR CVCTV CLD EMBD SLP048,2025-11-01T19:18:52Z,2025-11-01T15:18:52Z
CYQB,2025-11-01T20:00:00Z,2025-11-01T16:00:00Z,VFR,6,1,71,260,16,48300,29.71,NA,SCT  ft; BKN  ft,METAR CYQB 012000Z 26016KT 30SM SCT034 BKN044 06/01 A2971 RMK SC3SC3 DIST SH SE PRESRR SLP065,2025-11-01T20:25:27Z,2025-11-01T16:25:27Z
CYQB,2025-11-01T21:00:00Z,2025-11-01T17:00:00Z,VFR,5,1,76,260,18,48300,29.75,NA,FEW  ft; BKN  ft; BKN  ft,METAR CYQB 012100Z 26018G25KT 30SM FEW024 BKN036 BKN058 05/01 A2975 RMK SC1SC5SC2 SC TR SLP078,2025-11-01T21:21:11Z,2025-11-01T17:21:11Z
CYQB,2025-11-01T22:00:00Z,2025-11-01T18:00:00Z,VFR,5,0,70,270,13,24100,29.8,NA,FEW  ft; BKN  ft,METAR CYQB 012200Z 27013G18KT 15SM FEW032 BKN046 05/00 A2980 RMK SC2SC5 SLP096,2025-11-01T22:23:06Z,2025-11-01T18:23:06Z
CYQB,2025-11-01T23:00:00Z,2025-11-01T19:00:00Z,VFR,4,0,75,270,12,24100,29.83,NA,FEW  ft; SCT  ft; SCT  ft,METAR CYQB 012300Z 27012KT 15SM FEW032 SCT058 SCT075 04/00 A2983 RMK SC1SC2AC2 SC TR SLP106,2025-11-01T23:22:49Z,2025-11-01T19:22:49Z
CYQB,2025-11-02T01:00:00Z,2025-11-01T21:00:00Z,VFR,4,0,75,270,14,24100,29.88,NA,FEW  ft; SCT  ft,METAR CYQB 020100Z 27014G23KT 15SM FEW026 SCT073 04/M00 A2988 RMK SC1AC3 SC TR SLP122,2025-11-02T02:08:17Z,2025-11-01T22:08:17Z
CYQB,2025-11-02T02:00:00Z,2025-11-01T22:00:00Z,VFR,3,-1,75,270,9,24100,29.92,NA,SCT  ft,METAR CYQB 020200Z 27009KT 15SM SCT035 03/M01 A2992 RMK SC3 SLP136,2025-11-02T02:25:13Z,2025-11-01T22:25:13Z
CYQB,2025-11-02T03:14:00Z,2025-11-01T23:14:00Z,VFR,2,-2,75,230,8,24100,29.95,NA,SCT  ft,SPECI CYQB 020314Z 23008KT 15SM SCT034 02/M02 A2995 RMK SC3 SLP148,2025-11-02T03:49:52Z,2025-11-01T23:49:52Z
CYQB,2025-11-02T04:00:00Z,2025-11-02T00:00:00Z,VFR,2,-3,70,260,4,24100,29.98,NA,SCT  ft,METAR CYQB 020400Z 26004KT 15SM SCT035 02/M03 A2998 RMK SC4 SLP157,2025-11-02T04:30:21Z,2025-11-02T00:30:21Z
CYQB,2025-11-02T05:00:00Z,2025-11-02T01:00:00Z,VFR,3,-2,70,260,3,24100,30,NA,BKN  ft,METAR CYQB 020500Z 26003KT 15SM BKN034 03/M02 A3000 RMK SC6 SLP164,2025-11-02T05:25:48Z,2025-11-02T01:25:48Z
CYQB,2025-11-02T06:00:00Z,2025-11-02T01:00:00Z,VFR,3,-3,65,0,2,24100,30.02,NA,BKN  ft,METAR CYQB 020600Z VRB02KT 15SM BKN034 03/M03 A3002 RMK SC7 SLP170,2025-11-02T06:36:54Z,2025-11-02T01:36:54Z
CYQB,2025-11-02T07:00:00Z,2025-11-02T02:00:00Z,VFR,3,-2,70,280,5,24100,30.03,NA,OVC  ft,METAR CYQB 020700Z 28005KT 260V320 15SM OVC034 03/M02 A3003 RMK SC8 SLP176,2025-11-02T07:23:39Z,2025-11-02T02:23:39Z
CYQB,2025-11-02T08:00:00Z,2025-11-02T03:00:00Z,VFR,3,-3,65,270,6,24100,30.05,NA,OVC  ft,METAR CYQB 020800Z 27006KT 250V320 15SM OVC032 03/M03 A3005 RMK SC8 SLP180,2025-11-02T08:30:00Z,2025-11-02T03:30:00Z
CYQB,2025-11-02T09:00:00Z,2025-11-02T04:00:00Z,VFR,3,-3,65,280,3,24100,30.07,NA,OVC  ft,METAR CYQB 020900Z 28003KT 250V310 15SM OVC033 03/M03 A3007 RMK SC8 SLP189,2025-11-02T09:23:22Z,2025-11-02T04:23:22Z
CYQB,2025-11-02T10:00:00Z,2025-11-02T05:00:00Z,VFR,2,-2,75,270,10,24100,30.1,NA,OVC  ft,METAR CYQB 021000Z 27010KT 15SM OVC034 02/M02 A3010 RMK SC8 SLP197,2025-11-02T10:25:00Z,2025-11-02T05:25:00Z
CYQB,2025-11-02T11:08:00Z,2025-11-02T06:08:00Z,VFR,2,-2,75,280,9,48300,30.13,NA,OVC  ft,SPECI CYQB 021108Z 28009KT 30SM -SHSN OVC032 02/M02 A3013 RMK SC8 CVCTV CLD EMBD SLP208,2025-11-02T11:19:32Z,2025-11-02T06:19:32Z
CYQB,2025-11-02T12:00:00Z,2025-11-02T07:00:00Z,VFR,3,-3,65,270,6,48300,30.16,NA,OVC  ft,METAR CYQB 021200Z 27006KT 30SM OVC031 03/M03 A3016 RMK SC8 SH DIST NE SLP218,2025-11-02T12:48:26Z,2025-11-02T07:48:26Z
CYQB,2025-11-02T13:00:00Z,2025-11-02T08:00:00Z,VFR,3,-3,65,270,8,48300,30.18,NA,OVC  ft,METAR CYQB 021300Z 27008KT 30SM OVC033 03/M03 A3018 RMK SC8 SLP224,2025-11-02T13:28:13Z,2025-11-02T08:28:13Z
CYQF,2025-11-01T04:00:00Z,2025-11-01T00:00:00Z,VFR,6,-4,49,130,9,14500,29.55,NA,BKN  ft; OVC  ft,METAR CYQF 010400Z AUTO 13009KT 9SM BKN180 OVC200 06/M04 A2955 RMK SLP040,2025-11-01T04:28:34Z,2025-11-01T00:28:34Z
CYQF,2025-11-01T05:00:00Z,2025-11-01T01:00:00Z,VFR,6,-4,49,120,6,14500,29.54,NA,FEW  ft,METAR CYQF 010500Z AUTO 12006KT 9SM FEW230 06/M04 A2954 RMK SLP034,2025-11-01T05:25:06Z,2025-11-01T01:25:06Z
CYQF,2025-11-01T06:00:00Z,2025-11-01T02:00:00Z,VFR,5,-4,53,190,5,14500,29.55,NA,BKN  ft,METAR CYQF 010600Z AUTO 19005KT 9SM BKN240 05/M04 A2955 RMK SLP036,2025-11-01T06:35:13Z,2025-11-01T02:35:13Z
CYQF,2025-11-01T07:00:00Z,2025-11-01T03:00:00Z,VFR,10,-1,47,250,7,14500,29.55,NA,CLR  ft,METAR CYQF 010700Z AUTO 25007KT 9SM CLR 10/M01 A2955 RMK SLP030 DENSITY ALT 3600FT,2025-11-01T07:23:01Z,2025-11-01T03:23:01Z
CYQF,2025-11-01T08:00:00Z,2025-11-01T04:00:00Z,VFR,8,-1,53,220,7,14500,29.57,NA,FEW  ft,METAR CYQF 010800Z AUTO 22007KT 9SM FEW250 08/M01 A2957 RMK SLP039 DENSITY ALT 3300FT,2025-11-01T08:30:53Z,2025-11-01T04:30:53Z
CYQF,2025-11-01T09:00:00Z,2025-11-01T05:00:00Z,VFR,7,-1,57,210,4,14500,29.59,NA,CLR  ft,METAR CYQF 010900Z AUTO 21004KT 9SM CLR 07/M01 A2959 RMK SLP044,2025-11-01T09:24:38Z,2025-11-01T05:24:38Z
CYQF,2025-11-01T10:00:00Z,2025-11-01T06:00:00Z,VFR,9,-1,50,270,3,14500,29.59,NA,BKN  ft,METAR CYQF 011000Z AUTO 27003KT 9SM BKN250 09/M01 A2959 RMK SLP045 DENSITY ALT 3300FT,2025-11-01T10:25:45Z,2025-11-01T06:25:45Z
CYQF,2025-11-01T11:00:00Z,2025-11-01T07:00:00Z,VFR,7,-1,57,170,3,14500,29.6,NA,BKN  ft,METAR CYQF 011100Z AUTO 17003KT 9SM BKN240 07/M01 A2960 RMK SLP047,2025-11-01T11:19:34Z,2025-11-01T07:19:34Z
CYQF,2025-11-01T12:00:00Z,2025-11-01T08:00:00Z,VFR,5,-2,61,0,0,14500,29.61,NA,SCT  ft,METAR CYQF 011200Z AUTO 00000KT 9SM SCT220 05/M02 A2961 RMK SLP052,2025-11-01T12:49:07Z,2025-11-01T08:49:07Z
CYQF,2025-11-01T13:00:00Z,2025-11-01T09:00:00Z,VFR,1,-3,75,0,4,14500,29.61,NA,OVC  ft,METAR CYQF 011300Z AUTO VRB04KT 9SM OVC220 01/M03 A2961 RMK SLP057,2025-11-01T13:28:53Z,2025-11-01T09:28:53Z
CYQF,2025-11-01T14:00:00Z,2025-11-01T10:00:00Z,VFR,4,-2,65,50,2,14500,29.62,NA,SCT  ft; BKN  ft; BKN  ft,METAR CYQF 011400Z AUTO 05002KT 9SM SCT170 BKN190 BKN220 04/M02 A2962 RMK SLP058,2025-11-01T14:22:17Z,2025-11-01T10:22:17Z
CYQF,2025-11-01T15:00:00Z,2025-11-01T11:00:00Z,VFR,4,-2,65,0,2,14500,29.62,NA,BKN  ft; BKN  ft,METAR CYQF 011500Z AUTO VRB02KT 9SM BKN150 BKN190 04/M02 A2962 RMK SLP059,2025-11-01T15:22:38Z,2025-11-01T11:22:38Z
CYQF,2025-11-01T16:00:00Z,2025-11-01T12:00:00Z,VFR,5,-2,61,50,4,14500,29.6,NA,SCT  ft,METAR CYQF 011600Z AUTO 05004KT 360V060 9SM SCT190 05/M02 A2960 RMK SLP052,2025-11-01T16:28:37Z,2025-11-01T12:28:37Z
CYQF,2025-11-01T17:00:00Z,2025-11-01T13:00:00Z,VFR,9,0,54,80,3,14500,29.61,NA,FEW  ft; SCT  ft,METAR CYQF 011700Z AUTO 08003KT 360V090 9SM FEW170 SCT190 09/M00 A2961 RMK SLP052 DENSITY ALT 3300FT,2025-11-01T17:20:03Z,2025-11-01T13:20:03Z
CYQF,2025-11-01T18:00:00Z,2025-11-01T14:00:00Z,VFR,9,0,54,80,7,14500,29.57,NA,SCT  ft; BKN  ft,METAR CYQF 011800Z AUTO 08007KT 9SM SCT096 BKN120 09/00 A2957 RMK SLP038 DENSITY ALT 3400FT,2025-11-01T18:32:54Z,2025-11-01T14:32:54Z
CYQF,2025-11-01T19:00:00Z,2025-11-01T15:00:00Z,VFR,10,0,50,90,3,14500,29.5,NA,FEW  ft; BKN  ft; OVC  ft,METAR CYQF 011900Z AUTO 09003KT 9SM FEW060 BKN088 OVC110 10/00 A2950 RMK PRESFR SLP006 DENSITY ALT 3600FT,2025-11-01T19:18:51Z,2025-11-01T15:18:51Z
CYQF,2025-11-01T20:00:00Z,2025-11-01T16:00:00Z,VFR,10,0,50,0,2,14500,29.46,NA,OVC  ft,METAR CYQF 012000Z AUTO VRB02KT 9SM OVC091 10/00 A2946 RMK SLP993 DENSITY ALT 3700FT,2025-11-01T20:25:26Z,2025-11-01T16:25:26Z
CYQF,2025-11-01T21:04:00Z,2025-11-01T17:04:00Z,VFR,9,2,62,40,10,14500,29.41,NA,SCT  ft; OVC  ft,SPECI CYQF 012104Z AUTO 04010KT 9SM SCT060 OVC077 09/02 A2941 RMK PRESFR SLP977 DENSITY ALT 3600FT,2025-11-01T21:21:11Z,2025-11-01T17:21:11Z
CYQF,2025-11-01T22:04:00Z,2025-11-01T18:04:00Z,VFR,10,3,62,40,8,14500,29.37,NA,FEW  ft; SCT  ft,SPECI CYQF 012204Z AUTO 04008KT 9SM FEW055 SCT071 10/03 A2937 RMK SLP960 DENSITY ALT 3800FT,2025-11-01T22:23:05Z,2025-11-01T18:23:05Z
CYQF,2025-11-01T23:00:00Z,2025-11-01T19:00:00Z,VFR,9,3,66,30,8,14500,29.34,NA,CLR  ft,METAR CYQF 012300Z AUTO 03008KT 9SM CLR 09/03 A2934 RMK PRESFR SLP956 DENSITY ALT 3600FT,2025-11-01T23:22:49Z,2025-11-01T19:22:49Z
CYQF,2025-11-02T01:00:00Z,2025-11-01T21:00:00Z,VFR,6,2,76,310,7,14500,29.4,NA,CLR  ft,METAR CYQF 020100Z AUTO 31007KT 9SM CLR 06/02 A2940 RMK SLP985 DENSITY ALT 3200FT,2025-11-02T02:08:17Z,2025-11-01T22:08:17Z
CYQF,2025-11-02T02:00:00Z,2025-11-01T22:00:00Z,VFR,4,1,81,290,7,14500,29.42,NA,SCT  ft,METAR CYQF 020200Z AUTO 29007KT 9SM SCT120 04/01 A2942 RMK SLP992,2025-11-02T02:25:13Z,2025-11-01T22:25:13Z
CYQF,2025-11-02T03:00:00Z,2025-11-01T23:00:00Z,VFR,4,1,81,0,2,14500,29.47,NA,FEW  ft; SCT  ft,METAR CYQF 020300Z AUTO VRB02KT 9SM FEW120 SCT140 04/01 A2947 RMK SLP009,2025-11-02T03:49:52Z,2025-11-01T23:49:52Z
CYQF,2025-11-02T04:26:00Z,2025-11-02T00:26:00Z,VFR,4,2,87,300,9,14500,29.52,NA,FEW  ft; BKN  ft; BKN  ft,SPECI CYQF 020426Z AUTO 30009G15KT 9SM -RA FEW055 BKN100 BKN140 04/02 A2952 RMK PRESRR SLP026,2025-11-02T04:30:21Z,2025-11-02T00:30:21Z
CYQF,2025-11-02T05:06:00Z,2025-11-02T01:06:00Z,MVFR,4,2,87,320,24,14500,29.57,NA,BKN  ft; OVC  ft,SPECI CYQF 020506Z AUTO 32024G34KT 9SM -RA BKN018 OVC033 04/02 A2957 RMK PRESRR SLP044,2025-11-02T05:25:48Z,2025-11-02T01:25:48Z
CYQF,2025-11-02T06:00:00Z,2025-11-02T01:00:00Z,VFR,2,0,87,340,14,14500,29.63,NA,FEW  ft; SCT  ft; SCT  ft; BKN  ft,METAR CYQF 020600Z AUTO 34014G28KT 9SM FEW018 SCT055 SCT071 BKN140 02/M00 A2963 RMK SLP059,2025-11-02T06:36:54Z,2025-11-02T01:36:54Z
CYQF,2025-11-02T07:00:00Z,2025-11-02T02:00:00Z,VFR,2,0,87,320,12,14500,29.68,NA,FEW  ft; BKN  ft; BKN  ft,METAR CYQF 020700Z AUTO 32012KT 9SM FEW071 BKN100 BKN120 02/M00 A2968 RMK SLP078,2025-11-02T07:23:39Z,2025-11-02T02:23:39Z
CYQF,2025-11-02T08:00:00Z,2025-11-02T03:00:00Z,VFR,2,-2,75,300,7,14500,29.71,NA,FEW  ft; BKN  ft; OVC  ft,METAR CYQF 020800Z AUTO 30007KT 9SM FEW060 BKN073 OVC089 02/M02 A2971 RMK SLP086,2025-11-02T08:30:00Z,2025-11-02T03:30:00Z
CYQF,2025-11-02T09:00:00Z,2025-11-02T04:00:00Z,VFR,2,-2,75,290,9,14500,29.73,NA,FEW  ft; BKN  ft; BKN  ft; BKN  ft,METAR CYQF 020900Z AUTO 29009G16KT 9SM FEW076 BKN100 BKN120 BKN160 02/M02 A2973 RMK SLP096,2025-11-02T09:23:22Z,2025-11-02T04:23:22Z
CYQF,2025-11-02T10:00:00Z,2025-11-02T05:00:00Z,VFR,1,-3,75,270,7,14500,29.76,NA,CLR  ft,METAR CYQF 021000Z AUTO 27007KT 9SM CLR 01/M03 A2976 RMK SLP106,2025-11-02T10:24:59Z,2025-11-02T05:24:59Z
CYQF,2025-11-02T11:00:00Z,2025-11-02T06:00:00Z,VFR,-2,-4,86,230,5,14500,29.78,NA,CLR  ft,METAR CYQF 021100Z AUTO 23005KT 9SM CLR M02/M04 A2978 RMK SLP116,2025-11-02T11:19:32Z,2025-11-02T06:19:32Z
CYQF,2025-11-02T12:00:00Z,2025-11-02T07:00:00Z,VFR,-4,-5,93,190,7,14500,29.78,NA,BKN  ft,METAR CYQF 021200Z AUTO 19007KT 9SM BKN160 M04/M05 A2978 RMK SLP123,2025-11-02T12:48:26Z,2025-11-02T07:48:26Z
CYQF,2025-11-02T13:00:00Z,2025-11-02T08:00:00Z,VFR,-6,-7,93,200,5,14500,29.8,NA,SCT  ft,METAR CYQF 021300Z AUTO 20005KT 9SM SCT180 M06/M07 A2980 RMK SLP132,2025-11-02T13:28:12Z,2025-11-02T08:28:12Z
CYQG,2025-11-01T04:00:00Z,2025-11-01T00:00:00Z,VFR,7,0,61,270,7,14500,29.89,NA,OVC  ft,METAR CYQG 010400Z AUTO 27007KT 9SM OVC071 07/00 A2989 RMK SLP126,2025-11-01T04:28:33Z,2025-11-01T00:28:33Z
CYQG,2025-11-01T05:00:00Z,2025-11-01T01:00:00Z,VFR,6,0,66,270,7,14500,29.9,NA,SCT  ft,METAR CYQG 010500Z AUTO 27007KT 9SM SCT071 06/00 A2990 RMK SLP128,2025-11-01T05:25:06Z,2025-11-01T01:25:06Z
CYQG,2025-11-01T06:00:00Z,2025-11-01T02:00:00Z,VFR,5,0,70,260,6,14500,29.91,NA,CLR  ft,METAR CYQG 010600Z AUTO 26006KT 9SM CLR 05/00 A2991 RMK SLP134,2025-11-01T06:35:12Z,2025-11-01T02:35:12Z
CYQG,2025-11-01T07:00:00Z,2025-11-01T03:00:00Z,VFR,5,1,76,260,4,14500,29.91,NA,CLR  ft,METAR CYQG 010700Z AUTO 26004KT 9SM CLR 05/01 A2991 RMK SLP134,2025-11-01T07:23:00Z,2025-11-01T03:23:00Z
CYQG,2025-11-01T08:00:00Z,2025-11-01T04:00:00Z,VFR,2,0,87,250,6,14500,29.92,NA,CLR  ft,METAR CYQG 010800Z AUTO 25006KT 9SM CLR 02/00 A2992 RMK SLP138,2025-11-01T08:30:52Z,2025-11-01T04:30:52Z
CYQG,2025-11-01T09:00:00Z,2025-11-01T05:00:00Z,VFR,2,0,87,280,3,14500,29.93,NA,FEW  ft,METAR CYQG 010900Z AUTO 28003KT 9SM FEW100 02/00 A2993 RMK SLP140,2025-11-01T09:24:37Z,2025-11-01T05:24:37Z
CYQG,2025-11-01T10:00:00Z,2025-11-01T06:00:00Z,VFR,3,2,93,210,6,14500,29.94,NA,OVC  ft,METAR CYQG 011000Z AUTO 21006KT 9SM OVC100 03/02 A2994 RMK SLP144,2025-11-01T10:25:44Z,2025-11-01T06:25:44Z
CYQG,2025-11-01T11:00:00Z,2025-11-01T07:00:00Z,VFR,4,2,87,230,4,14500,29.95,NA,BKN  ft,METAR CYQG 011100Z AUTO 23004KT 9SM BKN091 04/02 A2995 RMK SLP149,2025-11-01T11:19:33Z,2025-11-01T07:19:33Z
CYQG,2025-11-01T12:00:00Z,2025-11-01T08:00:00Z,VFR,3,2,93,250,4,14500,29.97,NA,BKN  ft,METAR CYQG 011200Z AUTO 25004KT 9SM BKN081 03/02 A2997 RMK SLP154,2025-11-01T12:49:06Z,2025-11-01T08:49:06Z
CYQG,2025-11-01T13:00:00Z,2025-11-01T09:00:00Z,VFR,3,2,93,200,2,14500,29.99,NA,SCT  ft; BKN  ft,METAR CYQG 011300Z AUTO 20002KT 9SM SCT055 BKN071 03/02 A2999 RMK SLP163,2025-11-01T13:28:52Z,2025-11-01T09:28:52Z
CYQG,2025-11-01T14:00:00Z,2025-11-01T10:00:00Z,VFR,7,4,81,220,4,14500,30.01,NA,FEW  ft; OVC  ft,METAR CYQG 011400Z AUTO 22004KT 9SM FEW041 OVC066 07/04 A3001 RMK SLP169,2025-11-01T14:22:16Z,2025-11-01T10:22:16Z
CYQG,2025-11-01T15:10:00Z,2025-11-01T11:10:00Z,VFR,6,5,93,250,4,14500,30.03,NA,OVC  ft,SPECI CYQG 011510Z AUTO 25004KT 9SM OVC035 06/05 A3003 RMK SLP176,2025-11-01T15:22:37Z,2025-11-01T11:22:37Z
CYQG,2025-11-01T16:00:00Z,2025-11-01T12:00:00Z,VFR,8,5,82,250,3,14500,30.04,NA,FEW  ft; OVC  ft,METAR CYQG 011600Z AUTO 25003KT 9SM FEW047 OVC081 08/05 A3004 RMK SLP177,2025-11-01T16:28:36Z,2025-11-01T12:28:36Z
CYQG,2025-11-01T17:00:00Z,2025-11-01T13:00:00Z,VFR,10,5,71,290,5,14500,30.04,NA,BKN  ft,METAR CYQG 011700Z AUTO 29005KT 9SM BKN086 10/05 A3004 RMK SLP177,2025-11-01T17:20:01Z,2025-11-01T13:20:01Z
CYQG,2025-11-01T18:00:00Z,2025-11-01T14:00:00Z,VFR,12,4,58,300,9,14500,30.03,NA,CLR  ft,METAR CYQG 011800Z AUTO 30009KT 260V330 9SM CLR 12/04 A3003 RMK SLP174,2025-11-01T18:32:53Z,2025-11-01T14:32:53Z
CYQG,2025-11-01T19:00:00Z,2025-11-01T15:00:00Z,VFR,10,4,67,290,5,14500,30.03,NA,OVC  ft,METAR CYQG 011900Z AUTO 29005KT 9SM OVC076 10/04 A3003 RMK SLP173,2025-11-01T19:18:50Z,2025-11-01T15:18:50Z
CYQG,2025-11-01T20:00:00Z,2025-11-01T16:00:00Z,VFR,10,4,67,250,5,14500,30.03,NA,OVC  ft,METAR CYQG 012000Z AUTO 25005KT 250V320 9SM OVC081 10/04 A3003 RMK SLP177,2025-11-01T20:25:25Z,2025-11-01T16:25:25Z
CYQG,2025-11-01T21:00:00Z,2025-11-01T17:00:00Z,VFR,10,5,71,270,4,14500,30.05,NA,OVC  ft,METAR CYQG 012100Z AUTO 27004KT 9SM OVC066 10/05 A3005 RMK SLP182,2025-11-01T21:21:10Z,2025-11-01T17:21:10Z
CYQG,2025-11-01T22:00:00Z,2025-11-01T18:00:00Z,VFR,9,5,76,90,3,14500,30.06,NA,OVC  ft,METAR CYQG 012200Z AUTO 09003KT 9SM OVC076 09/05 A3006 RMK SLP186,2025-11-01T22:23:04Z,2025-11-01T18:23:04Z
CYQG,2025-11-01T23:00:00Z,2025-11-01T19:00:00Z,VFR,8,5,82,110,3,14500,30.07,NA,OVC  ft,METAR CYQG 012300Z AUTO 11003KT 9SM OVC076 08/05 A3007 RMK SLP190,2025-11-01T23:22:48Z,2025-11-01T19:22:48Z
CYQG,2025-11-02T01:00:00Z,2025-11-01T21:00:00Z,VFR,6,5,93,170,3,14500,30.11,NA,OVC  ft,METAR CYQG 020100Z AUTO 17003KT 9SM OVC081 06/05 A3011 RMK SLP204,2025-11-02T02:08:16Z,2025-11-01T22:08:16Z
CYQG,2025-11-02T02:00:00Z,2025-11-01T22:00:00Z,VFR,7,4,81,230,3,14500,30.12,NA,FEW  ft; BKN  ft,METAR CYQG 020200Z AUTO 23003KT 9SM FEW040 BKN076 07/04 A3012 RMK SLP207,2025-11-02T02:25:12Z,2025-11-01T22:25:12Z
CYQG,2025-11-02T03:00:00Z,2025-11-01T23:00:00Z,VFR,5,4,93,0,0,14500,30.13,NA,BKN  ft,METAR CYQG 020300Z AUTO 00000KT 9SM BKN040 05/04 A3013 RMK SLP211,2025-11-02T03:49:51Z,2025-11-01T23:49:51Z
CYQG,2025-11-02T04:00:00Z,2025-11-02T00:00:00Z,VFR,3,3,100,0,2,11300,30.14,NA,CLR  ft,METAR CYQG 020400Z AUTO VRB02KT 7SM CLR 03/03 A3014 RMK SLP214,2025-11-02T04:30:20Z,2025-11-02T00:30:20Z
CYQG,2025-11-02T05:03:00Z,2025-11-02T01:03:00Z,MVFR,3,2,93,0,0,8000,30.15,NA,CLR  ft,SPECI CYQG 020503Z AUTO 00000KT 5SM BR CLR 03/02 A3015 RMK SLP218,2025-11-02T05:25:47Z,2025-11-02T01:25:47Z
CYQG,2025-11-02T06:21:00Z,2025-11-02T01:21:00Z,IFR,1,1,100,190,3,4000,30.15,NA,CLR  ft,SPECI CYQG 020621Z AUTO 19003KT 2 1/2SM BR CLR 01/01 A3015 RMK SLP220,2025-11-02T06:36:52Z,2025-11-02T01:36:52Z
CYQG,2025-11-02T07:09:00Z,2025-11-02T02:09:00Z,MVFR,1,1,100,230,3,4800,30.16,NA,CLR  ft,SPECI CYQG 020709Z AUTO 23003KT 3SM BR CLR 01/01 A3016 RMK SLP223,2025-11-02T07:23:38Z,2025-11-02T02:23:38Z
CYQG,2025-11-02T08:24:00Z,2025-11-02T03:24:00Z,LIFR,0,-1,93,0,2,400,30.17,NA,CLR  ft,SPECI CYQG 020824Z AUTO VRB02KT 1/4SM R25/1400V2200FT FZFG CLR M00/M01 A3017 RMK SLP227,2025-11-02T08:29:59Z,2025-11-02T03:29:59Z
CYQG,2025-11-02T09:04:00Z,2025-11-02T04:04:00Z,LIFR,0,0,100,260,2,400,30.18,NA,CLR  ft,SPECI CYQG 020904Z AUTO 26002KT 1/4SM R25/2000FT/N FZFG CLR M00/M00 A3018 RMK ICE SLP228,2025-11-02T09:23:21Z,2025-11-02T04:23:21Z
CYQG,2025-11-02T10:21:00Z,2025-11-02T05:21:00Z,LIFR,0,0,100,230,2,1000,30.19,NA,CLR  ft,SPECI CYQG 021021Z AUTO 23002KT 5/8SM R25/2800VP6000FT/ BR CLR 00/00 A3019 RMK SLP234,2025-11-02T10:24:58Z,2025-11-02T05:24:58Z
CYQG,2025-11-02T11:10:00Z,2025-11-02T06:10:00Z,MVFR,-1,-1,100,280,3,4800,30.22,NA,FEW  ft,SPECI CYQG 021110Z AUTO 28003KT 3SM BR FEW081 M01/M01 A3022 RMK SLP244,2025-11-02T11:19:30Z,2025-11-02T06:19:30Z
CYQG,2025-11-02T12:37:00Z,2025-11-02T07:37:00Z,MVFR,0,0,100,240,3,6400,30.24,NA,CLR  ft,SPECI CYQG 021237Z AUTO 24003KT 4SM BR CLR M00/M00 A3024 RMK SLP249,2025-11-02T12:48:24Z,2025-11-02T07:48:24Z
CYQG,2025-11-02T13:00:00Z,2025-11-02T08:00:00Z,MVFR,0,0,100,260,4,6400,30.25,NA,CLR  ft,METAR CYQG 021300Z AUTO 26004KT 4SM BR CLR 00/00 A3025 RMK SLP252,2025-11-02T13:28:11Z,2025-11-02T08:28:11Z
CYQM,2025-11-01T04:00:00Z,2025-11-01T00:00:00Z,VFR,11,9,88,220,18,19300,28.89,NA,SCT  ft; SCT  ft; BKN  ft; BKN  ft,METAR CYQM 010400Z 22018G25KT 12SM SCT018 SCT025 BKN042 BKN260 11/09 A2889 RMK SC4SC1SC3CI1 SC TR CI TR OCNL -SHRA CVCTV CLD EMBD SLP787 DENSITY ALT 1100FT,2025-11-01T04:28:35Z,2025-11-01T00:28:35Z
CYQM,2025-11-01T05:00:00Z,2025-11-01T01:00:00Z,VFR,10,8,88,220,13,19300,28.9,NA,FEW  ft; BKN  ft; BKN  ft; BKN  ft,METAR CYQM 010500Z 22013G19KT 12SM FEW023 BKN041 BKN067 BKN260 10/08 A2890 RMK SC2SC5AC1CI1 AC TR CI TR OCNL -SHRA CVCTV CLD EMBD SLP789 DENSITY ALT 900FT,2025-11-01T05:25:07Z,2025-11-01T01:25:07Z
CYQM,2025-11-01T06:00:00Z,2025-11-01T02:00:00Z,MVFR,10,8,88,210,17,19300,28.9,NA,BKN  ft; BKN  ft; OVC  ft,METAR CYQM 010600Z CCA 21017G24KT 12SM BKN018 BKN025 OVC038 10/08 A2890 RMK SC7SC1SC1 SC TR SLP789 DENSITY ALT 900FT,2025-11-01T06:35:14Z,2025-11-01T02:35:14Z
CYQM,2025-11-01T07:00:00Z,2025-11-01T03:00:00Z,MVFR,8,6,87,240,20,9999,28.91,NA,BKN  ft; BKN  ft; BKN  ft; BKN  ft,METAR CYQM 010700Z 24020G26KT 10SM -SHRA BKN023 BKN035 BKN082 BKN260 08/06 A2891 RMK SC6SC1AC1CI1 AC TR CI TR CVCTV CLD EMBD SLP793 DENSITY ALT 700FT,2025-11-01T07:23:04Z,2025-11-01T03:23:04Z
CYQM,2025-11-01T08:00:00Z,2025-11-01T04:00:00Z,MVFR,9,6,82,220,14,19300,28.91,NA,BKN  ft; BKN  ft; BKN  ft; BKN  ft,METAR CYQM 010800Z 22014G21KT 12SM BKN025 BKN055 BKN082 BKN260 09/06 A2891 RMK SC7SC1AC1CI1 SC TR AC TR CI TR OCNL -SHRA CVCTV CLD EMBD SLP791 DENSITY ALT 800FT,2025-11-01T08:30:54Z,2025-11-01T04:30:54Z
CYQM,2025-11-01T09:00:00Z,2025-11-01T05:00:00Z,MVFR,9,5,76,230,14,19300,28.91,NA,OVC  ft,METAR CYQM 010900Z 23014G30KT 12SM OVC022 09/05 A2891 RMK SC8 OCNL -SHRA CVCTV CLD EMBD SLP794 DENSITY ALT 700FT,2025-11-01T09:24:39Z,2025-11-01T05:24:39Z
CYQM,2025-11-01T10:00:00Z,2025-11-01T06:00:00Z,MVFR,8,5,82,240,23,24100,28.93,NA,BKN  ft,METAR CYQM 011000Z 24023G34KT 15SM -SHRA BKN015 08/05 A2893 RMK SC7 CVCTV CLD EMBD SLP798 DENSITY ALT 700FT,2025-11-01T10:25:46Z,2025-11-01T06:25:46Z
CYQM,2025-11-01T11:00:00Z,2025-11-01T07:00:00Z,IFR,8,6,87,250,18,24100,28.96,NA,BKN  ft; OVC  ft,METAR CYQM 011100Z 25018G31KT 15SM BKN008 OVC015 08/06 A2896 RMK SF7SC1 SLP808 DENSITY ALT 600FT,2025-11-01T11:19:35Z,2025-11-01T07:19:35Z
CYQM,2025-11-01T12:42:00Z,2025-11-01T08:42:00Z,VFR,9,5,76,260,26,24100,29.05,NA,SCT  ft; BKN  ft; BKN  ft; BKN  ft,SPECI CYQM 011242Z 26026G36KT 15SM SCT012 BKN045 BKN090 BKN200 09/05 A2905 RMK CF3SC2AC1CI1 CI TR PRESRR SLP841 DENSITY ALT 600FT,2025-11-01T12:49:08Z,2025-11-01T08:49:08Z
CYQM,2025-11-01T13:00:00Z,2025-11-01T09:00:00Z,MVFR,9,5,76,260,25,24100,29.07,NA,BKN  ft; BKN  ft,METAR CYQM 011300Z 26025G35KT 15SM BKN015 BKN200 09/05 A2907 RMK CF7CI1 CI TR PRESRR SLP846 DENSITY ALT 600FT,2025-11-01T13:28:55Z,2025-11-01T09:28:55Z
CYQM,2025-11-01T14:00:00Z,2025-11-01T10:00:00Z,MVFR,9,5,76,260,22,24100,29.11,NA,BKN  ft,METAR CYQM 011400Z 26022G36KT 15SM BKN015 09/05 A2911 RMK CF7 SLP861 DENSITY ALT 600FT,2025-11-01T14:22:18Z,2025-11-01T10:22:18Z
CYQM,2025-11-01T15:00:00Z,2025-11-01T11:00:00Z,MVFR,9,4,71,260,20,24100,29.16,NA,BKN  ft,METAR CYQM 011500Z 26020G30KT 15SM BKN020 09/04 A2916 RMK SC7 CU ASOCTD SLP877 DENSITY ALT 500FT,2025-11-01T15:22:39Z,2025-11-01T11:22:39Z
CYQM,2025-11-01T16:00:00Z,2025-11-01T12:00:00Z,MVFR,10,4,67,260,23,24100,29.18,NA,OVC  ft,METAR CYQM 011600Z 26023G32KT 15SM OVC025 10/04 A2918 RMK SC8 CU ASOCTD SLP886 DENSITY ALT 500FT,2025-11-01T16:28:38Z,2025-11-01T12:28:38Z
CYQM,2025-11-01T17:00:00Z,2025-11-01T13:00:00Z,MVFR,10,4,67,260,27,24100,29.2,NA,BKN  ft; BKN  ft,METAR CYQM 011700Z 26027G37KT 15SM BKN025 BKN220 10/04 A2920 RMK SC7CI1 CI TR CU ASOCTD PRESRR SLP891 DENSITY ALT 500FT,2025-11-01T17:20:05Z,2025-11-01T13:20:05Z
CYQM,2025-11-01T18:00:00Z,2025-11-01T14:00:00Z,MVFR,10,3,62,260,28,24100,29.24,NA,BKN  ft,METAR CYQM 011800Z 26028G39KT 15SM BKN025 10/03 A2924 RMK SC7 CU ASOCTD SLP906 DENSITY ALT 600FT,2025-11-01T18:32:55Z,2025-11-01T14:32:55Z
CYQM,2025-11-01T19:00:00Z,2025-11-01T15:00:00Z,MVFR,10,3,62,260,19,24100,29.27,NA,BKN  ft,METAR CYQM 011900Z 26019G35KT 15SM BKN025 10/03 A2927 RMK SC7 SH W CU ASOCTD PRESRR SLP917 DENSITY ALT 500FT,2025-11-01T19:18:53Z,2025-11-01T15:18:53Z
CYQM,2025-11-01T20:00:00Z,2025-11-01T16:00:00Z,MVFR,10,4,67,270,21,24100,29.31,NA,BKN  ft,METAR CYQM 012000Z 27021G30KT 15SM BKN020 10/04 A2931 RMK SC7 SH SW CU ASOCTD SLP930,2025-11-01T20:25:28Z,2025-11-01T16:25:28Z
CYQM,2025-11-01T21:00:00Z,2025-11-01T17:00:00Z,MVFR,10,3,62,270,20,24100,29.37,NA,BKN  ft; BKN  ft,METAR CYQM 012100Z 27020G36KT 15SM BKN025 BKN220 10/03 A2937 RMK SC6CI1 SH S CU ASOCTD PRESRR SLP949,2025-11-01T21:21:12Z,2025-11-01T17:21:12Z
CYQM,2025-11-01T22:00:00Z,2025-11-01T18:00:00Z,VFR,9,3,66,260,14,24100,29.42,NA,BKN  ft,METAR CYQM 012200Z 26014G21KT 15SM BKN042 09/03 A2942 RMK SC7 SLP966,2025-11-01T22:23:06Z,2025-11-01T18:23:06Z
CYQM,2025-11-01T23:00:00Z,2025-11-01T19:00:00Z,VFR,9,3,66,280,11,24100,29.47,NA,BKN  ft; BKN  ft,METAR CYQM 012300Z 28011G22KT 15SM BKN038 BKN050 09/03 A2947 RMK SC5SC2 SLP984,2025-11-01T23:22:49Z,2025-11-01T19:22:49Z
CYQM,2025-11-02T01:00:00Z,2025-11-01T21:00:00Z,VFR,6,0,66,270,17,24100,29.55,NA,FEW  ft; FEW  ft,METAR CYQM 020100Z 27017G27KT 15SM FEW040 FEW060 06/00 A2955 RMK SC1SC1 SC TR SC TR SLP012,2025-11-02T02:08:18Z,2025-11-01T22:08:18Z
CYQM,2025-11-02T02:00:00Z,2025-11-01T22:00:00Z,VFR,6,0,66,270,22,24100,29.59,NA,FEW  ft,METAR CYQM 020200Z 27022G30KT 15SM FEW032 06/00 A2959 RMK SC1 SC TR SLP024,2025-11-02T02:25:14Z,2025-11-01T22:25:14Z
CYQM,2025-11-02T03:45:00Z,2025-11-01T23:45:00Z,VFR,5,0,70,270,16,24100,29.65,NA,FEW  ft,SPECI CYQM 020345Z 27016G23KT 15SM FEW030 05/00 A2965 RMK SC1 SC TR SLP045,2025-11-02T03:49:53Z,2025-11-01T23:49:53Z
CYQM,2025-11-02T04:00:00Z,2025-11-02T00:00:00Z,VFR,5,0,70,260,19,24100,29.66,NA,FEW  ft,METAR CYQM 020400Z 26019KT 15SM FEW031 05/00 A2966 RMK SC1 SLP049,2025-11-02T04:30:22Z,2025-11-02T00:30:22Z
CYQM,2025-11-02T05:00:00Z,2025-11-02T01:00:00Z,VFR,5,1,76,260,19,24100,29.7,NA,BKN  ft,METAR CYQM 020500Z 26019G26KT 15SM BKN033 05/01 A2970 RMK SC5 SLP061,2025-11-02T05:25:48Z,2025-11-02T01:25:48Z
CYQM,2025-11-02T06:00:00Z,2025-11-02T01:00:00Z,VFR,5,1,76,270,18,24100,29.74,NA,FEW  ft,METAR CYQM 020600Z 27018G24KT 15SM FEW031 05/01 A2974 RMK SC2 SLP074,2025-11-02T06:36:55Z,2025-11-02T01:36:55Z
CYQM,2025-11-02T07:00:00Z,2025-11-02T02:00:00Z,VFR,4,1,81,260,13,24100,29.77,NA,FEW  ft,METAR CYQM 020700Z 26013G20KT 15SM FEW030 04/01 A2977 RMK SC1 SLP085,2025-11-02T07:23:40Z,2025-11-02T02:23:40Z
CYQM,2025-11-02T08:00:00Z,2025-11-02T03:00:00Z,VFR,3,1,87,260,15,24100,29.81,NA,SKC  ft,METAR CYQM 020800Z 26015G21KT 15SM SKC 03/01 A2981 RMK SLP098,2025-11-02T08:30:01Z,2025-11-02T03:30:01Z
CYQM,2025-11-02T09:00:00Z,2025-11-02T04:00:00Z,VFR,3,0,81,250,11,24100,29.84,NA,SKC  ft,METAR CYQM 020900Z 25011KT 15SM SKC 03/00 A2984 RMK SLP111,2025-11-02T09:23:23Z,2025-11-02T04:23:23Z
CYQM,2025-11-02T10:11:00Z,2025-11-02T05:11:00Z,VFR,2,0,87,260,12,24100,29.89,NA,FEW  ft,SPECI CYQM 021011Z 26012KT 15SM FEW015 02/00 A2989 RMK SC1 SC TR SLP125,2025-11-02T10:25:00Z,2025-11-02T05:25:00Z
CYQM,2025-11-02T11:00:00Z,2025-11-02T06:00:00Z,VFR,2,0,87,260,11,24100,29.92,NA,FEW  ft; FEW  ft; FEW  ft,METAR CYQM 021100Z 26011G17KT 15SM FEW015 FEW050 FEW220 02/M00 A2992 RMK SC1SC1CI1 SC TR SC TR CI TR SLP136,2025-11-02T11:19:33Z,2025-11-02T06:19:33Z
CYQM,2025-11-02T12:24:00Z,2025-11-02T07:24:00Z,VFR,3,0,81,260,10,24100,29.97,NA,FEW  ft; FEW  ft,SPECI CYQM 021224Z 26010KT 15SM FEW012 FEW050 03/00 A2997 RMK SF1SC1 SC TR SLP154,2025-11-02T12:48:27Z,2025-11-02T07:48:27Z
CYQM,2025-11-02T13:00:00Z,2025-11-02T08:00:00Z,VFR,5,1,76,270,9,24100,29.99,NA,FEW  ft; FEW  ft; FEW  ft,METAR CYQM 021300Z 27009KT 15SM FEW015 FEW050 FEW220 05/01 A2999 RMK SC1SC1CI1 SC TR SC TR CI TR SLP161,2025-11-02T13:28:14Z,2025-11-02T08:28:14Z
CYQQ,2025-11-01T04:00:00Z,2025-11-01T00:00:00Z,VFR,10,9,94,150,15,32200,29.83,NA,SCT  ft; BKN  ft,METAR CYQQ 010400Z 15015G21KT 20SM SCT006 BKN170 10/09 A2983 RMK SC3AC4 DENSITY ALT -193FT SLP101,2025-11-01T04:28:33Z,2025-11-01T00:28:33Z
CYQQ,2025-11-01T05:00:00Z,2025-11-01T01:00:00Z,VFR,11,9,88,150,10,32200,29.84,NA,FEW  ft; BKN  ft,METAR CYQQ 010500Z 15010G18KT 20SM FEW055 BKN160 11/09 A2984 RMK SC1AC6 DENSITY ALT -133FT SLP106,2025-11-01T05:25:06Z,2025-11-01T01:25:06Z
CYQQ,2025-11-01T06:00:00Z,2025-11-01T02:00:00Z,VFR,11,9,88,160,16,32200,29.86,NA,SCT  ft; OVC  ft,METAR CYQQ 010600Z 16016KT 20SM SCT055 OVC160 11/09 A2986 RMK SC3AC5 DENSITY ALT -133FT SLP111,2025-11-01T06:35:13Z,2025-11-01T02:35:13Z
CYQQ,2025-11-01T07:00:00Z,2025-11-01T03:00:00Z,VFR,11,9,88,160,12,32200,29.85,NA,BKN  ft; OVC  ft,METAR CYQQ 010700Z 16012KT 20SM BKN050 OVC095 11/09 A2985 RMK SC6AC2 DENSITY ALT -155FT SLP109,2025-11-01T07:23:01Z,2025-11-01T03:23:01Z
CYQQ,2025-11-01T08:08:00Z,2025-11-01T04:08:00Z,VFR,11,10,94,190,11,32200,29.85,NA,FEW  ft; OVC  ft,SPECI CYQQ 010808Z 19011KT 20SM -SHRA FEW007 OVC045 11/10 A2985 RMK SF1SC7 DENSITY ALT -154FT SLP110,2025-11-01T08:30:52Z,2025-11-01T04:30:52Z
CYQQ,2025-11-01T09:00:00Z,2025-11-01T05:00:00Z,VFR,11,9,88,150,8,32200,29.83,NA,FEW  ft; FEW  ft; OVC  ft,METAR CYQQ 010900Z 15008KT 20SM -SHRA FEW008 FEW024 OVC050 11/09 A2983 RMK SF1SC2SC6 DENSITY ALT -132FT SLP101,2025-11-01T09:24:38Z,2025-11-01T05:24:38Z
CYQQ,2025-11-01T10:00:00Z,2025-11-01T06:00:00Z,VFR,11,9,88,170,8,24100,29.8,NA,SCT  ft; OVC  ft,METAR CYQQ 011000Z 17008KT 15SM -SHRA SCT008 OVC050 11/09 A2980 RMK SF4SC4 DENSITY ALT -121FT SLP092,2025-11-01T10:25:45Z,2025-11-01T06:25:45Z
CYQQ,2025-11-01T11:00:00Z,2025-11-01T07:00:00Z,IFR,11,9,88,170,9,9999,29.75,NA,BKN  ft; OVC  ft,METAR CYQQ 011100Z 17009KT 130V190 10SM -RA BKN009 OVC040 11/09 A2975 RMK SF6SC2 DENSITY ALT -75FT CIG VRB 6-12 SLP075,2025-11-01T11:19:34Z,2025-11-01T07:19:34Z
CYQQ,2025-11-01T12:25:00Z,2025-11-01T08:25:00Z,IFR,11,10,94,150,9,9999,29.7,NA,BKN  ft; OVC  ft,SPECI CYQQ 011225Z 15009KT 130V190 10SM -RA BKN008 OVC012 11/10 A2970 RMK SF5SC3 DENSITY ALT -29FT CIG VRB 6-10 SLP059,2025-11-01T12:49:06Z,2025-11-01T08:49:06Z
CYQQ,2025-11-01T13:23:00Z,2025-11-01T09:23:00Z,VFR,10,9,94,210,5,9700,29.69,NA,SCT  ft; OVC  ft,SPECI CYQQ 011323Z 21005KT 150V230 6SM -RA BR SCT007 OVC050 10/09 A2969 RMK SF4SC4 DENSITY ALT -96FT SLP056,2025-11-01T13:28:52Z,2025-11-01T09:28:52Z
CYQQ,2025-11-01T14:00:00Z,2025-11-01T10:00:00Z,VFR,10,9,94,200,2,9700,29.68,NA,FEW  ft; OVC  ft,METAR CYQQ 011400Z 20002KT 6SM -RA BR FEW009 OVC045 10/09 A2968 RMK SF2SC6 DENSITY ALT -137FT SLP051,2025-11-01T14:22:16Z,2025-11-01T10:22:16Z
CYQQ,2025-11-01T15:00:00Z,2025-11-01T11:00:00Z,MVFR,9,8,94,210,2,8000,29.66,NA,SCT  ft; OVC  ft,METAR CYQQ 011500Z 21002KT 5SM -RA BR SCT009 OVC044 09/08 A2966 RMK SF3SC5 DENSITY ALT -192FT SLP044,2025-11-01T15:22:37Z,2025-11-01T11:22:37Z
CYQQ,2025-11-01T16:00:00Z,2025-11-01T12:00:00Z,MVFR,9,8,94,340,7,11300,29.67,NA,FEW  ft; BKN  ft; OVC  ft,METAR CYQQ 011600Z 34007KT 7SM -RA FEW009 BKN015 OVC036 09/08 A2967 RMK SF1SC5SC2 DENSITY ALT -216FT CIG VRB 11-19 SLP048,2025-11-01T16:28:37Z,2025-11-01T12:28:37Z
CYQQ,2025-11-01T17:00:00Z,2025-11-01T13:00:00Z,VFR,9,7,87,320,6,11300,29.7,NA,FEW  ft; FEW  ft; OVC  ft,METAR CYQQ 011700Z 32006KT 7SM -RA FEW009 FEW015 OVC038 09/07 A2970 RMK SF1SC1SC7 DENSITY ALT -292FT SLP056,2025-11-01T17:20:02Z,2025-11-01T13:20:02Z
CYQQ,2025-11-01T18:19:00Z,2025-11-01T14:19:00Z,VFR,9,8,94,340,5,24100,29.72,NA,FEW  ft; SCT  ft; BKN  ft,SPECI CYQQ 011819Z 34005KT 15SM FEW015 SCT060 BKN110 09/08 A2972 RMK SC1SC3AC4 DENSITY ALT -215FT SLP066,2025-11-01T18:32:54Z,2025-11-01T14:32:54Z
CYQQ,2025-11-01T19:00:00Z,2025-11-01T15:00:00Z,VFR,10,7,82,320,5,32200,29.76,NA,FEW  ft; FEW  ft; BKN  ft,METAR CYQQ 011900Z 32005KT 280V010 20SM FEW012 FEW060 BKN120 10/07 A2976 RMK SC1SC1AC6 DENSITY ALT -216FT SLP077,2025-11-01T19:18:51Z,2025-11-01T15:18:51Z
CYQQ,2025-11-01T20:00:00Z,2025-11-01T16:00:00Z,VFR,11,7,77,360,6,32200,29.8,NA,FEW  ft; FEW  ft; FEW  ft,METAR CYQQ 012000Z 36006KT 320V020 20SM FEW015 FEW062 FEW120 11/07 A2980 RMK SC1SC1AC1 DENSITY ALT -109FT SLP091,2025-11-01T20:25:26Z,2025-11-01T16:25:26Z
CYQQ,2025-11-01T21:00:00Z,2025-11-01T17:00:00Z,VFR,12,6,67,360,7,32200,29.82,NA,FEW  ft; FEW  ft; FEW  ft,METAR CYQQ 012100Z 36007KT 20SM FEW020 FEW045 FEW120 12/06 A2982 RMK CU1SC1AC1 DENSITY ALT -78FT SLP100,2025-11-01T21:21:11Z,2025-11-01T17:21:11Z
CYQQ,2025-11-01T22:00:00Z,2025-11-01T18:00:00Z,VFR,11,6,72,20,4,32200,29.86,NA,FEW  ft; FEW  ft,METAR CYQQ 012200Z 02004KT 20SM FEW020 FEW045 11/06 A2986 RMK CF1CU1 DENSITY ALT -159FT SLP112,2025-11-01T22:23:05Z,2025-11-01T18:23:05Z
CYQQ,2025-11-01T23:00:00Z,2025-11-01T19:00:00Z,VFR,12,6,67,150,3,32200,29.89,NA,FEW  ft; FEW  ft; FEW  ft,METAR CYQQ 012300Z 15003KT 20SM FEW020 FEW045 FEW100 12/06 A2989 RMK CF1CU1AC1 DENSITY ALT -120FT SLP124,2025-11-01T23:22:48Z,2025-11-01T19:22:48Z
CYQQ,2025-11-02T01:00:00Z,2025-11-01T21:00:00Z,VFR,8,6,87,190,5,32200,29.93,NA,FEW  ft; FEW  ft; FEW  ft; SCT  ft,METAR CYQQ 020100Z 19005KT 20SM FEW020 FEW045 FEW080 SCT140 08/06 A2993 RMK CF1CU1AC1AC1 DENSITY ALT -657FT SLP135,2025-11-02T02:08:17Z,2025-11-01T22:08:17Z
CYQQ,2025-11-02T02:00:00Z,2025-11-01T22:00:00Z,VFR,8,6,87,220,3,32200,29.94,NA,FEW  ft; FEW  ft; SCT  ft,METAR CYQQ 020200Z 22003KT 20SM FEW045 FEW080 SCT140 08/06 A2994 RMK CU1AC1AC2 DENSITY ALT -629FT SLP141,2025-11-02T02:25:13Z,2025-11-01T22:25:13Z
CYQQ,2025-11-02T03:24:00Z,2025-11-01T23:24:00Z,VFR,9,4,71,250,6,32200,29.98,NA,FEW  ft; SCT  ft; SCT  ft,SPECI CYQQ 020324Z 25006KT 220V280 20SM FEW050 SCT095 SCT140 09/04 A2998 RMK CU1AC2AC1 DENSITY ALT -628FT CB TOP DIST N MOV E OCNL LTGIC SLP153,2025-11-02T03:49:51Z,2025-11-01T23:49:51Z
CYQQ,2025-11-02T04:00:00Z,2025-11-02T00:00:00Z,VFR,7,4,81,230,5,32200,29.99,NA,FEW  ft; FEW  ft; FEW  ft,METAR CYQQ 020400Z 23005KT 20SM FEW050 FEW095 FEW140 07/04 A2999 RMK CU1AC1AC1 DENSITY ALT -829FT SLP156,2025-11-02T04:30:20Z,2025-11-02T00:30:20Z
CYQQ,2025-11-02T05:00:00Z,2025-11-02T01:00:00Z,VFR,9,3,66,250,3,32200,30.02,NA,FEW  ft; SCT  ft; BKN  ft,METAR CYQQ 020500Z 25003KT 20SM FEW050 SCT100 BKN180 09/03 A3002 RMK SC1AC3AC3 DENSITY ALT -684FT SLP166,2025-11-02T05:25:47Z,2025-11-02T01:25:47Z
CYQQ,2025-11-02T06:00:00Z,2025-11-02T01:00:00Z,VFR,8,4,76,300,3,32200,30.07,NA,SCT  ft; OVC  ft,METAR CYQQ 020600Z CCA 30003KT 280V350 20SM SCT070 OVC160 08/04 A3007 RMK AC3AC5 DENSITY ALT -854FT SLP184,2025-11-02T06:36:53Z,2025-11-02T01:36:53Z
CYQQ,2025-11-02T07:00:00Z,2025-11-02T02:00:00Z,VFR,6,4,87,310,2,32200,30.09,NA,BKN  ft,METAR CYQQ 020700Z 31002KT 20SM BKN080 06/04 A3009 RMK AC5 DENSITY ALT -1050FT SLP189,2025-11-02T07:23:39Z,2025-11-02T02:23:39Z
CYQQ,2025-11-02T08:18:00Z,2025-11-02T03:18:00Z,VFR,7,5,87,280,5,32200,30.13,NA,BKN  ft; OVC  ft,SPECI CYQQ 020818Z 28005KT 240V300 20SM -SHRA BKN040 OVC070 07/05 A3013 RMK SC5AC3 DENSITY ALT -1017FT SLP202,2025-11-02T08:29:59Z,2025-11-02T03:29:59Z
CYQQ,2025-11-02T09:15:00Z,2025-11-02T04:15:00Z,VFR,6,5,93,250,3,32200,30.14,NA,SCT  ft; BKN  ft,SPECI CYQQ 020915Z 25003KT 200V280 20SM -SHRA SCT045 BKN090 06/05 A3014 RMK SC4AC3 DENSITY ALT -1130FT SLP206,2025-11-02T09:23:21Z,2025-11-02T04:23:21Z
CYQQ,2025-11-02T10:00:00Z,2025-11-02T05:00:00Z,VFR,6,4,87,230,2,32200,30.15,NA,FEW  ft; FEW  ft,METAR CYQQ 021000Z 23002KT 20SM FEW045 FEW075 06/04 A3015 RMK SC1AC1 DENSITY ALT -1211FT SLP211,2025-11-02T10:24:59Z,2025-11-02T05:24:59Z
CYQQ,2025-11-02T11:00:00Z,2025-11-02T06:00:00Z,VFR,4,3,93,240,5,32200,30.18,NA,FEW  ft,METAR CYQQ 021100Z 24005KT 20SM FEW070 04/03 A3018 RMK AC2 DENSITY ALT -1411FT SLP221,2025-11-02T11:19:31Z,2025-11-02T06:19:31Z
CYQQ,2025-11-02T12:00:00Z,2025-11-02T07:00:00Z,VFR,5,3,87,290,5,32200,30.2,NA,FEW  ft,METAR CYQQ 021200Z 29005KT 20SM FEW070 05/03 A3020 RMK AC2 DENSITY ALT -1384FT SLP228,2025-11-02T12:48:25Z,2025-11-02T07:48:25Z
CYQQ,2025-11-02T13:00:00Z,2025-11-02T08:00:00Z,VFR,3,2,93,250,2,32200,30.21,NA,FEW  ft,METAR CYQQ 021300Z 25002KT 20SM FEW070 03/02 A3021 RMK AC1 DENSITY ALT -1563FT SLP232,2025-11-02T13:28:12Z,2025-11-02T08:28:12Z
CYQR,2025-11-01T04:00:00Z,2025-11-01T00:00:00Z,VFR,-1,-4,80,150,9,24100,30.11,NA,FEW  ft; FEW  ft,METAR CYQR 010400Z 15009KT 15SM FEW024 FEW270 M01/M04 A3011 RMK SC1CI1 SLP227,2025-11-01T04:28:34Z,2025-11-01T00:28:34Z
CYQR,2025-11-01T05:00:00Z,2025-11-01T01:00:00Z,VFR,-2,-4,86,150,11,24100,30.09,NA,FEW  ft,METAR CYQR 010500Z 15011KT 15SM FEW270 M02/M04 A3009 RMK CI2 SLP223,2025-11-01T05:25:07Z,2025-11-01T01:25:07Z
CYQR,2025-11-01T06:00:00Z,2025-11-01T02:00:00Z,VFR,-3,-4,93,150,11,24100,30.07,NA,SCT  ft,METAR CYQR 010600Z 15011KT 15SM SCT270 M03/M04 A3007 RMK CI4 SLP217,2025-11-01T06:35:13Z,2025-11-01T02:35:13Z
CYQR,2025-11-01T07:00:00Z,2025-11-01T03:00:00Z,VFR,-3,-4,93,150,13,24100,30.05,NA,BKN  ft,METAR CYQR 010700Z 15013KT 15SM BKN270 M03/M04 A3005 RMK CI7 SLP209,2025-11-01T07:23:02Z,2025-11-01T03:23:02Z
CYQR,2025-11-01T08:00:00Z,2025-11-01T04:00:00Z,VFR,-3,-4,93,150,12,24100,30.02,NA,OVC  ft,METAR CYQR 010800Z 15012G20KT 15SM OVC270 M03/M04 A3002 RMK CI8 SLP197,2025-11-01T08:30:53Z,2025-11-01T04:30:53Z
CYQR,2025-11-01T09:00:00Z,2025-11-01T05:00:00Z,VFR,-3,-4,93,150,15,24100,29.98,NA,BKN  ft,METAR CYQR 010900Z 15015G21KT 15SM BKN270 M03/M04 A2998 RMK CI6 SLP185,2025-11-01T09:24:38Z,2025-11-01T05:24:38Z
CYQR,2025-11-01T10:00:00Z,2025-11-01T06:00:00Z,VFR,-3,-4,93,150,16,24100,29.94,NA,OVC  ft,METAR CYQR 011000Z 15016G21KT 15SM OVC240 M03/M04 A2994 RMK CI8 SLP171,2025-11-01T10:25:45Z,2025-11-01T06:25:45Z
CYQR,2025-11-01T11:00:00Z,2025-11-01T07:00:00Z,VFR,-3,-4,93,150,19,24100,29.91,NA,OVC  ft,METAR CYQR 011100Z 15019KT 15SM OVC230 M03/M04 A2991 RMK CI8 SLP160,2025-11-01T11:19:35Z,2025-11-01T07:19:35Z
CYQR,2025-11-01T12:00:00Z,2025-11-01T08:00:00Z,VFR,-2,-4,86,150,17,24100,29.88,NA,OVC  ft,METAR CYQR 011200Z 15017G22KT 15SM OVC200 M02/M04 A2988 RMK CI8 SLP150,2025-11-01T12:49:07Z,2025-11-01T08:49:07Z
CYQR,2025-11-01T13:00:00Z,2025-11-01T09:00:00Z,VFR,-2,-4,86,140,17,24100,29.85,NA,OVC  ft,METAR CYQR 011300Z 14017G24KT 15SM OVC200 M02/M04 A2985 RMK CI8 SLP138,2025-11-01T13:28:53Z,2025-11-01T09:28:53Z
CYQR,2025-11-01T14:00:00Z,2025-11-01T10:00:00Z,VFR,-2,-4,86,140,17,24100,29.82,NA,FEW  ft; BKN  ft,METAR CYQR 011400Z 14017G27KT 15SM FEW170 BKN210 M02/M04 A2982 RMK AC2CI5 SLP128,2025-11-01T14:22:17Z,2025-11-01T10:22:17Z
CYQR,2025-11-01T15:00:00Z,2025-11-01T11:00:00Z,VFR,-1,-3,86,150,16,24100,29.8,NA,FEW  ft; SCT  ft; BKN  ft,METAR CYQR 011500Z 15016G24KT 15SM FEW170 SCT200 BKN240 M01/M03 A2980 RMK AC1CI2CI4 SLP123,2025-11-01T15:22:38Z,2025-11-01T11:22:38Z
CYQR,2025-11-01T16:00:00Z,2025-11-01T12:00:00Z,VFR,0,-2,87,150,14,24100,29.79,NA,FEW  ft; SCT  ft; BKN  ft,METAR CYQR 011600Z 15014G20KT 15SM FEW180 SCT230 BKN270 00/M02 A2979 RMK AC2CI2CI3 SLP119,2025-11-01T16:28:37Z,2025-11-01T12:28:37Z
CYQR,2025-11-01T17:00:00Z,2025-11-01T13:00:00Z,VFR,2,-2,75,150,16,24100,29.78,NA,FEW  ft; FEW  ft; BKN  ft,METAR CYQR 011700Z 15016KT 15SM FEW180 FEW230 BKN270 02/M02 A2978 RMK AC1CI1CI6 AC TR SLP115,2025-11-01T17:20:03Z,2025-11-01T13:20:03Z
CYQR,2025-11-01T18:00:00Z,2025-11-01T14:00:00Z,VFR,4,-1,70,150,12,24100,29.76,NA,FEW  ft; FEW  ft; BKN  ft,METAR CYQR 011800Z 15012KT 15SM FEW120 FEW230 BKN270 04/M01 A2976 RMK AC1CI2CI5 AC TR SLP105,2025-11-01T18:32:54Z,2025-11-01T14:32:54Z
CYQR,2025-11-01T19:00:00Z,2025-11-01T15:00:00Z,VFR,7,1,66,160,13,24100,29.72,NA,FEW  ft; FEW  ft,METAR CYQR 011900Z 16013KT 15SM FEW230 FEW270 07/01 A2972 RMK CI1CI1 SLP092,2025-11-01T19:18:51Z,2025-11-01T15:18:51Z
CYQR,2025-11-01T20:00:00Z,2025-11-01T16:00:00Z,VFR,12,2,51,150,11,24100,29.68,NA,FEW  ft; FEW  ft,METAR CYQR 012000Z 15011G16KT 15SM FEW100 FEW230 12/02 A2968 RMK AC1CI1 AC TR PRESFR SLP073 DENSITY ALT 2300FT,2025-11-01T20:25:27Z,2025-11-01T16:25:27Z
CYQR,2025-11-01T21:00:00Z,2025-11-01T17:00:00Z,VFR,13,2,47,160,11,24100,29.67,NA,FEW  ft; SCT  ft,METAR CYQR 012100Z 16011KT 15SM FEW100 SCT270 13/02 A2967 RMK AC1CI3 AC TR SLP069 DENSITY ALT 2400FT,2025-11-01T21:21:11Z,2025-11-01T17:21:11Z
CYQR,2025-11-01T22:00:00Z,2025-11-01T18:00:00Z,VFR,14,3,48,180,10,24100,29.64,NA,FEW  ft; BKN  ft,METAR CYQR 012200Z 18010KT 15SM FEW100 BKN250 14/03 A2964 RMK AC1CI6 AC TR SLP057 DENSITY ALT 2600FT,2025-11-01T22:23:05Z,2025-11-01T18:23:05Z
CYQR,2025-11-01T23:00:00Z,2025-11-01T19:00:00Z,VFR,13,3,51,150,12,24100,29.6,NA,FEW  ft; SCT  ft; BKN  ft,METAR CYQR 012300Z 15012KT 15SM FEW120 SCT190 BKN250 13/03 A2960 RMK AC1CI3CI4 AC TR PRESFR SLP044 DENSITY ALT 2500FT,2025-11-01T23:22:49Z,2025-11-01T19:22:49Z
CYQR,2025-11-02T01:00:00Z,2025-11-01T21:00:00Z,VFR,12,3,54,150,11,24100,29.54,NA,OVC  ft,METAR CYQR 020100Z 15011KT 15SM OVC095 12/03 A2954 RMK AC8 SLP026 DENSITY ALT 2500FT,2025-11-02T02:08:17Z,2025-11-01T22:08:17Z
CYQR,2025-11-02T02:00:00Z,2025-11-01T22:00:00Z,VFR,12,3,54,160,13,24100,29.49,NA,BKN  ft,METAR CYQR 020200Z 16013KT 15SM BKN100 12/03 A2949 RMK AC7 SLP009 DENSITY ALT 2500FT,2025-11-02T02:25:13Z,2025-11-01T22:25:13Z
CYQR,2025-11-02T03:00:00Z,2025-11-01T23:00:00Z,VFR,12,3,54,180,15,24100,29.46,NA,BKN  ft; BKN  ft,METAR CYQR 020300Z 18015KT 15SM BKN110 BKN180 12/03 A2946 RMK AC6AC1 PRESFR SLP995 DENSITY ALT 2600FT,2025-11-02T03:49:52Z,2025-11-01T23:49:52Z
CYQR,2025-11-02T04:00:00Z,2025-11-02T00:00:00Z,VFR,13,3,51,190,15,24100,29.42,NA,OVC  ft,METAR CYQR 020400Z 19015KT 15SM OVC100 13/03 A2942 RMK AC8 SLP980 DENSITY ALT 2700FT,2025-11-02T04:30:21Z,2025-11-02T00:30:21Z
CYQR,2025-11-02T05:00:00Z,2025-11-02T01:00:00Z,VFR,13,3,51,210,18,24100,29.38,NA,FEW  ft,METAR CYQR 020500Z 21018G27KT 15SM FEW110 13/03 A2938 RMK AC2 PRESFR SLP966 DENSITY ALT 2800FT,2025-11-02T05:25:48Z,2025-11-02T01:25:48Z
CYQR,2025-11-02T06:00:00Z,2025-11-02T01:00:00Z,VFR,13,3,51,230,17,24100,29.38,NA,SKC  ft,METAR CYQR 020600Z 23017KT 15SM SKC 13/03 A2938 RMK SLP966 DENSITY ALT 2800FT,2025-11-02T06:36:54Z,2025-11-02T01:36:54Z
CYQR,2025-11-02T07:00:00Z,2025-11-02T02:00:00Z,VFR,13,4,55,250,16,24100,29.38,NA,SKC  ft,METAR CYQR 020700Z 25016G23KT 15SM SKC 13/04 A2938 RMK SLP962 DENSITY ALT 2800FT,2025-11-02T07:23:39Z,2025-11-02T02:23:39Z
CYQR,2025-11-02T08:00:00Z,2025-11-02T03:00:00Z,VFR,13,5,59,260,18,24100,29.39,NA,SKC  ft,METAR CYQR 020800Z 26018G24KT 15SM SKC 13/05 A2939 RMK SLP962 DENSITY ALT 2800FT,2025-11-02T08:30:00Z,2025-11-02T03:30:00Z
CYQR,2025-11-02T09:00:00Z,2025-11-02T04:00:00Z,VFR,12,4,58,260,18,24100,29.39,NA,FEW  ft; FEW  ft,METAR CYQR 020900Z 26018G24KT 15SM FEW025 FEW100 12/04 A2939 RMK SC1AC1 SC TR AC TR SLP964 DENSITY ALT 2700FT,2025-11-02T09:23:22Z,2025-11-02T04:23:22Z
CYQR,2025-11-02T10:00:00Z,2025-11-02T05:00:00Z,VFR,12,4,58,270,18,24100,29.41,NA,FEW  ft,METAR CYQR 021000Z 27018G24KT 15SM FEW100 12/04 A2941 RMK AC2 SLP969 DENSITY ALT 2600FT,2025-11-02T10:24:59Z,2025-11-02T05:24:59Z
CYQR,2025-11-02T11:00:00Z,2025-11-02T06:00:00Z,VFR,11,4,62,290,20,24100,29.45,NA,FEW  ft,METAR CYQR 021100Z 29020G28KT 15SM FEW100 11/04 A2945 RMK AC1 SLP985 DENSITY ALT 2500FT,2025-11-02T11:19:32Z,2025-11-02T06:19:32Z
CYQR,2025-11-02T12:37:00Z,2025-11-02T07:37:00Z,MVFR,5,3,87,290,18,24100,29.55,NA,BKN  ft,SPECI CYQR 021237Z 29018G27KT 15SM BKN012 05/03 A2955 RMK SC6 SLP025,2025-11-02T12:48:26Z,2025-11-02T07:48:26Z
CYQR,2025-11-02T13:00:00Z,2025-11-02T08:00:00Z,MVFR,5,3,87,290,19,19300,29.58,NA,OVC  ft,METAR CYQR 021300Z 29019G25KT 12SM OVC012 05/03 A2958 RMK SC8 PRESRR SLP034,2025-11-02T13:28:13Z,2025-11-02T08:28:13Z
CYQT,2025-11-01T04:00:00Z,2025-11-01T00:00:00Z,VFR,3,-2,70,30,6,24100,30,NA,OVC  ft,METAR CYQT 010400Z 03006KT 15SM OVC039 03/M02 A3000 RMK SC8 SLP170,2025-11-01T04:28:32Z,2025-11-01T00:28:32Z
CYQT,2025-11-01T05:00:00Z,2025-11-01T01:00:00Z,VFR,3,-1,75,10,6,24100,30.02,NA,BKN  ft,METAR CYQT 010500Z 01006KT 340V050 15SM BKN039 03/M01 A3002 RMK SC7 SLP176,2025-11-01T05:25:05Z,2025-11-01T01:25:05Z
CYQT,2025-11-01T06:00:00Z,2025-11-01T02:00:00Z,VFR,2,-2,75,350,7,24100,30.02,NA,OVC  ft,METAR CYQT 010600Z 35007KT 15SM OVC041 02/M02 A3002 RMK SC8 SLP177,2025-11-01T06:35:11Z,2025-11-01T02:35:11Z
CYQT,2025-11-01T07:00:00Z,2025-11-01T03:00:00Z,VFR,2,-3,70,10,4,24100,30.02,NA,FEW  ft; OVC  ft,METAR CYQT 010700Z 01004KT 320V040 15SM FEW016 OVC037 02/M03 A3002 RMK CF1SC8 CF TR SLP177,2025-11-01T07:22:58Z,2025-11-01T03:22:58Z
CYQT,2025-11-01T08:00:00Z,2025-11-01T04:00:00Z,VFR,2,-3,70,0,2,24100,30.03,NA,OVC  ft,METAR CYQT 010800Z VRB02KT 15SM OVC035 02/M03 A3003 RMK SC8 SLP179,2025-11-01T08:30:51Z,2025-11-01T04:30:51Z
CYQT,2025-11-01T09:00:00Z,2025-11-01T05:00:00Z,VFR,2,-3,70,360,2,24100,30.04,NA,OVC  ft,METAR CYQT 010900Z 36002KT 15SM OVC035 02/M03 A3004 RMK SC8 SLP184,2025-11-01T09:24:37Z,2025-11-01T05:24:37Z
CYQT,2025-11-01T10:00:00Z,2025-11-01T06:00:00Z,VFR,2,-3,70,350,2,24100,30.05,NA,OVC  ft,METAR CYQT 011000Z 35002KT 15SM OVC033 02/M03 A3005 RMK SC8 SLP188,2025-11-01T10:25:44Z,2025-11-01T06:25:44Z
CYQT,2025-11-01T11:00:00Z,2025-11-01T07:00:00Z,VFR,2,-3,70,320,4,24100,30.08,NA,OVC  ft,METAR CYQT 011100Z 32004KT 15SM OVC033 02/M03 A3008 RMK SC8 SLP197,2025-11-01T11:19:33Z,2025-11-01T07:19:33Z
CYQT,2025-11-01T12:00:00Z,2025-11-01T08:00:00Z,VFR,2,-3,70,320,4,24100,30.1,NA,OVC  ft,METAR CYQT 011200Z 32004KT 15SM OVC033 02/M03 A3010 RMK SC8 SLP203,2025-11-01T12:49:05Z,2025-11-01T08:49:05Z
CYQT,2025-11-01T13:00:00Z,2025-11-01T09:00:00Z,VFR,2,-3,70,300,5,32200,30.11,NA,OVC  ft,METAR CYQT 011300Z 30005KT 20SM OVC033 02/M03 A3011 RMK SC8 SLP210,2025-11-01T13:28:51Z,2025-11-01T09:28:51Z
CYQT,2025-11-01T14:00:00Z,2025-11-01T10:00:00Z,VFR,2,-3,70,330,4,32200,30.12,NA,BKN  ft,METAR CYQT 011400Z 33004KT 20SM BKN033 02/M03 A3012 RMK SC7 SLP212,2025-11-01T14:22:15Z,2025-11-01T10:22:15Z
CYQT,2025-11-01T15:00:00Z,2025-11-01T11:00:00Z,VFR,3,-3,65,310,5,32200,30.13,NA,BKN  ft,METAR CYQT 011500Z 31005KT 20SM BKN033 03/M03 A3013 RMK SC7 SLP213,2025-11-01T15:22:36Z,2025-11-01T11:22:36Z
CYQT,2025-11-01T16:00:00Z,2025-11-01T12:00:00Z,VFR,3,-3,65,320,6,32200,30.13,NA,BKN  ft,METAR CYQT 011600Z 32006KT 260V050 20SM BKN031 03/M03 A3013 RMK SC7 SLP216,2025-11-01T16:28:36Z,2025-11-01T12:28:36Z
CYQT,2025-11-01T17:00:00Z,2025-11-01T13:00:00Z,VFR,3,-4,60,240,4,32200,30.13,NA,BKN  ft,METAR CYQT 011700Z 24004KT 220V310 20SM BKN031 03/M04 A3013 RMK SC7 SLP215,2025-11-01T17:20:00Z,2025-11-01T13:20:00Z
CYQT,2025-11-01T18:00:00Z,2025-11-01T14:00:00Z,VFR,4,-4,56,300,5,32200,30.15,NA,BKN  ft,METAR CYQT 011800Z 30005KT 250V320 20SM BKN031 04/M04 A3015 RMK SC7 SLP220,2025-11-01T18:32:53Z,2025-11-01T14:32:53Z
CYQT,2025-11-01T19:00:00Z,2025-11-01T15:00:00Z,VFR,4,-4,56,270,7,32200,30.13,NA,BKN  ft,METAR CYQT 011900Z 27007KT 250V310 20SM BKN033 04/M04 A3013 RMK SC7 SLP214,2025-11-01T19:18:49Z,2025-11-01T15:18:49Z
CYQT,2025-11-01T20:00:00Z,2025-11-01T16:00:00Z,VFR,4,-4,56,280,11,32200,30.13,NA,BKN  ft,METAR CYQT 012000Z 28011KT 20SM BKN033 04/M04 A3013 RMK SC7 SLP213,2025-11-01T20:25:25Z,2025-11-01T16:25:25Z
CYQT,2025-11-01T21:00:00Z,2025-11-01T17:00:00Z,VFR,3,-4,60,310,5,32200,30.12,NA,BKN  ft,METAR CYQT 012100Z 31005KT 290V360 20SM BKN031 03/M04 A3012 RMK SC6 SLP211,2025-11-01T21:21:10Z,2025-11-01T17:21:10Z
CYQT,2025-11-01T22:00:00Z,2025-11-01T18:00:00Z,VFR,3,-4,60,240,5,32200,30.11,NA,BKN  ft,METAR CYQT 012200Z 24005KT 20SM BKN031 03/M04 A3011 RMK SC6 SLP207,2025-11-01T22:23:04Z,2025-11-01T18:23:04Z
CYQT,2025-11-01T23:00:00Z,2025-11-01T19:00:00Z,VFR,2,-4,65,280,3,32200,30.12,NA,BKN  ft,METAR CYQT 012300Z 28003KT 230V330 20SM BKN031 02/M04 A3012 RMK SC5 OBS TAKEN +10 SLP211,2025-11-01T23:22:47Z,2025-11-01T19:22:47Z
CYQT,2025-11-02T01:00:00Z,2025-11-01T21:00:00Z,VFR,1,-3,75,210,4,24100,30.1,NA,OVC  ft,METAR CYQT 020100Z 21004KT 200V270 15SM OVC031 01/M03 A3010 RMK SC8 SLP205,2025-11-02T02:08:15Z,2025-11-01T22:08:15Z
CYQT,2025-11-02T02:00:00Z,2025-11-01T22:00:00Z,VFR,2,-3,70,240,5,24100,30.09,NA,OVC  ft,METAR CYQT 020200Z 24005KT 15SM OVC031 02/M03 A3009 RMK SC8 SLP201,2025-11-02T02:25:11Z,2025-11-01T22:25:11Z
CYQT,2025-11-02T03:00:00Z,2025-11-01T23:00:00Z,MVFR,2,-3,70,270,6,24100,30.09,NA,OVC  ft,METAR CYQT 020300Z 27006KT 15SM OVC029 02/M03 A3009 RMK SC8 SLP201,2025-11-02T03:49:50Z,2025-11-01T23:49:50Z
CYQT,2025-11-02T04:00:00Z,2025-11-02T00:00:00Z,VFR,2,-3,70,230,3,24100,30.09,NA,OVC  ft,METAR CYQT 020400Z 23003KT 15SM OVC031 02/M03 A3009 RMK SC8 SLP200,2025-11-02T04:30:19Z,2025-11-02T00:30:19Z
CYQT,2025-11-02T05:00:00Z,2025-11-02T01:00:00Z,VFR,2,-3,70,220,4,24100,30.07,NA,OVC  ft,METAR CYQT 020500Z 22004KT 15SM OVC031 02/M03 A3007 RMK SC8 SLP196,2025-11-02T05:25:46Z,2025-11-02T01:25:46Z
CYQT,2025-11-02T06:00:00Z,2025-11-02T01:00:00Z,MVFR,0,-4,75,240,4,24100,30.07,NA,BKN  ft; BKN  ft,METAR CYQT 020600Z 24004KT 15SM BKN029 BKN230 00/M04 A3007 RMK SC7CI1 CI TR SLP193,2025-11-02T06:36:52Z,2025-11-02T01:36:52Z
CYQT,2025-11-02T07:00:00Z,2025-11-02T02:00:00Z,VFR,-1,-4,80,220,5,24100,30.06,NA,FEW  ft; BKN  ft,METAR CYQT 020700Z 22005KT 15SM FEW030 BKN250 M01/M04 A3006 RMK SC1CI7 SC TR SLP190,2025-11-02T07:23:38Z,2025-11-02T02:23:38Z
CYQT,2025-11-02T08:00:00Z,2025-11-02T03:00:00Z,VFR,-1,-4,80,0,0,24100,30.03,NA,BKN  ft,METAR CYQT 020800Z 00000KT 15SM BKN210 M01/M04 A3003 RMK CI6 SLP180,2025-11-02T08:29:58Z,2025-11-02T03:29:58Z
CYQT,2025-11-02T09:00:00Z,2025-11-02T04:00:00Z,VFR,-3,-4,93,330,2,24100,30.01,NA,BKN  ft,METAR CYQT 020900Z 33002KT 15SM BKN230 M03/M04 A3001 RMK CI7 SLP173,2025-11-02T09:23:20Z,2025-11-02T04:23:20Z
CYQT,2025-11-02T10:00:00Z,2025-11-02T05:00:00Z,VFR,-3,-4,93,0,0,24100,29.99,NA,BKN  ft; BKN  ft,METAR CYQT 021000Z 00000KT 15SM BKN210 BKN240 M03/M04 A2999 RMK CI6CI1 SLP168,2025-11-02T10:24:58Z,2025-11-02T05:24:58Z
CYQT,2025-11-02T11:00:00Z,2025-11-02T06:00:00Z,VFR,-3,-4,93,0,0,24100,29.96,NA,BKN  ft; OVC  ft,METAR CYQT 021100Z 00000KT 15SM BKN200 OVC240 M03/M04 A2996 RMK CI7CI1 SLP159,2025-11-02T11:19:30Z,2025-11-02T06:19:30Z
CYQT,2025-11-02T12:00:00Z,2025-11-02T07:00:00Z,VFR,-2,-3,93,20,3,24100,29.92,NA,SCT  ft; OVC  ft,METAR CYQT 021200Z 02003KT 320V030 15SM SCT160 OVC210 M02/M03 A2992 RMK AC4CI4 SLP145,2025-11-02T12:48:24Z,2025-11-02T07:48:24Z
CYQT,2025-11-02T13:00:00Z,2025-11-02T08:00:00Z,VFR,5,1,76,220,13,32200,29.88,NA,SCT  ft; BKN  ft; OVC  ft,METAR CYQT 021300Z 22013G20KT 20SM SCT031 BKN170 OVC200 05/01 A2988 RMK SC3AC3CI2 PRESFR SLP128,2025-11-02T13:28:10Z,2025-11-02T08:28:10Z
CYQY,2025-11-01T04:00:00Z,2025-11-01T00:00:00Z,VFR,11,10,94,220,13,24100,29.03,NA,FEW  ft; BKN  ft,METAR CYQY 010400Z 22013G19KT 15SM FEW026 BKN058 11/10 A2903 RMK SC2SC5 SLP834 DENSITY ALT 800FT,2025-11-01T04:28:35Z,2025-11-01T00:28:35Z
CYQY,2025-11-01T05:00:00Z,2025-11-01T01:00:00Z,VFR,11,10,94,210,13,24100,29,NA,SCT  ft,METAR CYQY 010500Z 21013G20KT 15SM SCT054 11/10 A2900 RMK SC3 PRESFR SLP825 DENSITY ALT 800FT,2025-11-01T05:25:08Z,2025-11-01T01:25:08Z
CYQY,2025-11-01T06:00:00Z,2025-11-01T02:00:00Z,VFR,11,10,94,220,12,24100,28.98,NA,BKN  ft,METAR CYQY 010600Z 22012G21KT 15SM BKN059 11/10 A2898 RMK SC5 SLP818 DENSITY ALT 900FT,2025-11-01T06:35:14Z,2025-11-01T02:35:14Z
CYQY,2025-11-01T07:00:00Z,2025-11-01T03:00:00Z,VFR,11,10,94,220,16,24100,28.97,NA,SCT  ft,METAR CYQY 010700Z 22016G25KT 15SM SCT036 11/10 A2897 RMK SC4 SLP814 DENSITY ALT 900FT,2025-11-01T07:23:04Z,2025-11-01T03:23:04Z
CYQY,2025-11-01T08:00:00Z,2025-11-01T04:00:00Z,VFR,11,9,88,240,19,24100,28.99,NA,BKN  ft,METAR CYQY 010800Z 24019G27KT 15SM BKN033 11/09 A2899 RMK SC7 PRESRR SLP820 DENSITY ALT 900FT,2025-11-01T08:30:54Z,2025-11-01T04:30:54Z
CYQY,2025-11-01T09:00:00Z,2025-11-01T05:00:00Z,VFR,10,8,88,240,24,24100,28.99,NA,SCT  ft; BKN  ft,METAR CYQY 010900Z 24024G33KT 15SM SCT020 BKN036 10/08 A2899 RMK SC4SC3 SLP820 DENSITY ALT 800FT,2025-11-01T09:24:39Z,2025-11-01T05:24:39Z
CYQY,2025-11-01T10:00:00Z,2025-11-01T06:00:00Z,VFR,10,6,76,230,22,24100,28.99,NA,BKN  ft,METAR CYQY 011000Z 23022G32KT 15SM BKN032 10/06 A2899 RMK SC6 SLP819 DENSITY ALT 800FT,2025-11-01T10:25:46Z,2025-11-01T06:25:46Z
CYQY,2025-11-01T11:00:00Z,2025-11-01T07:00:00Z,VFR,10,5,71,240,20,24100,29,NA,BKN  ft; BKN  ft,METAR CYQY 011100Z 24020G27KT 15SM BKN042 BKN140 10/05 A2900 RMK SC5AC1 SLP822 DENSITY ALT 800FT,2025-11-01T11:19:36Z,2025-11-01T07:19:36Z
CYQY,2025-11-01T12:00:00Z,2025-11-01T08:00:00Z,VFR,11,5,67,230,19,24100,29,NA,SCT  ft; BKN  ft,METAR CYQY 011200Z 23019G31KT 15SM SCT035 BKN130 11/05 A2900 RMK SC3AC3 SLP821 DENSITY ALT 900FT,2025-11-01T12:49:08Z,2025-11-01T08:49:08Z
CYQY,2025-11-01T13:00:00Z,2025-11-01T09:00:00Z,VFR,11,5,67,240,25,24100,28.99,NA,SCT  ft; BKN  ft; BKN  ft,METAR CYQY 011300Z 24025G35KT 15SM SCT034 BKN130 BKN230 11/05 A2899 RMK SC3AC2CS1 SLP819 DENSITY ALT 800FT,2025-11-01T13:28:55Z,2025-11-01T09:28:55Z
CYQY,2025-11-01T14:00:00Z,2025-11-01T10:00:00Z,VFR,11,5,67,240,25,24100,28.99,NA,BKN  ft,METAR CYQY 011400Z 24025G43KT 15SM BKN035 11/05 A2899 RMK SC7 SLP818 DENSITY ALT 900FT,2025-11-01T14:22:18Z,2025-11-01T10:22:18Z
CYQY,2025-11-01T15:00:00Z,2025-11-01T11:00:00Z,MVFR,11,6,72,250,24,24100,29.01,NA,OVC  ft,METAR CYQY 011500Z 25024G37KT 15SM OVC022 11/06 A2901 RMK SC8 PRESRR SLP827 DENSITY ALT 900FT,2025-11-01T15:22:39Z,2025-11-01T11:22:39Z
CYQY,2025-11-01T16:00:00Z,2025-11-01T12:00:00Z,MVFR,12,6,67,250,24,24100,29.03,NA,BKN  ft,METAR CYQY 011600Z 25024G34KT 15SM BKN027 12/06 A2903 RMK SC7 SLP832 DENSITY ALT 900FT,2025-11-01T16:28:39Z,2025-11-01T12:28:39Z
CYQY,2025-11-01T17:13:00Z,2025-11-01T13:13:00Z,MVFR,10,9,94,260,24,24100,29.06,NA,BKN  ft,SPECI CYQY 011713Z 26024G34KT 15SM BKN019 10/09 A2906 RMK SC7 SLP844 DENSITY ALT 600FT,2025-11-01T17:20:05Z,2025-11-01T13:20:05Z
CYQY,2025-11-01T18:00:00Z,2025-11-01T14:00:00Z,MVFR,10,7,82,270,19,24100,29.09,NA,BKN  ft,METAR CYQY 011800Z 27019G33KT 15SM BKN027 10/07 A2909 RMK SC7 SLP854 DENSITY ALT 700FT,2025-11-01T18:32:56Z,2025-11-01T14:32:56Z
CYQY,2025-11-01T19:00:00Z,2025-11-01T15:00:00Z,MVFR,11,6,72,270,22,24100,29.15,NA,BKN  ft,METAR CYQY 011900Z 27022G30KT 15SM BKN027 11/06 A2915 RMK SC7 PRESRR SLP875 DENSITY ALT 600FT,2025-11-01T19:18:53Z,2025-11-01T15:18:53Z
CYQY,2025-11-01T20:00:00Z,2025-11-01T16:00:00Z,MVFR,9,8,94,260,18,24100,29.2,NA,SCT  ft; BKN  ft,METAR CYQY 012000Z 26018G26KT 15SM -DZ SCT013 BKN023 09/08 A2920 RMK SC3SC4 SLP889,2025-11-01T20:25:28Z,2025-11-01T16:25:28Z
CYQY,2025-11-01T21:00:00Z,2025-11-01T17:00:00Z,VFR,9,6,82,260,19,24100,29.23,NA,SCT  ft; OVC  ft,METAR CYQY 012100Z 26019G26KT 15SM SCT022 OVC031 09/06 A2923 RMK SC4SC4 SLP903,2025-11-01T21:21:12Z,2025-11-01T17:21:12Z
CYQY,2025-11-01T22:00:00Z,2025-11-01T18:00:00Z,MVFR,9,6,82,260,20,24100,29.27,NA,BKN  ft; OVC  ft,METAR CYQY 012200Z 26020KT 15SM BKN030 OVC042 09/06 A2927 RMK SC6SC2 PRESRR SLP916,2025-11-01T22:23:06Z,2025-11-01T18:23:06Z
CYQY,2025-11-01T23:00:00Z,2025-11-01T19:00:00Z,VFR,9,5,76,270,14,24100,29.31,NA,SCT  ft; BKN  ft,METAR CYQY 012300Z 27014G28KT 15SM SCT028 BKN063 09/05 A2931 RMK SC4SC2 SLP928,2025-11-01T23:22:50Z,2025-11-01T19:22:50Z
CYQY,2025-11-02T01:00:00Z,2025-11-01T21:00:00Z,VFR,9,5,76,260,18,24100,29.36,NA,SCT  ft; BKN  ft,METAR CYQY 020100Z 26018G23KT 15SM SCT028 BKN032 09/05 A2936 RMK SC3SC3 SLP945,2025-11-02T02:08:18Z,2025-11-01T22:08:18Z
CYQY,2025-11-02T02:00:00Z,2025-11-01T22:00:00Z,MVFR,8,6,87,270,19,24100,29.39,NA,BKN  ft; BKN  ft,METAR CYQY 020200Z 27019G25KT 15SM -RA BKN026 BKN033 08/06 A2939 RMK SC5SC2 SLP954,2025-11-02T02:25:14Z,2025-11-01T22:25:14Z
CYQY,2025-11-02T03:00:00Z,2025-11-01T23:00:00Z,MVFR,8,3,71,260,25,24100,29.39,NA,BKN  ft,METAR CYQY 020300Z 26025G32KT 15SM -RA BKN026 08/03 A2939 RMK SC6 SLP957,2025-11-02T03:49:53Z,2025-11-01T23:49:53Z
CYQY,2025-11-02T04:00:00Z,2025-11-02T00:00:00Z,VFR,8,3,71,260,22,24100,29.42,NA,BKN  ft,METAR CYQY 020400Z 26022G38KT 15SM BKN031 08/03 A2942 RMK SC6 SLP964,2025-11-02T04:30:22Z,2025-11-02T00:30:22Z
CYQY,2025-11-02T05:00:00Z,2025-11-02T01:00:00Z,MVFR,8,3,71,270,24,24100,29.45,NA,BKN  ft,METAR CYQY 020500Z 27024G32KT 15SM BKN029 08/03 A2945 RMK SC6 SLP977,2025-11-02T05:25:49Z,2025-11-02T01:25:49Z
CYQY,2025-11-02T06:00:00Z,2025-11-02T01:00:00Z,MVFR,7,4,81,280,27,9999,29.5,NA,OVC  ft,METAR CYQY 020600Z 28027G38KT 10SM -RA OVC028 07/04 A2950 RMK SC8 PRESRR SLP992,2025-11-02T06:36:55Z,2025-11-02T01:36:55Z
CYQY,2025-11-02T07:00:00Z,2025-11-02T02:00:00Z,VFR,6,5,93,280,18,9999,29.52,NA,BKN  ft; OVC  ft,METAR CYQY 020700Z 28018G30KT 10SM -RA BKN033 OVC067 06/05 A2952 RMK SC6AC2 SLP001,2025-11-02T07:23:40Z,2025-11-02T02:23:40Z
CYQY,2025-11-02T08:07:00Z,2025-11-02T03:07:00Z,MVFR,6,4,87,290,15,24100,29.57,NA,OVC  ft,SPECI CYQY 020807Z 29015G24KT 15SM OVC025 06/04 A2957 RMK SC8 SLP016,2025-11-02T08:30:01Z,2025-11-02T03:30:01Z
CYQY,2025-11-02T09:00:00Z,2025-11-02T04:00:00Z,VFR,6,4,87,280,10,24100,29.62,NA,SCT  ft; BKN  ft,METAR CYQY 020900Z 28010G20KT 240V300 15SM SCT023 BKN031 06/04 A2962 RMK SC4SC2 PRESRR SLP033,2025-11-02T09:23:23Z,2025-11-02T04:23:23Z
CYQY,2025-11-02T10:00:00Z,2025-11-02T05:00:00Z,MVFR,6,3,81,280,13,24100,29.65,NA,BKN  ft,METAR CYQY 021000Z 28013G23KT 15SM BKN024 06/03 A2965 RMK SC7 SLP045,2025-11-02T10:25:00Z,2025-11-02T05:25:00Z
CYQY,2025-11-02T11:00:00Z,2025-11-02T06:00:00Z,MVFR,6,3,81,290,10,24100,29.71,NA,BKN  ft,METAR CYQY 021100Z 29010G16KT 15SM BKN022 06/03 A2971 RMK SC6 SLP064,2025-11-02T11:19:33Z,2025-11-02T06:19:33Z
CYQY,2025-11-02T12:00:00Z,2025-11-02T07:00:00Z,MVFR,7,3,76,290,16,24100,29.74,NA,BKN  ft,METAR CYQY 021200Z 29016G28KT 15SM BKN025 07/03 A2974 RMK SC5 PRESRR SLP076,2025-11-02T12:48:27Z,2025-11-02T07:48:27Z
CYQY,2025-11-02T13:00:00Z,2025-11-02T08:00:00Z,MVFR,8,3,71,290,13,24100,29.79,NA,BKN  ft,METAR CYQY 021300Z 29013G20KT 15SM BKN023 08/03 A2979 RMK SC5 SLP091,2025-11-02T13:28:14Z,2025-11-02T08:28:14Z
CYRB,2025-11-01T04:00:00Z,2025-11-01T00:00:00Z,MVFR,-8,-9,93,360,11,24100,29.89,NA,OVC  ft,METAR CYRB 010400Z 36011KT 15SM -SN OVC015 M08/M09 A2989 RMK ST8 SLP131,2025-11-01T04:28:36Z,2025-11-01T00:28:36Z
CYRB,2025-11-01T05:00:00Z,2025-11-01T01:00:00Z,MVFR,-8,-10,86,10,7,24100,29.89,NA,OVC  ft,METAR CYRB 010500Z 01007KT 15SM -SN OVC015 M08/M10 A2989 RMK SC8 SLP131,2025-11-01T05:25:08Z,2025-11-01T01:25:08Z
CYRB,2025-11-01T06:00:00Z,2025-11-01T02:00:00Z,MVFR,-9,-10,93,0,0,12900,29.88,NA,OVC  ft,METAR CYRB 010600Z 00000KT 8SM -SN OVC015 M09/M10 A2988 RMK ST8 SLP129,2025-11-01T06:35:15Z,2025-11-01T02:35:15Z
CYRB,2025-11-01T07:00:00Z,2025-11-01T03:00:00Z,MVFR,-10,-11,92,40,10,24100,29.87,NA,BKN  ft; OVC  ft,METAR CYRB 010700Z 04010KT 15SM -SN BKN016 OVC100 M10/M11 A2987 RMK SC5AC3 SLP127,2025-11-01T07:23:05Z,2025-11-01T03:23:05Z
CYRB,2025-11-01T09:04:00Z,2025-11-01T05:04:00Z,VFR,-11,-13,85,60,18,24100,29.86,NA,SCT  ft,SPECI CYRB 010904Z 06018KT 15SM SCT020 M11/M13 A2986 RMK SC4 SLP123,2025-11-01T09:24:40Z,2025-11-01T05:24:40Z
CYRB,2025-11-01T10:00:00Z,2025-11-01T06:00:00Z,VFR,-11,-12,92,60,18,24100,29.86,NA,FEW  ft,METAR CYRB 011000Z 06018G28KT 15SM DRSN FEW020 M11/M12 A2986 RMK SC2 SLP123,2025-11-01T10:25:48Z,2025-11-01T06:25:48Z
CYRB,2025-11-01T11:00:00Z,2025-11-01T07:00:00Z,VFR,-11,-13,85,60,18,24100,29.86,NA,SKC  ft,METAR CYRB 011100Z 06018KT 15SM DRSN SKC M11/M13 A2986 RMK SLP122,2025-11-01T11:19:36Z,2025-11-01T07:19:36Z
CYRB,2025-11-01T12:00:00Z,2025-11-01T08:00:00Z,VFR,-11,-12,92,60,17,24100,29.86,NA,SCT  ft,METAR CYRB 011200Z 06017KT 15SM DRSN SCT024 M11/M12 A2986 RMK SC3 SLP123,2025-11-01T12:49:09Z,2025-11-01T08:49:09Z
CYRB,2025-11-01T13:00:00Z,2025-11-01T09:00:00Z,VFR,-9,-11,86,60,15,24100,29.86,NA,SCT  ft,METAR CYRB 011300Z 06015KT 15SM DRSN SCT034 M09/M11 A2986 RMK SC3 SLP122,2025-11-01T13:28:55Z,2025-11-01T09:28:55Z
CYRB,2025-11-01T14:00:00Z,2025-11-01T10:00:00Z,VFR,-10,-11,92,50,17,32200,29.85,NA,FEW  ft,METAR CYRB 011400Z 05017KT 20SM DRSN FEW034 M10/M11 A2985 RMK SC2 SLP119,2025-11-01T14:22:19Z,2025-11-01T10:22:19Z
CYRB,2025-11-01T15:17:00Z,2025-11-01T11:17:00Z,VFR,-11,-13,85,40,21,40200,29.83,NA,FEW  ft,SPECI CYRB 011517Z 04021KT 25SM FEW036 M11/M13 A2983 RMK SC2 PRESFR SLP113,2025-11-01T15:22:39Z,2025-11-01T11:22:39Z
CYRB,2025-11-01T16:00:00Z,2025-11-01T12:00:00Z,VFR,-10,-13,79,50,23,48300,29.83,NA,FEW  ft,METAR CYRB 011600Z 05023KT 30SM FEW036 M10/M13 A2983 RMK SC2 SLP111,2025-11-01T16:28:39Z,2025-11-01T12:28:39Z
CYRB,2025-11-01T17:00:00Z,2025-11-01T13:00:00Z,VFR,-11,-13,85,40,21,48300,29.81,NA,FEW  ft,METAR CYRB 011700Z 04021KT 30SM FEW036 M11/M13 A2981 RMK SC1 SLP107,2025-11-01T17:20:06Z,2025-11-01T13:20:06Z
CYRB,2025-11-01T18:00:00Z,2025-11-01T14:00:00Z,VFR,-11,-13,85,50,22,48300,29.82,NA,FEW  ft,METAR CYRB 011800Z 05022KT 30SM FEW030 M11/M13 A2982 RMK SC1 SC TR SLP108,2025-11-01T18:32:56Z,2025-11-01T14:32:56Z
CYRB,2025-11-01T19:00:00Z,2025-11-01T15:00:00Z,VFR,-11,-13,85,50,18,48300,29.81,NA,FEW  ft,METAR CYRB 011900Z 05018KT 30SM FEW030 M11/M13 A2981 RMK SC1 SC TR SLP106,2025-11-01T19:18:54Z,2025-11-01T15:18:54Z
CYRB,2025-11-01T20:00:00Z,2025-11-01T16:00:00Z,VFR,-12,-14,85,60,20,48300,29.8,NA,FEW  ft,METAR CYRB 012000Z 06020KT 30SM FEW030 M12/M14 A2980 RMK SC1 SC TR SLP102,2025-11-01T20:25:28Z,2025-11-01T16:25:28Z
CYRB,2025-11-01T21:00:00Z,2025-11-01T17:00:00Z,VFR,-12,-14,85,60,19,48300,29.8,NA,SKC  ft,METAR CYRB 012100Z 06019G24KT 30SM SKC M12/M14 A2980 RMK SLP101,2025-11-01T21:21:12Z,2025-11-01T17:21:12Z
CYRB,2025-11-01T22:00:00Z,2025-11-01T18:00:00Z,VFR,-12,-14,85,50,19,48300,29.79,NA,SKC  ft,METAR CYRB 012200Z 05019KT 30SM SKC M12/M14 A2979 RMK SLP098,2025-11-01T22:23:07Z,2025-11-01T18:23:07Z
CYRB,2025-11-01T23:00:00Z,2025-11-01T19:00:00Z,VFR,-12,-14,85,60,19,48300,29.78,NA,SKC  ft,METAR CYRB 012300Z 06019KT 30SM SKC M12/M14 A2978 RMK SLP094,2025-11-01T23:22:50Z,2025-11-01T19:22:50Z
CYRB,2025-11-02T01:22:00Z,2025-11-01T21:22:00Z,MVFR,-12,-13,92,60,18,32200,29.77,NA,OVC  ft,SPECI CYRB 020122Z 06018KT 20SM -SN OVC015 M12/M13 A2977 RMK ST8 SLP092,2025-11-02T02:08:19Z,2025-11-01T22:08:19Z
CYRB,2025-11-02T02:00:00Z,2025-11-01T22:00:00Z,MVFR,-11,-13,85,70,13,32200,29.76,NA,OVC  ft,METAR CYRB 020200Z 07013KT 20SM -SN OVC015 M11/M13 A2976 RMK ST8 SLP089,2025-11-02T02:25:15Z,2025-11-01T22:25:15Z
CYRB,2025-11-02T03:00:00Z,2025-11-01T23:00:00Z,MVFR,-12,-13,92,60,15,32200,29.75,NA,OVC  ft,METAR CYRB 020300Z 06015KT 20SM -SN OVC013 M12/M13 A2975 RMK ST8 SLP084,2025-11-02T03:49:54Z,2025-11-01T23:49:54Z
CYRB,2025-11-02T04:14:00Z,2025-11-02T00:14:00Z,IFR,-11,-13,85,50,9,32200,29.74,NA,OVC  ft,SPECI CYRB 020414Z 05009KT 20SM -SN OVC009 M11/M13 A2974 RMK ST8 SLP082,2025-11-02T04:30:23Z,2025-11-02T00:30:23Z
CYRB,2025-11-02T05:00:00Z,2025-11-02T01:00:00Z,IFR,-12,-13,92,30,7,32200,29.74,NA,OVC  ft,METAR CYRB 020500Z 03007KT 20SM -SN OVC009 M12/M13 A2974 RMK ST8 SLP081,2025-11-02T05:25:49Z,2025-11-02T01:25:49Z
CYRB,2025-11-02T06:00:00Z,2025-11-02T01:00:00Z,IFR,-12,-14,85,30,9,32200,29.73,NA,OVC  ft,METAR CYRB 020600Z 03009KT 20SM -SN OVC009 M12/M14 A2973 RMK ST8 SLP078,2025-11-02T06:36:56Z,2025-11-02T01:36:56Z
CYRB,2025-11-02T07:00:00Z,2025-11-02T02:00:00Z,MVFR,-13,-14,92,20,7,24100,29.72,NA,OVC  ft,METAR CYRB 020700Z 02007KT 15SM -SN OVC011 M13/M14 A2972 RMK ST8 SLP075,2025-11-02T07:23:40Z,2025-11-02T02:23:40Z
CYRB,2025-11-02T08:00:00Z,2025-11-02T03:00:00Z,MVFR,-13,-15,85,0,2,32200,29.71,NA,OVC  ft,METAR CYRB 020800Z VRB02KT 20SM -SN OVC011 M13/M15 A2971 RMK ST8 SLP072,2025-11-02T08:30:06Z,2025-11-02T03:30:06Z
CYRB,2025-11-02T09:00:00Z,2025-11-02T04:00:00Z,MVFR,-14,-16,85,40,8,32200,29.71,NA,BKN  ft,METAR CYRB 020900Z 04008KT 20SM -SN BKN010 M14/M16 A2971 RMK ST7 SLP070,2025-11-02T09:23:24Z,2025-11-02T04:23:24Z
CYRB,2025-11-02T10:00:00Z,2025-11-02T05:00:00Z,MVFR,-14,-16,85,50,14,32200,29.7,NA,BKN  ft,METAR CYRB 021000Z 05014KT 20SM -SN BKN011 M14/M16 A2970 RMK ST7 SLP067,2025-11-02T10:25:01Z,2025-11-02T05:25:01Z
CYRB,2025-11-02T11:00:00Z,2025-11-02T06:00:00Z,MVFR,-14,-16,85,50,18,32200,29.68,NA,BKN  ft,METAR CYRB 021100Z 05018KT 20SM -SN BKN011 M14/M16 A2968 RMK ST5 SLP063,2025-11-02T11:19:34Z,2025-11-02T06:19:34Z
CYRB,2025-11-02T12:00:00Z,2025-11-02T07:00:00Z,MVFR,-14,-16,85,50,16,32200,29.68,NA,BKN  ft,METAR CYRB 021200Z 05016G22KT 20SM -SN BKN010 M14/M16 A2968 RMK ST5 SLP063,2025-11-02T12:48:28Z,2025-11-02T07:48:28Z
CYRB,2025-11-02T13:00:00Z,2025-11-02T08:00:00Z,MVFR,-14,-16,85,50,13,32200,29.68,NA,BKN  ft,METAR CYRB 021300Z 05013G22KT 20SM -SN BKN010 M14/M16 A2968 RMK ST6 SLP060,2025-11-02T13:28:15Z,2025-11-02T08:28:15Z
CYRJ,2025-11-01T04:00:00Z,2025-11-01T00:00:00Z,MVFR,4,4,100,320,14,19300,29.1,NA,OVC  ft,METAR CYRJ 010400Z 32014G21KT 12SM -RA OVC011 04/04 A2910 RMK SF8 SLP861,2025-11-01T04:28:35Z,2025-11-01T00:28:35Z
CYRJ,2025-11-01T05:00:00Z,2025-11-01T01:00:00Z,MVFR,4,4,100,310,14,19300,29.13,NA,OVC  ft,METAR CYRJ 010500Z 31014G22KT 12SM -RA OVC010 04/04 A2913 RMK SF8 SLP871,2025-11-01T05:25:07Z,2025-11-01T01:25:07Z
CYRJ,2025-11-01T06:00:00Z,2025-11-01T02:00:00Z,MVFR,4,4,100,310,15,19300,29.16,NA,OVC  ft,METAR CYRJ 010600Z 31015G24KT 12SM -RA OVC014 04/04 A2916 RMK SC8 SLP881,2025-11-01T06:35:14Z,2025-11-01T02:35:14Z
CYRJ,2025-11-01T07:00:00Z,2025-11-01T03:00:00Z,MVFR,4,4,100,310,12,19300,29.19,NA,OVC  ft,METAR CYRJ 010700Z 31012G20KT 12SM -RA OVC016 04/04 A2919 RMK SC8 SLP891,2025-11-01T07:23:04Z,2025-11-01T03:23:04Z
CYRJ,2025-11-01T08:00:00Z,2025-11-01T04:00:00Z,MVFR,5,4,93,300,18,32200,29.21,NA,SCT  ft; OVC  ft,METAR CYRJ 010800Z 30018G24KT 20SM -RA SCT016 OVC024 05/04 A2921 RMK SC4SC4 SLP900,2025-11-01T08:30:54Z,2025-11-01T04:30:54Z
CYRJ,2025-11-01T09:00:00Z,2025-11-01T05:00:00Z,MVFR,5,3,87,310,17,32200,29.25,NA,OVC  ft,METAR CYRJ 010900Z 31017G25KT 20SM -RA OVC018 05/03 A2925 RMK SC8 SLP913,2025-11-01T09:24:39Z,2025-11-01T05:24:39Z
CYRJ,2025-11-01T10:00:00Z,2025-11-01T06:00:00Z,MVFR,4,2,87,310,17,32200,29.29,NA,OVC  ft,METAR CYRJ 011000Z 31017G28KT 20SM -RA OVC020 04/02 A2929 RMK SC8 SLP927,2025-11-01T10:25:46Z,2025-11-01T06:25:46Z
CYRJ,2025-11-01T11:00:00Z,2025-11-01T07:00:00Z,MVFR,3,1,87,300,18,32200,29.34,NA,OVC  ft,METAR CYRJ 011100Z 30018G28KT 20SM -RA OVC016 03/01 A2934 RMK SC8 SLP944,2025-11-01T11:19:35Z,2025-11-01T07:19:35Z
CYRJ,2025-11-01T12:00:00Z,2025-11-01T08:00:00Z,MVFR,3,1,87,300,18,32200,29.39,NA,OVC  ft,METAR CYRJ 011200Z 30018G29KT 20SM -RA OVC020 03/01 A2939 RMK SC8 SLP960,2025-11-01T12:49:08Z,2025-11-01T08:49:08Z
CYRJ,2025-11-01T13:00:00Z,2025-11-01T09:00:00Z,MVFR,3,1,87,300,17,40200,29.43,NA,OVC  ft,METAR CYRJ 011300Z 30017G28KT 25SM -RA OVC020 03/01 A2943 RMK SC8 SLP975,2025-11-01T13:28:54Z,2025-11-01T09:28:54Z
CYRJ,2025-11-01T14:00:00Z,2025-11-01T10:00:00Z,MVFR,3,1,87,300,19,19300,29.47,NA,SCT  ft; OVC  ft,METAR CYRJ 011400Z 30019G29KT 12SM -RA SCT014 OVC019 03/01 A2947 RMK SC4SC4 SLP989,2025-11-01T14:22:18Z,2025-11-01T10:22:18Z
CYRJ,2025-11-01T15:00:00Z,2025-11-01T11:00:00Z,VFR,3,1,87,300,18,12900,29.51,NA,SCT  ft; OVC  ft,METAR CYRJ 011500Z 30018G26KT 8SM -PL SCT045 OVC051 03/01 A2951 RMK NS4NS4 SLP002,2025-11-01T15:22:38Z,2025-11-01T11:22:38Z
CYRJ,2025-11-01T16:00:00Z,2025-11-01T12:00:00Z,VFR,4,1,81,300,17,19300,29.55,NA,SCT  ft; OVC  ft,METAR CYRJ 011600Z 30017G27KT 12SM -RA SCT019 OVC039 04/01 A2955 RMK NS4NS4 SLP015,2025-11-01T16:28:38Z,2025-11-01T12:28:38Z
CYRJ,2025-11-01T17:00:00Z,2025-11-01T13:00:00Z,VFR,4,1,81,310,21,32200,29.58,NA,FEW  ft; SCT  ft; OVC  ft,METAR CYRJ 011700Z 31021G27KT 20SM -RA FEW018 SCT027 OVC033 04/01 A2958 RMK SC2SC2SC4 SLP026,2025-11-01T17:20:04Z,2025-11-01T13:20:04Z
CYRJ,2025-11-01T18:29:00Z,2025-11-01T14:29:00Z,MVFR,4,0,75,310,19,40200,29.63,NA,BKN  ft; OVC  ft,SPECI CYRJ 011829Z 31019G29KT 25SM BKN024 OVC036 04/00 A2963 RMK SC6SC2 SLP044,2025-11-01T18:32:55Z,2025-11-01T14:32:55Z
CYRJ,2025-11-01T19:13:00Z,2025-11-01T15:13:00Z,MVFR,4,0,75,320,18,40200,29.66,NA,BKN  ft; OVC  ft,SPECI CYRJ 011913Z 32018G27KT 25SM -RA BKN025 OVC035 04/00 A2966 RMK SC6SC2 SLP053,2025-11-01T19:18:52Z,2025-11-01T15:18:52Z
CYRJ,2025-11-01T20:00:00Z,2025-11-01T16:00:00Z,MVFR,4,-1,70,310,16,40200,29.7,NA,OVC  ft,METAR CYRJ 012000Z 31016G23KT 25SM OVC026 04/M01 A2970 RMK SC8 SLP067,2025-11-01T20:25:27Z,2025-11-01T16:25:27Z
CYRJ,2025-11-01T21:00:00Z,2025-11-01T17:00:00Z,VFR,3,-1,75,320,16,40200,29.75,NA,BKN  ft; BKN  ft,METAR CYRJ 012100Z 32016G25KT 25SM BKN036 BKN068 03/M01 A2975 RMK SC6AC1 PRESRR SLP083,2025-11-01T21:21:12Z,2025-11-01T17:21:12Z
CYRJ,2025-11-01T22:00:00Z,2025-11-01T18:00:00Z,VFR,2,-1,81,310,16,40200,29.79,NA,BKN  ft; OVC  ft,METAR CYRJ 012200Z 31016G25KT 25SM VCSH BKN033 OVC072 02/M01 A2979 RMK SC7AC1 SLP099,2025-11-01T22:23:06Z,2025-11-01T18:23:06Z
CYRJ,2025-11-01T23:00:00Z,2025-11-01T19:00:00Z,VFR,2,-2,75,300,14,40200,29.83,NA,BKN  ft,METAR CYRJ 012300Z 30014G21KT 25SM BKN036 02/M02 A2983 RMK SC7 SLP111,2025-11-01T23:22:49Z,2025-11-01T19:22:49Z
CYRJ,2025-11-02T01:00:00Z,2025-11-01T21:00:00Z,VFR,2,-3,70,300,12,40200,29.89,NA,OVC  ft,METAR CYRJ 020100Z 30012G21KT 25SM OVC034 02/M03 A2989 RMK SC8 SLP132,2025-11-02T02:08:18Z,2025-11-01T22:08:18Z
CYRJ,2025-11-02T02:00:00Z,2025-11-01T22:00:00Z,VFR,2,-3,70,290,15,40200,29.91,NA,OVC  ft,METAR CYRJ 020200Z 29015KT 25SM OVC037 02/M03 A2991 RMK SC8 SLP139,2025-11-02T02:25:14Z,2025-11-01T22:25:14Z
CYRJ,2025-11-02T03:00:00Z,2025-11-01T23:00:00Z,VFR,2,-2,75,280,11,40200,29.93,NA,OVC  ft,METAR CYRJ 020300Z 28011G17KT 25SM OVC035 02/M02 A2993 RMK SC8 SLP144,2025-11-02T03:49:53Z,2025-11-01T23:49:53Z
CYRJ,2025-11-02T04:00:00Z,2025-11-02T00:00:00Z,VFR,2,-3,70,280,11,40200,29.94,NA,OVC  ft,METAR CYRJ 020400Z 28011G16KT 25SM OVC038 02/M03 A2994 RMK SC8 SLP150,2025-11-02T04:30:22Z,2025-11-02T00:30:22Z
CYRJ,2025-11-02T05:00:00Z,2025-11-02T01:00:00Z,VFR,2,-4,65,280,12,40200,29.96,NA,OVC  ft,METAR CYRJ 020500Z 28012KT 25SM OVC038 02/M04 A2996 RMK SC8 SLP155,2025-11-02T05:25:48Z,2025-11-02T01:25:48Z
CYRJ,2025-11-02T06:00:00Z,2025-11-02T01:00:00Z,VFR,2,-3,70,280,12,40200,29.97,NA,OVC  ft,METAR CYRJ 020600Z 28012G18KT 25SM OVC045 02/M03 A2997 RMK SC8 SLP159,2025-11-02T06:36:55Z,2025-11-02T01:36:55Z
CYRJ,2025-11-02T07:00:00Z,2025-11-02T02:00:00Z,VFR,2,-4,65,290,13,40200,29.99,NA,OVC  ft,METAR CYRJ 020700Z 29013KT 25SM OVC047 02/M04 A2999 RMK SC8 SLP164,2025-11-02T07:23:40Z,2025-11-02T02:23:40Z
CYRJ,2025-11-02T08:00:00Z,2025-11-02T03:00:00Z,VFR,2,-4,65,290,10,40200,30.01,NA,BKN  ft,METAR CYRJ 020800Z 29010KT 25SM BKN043 02/M04 A3001 RMK SC7 SLP172,2025-11-02T08:30:01Z,2025-11-02T03:30:01Z
CYRJ,2025-11-02T09:00:00Z,2025-11-02T04:00:00Z,VFR,2,-4,65,270,7,32200,30.03,NA,BKN  ft,METAR CYRJ 020900Z 27007KT 20SM BKN037 02/M04 A3003 RMK SC7 SLP180,2025-11-02T09:23:23Z,2025-11-02T04:23:23Z
CYRJ,2025-11-02T10:00:00Z,2025-11-02T05:00:00Z,VFR,2,-4,65,270,8,40200,30.05,NA,OVC  ft,METAR CYRJ 021000Z 27008KT 25SM OVC034 02/M04 A3005 RMK SC8 SLP187,2025-11-02T10:25:00Z,2025-11-02T05:25:00Z
CYRJ,2025-11-02T11:00:00Z,2025-11-02T06:00:00Z,VFR,2,-4,65,290,10,40200,30.08,NA,BKN  ft,METAR CYRJ 021100Z 29010KT 25SM BKN033 02/M04 A3008 RMK SC7 SLP198,2025-11-02T11:19:33Z,2025-11-02T06:19:33Z
CYRJ,2025-11-02T12:00:00Z,2025-11-02T07:00:00Z,VFR,2,-4,65,280,7,40200,30.11,NA,BKN  ft,METAR CYRJ 021200Z 28007KT 25SM BKN032 02/M04 A3011 RMK SC7 SLP208,2025-11-02T12:48:27Z,2025-11-02T07:48:27Z
CYRJ,2025-11-02T13:00:00Z,2025-11-02T08:00:00Z,VFR,2,-5,60,260,5,64400,30.12,NA,BKN  ft,METAR CYRJ 021300Z 26005KT 40SM BKN032 02/M05 A3012 RMK SC7 SLP211,2025-11-02T13:28:14Z,2025-11-02T08:28:14Z
CYRT,2025-11-01T04:20:00Z,2025-11-01T00:20:00Z,VFR,-3,-4,93,250,5,24100,29.96,NA,SCT  ft; BKN  ft,SPECI CYRT 010420Z 25005KT 15SM -SN SCT008 BKN074 M03/M04 A2996 RMK SC4AC3 SLP152,2025-11-01T04:28:35Z,2025-11-01T00:28:35Z
CYRT,2025-11-01T05:21:00Z,2025-11-01T01:21:00Z,MVFR,-3,-5,86,220,6,4800,29.94,NA,FEW  ft; BKN  ft,SPECI CYRT 010521Z 22006KT 3SM -SN FEW008 BKN025 M03/M05 A2994 RMK SC1SC6 SLP145,2025-11-01T05:25:08Z,2025-11-01T01:25:08Z
CYRT,2025-11-01T06:00:00Z,2025-11-01T02:00:00Z,MVFR,-3,-4,93,190,6,4800,29.93,NA,FEW  ft; OVC  ft,METAR CYRT 010600Z 19006KT 3SM -SN FEW005 OVC018 M03/M04 A2993 RMK SC1SC8 SC TR SLP141,2025-11-01T06:35:14Z,2025-11-01T02:35:14Z
CYRT,2025-11-01T07:00:00Z,2025-11-01T03:00:00Z,MVFR,-3,-4,93,180,9,4800,29.91,NA,FEW  ft; BKN  ft,METAR CYRT 010700Z 18009KT 3SM -SN FEW008 BKN040 M03/M04 A2991 RMK SC1SC6 SLP133,2025-11-01T07:23:05Z,2025-11-01T03:23:05Z
CYRT,2025-11-01T08:00:00Z,2025-11-01T04:00:00Z,MVFR,-2,-4,86,190,10,4800,29.89,NA,BKN  ft; OVC  ft,METAR CYRT 010800Z 19010KT 3SM -SN BKN010 OVC047 M02/M04 A2989 RMK SC7SC1 SLP127,2025-11-01T08:30:54Z,2025-11-01T04:30:54Z
CYRT,2025-11-01T09:00:00Z,2025-11-01T05:00:00Z,MVFR,-2,-3,93,200,10,4800,29.87,NA,BKN  ft; OVC  ft,METAR CYRT 010900Z 20010KT 3SM -SN BKN010 OVC027 M02/M03 A2987 RMK SC5SC3 SLP119,2025-11-01T09:24:40Z,2025-11-01T05:24:40Z
CYRT,2025-11-01T10:00:00Z,2025-11-01T06:00:00Z,MVFR,-2,-2,100,190,9,4800,29.85,NA,BKN  ft; OVC  ft,METAR CYRT 011000Z 19009KT 3SM -SN BKN010 OVC025 M02/M02 A2985 RMK SC6SC2 SLP113,2025-11-01T10:25:47Z,2025-11-01T06:25:47Z
CYRT,2025-11-01T11:00:00Z,2025-11-01T07:00:00Z,MVFR,-1,-2,93,190,11,4800,29.84,NA,BKN  ft; OVC  ft,METAR CYRT 011100Z 19011KT 3SM -SN BKN010 OVC021 M01/M02 A2984 RMK SC5SC3 SLP109,2025-11-01T11:19:36Z,2025-11-01T07:19:36Z
CYRT,2025-11-01T12:40:00Z,2025-11-01T08:40:00Z,MVFR,0,-1,93,180,12,24100,29.8,NA,BKN  ft; OVC  ft,SPECI CYRT 011240Z 18012KT 15SM BKN013 OVC023 M00/M01 A2980 RMK SC5SC3 SLP096,2025-11-01T12:49:09Z,2025-11-01T08:49:09Z
CYRT,2025-11-01T13:14:00Z,2025-11-01T09:14:00Z,MVFR,0,-1,93,170,11,9700,29.79,NA,SCT  ft; OVC  ft,SPECI CYRT 011314Z 17011KT 6SM -SN SCT010 OVC022 00/M01 A2979 RMK SC4SC4 SLP092,2025-11-01T13:28:55Z,2025-11-01T09:28:55Z
CYRT,2025-11-01T14:00:00Z,2025-11-01T10:00:00Z,IFR,0,0,100,170,16,3200,29.76,NA,BKN  ft; OVC  ft,METAR CYRT 011400Z 17016KT 2SM -SN BR BKN010 OVC022 00/M00 A2976 RMK SC5SC3 SLP084,2025-11-01T14:22:19Z,2025-11-01T10:22:19Z
CYRT,2025-11-01T15:00:00Z,2025-11-01T11:00:00Z,MVFR,0,0,100,170,12,24100,29.75,NA,SCT  ft; BKN  ft; BKN  ft,METAR CYRT 011500Z 17012KT 15SM SCT009 BKN025 BKN250 00/M00 A2975 RMK SC3SC2CI2 SH DIST NE AND W SLP078,2025-11-01T15:22:39Z,2025-11-01T11:22:39Z
CYRT,2025-11-01T16:00:00Z,2025-11-01T12:00:00Z,MVFR,1,0,93,170,12,24100,29.72,NA,SCT  ft; BKN  ft; BKN  ft,METAR CYRT 011600Z 17012G18KT 15SM SCT009 BKN022 BKN240 01/M00 A2972 RMK SC3SC3CI1 SH DST SE S AND W SLP071,2025-11-01T16:28:39Z,2025-11-01T12:28:39Z
CYRT,2025-11-01T17:00:00Z,2025-11-01T13:00:00Z,MVFR,1,0,93,170,15,24100,29.7,NA,SCT  ft; BKN  ft,METAR CYRT 011700Z 17015G21KT 15SM SCT010 BKN017 01/M00 A2970 RMK SC3SC4 SH DST SE-S SLP063,2025-11-01T17:20:05Z,2025-11-01T13:20:05Z
CYRT,2025-11-01T18:00:00Z,2025-11-01T14:00:00Z,MVFR,1,0,93,170,16,9999,29.67,NA,SCT  ft; OVC  ft,METAR CYRT 011800Z 17016KT 10SM -SHSN SCT008 OVC020 01/00 A2967 RMK SC4SC4 CVCTV CLD EMBD SLP052,2025-11-01T18:32:56Z,2025-11-01T14:32:56Z
CYRT,2025-11-01T19:00:00Z,2025-11-01T15:00:00Z,MVFR,2,0,87,170,18,24100,29.64,NA,SCT  ft; OVC  ft,METAR CYRT 011900Z 17018KT 15SM SCT009 OVC018 02/M00 A2964 RMK SC3SC5 SLP043,2025-11-01T19:18:53Z,2025-11-01T15:18:53Z
CYRT,2025-11-01T20:00:00Z,2025-11-01T16:00:00Z,VFR,2,0,87,170,18,24100,29.62,NA,SCT  ft; BKN  ft,METAR CYRT 012000Z 17018G23KT 15SM SCT016 BKN250 02/00 A2962 RMK SC3CI4 SLP034,2025-11-01T20:25:28Z,2025-11-01T16:25:28Z
CYRT,2025-11-01T21:00:00Z,2025-11-01T17:00:00Z,VFR,2,0,87,170,18,24100,29.6,NA,SCT  ft; BKN  ft; BKN  ft,METAR CYRT 012100Z 17018G24KT 15SM SCT016 BKN180 BKN250 02/00 A2960 RMK SC4AC1CI2 SLP027,2025-11-01T21:21:12Z,2025-11-01T17:21:12Z
CYRT,2025-11-01T22:00:00Z,2025-11-01T18:00:00Z,VFR,2,0,87,170,18,24100,29.56,NA,SCT  ft; BKN  ft; BKN  ft,METAR CYRT 012200Z 17018G23KT 15SM SCT015 BKN180 BKN250 02/00 A2956 RMK SC3AC2CI2 SLP016,2025-11-01T22:23:07Z,2025-11-01T18:23:07Z
CYRT,2025-11-01T23:00:00Z,2025-11-01T19:00:00Z,VFR,2,0,87,160,19,24100,29.53,NA,SCT  ft; BKN  ft,METAR CYRT 012300Z 16019G25KT 15SM SCT016 BKN240 02/00 A2953 RMK SC4CI3 SLP005,2025-11-01T23:22:50Z,2025-11-01T19:22:50Z
CYRT,2025-11-02T01:00:00Z,2025-11-01T21:00:00Z,MVFR,2,1,93,160,20,24100,29.48,NA,OVC  ft,METAR CYRT 020100Z 16020G27KT 15SM OVC016 02/01 A2948 RMK SC8 SLP988,2025-11-02T02:08:18Z,2025-11-01T22:08:18Z
CYRT,2025-11-02T02:00:00Z,2025-11-01T22:00:00Z,MVFR,2,0,87,170,20,24100,29.46,NA,OVC  ft,METAR CYRT 020200Z 17020G25KT 15SM OVC020 02/00 A2946 RMK SC8 SLP980,2025-11-02T02:25:15Z,2025-11-01T22:25:15Z
CYRT,2025-11-02T03:00:00Z,2025-11-01T23:00:00Z,MVFR,2,0,87,180,16,24100,29.44,NA,OVC  ft,METAR CYRT 020300Z 18016G22KT 15SM OVC016 02/00 A2944 RMK SC8 SLP975,2025-11-02T03:49:53Z,2025-11-01T23:49:53Z
CYRT,2025-11-02T04:00:00Z,2025-11-02T00:00:00Z,IFR,1,0,93,180,17,9999,29.42,NA,BKN  ft; OVC  ft,METAR CYRT 020400Z 18017G23KT 10SM -SN BKN009 OVC024 01/00 A2942 RMK SC5SC3 SLP966,2025-11-02T04:30:23Z,2025-11-02T00:30:23Z
CYRT,2025-11-02T05:00:00Z,2025-11-02T01:00:00Z,IFR,1,0,93,180,16,9999,29.4,NA,BKN  ft; OVC  ft,METAR CYRT 020500Z 18016G22KT 10SM -SN BKN008 OVC026 01/00 A2940 RMK SC5SC3 SLP959,2025-11-02T05:25:49Z,2025-11-02T01:25:49Z
CYRT,2025-11-02T06:00:00Z,2025-11-02T01:00:00Z,IFR,1,0,93,170,16,24100,29.37,NA,BKN  ft; OVC  ft,METAR CYRT 020600Z 17016KT 15SM -SN BKN009 OVC030 01/00 A2937 RMK SC5SC3 SLP951,2025-11-02T06:36:55Z,2025-11-02T01:36:55Z
CYRT,2025-11-02T07:00:00Z,2025-11-02T02:00:00Z,IFR,1,0,93,180,17,24100,29.35,NA,BKN  ft; OVC  ft,METAR CYRT 020700Z 18017KT 15SM -SN BKN009 OVC017 01/00 A2935 RMK SC5SC3 SLP943,2025-11-02T07:23:40Z,2025-11-02T02:23:40Z
CYRT,2025-11-02T08:00:00Z,2025-11-02T03:00:00Z,IFR,1,0,93,160,15,4800,29.32,NA,BKN  ft; BKN  ft; OVC  ft,METAR CYRT 020800Z 16015KT 3SM -SN BKN007 BKN025 OVC200 01/00 A2932 RMK SC5SC2CI1 SLP933,2025-11-02T08:30:06Z,2025-11-02T03:30:06Z
CYRT,2025-11-02T09:00:00Z,2025-11-02T04:00:00Z,IFR,1,0,93,170,15,4800,29.29,NA,BKN  ft; BKN  ft; BKN  ft,METAR CYRT 020900Z 17015KT 3SM -SN BKN008 BKN017 BKN140 01/00 A2929 RMK SC5SC1AC1 SLP925,2025-11-02T09:23:24Z,2025-11-02T04:23:24Z
CYRT,2025-11-02T10:00:00Z,2025-11-02T05:00:00Z,MVFR,1,0,93,150,16,24100,29.27,NA,BKN  ft; BKN  ft; OVC  ft,METAR CYRT 021000Z 15016KT 15SM BKN015 BKN042 OVC120 01/00 A2927 RMK SC5SC1AC2 SLP915,2025-11-02T10:25:01Z,2025-11-02T05:25:01Z
CYRT,2025-11-02T11:00:00Z,2025-11-02T06:00:00Z,MVFR,1,0,93,160,15,24100,29.26,NA,BKN  ft; OVC  ft,METAR CYRT 021100Z 16015KT 15SM BKN018 OVC044 01/00 A2926 RMK SC5SC3 SLP911,2025-11-02T11:19:34Z,2025-11-02T06:19:34Z
CYRT,2025-11-02T12:00:00Z,2025-11-02T07:00:00Z,MVFR,1,1,100,160,12,24100,29.24,NA,SCT  ft; BKN  ft; OVC  ft,METAR CYRT 021200Z 16012G20KT 15SM SCT006 BKN020 OVC037 01/01 A2924 RMK SC3SC3SC2 SLP904,2025-11-02T12:48:27Z,2025-11-02T07:48:27Z
CYRT,2025-11-02T13:22:00Z,2025-11-02T08:22:00Z,IFR,1,1,100,160,14,24100,29.21,NA,BKN  ft; OVC  ft,SPECI CYRT 021322Z 16014KT 15SM -RASN BKN008 OVC024 01/01 A2921 RMK SC5SC3 SLP894,2025-11-02T13:28:15Z,2025-11-02T08:28:15Z
CYSB,2025-11-01T04:00:00Z,2025-11-01T00:00:00Z,VFR,2,-2,75,320,11,24100,29.73,NA,OVC  ft,METAR CYSB 010400Z 32011G18KT 15SM OVC037 02/M02 A2973 RMK SC8 SLP083,2025-11-01T04:28:32Z,2025-11-01T00:28:32Z
CYSB,2025-11-01T05:00:00Z,2025-11-01T01:00:00Z,VFR,1,-1,87,300,10,24100,29.76,NA,OVC  ft,METAR CYSB 010500Z 30010KT 15SM OVC034 01/M01 A2976 RMK SC8 SLP092,2025-11-01T05:25:05Z,2025-11-01T01:25:05Z
CYSB,2025-11-01T06:24:00Z,2025-11-01T02:24:00Z,MVFR,1,-2,81,330,14,9999,29.77,NA,OVC  ft,SPECI CYSB 010624Z 33014G21KT 10SM -SN OVC021 01/M02 A2977 RMK SC8 SLP096,2025-11-01T06:35:12Z,2025-11-01T02:35:12Z
CYSB,2025-11-01T07:00:00Z,2025-11-01T03:00:00Z,MVFR,0,-1,93,310,6,24100,29.79,NA,OVC  ft,METAR CYSB 010700Z 31006KT 15SM -SN OVC030 00/M01 A2979 RMK SC8 SLP102,2025-11-01T07:22:59Z,2025-11-01T03:22:59Z
CYSB,2025-11-01T08:00:00Z,2025-11-01T04:00:00Z,VFR,1,-2,81,310,8,24100,29.79,NA,OVC  ft,METAR CYSB 010800Z 31008KT 15SM OVC035 01/M02 A2979 RMK SC8 SLP105,2025-11-01T08:30:52Z,2025-11-01T04:30:52Z
CYSB,2025-11-01T09:00:00Z,2025-11-01T05:00:00Z,VFR,1,-3,75,320,9,24100,29.81,NA,OVC  ft,METAR CYSB 010900Z 32009KT 15SM OVC032 01/M03 A2981 RMK SC8 SLP110,2025-11-01T09:24:37Z,2025-11-01T05:24:37Z
CYSB,2025-11-01T10:00:00Z,2025-11-01T06:00:00Z,MVFR,1,-3,75,320,7,24100,29.83,NA,OVC  ft,METAR CYSB 011000Z 32007KT 15SM -SN OVC028 01/M03 A2983 RMK SC8 SLP119,2025-11-01T10:25:44Z,2025-11-01T06:25:44Z
CYSB,2025-11-01T11:00:00Z,2025-11-01T07:00:00Z,VFR,1,-3,75,310,7,24100,29.85,NA,FEW  ft; OVC  ft,METAR CYSB 011100Z 31007KT 15SM FEW013 OVC032 01/M03 A2985 RMK SF1SC7 INTMT -SN SLP125,2025-11-01T11:19:33Z,2025-11-01T07:19:33Z
CYSB,2025-11-01T12:00:00Z,2025-11-01T08:00:00Z,VFR,1,-3,75,320,7,24100,29.88,NA,OVC  ft,METAR CYSB 011200Z 32007KT 15SM -SHSN OVC033 01/M03 A2988 RMK SC8 CU EMBD SLP135,2025-11-01T12:49:05Z,2025-11-01T08:49:05Z
CYSB,2025-11-01T13:00:00Z,2025-11-01T09:00:00Z,VFR,1,-3,75,310,7,32200,29.92,NA,SCT  ft; OVC  ft,METAR CYSB 011300Z 31007G15KT 20SM -SHSN SCT020 OVC032 01/M03 A2992 RMK CU4SC4 SLP148,2025-11-01T13:28:51Z,2025-11-01T09:28:51Z
CYSB,2025-11-01T14:00:00Z,2025-11-01T10:00:00Z,VFR,1,-3,75,310,9,32200,29.94,NA,FEW  ft; OVC  ft,METAR CYSB 011400Z 31009KT 20SM -SHSN FEW020 OVC032 01/M03 A2994 RMK CU3SC5 SLP156,2025-11-01T14:22:15Z,2025-11-01T10:22:15Z
CYSB,2025-11-01T15:00:00Z,2025-11-01T11:00:00Z,LIFR,2,-4,65,320,9,32200,29.95,NA,OVC  ft,METAR CYSB 011500Z 32009G15KT 20SM OVC002 02/M04 A2995 RMK SC8 CU ASOCTD SLP160,2025-11-01T15:22:36Z,2025-11-01T11:22:36Z
CYSB,2025-11-01T16:00:00Z,2025-11-01T12:00:00Z,MVFR,2,-4,65,340,8,32200,29.97,NA,OVC  ft,METAR CYSB 011600Z 34008KT 300V010 20SM OVC028 02/M04 A2997 RMK SC8 SLP166,2025-11-01T16:28:36Z,2025-11-01T12:28:36Z
CYSB,2025-11-01T17:00:00Z,2025-11-01T13:00:00Z,MVFR,2,-4,65,350,8,32200,29.98,NA,OVC  ft,METAR CYSB 011700Z 35008KT 330V030 20SM OVC029 02/M04 A2998 RMK SC8 SLP169,2025-11-01T17:20:00Z,2025-11-01T13:20:00Z
CYSB,2025-11-01T18:00:00Z,2025-11-01T14:00:00Z,VFR,3,-5,56,350,8,32200,29.98,NA,OVC  ft,METAR CYSB 011800Z 35008KT 300V020 20SM OVC032 03/M05 A2998 RMK SC8 SLP170,2025-11-01T18:32:53Z,2025-11-01T14:32:53Z
CYSB,2025-11-01T19:00:00Z,2025-11-01T15:00:00Z,VFR,3,-5,56,300,6,32200,29.98,NA,OVC  ft,METAR CYSB 011900Z 30006KT 280V360 20SM OVC035 03/M05 A2998 RMK SC8 SLP171,2025-11-01T19:18:49Z,2025-11-01T15:18:49Z
CYSB,2025-11-01T20:00:00Z,2025-11-01T16:00:00Z,VFR,3,-5,56,300,7,32200,30,NA,OVC  ft,METAR CYSB 012000Z 30007KT 20SM OVC035 03/M05 A3000 RMK SC8 SLP176,2025-11-01T20:25:25Z,2025-11-01T16:25:25Z
CYSB,2025-11-01T21:00:00Z,2025-11-01T17:00:00Z,VFR,2,-5,60,290,6,32200,30.02,NA,OVC  ft,METAR CYSB 012100Z 29006KT 20SM OVC035 02/M05 A3002 RMK SC8 SLP182,2025-11-01T21:21:10Z,2025-11-01T17:21:10Z
CYSB,2025-11-01T22:00:00Z,2025-11-01T18:00:00Z,VFR,2,-5,60,320,2,32200,30.04,NA,OVC  ft,METAR CYSB 012200Z 32002KT 20SM OVC035 02/M05 A3004 RMK SC8 SLP189,2025-11-01T22:23:04Z,2025-11-01T18:23:04Z
CYSB,2025-11-01T23:00:00Z,2025-11-01T19:00:00Z,VFR,2,-5,60,290,3,24100,30.05,NA,OVC  ft,METAR CYSB 012300Z 29003KT 15SM OVC035 02/M05 A3005 RMK SC8 SLP195,2025-11-01T23:22:47Z,2025-11-01T19:22:47Z
CYSB,2025-11-02T01:00:00Z,2025-11-01T21:00:00Z,VFR,1,-5,65,310,2,24100,30.08,NA,OVC  ft,METAR CYSB 020100Z 31002KT 15SM OVC033 01/M05 A3008 RMK SC8 SLP204,2025-11-02T02:08:16Z,2025-11-01T22:08:16Z
CYSB,2025-11-02T02:00:00Z,2025-11-01T22:00:00Z,VFR,1,-4,70,320,3,24100,30.09,NA,OVC  ft,METAR CYSB 020200Z 32003KT 15SM OVC031 01/M04 A3009 RMK SC8 SLP208,2025-11-02T02:25:12Z,2025-11-01T22:25:12Z
CYSB,2025-11-02T03:00:00Z,2025-11-01T23:00:00Z,MVFR,1,-4,70,330,5,24100,30.1,NA,OVC  ft,METAR CYSB 020300Z 33005KT 15SM OVC030 01/M04 A3010 RMK SC8 SLP211,2025-11-02T03:49:50Z,2025-11-01T23:49:50Z
CYSB,2025-11-02T04:00:00Z,2025-11-02T00:00:00Z,VFR,1,-5,65,310,2,24100,30.09,NA,OVC  ft,METAR CYSB 020400Z 31002KT 15SM OVC031 01/M05 A3009 RMK SC8 SLP209,2025-11-02T04:30:19Z,2025-11-02T00:30:19Z
CYSB,2025-11-02T05:00:00Z,2025-11-02T01:00:00Z,VFR,1,-5,65,0,0,24100,30.1,NA,OVC  ft,METAR CYSB 020500Z 00000KT 15SM OVC032 01/M05 A3010 RMK SC8 SLP210,2025-11-02T05:25:47Z,2025-11-02T01:25:47Z
CYSB,2025-11-02T06:00:00Z,2025-11-02T01:00:00Z,VFR,1,-5,65,0,2,24100,30.11,NA,OVC  ft,METAR CYSB 020600Z VRB02KT 15SM OVC031 01/M05 A3011 RMK SC8 SLP213,2025-11-02T06:36:52Z,2025-11-02T01:36:52Z
CYSB,2025-11-02T07:00:00Z,2025-11-02T02:00:00Z,MVFR,1,-5,65,0,0,24100,30.12,NA,OVC  ft,METAR CYSB 020700Z 00000KT 15SM OVC030 01/M05 A3012 RMK SC8 SLP218,2025-11-02T07:23:38Z,2025-11-02T02:23:38Z
CYSB,2025-11-02T08:00:00Z,2025-11-02T03:00:00Z,MVFR,1,-5,65,270,4,24100,30.13,NA,OVC  ft,METAR CYSB 020800Z 27004KT 220V280 15SM OVC029 01/M05 A3013 RMK SC8 SLP220,2025-11-02T08:29:58Z,2025-11-02T03:29:58Z
CYSB,2025-11-02T09:00:00Z,2025-11-02T04:00:00Z,MVFR,1,-5,65,270,5,24100,30.14,NA,BKN  ft,METAR CYSB 020900Z 27005KT 15SM BKN030 01/M05 A3014 RMK SC7 SLP224,2025-11-02T09:23:20Z,2025-11-02T04:23:20Z
CYSB,2025-11-02T10:00:00Z,2025-11-02T05:00:00Z,MVFR,1,-5,65,270,5,24100,30.16,NA,BKN  ft,METAR CYSB 021000Z 27005KT 15SM BKN029 01/M05 A3016 RMK SC7 SLP231,2025-11-02T10:24:58Z,2025-11-02T05:24:58Z
CYSB,2025-11-02T11:00:00Z,2025-11-02T06:00:00Z,VFR,0,-6,64,270,5,24100,30.17,NA,OVC  ft,METAR CYSB 021100Z 27005KT 15SM OVC031 00/M06 A3017 RMK SC8 SLP235,2025-11-02T11:19:30Z,2025-11-02T06:19:30Z
CYSB,2025-11-02T12:00:00Z,2025-11-02T07:00:00Z,VFR,0,-6,64,220,3,32200,30.16,NA,BKN  ft,METAR CYSB 021200Z 22003KT 20SM BKN031 M00/M06 A3016 RMK SC7 SLP232,2025-11-02T12:48:24Z,2025-11-02T07:48:24Z
CYSB,2025-11-02T13:00:00Z,2025-11-02T08:00:00Z,VFR,0,-5,69,210,3,32200,30.17,NA,SCT  ft; BKN  ft,METAR CYSB 021300Z 21003KT 20SM SCT031 BKN260 M00/M05 A3017 RMK SC3CI2 SLP236,2025-11-02T13:28:11Z,2025-11-02T08:28:11Z
CYTS,2025-11-01T04:24:00Z,2025-11-01T00:24:00Z,IFR,0,0,100,320,8,4000,29.78,NA,BKN  ft; OVC  ft,SPECI CYTS 010424Z 32008KT 2 1/2SM -SN BKN006 OVC015 00/00 A2978 RMK SC7SC1 SLP101,2025-11-01T04:28:32Z,2025-11-01T00:28:32Z
CYTS,2025-11-01T05:00:00Z,2025-11-01T01:00:00Z,VFR,0,0,100,300,8,11300,29.78,NA,SCT  ft; OVC  ft,METAR CYTS 010500Z 30008G15KT 7SM -SN SCT006 OVC037 00/00 A2978 RMK SC4SC4 SLP101,2025-11-01T05:25:05Z,2025-11-01T01:25:05Z
CYTS,2025-11-01T06:00:00Z,2025-11-01T02:00:00Z,IFR,0,0,100,310,10,9999,29.8,NA,BKN  ft; OVC  ft,METAR CYTS 010600Z 31010KT 10SM -SN BKN009 OVC036 00/M00 A2980 RMK SC6SC2 SLP108,2025-11-01T06:35:11Z,2025-11-01T02:35:11Z
CYTS,2025-11-01T07:00:00Z,2025-11-01T03:00:00Z,MVFR,1,-1,87,310,11,24100,29.82,NA,BKN  ft; OVC  ft,METAR CYTS 010700Z 31011KT 15SM -SN BKN010 OVC036 01/M01 A2982 RMK SC6SC2 SLP113,2025-11-01T07:22:59Z,2025-11-01T03:22:59Z
CYTS,2025-11-01T08:00:00Z,2025-11-01T04:00:00Z,IFR,0,0,100,310,11,9999,29.83,NA,OVC  ft,METAR CYTS 010800Z 31011KT 10SM -SN OVC009 00/M00 A2983 RMK SC8 SLP116,2025-11-01T08:30:51Z,2025-11-01T04:30:51Z
CYTS,2025-11-01T09:00:00Z,2025-11-01T05:00:00Z,IFR,0,-1,93,310,9,24100,29.84,NA,BKN  ft; OVC  ft,METAR CYTS 010900Z 31009G16KT 15SM -SN BKN009 OVC034 00/M01 A2984 RMK SC6SC2 SLP121,2025-11-01T09:24:37Z,2025-11-01T05:24:37Z
CYTS,2025-11-01T10:00:00Z,2025-11-01T06:00:00Z,MVFR,0,-1,93,300,10,24100,29.85,NA,BKN  ft; OVC  ft,METAR CYTS 011000Z 30010KT 15SM -SN BKN011 OVC035 00/M01 A2985 RMK SC6SC2 SLP126,2025-11-01T10:25:44Z,2025-11-01T06:25:44Z
CYTS,2025-11-01T11:00:00Z,2025-11-01T07:00:00Z,IFR,0,-1,93,300,8,24100,29.88,NA,BKN  ft; OVC  ft,METAR CYTS 011100Z 30008KT 15SM -SN BKN009 OVC035 M00/M01 A2988 RMK SC7SC1 SLP135,2025-11-01T11:19:33Z,2025-11-01T07:19:33Z
CYTS,2025-11-01T12:45:00Z,2025-11-01T08:45:00Z,IFR,0,-1,93,310,7,2400,29.93,NA,OVC  ft,SPECI CYTS 011245Z 31007KT 1 1/2SM -SN OVC008 M00/M01 A2993 RMK SC8 SLP152,2025-11-01T12:49:05Z,2025-11-01T08:49:05Z
CYTS,2025-11-01T13:00:00Z,2025-11-01T09:00:00Z,IFR,0,-1,93,300,6,4800,29.93,NA,OVC  ft,METAR CYTS 011300Z 30006KT 3SM -SN OVC009 M00/M01 A2993 RMK SC8 SLP154,2025-11-01T13:28:51Z,2025-11-01T09:28:51Z
CYTS,2025-11-01T14:00:00Z,2025-11-01T10:00:00Z,IFR,0,-1,93,310,6,24100,29.95,NA,BKN  ft; OVC  ft,METAR CYTS 011400Z 31006KT 15SM BKN009 OVC023 00/M01 A2995 RMK SC7SC1 SLP161,2025-11-01T14:22:15Z,2025-11-01T10:22:15Z
CYTS,2025-11-01T15:00:00Z,2025-11-01T11:00:00Z,MVFR,1,-2,81,310,7,24100,29.97,NA,OVC  ft,METAR CYTS 011500Z 31007KT 15SM OVC026 01/M02 A2997 RMK SC8 SLP166,2025-11-01T15:22:36Z,2025-11-01T11:22:36Z
CYTS,2025-11-01T16:21:00Z,2025-11-01T12:21:00Z,IFR,0,-1,93,310,7,4800,29.99,NA,BKN  ft; OVC  ft,SPECI CYTS 011621Z 31007KT 270V350 3SM -SN BKN006 OVC018 00/M01 A2999 RMK SC6SC2 SLP173,2025-11-01T16:28:36Z,2025-11-01T12:28:36Z
CYTS,2025-11-01T17:00:00Z,2025-11-01T13:00:00Z,MVFR,2,-3,70,300,8,9999,29.99,NA,BKN  ft,METAR CYTS 011700Z 30008KT 270V340 10SM -SN BKN023 02/M03 A2999 RMK SC7 SLP171,2025-11-01T17:20:00Z,2025-11-01T13:20:00Z
CYTS,2025-11-01T18:00:00Z,2025-11-01T14:00:00Z,MVFR,3,-3,65,320,9,24100,29.99,NA,BKN  ft,METAR CYTS 011800Z 32009KT 15SM -SN BKN026 03/M03 A2999 RMK SC7 SLP172,2025-11-01T18:32:53Z,2025-11-01T14:32:53Z
CYTS,2025-11-01T19:00:00Z,2025-11-01T15:00:00Z,VFR,1,-1,87,340,8,24100,30,NA,SCT  ft; BKN  ft,METAR CYTS 011900Z 34008KT 15SM -SN SCT013 BKN033 01/M01 A3000 RMK SC4SC3 SLP175,2025-11-01T19:18:49Z,2025-11-01T15:18:49Z
CYTS,2025-11-01T20:00:00Z,2025-11-01T16:00:00Z,VFR,3,-1,75,320,5,24100,30,NA,BKN  ft; BKN  ft,METAR CYTS 012000Z 32005KT 290V020 15SM -SN BKN034 BKN250 03/M01 A3000 RMK SC5CI2 SLP177,2025-11-01T20:25:25Z,2025-11-01T16:25:25Z
CYTS,2025-11-01T21:00:00Z,2025-11-01T17:00:00Z,VFR,2,-2,75,340,4,24100,30.01,NA,BKN  ft; BKN  ft,METAR CYTS 012100Z 34004KT 15SM BKN045 BKN250 02/M02 A3001 RMK SC6CI1 SLP180,2025-11-01T21:21:10Z,2025-11-01T17:21:10Z
CYTS,2025-11-01T22:00:00Z,2025-11-01T18:00:00Z,MVFR,1,-1,87,340,5,6400,30.03,NA,BKN  ft,METAR CYTS 012200Z 34005KT 4SM -SN BKN032 01/M01 A3003 RMK SC7 SLP187,2025-11-01T22:23:04Z,2025-11-01T18:23:04Z
CYTS,2025-11-01T23:00:00Z,2025-11-01T19:00:00Z,VFR,0,-1,93,260,3,24100,30.04,NA,BKN  ft,METAR CYTS 012300Z 26003KT 15SM BKN045 00/M01 A3004 RMK SC7 SLP191,2025-11-01T23:22:47Z,2025-11-01T19:22:47Z
CYTS,2025-11-02T01:00:00Z,2025-11-01T21:00:00Z,VFR,1,-1,87,260,3,24100,30.07,NA,OVC  ft,METAR CYTS 020100Z 26003KT 15SM OVC039 01/M01 A3007 RMK SC8 SLP200,2025-11-02T02:08:16Z,2025-11-01T22:08:16Z
CYTS,2025-11-02T02:00:00Z,2025-11-01T22:00:00Z,VFR,1,-1,87,270,2,24100,30.07,NA,OVC  ft,METAR CYTS 020200Z 27002KT 15SM OVC038 01/M01 A3007 RMK SC8 SLP201,2025-11-02T02:25:12Z,2025-11-01T22:25:12Z
CYTS,2025-11-02T03:00:00Z,2025-11-01T23:00:00Z,VFR,0,-1,93,220,2,24100,30.06,NA,OVC  ft,METAR CYTS 020300Z 22002KT 15SM OVC039 00/M01 A3006 RMK SC8 SLP196,2025-11-02T03:49:50Z,2025-11-01T23:49:50Z
CYTS,2025-11-02T04:00:00Z,2025-11-02T00:00:00Z,VFR,0,-1,93,220,2,24100,30.07,NA,OVC  ft,METAR CYTS 020400Z 22002KT 15SM -SN OVC034 00/M01 A3007 RMK SC8 SLP199,2025-11-02T04:30:19Z,2025-11-02T00:30:19Z
CYTS,2025-11-02T05:00:00Z,2025-11-02T01:00:00Z,VFR,0,-1,93,240,2,24100,30.08,NA,OVC  ft,METAR CYTS 020500Z 24002KT 15SM OVC036 00/M01 A3008 RMK SC8 SLP202,2025-11-02T05:25:46Z,2025-11-02T01:25:46Z
CYTS,2025-11-02T06:00:00Z,2025-11-02T01:00:00Z,VFR,0,-2,87,240,3,24100,30.09,NA,OVC  ft,METAR CYTS 020600Z 24003KT 15SM OVC033 00/M02 A3009 RMK SC8 SLP205,2025-11-02T06:36:52Z,2025-11-02T01:36:52Z
CYTS,2025-11-02T07:00:00Z,2025-11-02T02:00:00Z,VFR,0,-2,87,250,3,24100,30.09,NA,OVC  ft,METAR CYTS 020700Z 25003KT 210V270 15SM OVC032 00/M02 A3009 RMK SC8 SLP209,2025-11-02T07:23:38Z,2025-11-02T02:23:38Z
CYTS,2025-11-02T08:00:00Z,2025-11-02T03:00:00Z,VFR,0,-2,87,220,3,24100,30.09,NA,OVC  ft,METAR CYTS 020800Z 22003KT 15SM OVC031 00/M02 A3009 RMK SC8 SLP208,2025-11-02T08:29:58Z,2025-11-02T03:29:58Z
CYTS,2025-11-02T09:00:00Z,2025-11-02T04:00:00Z,VFR,0,-3,80,250,4,24100,30.09,NA,OVC  ft,METAR CYTS 020900Z 25004KT 210V300 15SM OVC032 00/M03 A3009 RMK SC8 SLP208,2025-11-02T09:23:20Z,2025-11-02T04:23:20Z
CYTS,2025-11-02T10:00:00Z,2025-11-02T05:00:00Z,VFR,0,-3,80,190,3,24100,30.1,NA,OVC  ft,METAR CYTS 021000Z 19003KT 180V250 15SM OVC032 00/M03 A3010 RMK SC8 SLP211,2025-11-02T10:24:58Z,2025-11-02T05:24:58Z
CYTS,2025-11-02T11:00:00Z,2025-11-02T06:00:00Z,MVFR,0,-2,87,190,4,24100,30.09,NA,OVC  ft,METAR CYTS 021100Z 19004KT 15SM -SN OVC027 M00/M02 A3009 RMK SC8 SLP209,2025-11-02T11:19:30Z,2025-11-02T06:19:30Z
CYTS,2025-11-02T12:00:00Z,2025-11-02T07:00:00Z,VFR,0,-2,87,200,4,24100,30.09,NA,OVC  ft,METAR CYTS 021200Z 20004KT 15SM OVC033 00/M02 A3009 RMK SC8 SLP206,2025-11-02T12:48:24Z,2025-11-02T07:48:24Z
CYTS,2025-11-02T13:00:00Z,2025-11-02T08:00:00Z,VFR,1,-3,75,190,8,24100,30.07,NA,BKN  ft,METAR CYTS 021300Z 19008KT 15SM BKN034 01/M03 A3007 RMK SC7 SLP199,2025-11-02T13:28:11Z,2025-11-02T08:28:11Z
CYUL,2025-11-01T04:00:00Z,2025-11-01T00:00:00Z,VFR,7,5,87,280,17,19300,29.27,NA,FEW  ft; OVC  ft,METAR CYUL 010400Z 28017G26KT 12SM -RA FEW015 OVC048 07/05 A2927 RMK SF1NS8 SF TR SLP915,2025-11-01T04:28:34Z,2025-11-01T00:28:34Z
CYUL,2025-11-01T05:00:00Z,2025-11-01T01:00:00Z,MVFR,7,5,87,280,16,24100,29.32,NA,OVC  ft,METAR CYUL 010500Z 28016G23KT 15SM OVC030 07/05 A2932 RMK SC8 PRESRR SLP932,2025-11-01T05:25:07Z,2025-11-01T01:25:07Z
CYUL,2025-11-01T06:22:00Z,2025-11-01T02:22:00Z,MVFR,7,4,81,280,14,24100,29.39,NA,BKN  ft; OVC  ft,SPECI CYUL 010622Z 28014KT 15SM BKN028 OVC090 07/04 A2939 RMK SC6AS2 SLP954,2025-11-01T06:35:13Z,2025-11-01T02:35:13Z
CYUL,2025-11-01T07:00:00Z,2025-11-01T03:00:00Z,MVFR,7,4,81,280,18,24100,29.42,NA,BKN  ft; OVC  ft,METAR CYUL 010700Z 28018G24KT 15SM BKN028 OVC100 07/04 A2942 RMK SC7AS1 SLP964,2025-11-01T07:23:02Z,2025-11-01T03:23:02Z
CYUL,2025-11-01T08:00:00Z,2025-11-01T04:00:00Z,VFR,7,3,76,280,18,24100,29.45,NA,FEW  ft; OVC  ft,METAR CYUL 010800Z 28018G24KT 15SM FEW025 OVC033 07/03 A2945 RMK SC1SC7 SLP977,2025-11-01T08:30:53Z,2025-11-01T04:30:53Z
CYUL,2025-11-01T09:00:00Z,2025-11-01T05:00:00Z,MVFR,7,2,71,280,17,24100,29.5,NA,OVC  ft,METAR CYUL 010900Z 28017G24KT 15SM OVC030 07/02 A2950 RMK SC8 SLP993,2025-11-01T09:24:38Z,2025-11-01T05:24:38Z
CYUL,2025-11-01T10:00:00Z,2025-11-01T06:00:00Z,VFR,6,2,76,280,14,24100,29.55,NA,BKN  ft,METAR CYUL 011000Z 28014G21KT 15SM BKN032 06/02 A2955 RMK SC7 SLP010,2025-11-01T10:25:46Z,2025-11-01T06:25:46Z
CYUL,2025-11-01T11:00:00Z,2025-11-01T07:00:00Z,VFR,6,2,76,290,16,24100,29.58,NA,BKN  ft,METAR CYUL 011100Z 29016G23KT 15SM BKN032 06/02 A2958 RMK SC7 SLP021,2025-11-01T11:19:35Z,2025-11-01T07:19:35Z
CYUL,2025-11-01T12:00:00Z,2025-11-01T08:00:00Z,MVFR,6,2,76,270,13,24100,29.63,NA,BKN  ft,METAR CYUL 011200Z 27013G19KT 15SM BKN027 06/02 A2963 RMK SC7 SLP037,2025-11-01T12:49:07Z,2025-11-01T08:49:07Z
CYUL,2025-11-01T13:00:00Z,2025-11-01T09:00:00Z,MVFR,6,1,71,280,15,24100,29.68,NA,BKN  ft,METAR CYUL 011300Z 28015G24KT 15SM BKN030 06/01 A2968 RMK SC7 SLP053,2025-11-01T13:28:53Z,2025-11-01T09:28:53Z
CYUL,2025-11-01T14:00:00Z,2025-11-01T10:00:00Z,MVFR,6,1,71,290,14,48300,29.71,NA,BKN  ft; BKN  ft; BKN  ft,METAR CYUL 011400Z 29014G21KT 30SM BKN030 BKN070 BKN250 06/01 A2971 RMK SC5AC1CI1 CI TR SLP065,2025-11-01T14:22:17Z,2025-11-01T10:22:17Z
CYUL,2025-11-01T15:00:00Z,2025-11-01T11:00:00Z,MVFR,7,1,66,270,17,48300,29.74,NA,BKN  ft; BKN  ft; BKN  ft,METAR CYUL 011500Z 27017KT 30SM BKN030 BKN070 BKN250 07/01 A2974 RMK SC6AC1CI1 AC TR CI TR SLP075,2025-11-01T15:22:38Z,2025-11-01T11:22:38Z
CYUL,2025-11-01T16:00:00Z,2025-11-01T12:00:00Z,MVFR,6,1,71,290,12,24100,29.77,NA,BKN  ft,METAR CYUL 011600Z 29012G21KT 15SM -SHRA BKN026 06/01 A2977 RMK SC8 CVCTV CLD EMBD SLP085,2025-11-01T16:28:38Z,2025-11-01T12:28:38Z
CYUL,2025-11-01T17:00:00Z,2025-11-01T13:00:00Z,VFR,7,-1,57,290,12,24100,29.79,NA,OVC  ft,METAR CYUL 011700Z 29012G19KT 15SM OVC040 07/M01 A2979 RMK SC8 SLP090,2025-11-01T17:20:03Z,2025-11-01T13:20:03Z
CYUL,2025-11-01T18:00:00Z,2025-11-01T14:00:00Z,VFR,6,-1,61,290,12,24100,29.82,NA,OVC  ft,METAR CYUL 011800Z 29012G20KT 15SM OVC040 06/M01 A2982 RMK SC8 SLP100,2025-11-01T18:32:55Z,2025-11-01T14:32:55Z
CYUL,2025-11-01T19:00:00Z,2025-11-01T15:00:00Z,VFR,6,-2,57,290,14,24100,29.85,NA,OVC  ft,METAR CYUL 011900Z 29014KT 15SM OVC037 06/M02 A2985 RMK SC8 SLP110,2025-11-01T19:18:51Z,2025-11-01T15:18:51Z
CYUL,2025-11-01T20:00:00Z,2025-11-01T16:00:00Z,VFR,6,-2,57,290,13,24100,29.87,NA,OVC  ft,METAR CYUL 012000Z 29013G19KT 15SM OVC045 06/M02 A2987 RMK SC8 SLP119,2025-11-01T20:25:27Z,2025-11-01T16:25:27Z
CYUL,2025-11-01T21:00:00Z,2025-11-01T17:00:00Z,VFR,6,-1,61,280,11,24100,29.91,NA,OVC  ft,METAR CYUL 012100Z 28011G17KT 15SM OVC045 06/M01 A2991 RMK SC8 SLP130,2025-11-01T21:21:11Z,2025-11-01T17:21:11Z
CYUL,2025-11-01T22:00:00Z,2025-11-01T18:00:00Z,VFR,6,-1,61,280,13,24100,29.94,NA,OVC  ft,METAR CYUL 012200Z 28013G18KT 15SM OVC045 06/M01 A2994 RMK SC8 SLP141,2025-11-01T22:23:05Z,2025-11-01T18:23:05Z
CYUL,2025-11-01T23:00:00Z,2025-11-01T19:00:00Z,VFR,5,-2,61,320,8,24100,29.97,NA,BKN  ft,METAR CYUL 012300Z 32008KT 15SM BKN045 05/M02 A2997 RMK SC7 SLP153,2025-11-01T23:22:49Z,2025-11-01T19:22:49Z
CYUL,2025-11-02T01:00:00Z,2025-11-01T21:00:00Z,VFR,2,-2,75,260,6,24100,30.02,NA,FEW  ft; FEW  ft,METAR CYUL 020100Z 26006KT 15SM FEW045 FEW250 02/M02 A3002 RMK SC1CI1 SC TR CI TR SLP168,2025-11-02T02:08:17Z,2025-11-01T22:08:17Z
CYUL,2025-11-02T02:00:00Z,2025-11-01T22:00:00Z,VFR,3,-1,75,270,8,24100,30.03,NA,FEW  ft,METAR CYUL 020200Z 27008KT 15SM FEW045 03/M01 A3003 RMK SC1 SLP174,2025-11-02T02:25:13Z,2025-11-01T22:25:13Z
CYUL,2025-11-02T03:00:00Z,2025-11-01T23:00:00Z,VFR,3,0,81,270,7,24100,30.05,NA,BKN  ft,METAR CYUL 020300Z 27007KT 15SM BKN045 03/M00 A3005 RMK SC5 SLP179,2025-11-02T03:49:52Z,2025-11-01T23:49:52Z
CYUL,2025-11-02T04:00:00Z,2025-11-02T00:00:00Z,VFR,4,0,75,270,7,24100,30.06,NA,BKN  ft,METAR CYUL 020400Z 27007KT 15SM BKN048 04/M00 A3006 RMK SC7 SLP182,2025-11-02T04:30:21Z,2025-11-02T00:30:21Z
CYUL,2025-11-02T05:00:00Z,2025-11-02T01:00:00Z,VFR,5,0,70,310,5,24100,30.08,NA,OVC  ft,METAR CYUL 020500Z 31005KT 15SM OVC046 05/00 A3008 RMK SC8 SLP188,2025-11-02T05:25:48Z,2025-11-02T01:25:48Z
CYUL,2025-11-02T06:00:00Z,2025-11-02T01:00:00Z,VFR,5,0,70,290,5,24100,30.09,NA,OVC  ft,METAR CYUL 020600Z 29005KT 15SM OVC045 05/M00 A3009 RMK SC8 SLP193,2025-11-02T06:36:54Z,2025-11-02T01:36:54Z
CYUL,2025-11-02T07:00:00Z,2025-11-02T02:00:00Z,VFR,4,-1,70,280,5,24100,30.1,NA,OVC  ft,METAR CYUL 020700Z 28005KT 15SM OVC042 04/M01 A3010 RMK SC8 SLP197,2025-11-02T07:23:39Z,2025-11-02T02:23:39Z
CYUL,2025-11-02T08:00:00Z,2025-11-02T03:00:00Z,VFR,4,0,75,280,5,24100,30.12,NA,OVC  ft,METAR CYUL 020800Z 28005KT 15SM OVC038 04/M00 A3012 RMK SC8 SLP204,2025-11-02T08:30:00Z,2025-11-02T03:30:00Z
CYUL,2025-11-02T09:00:00Z,2025-11-02T04:00:00Z,VFR,5,-1,66,320,6,24100,30.15,NA,OVC  ft,METAR CYUL 020900Z 32006KT 15SM OVC038 05/M01 A3015 RMK SC8 SLP212,2025-11-02T09:23:22Z,2025-11-02T04:23:22Z
CYUL,2025-11-02T10:00:00Z,2025-11-02T05:00:00Z,VFR,5,-1,66,330,3,24100,30.18,NA,OVC  ft,METAR CYUL 021000Z 33003KT 15SM OVC040 05/M01 A3018 RMK SC8 SLP222,2025-11-02T10:24:59Z,2025-11-02T05:24:59Z
CYUL,2025-11-02T11:00:00Z,2025-11-02T06:00:00Z,VFR,4,-1,70,330,3,24100,30.2,NA,OVC  ft,METAR CYUL 021100Z 33003KT 15SM OVC042 04/M01 A3020 RMK SC8 SLP229,2025-11-02T11:19:32Z,2025-11-02T06:19:32Z
CYUL,2025-11-02T12:00:00Z,2025-11-02T07:00:00Z,VFR,4,-1,70,270,2,48300,30.21,NA,OVC  ft,METAR CYUL 021200Z 27002KT 30SM OVC042 04/M01 A3021 RMK SC8 SLP235,2025-11-02T12:48:26Z,2025-11-02T07:48:26Z
CYUL,2025-11-02T13:00:00Z,2025-11-02T08:00:00Z,VFR,5,-2,61,270,7,48300,30.23,NA,OVC  ft,METAR CYUL 021300Z 27007KT 30SM OVC042 05/M02 A3023 RMK SC8 SLP242,2025-11-02T13:28:13Z,2025-11-02T08:28:13Z
CYUY,2025-11-01T04:00:00Z,2025-11-01T00:00:00Z,VFR,2,-2,75,330,10,24100,29.62,NA,SCT  ft; OVC  ft,METAR CYUY 010400Z 33010G17KT 15SM SCT020 OVC038 02/M02 A2962 RMK SC3SC5 SLP046,2025-11-01T04:28:34Z,2025-11-01T00:28:34Z
CYUY,2025-11-01T05:00:00Z,2025-11-01T01:00:00Z,MVFR,2,-1,81,330,10,24100,29.64,NA,BKN  ft; OVC  ft,METAR CYUY 010500Z 33010G17KT 15SM BKN018 OVC035 02/M01 A2964 RMK SC6SC2 SLP052,2025-11-01T05:25:07Z,2025-11-01T01:25:07Z
CYUY,2025-11-01T06:00:00Z,2025-11-01T02:00:00Z,VFR,2,-1,81,320,12,24100,29.66,NA,SCT  ft; OVC  ft,METAR CYUY 010600Z 32012G21KT 15SM SCT017 OVC034 02/M01 A2966 RMK SC4SC4 SLP057,2025-11-01T06:35:14Z,2025-11-01T02:35:14Z
CYUY,2025-11-01T07:00:00Z,2025-11-01T03:00:00Z,MVFR,1,-1,87,320,10,24100,29.68,NA,OVC  ft,METAR CYUY 010700Z 32010G18KT 15SM -SN OVC014 01/M01 A2968 RMK SC8 SLP065,2025-11-01T07:23:03Z,2025-11-01T03:23:03Z
CYUY,2025-11-01T08:00:00Z,2025-11-01T04:00:00Z,MVFR,2,-1,81,330,10,9999,29.69,NA,OVC  ft,METAR CYUY 010800Z 33010G16KT 300V360 10SM -SN OVC014 02/M01 A2969 RMK SC8 SLP069,2025-11-01T08:30:53Z,2025-11-01T04:30:53Z
CYUY,2025-11-01T09:00:00Z,2025-11-01T05:00:00Z,MVFR,1,-1,87,320,11,19300,29.72,NA,OVC  ft,METAR CYUY 010900Z 32011G20KT 12SM -SN OVC014 01/M01 A2972 RMK SC8 SLP078,2025-11-01T09:24:39Z,2025-11-01T05:24:39Z
CYUY,2025-11-01T10:00:00Z,2025-11-01T06:00:00Z,VFR,1,-1,87,330,10,24100,29.74,NA,OVC  ft,METAR CYUY 011000Z 33010KT 15SM -SN OVC038 01/M01 A2974 RMK SC8 SLP088,2025-11-01T10:25:46Z,2025-11-01T06:25:46Z
CYUY,2025-11-01T11:12:00Z,2025-11-01T07:12:00Z,IFR,1,-1,87,330,8,4800,29.78,NA,OVC  ft,SPECI CYUY 011112Z 33008G15KT 3SM -SN OVC008 01/M01 A2978 RMK SC8 SLP098,2025-11-01T11:19:35Z,2025-11-01T07:19:35Z
CYUY,2025-11-01T12:22:00Z,2025-11-01T08:22:00Z,MVFR,1,-1,87,330,10,9999,29.81,NA,BKN  ft; BKN  ft,SPECI CYUY 011222Z 33010G17KT 10SM -SN BKN018 BKN030 01/M01 A2981 RMK SC5SC1 SLP111,2025-11-01T12:49:07Z,2025-11-01T08:49:07Z
CYUY,2025-11-01T13:00:00Z,2025-11-01T09:00:00Z,MVFR,1,-1,87,330,10,24100,29.83,NA,BKN  ft; BKN  ft,METAR CYUY 011300Z 33010G15KT 15SM BKN013 BKN030 01/M01 A2983 RMK SC6SC1 SC TR CIG RAG SLP117,2025-11-01T13:28:53Z,2025-11-01T09:28:53Z
CYUY,2025-11-01T14:00:00Z,2025-11-01T10:00:00Z,MVFR,2,-1,81,330,11,24100,29.85,NA,BKN  ft,METAR CYUY 011400Z 33011KT 15SM BKN019 02/M01 A2985 RMK SC7 SLP125,2025-11-01T14:22:17Z,2025-11-01T10:22:17Z
CYUY,2025-11-01T15:00:00Z,2025-11-01T11:00:00Z,MVFR,2,-2,75,340,11,24100,29.88,NA,BKN  ft,METAR CYUY 011500Z 34011G20KT 15SM -SHSN BKN018 02/M02 A2988 RMK CU7 VIS SE 5 SLP135,2025-11-01T15:22:38Z,2025-11-01T11:22:38Z
CYUY,2025-11-01T16:00:00Z,2025-11-01T12:00:00Z,MVFR,3,-3,65,340,12,24100,29.9,NA,BKN  ft,METAR CYUY 011600Z 34012G23KT 15SM VCSH BKN022 03/M03 A2990 RMK CU7 SLP142,2025-11-01T16:28:38Z,2025-11-01T12:28:38Z
CYUY,2025-11-01T17:10:00Z,2025-11-01T13:10:00Z,MVFR,3,-3,65,330,11,19300,29.92,NA,BKN  ft,SPECI CYUY 011710Z 33011G21KT 12SM -SHSN BKN024 03/M03 A2992 RMK CU7 SLP146,2025-11-01T17:20:04Z,2025-11-01T13:20:04Z
CYUY,2025-11-01T18:00:00Z,2025-11-01T14:00:00Z,MVFR,3,-1,75,330,11,12900,29.93,NA,BKN  ft,METAR CYUY 011800Z 33011KT 280V360 8SM -SHSN BKN027 03/M01 A2993 RMK CU6 VIS HYR SW SLP151,2025-11-01T18:32:55Z,2025-11-01T14:32:55Z
CYUY,2025-11-01T19:01:00Z,2025-11-01T15:01:00Z,MVFR,4,-2,65,320,8,24100,29.94,NA,BKN  ft,SPECI CYUY 011901Z 32008KT 280V360 15SM -SHSN BKN018 04/M02 A2994 RMK CU6 SLP154,2025-11-01T19:18:52Z,2025-11-01T15:18:52Z
CYUY,2025-11-01T20:00:00Z,2025-11-01T16:00:00Z,MVFR,5,-2,61,300,8,24100,29.95,NA,BKN  ft; BKN  ft,METAR CYUY 012000Z 30008KT 260V330 15SM BKN029 BKN240 05/M02 A2995 RMK CU5CI1 CI TR SLP157,2025-11-01T20:25:27Z,2025-11-01T16:25:27Z
CYUY,2025-11-01T21:00:00Z,2025-11-01T17:00:00Z,VFR,3,-3,65,320,7,24100,29.96,NA,BKN  ft; BKN  ft,METAR CYUY 012100Z 32007KT 15SM BKN039 BKN240 03/M03 A2996 RMK SC6CI1 CI TR SLP163,2025-11-01T21:21:11Z,2025-11-01T17:21:11Z
CYUY,2025-11-01T22:00:00Z,2025-11-01T18:00:00Z,VFR,3,-2,70,310,6,24100,29.99,NA,BKN  ft; BKN  ft,METAR CYUY 012200Z 31006KT 290V360 15SM BKN034 BKN240 03/M02 A2999 RMK SC7CI1 CI TR SLP171,2025-11-01T22:23:06Z,2025-11-01T18:23:06Z
CYUY,2025-11-01T23:00:00Z,2025-11-01T19:00:00Z,VFR,3,-3,65,310,5,24100,30.01,NA,OVC  ft,METAR CYUY 012300Z 31005KT 15SM OVC037 03/M03 A3001 RMK SC8 SLP180,2025-11-01T23:22:49Z,2025-11-01T19:22:49Z
CYUY,2025-11-02T01:37:00Z,2025-11-01T21:37:00Z,VFR,2,-3,70,290,3,24100,30.05,NA,OVC  ft,SPECI CYUY 020137Z 29003KT 250V310 15SM -SHSN OVC032 02/M03 A3005 RMK SC8 CVCTV CLD EMBD SLP194,2025-11-02T02:08:17Z,2025-11-01T22:08:17Z
CYUY,2025-11-02T02:00:00Z,2025-11-01T22:00:00Z,VFR,1,-3,75,280,3,24100,30.06,NA,OVC  ft,METAR CYUY 020200Z 28003KT 15SM -SHSN OVC032 01/M03 A3006 RMK SC8 CVCTV CLD EMBD SLP195,2025-11-02T02:25:14Z,2025-11-01T22:25:14Z
CYUY,2025-11-02T03:00:00Z,2025-11-01T23:00:00Z,VFR,1,-3,75,270,4,24100,30.06,NA,OVC  ft,METAR CYUY 020300Z 27004KT 15SM -SHSN OVC031 01/M03 A3006 RMK SC8 CVCTV CLD EMBD SLP195,2025-11-02T03:49:52Z,2025-11-01T23:49:52Z
CYUY,2025-11-02T04:00:00Z,2025-11-02T00:00:00Z,VFR,1,-3,75,240,4,24100,30.05,NA,OVC  ft,METAR CYUY 020400Z 24004KT 15SM -SHSN OVC033 01/M03 A3005 RMK SC8 CVCTV CLD EMBD SLP194,2025-11-02T04:30:22Z,2025-11-02T00:30:22Z
CYUY,2025-11-02T05:00:00Z,2025-11-02T01:00:00Z,VFR,1,-3,75,230,4,24100,30.06,NA,OVC  ft,METAR CYUY 020500Z 23004KT 15SM OVC032 01/M03 A3006 RMK SC8 SLP195,2025-11-02T05:25:48Z,2025-11-02T01:25:48Z
CYUY,2025-11-02T06:00:00Z,2025-11-02T01:00:00Z,VFR,0,-2,87,250,3,24100,30.07,NA,OVC  ft,METAR CYUY 020600Z 25003KT 15SM OVC035 00/M02 A3007 RMK SC8 SLP200,2025-11-02T06:36:54Z,2025-11-02T01:36:54Z
CYUY,2025-11-02T07:00:00Z,2025-11-02T02:00:00Z,VFR,1,-2,81,260,4,24100,30.08,NA,OVC  ft,METAR CYUY 020700Z 26004KT 15SM OVC034 01/M02 A3008 RMK SC8 SLP202,2025-11-02T07:23:40Z,2025-11-02T02:23:40Z
CYUY,2025-11-02T08:00:00Z,2025-11-02T03:00:00Z,VFR,1,-2,81,270,3,24100,30.09,NA,OVC  ft,METAR CYUY 020800Z 27003KT 15SM OVC040 01/M02 A3009 RMK SC8 SLP204,2025-11-02T08:30:00Z,2025-11-02T03:30:00Z
CYUY,2025-11-02T09:20:00Z,2025-11-02T04:20:00Z,VFR,0,-2,87,270,3,24100,30.11,NA,OVC  ft,SPECI CYUY 020920Z 27003KT 15SM -SN OVC032 00/M02 A3011 RMK SC8 SLP212,2025-11-02T09:23:22Z,2025-11-02T04:23:22Z
CYUY,2025-11-02T10:00:00Z,2025-11-02T05:00:00Z,VFR,0,-2,87,260,5,9999,30.11,NA,OVC  ft,METAR CYUY 021000Z 26005KT 10SM -SN OVC038 00/M02 A3011 RMK SC8 SLP215,2025-11-02T10:25:00Z,2025-11-02T05:25:00Z
CYUY,2025-11-02T11:00:00Z,2025-11-02T06:00:00Z,VFR,0,-2,87,210,3,24100,30.13,NA,OVC  ft,METAR CYUY 021100Z 21003KT 15SM OVC035 00/M02 A3013 RMK SC8 SLP219,2025-11-02T11:19:33Z,2025-11-02T06:19:33Z
CYUY,2025-11-02T12:00:00Z,2025-11-02T07:00:00Z,VFR,0,-2,87,210,5,24100,30.12,NA,FEW  ft; OVC  ft,METAR CYUY 021200Z 21005KT 15SM FEW010 OVC034 00/M02 A3012 RMK SF1SC8 SF TR SLP216,2025-11-02T12:48:26Z,2025-11-02T07:48:26Z
CYUY,2025-11-02T13:00:00Z,2025-11-02T08:00:00Z,MVFR,1,-3,75,230,6,24100,30.13,NA,OVC  ft,METAR CYUY 021300Z 23006KT 15SM OVC030 01/M03 A3013 RMK SC8 SLP219,2025-11-02T13:28:13Z,2025-11-02T08:28:13Z
CYVO,2025-11-01T04:00:00Z,2025-11-01T00:00:00Z,VFR,3,-2,70,320,14,14500,29.54,NA,OVC  ft,METAR CYVO 010400Z AUTO 32014G25KT 9SM OVC042 03/M02 A2954 RMK SLP020,2025-11-01T04:28:34Z,2025-11-01T00:28:34Z
CYVO,2025-11-01T05:00:00Z,2025-11-01T01:00:00Z,VFR,3,-2,70,320,14,14500,29.56,NA,FEW  ft; OVC  ft,METAR CYVO 010500Z AUTO 32014G22KT 290V360 9SM FEW030 OVC042 03/M02 A2956 RMK SLP026,2025-11-01T05:25:07Z,2025-11-01T01:25:07Z
CYVO,2025-11-01T06:00:00Z,2025-11-01T02:00:00Z,VFR,2,-2,75,320,12,14500,29.58,NA,OVC  ft,METAR CYVO 010600Z AUTO 32012G23KT 290V350 9SM OVC042 02/M02 A2958 RMK SLP034,2025-11-01T06:35:13Z,2025-11-01T02:35:13Z
CYVO,2025-11-01T07:06:00Z,2025-11-01T03:06:00Z,VFR,2,-2,75,320,14,14500,29.61,NA,SCT  ft; OVC  ft,SPECI CYVO 010706Z AUTO 32014G22KT 9SM SCT022 OVC040 02/M02 A2961 RMK SLP045,2025-11-01T07:23:03Z,2025-11-01T03:23:03Z
CYVO,2025-11-01T08:00:00Z,2025-11-01T04:00:00Z,VFR,2,-2,75,310,10,14500,29.63,NA,SCT  ft; SCT  ft; OVC  ft,METAR CYVO 010800Z AUTO 31010G17KT 9SM SCT022 SCT027 OVC037 02/M02 A2963 RMK SLP050,2025-11-01T08:30:53Z,2025-11-01T04:30:53Z
CYVO,2025-11-01T09:00:00Z,2025-11-01T05:00:00Z,MVFR,2,-2,75,310,11,14500,29.65,NA,FEW  ft; BKN  ft; OVC  ft,METAR CYVO 010900Z AUTO 31011G19KT 9SM FEW024 BKN030 OVC036 02/M02 A2965 RMK SLP058,2025-11-01T09:24:39Z,2025-11-01T05:24:39Z
CYVO,2025-11-01T10:00:00Z,2025-11-01T06:00:00Z,VFR,2,-2,75,320,9,24100,29.68,NA,OVC  ft,METAR CYVO 011000Z 32009G18KT 15SM OVC031 02/M02 A2968 RMK SC8 SLP069,2025-11-01T10:25:46Z,2025-11-01T06:25:46Z
CYVO,2025-11-01T11:10:00Z,2025-11-01T07:10:00Z,MVFR,1,-2,81,320,13,24100,29.71,NA,FEW  ft; BKN  ft,SPECI CYVO 011110Z 32013G22KT 15SM -SN FEW019 BKN030 01/M02 A2971 RMK SC2SC5 SLP079,2025-11-01T11:19:35Z,2025-11-01T07:19:35Z
CYVO,2025-11-01T12:38:00Z,2025-11-01T08:38:00Z,VFR,1,-2,81,330,11,12900,29.77,NA,SCT  ft; BKN  ft,SPECI CYVO 011238Z 33011G21KT 270V350 8SM -SHRA SCT023 BKN031 01/M02 A2977 RMK SC3SC4 CVCTV CLD EMBD SLP099,2025-11-01T12:49:07Z,2025-11-01T08:49:07Z
CYVO,2025-11-01T13:00:00Z,2025-11-01T09:00:00Z,MVFR,1,-2,81,330,7,24100,29.78,NA,BKN  ft; BKN  ft,METAR CYVO 011300Z 33007G16KT 15SM BKN021 BKN032 01/M02 A2978 RMK SC5SC2 SLP102,2025-11-01T13:28:53Z,2025-11-01T09:28:53Z
CYVO,2025-11-01T14:00:00Z,2025-11-01T10:00:00Z,MVFR,1,-1,87,320,10,4800,29.8,NA,BKN  ft; BKN  ft,METAR CYVO 011400Z 32010G18KT 280V340 3SM -SHSN BKN013 BKN019 01/M01 A2980 RMK SC5SC2 CVCTV CLD EMBD SLP112,2025-11-01T14:22:17Z,2025-11-01T10:22:17Z
CYVO,2025-11-01T15:00:00Z,2025-11-01T11:00:00Z,MVFR,1,-1,87,320,11,4800,29.82,NA,OVC  ft,METAR CYVO 011500Z 32011G18KT 3SM -SHSN OVC014 01/M01 A2982 RMK SC8 VIS VRB 2-4 SLP118,2025-11-01T15:22:38Z,2025-11-01T11:22:38Z
CYVO,2025-11-01T16:00:00Z,2025-11-01T12:00:00Z,MVFR,2,0,87,320,10,4800,29.85,NA,BKN  ft,METAR CYVO 011600Z 32010G19KT 3SM -SHSN BKN018 02/00 A2985 RMK SC6 VIS VRB 2-4 CVCTV CLD EMBD SLP126,2025-11-01T16:28:38Z,2025-11-01T12:28:38Z
CYVO,2025-11-01T17:00:00Z,2025-11-01T13:00:00Z,MVFR,2,0,87,310,13,12900,29.86,NA,BKN  ft,METAR CYVO 011700Z 31013G20KT 8SM -SHSN BKN023 02/M00 A2986 RMK SC5 CVCTV CLD EMBD SLP130,2025-11-01T17:20:04Z,2025-11-01T13:20:04Z
CYVO,2025-11-01T18:00:00Z,2025-11-01T14:00:00Z,MVFR,3,-1,75,320,7,19300,29.88,NA,SCT  ft; BKN  ft,METAR CYVO 011800Z 32007G22KT 12SM -SHSN SCT015 BKN021 03/M01 A2988 RMK CF3CU4 SLP136,2025-11-01T18:32:55Z,2025-11-01T14:32:55Z
CYVO,2025-11-01T19:00:00Z,2025-11-01T15:00:00Z,MVFR,3,-1,75,320,8,20900,29.89,NA,FEW  ft; BKN  ft; BKN  ft,METAR CYVO 011900Z 32008G15KT 13SM -SHSN FEW016 BKN022 BKN035 03/M01 A2989 RMK CF1CU5SC1 SLP142,2025-11-01T19:18:52Z,2025-11-01T15:18:52Z
CYVO,2025-11-01T20:00:00Z,2025-11-01T16:00:00Z,MVFR,4,-2,65,330,8,20900,29.91,NA,FEW  ft; BKN  ft; BKN  ft,METAR CYVO 012000Z 33008G15KT 270V350 13SM -SHSN FEW017 BKN022 BKN037 04/M02 A2991 RMK CF1CU4SC1 SLP147,2025-11-01T20:25:27Z,2025-11-01T16:25:27Z
CYVO,2025-11-01T21:00:00Z,2025-11-01T17:00:00Z,VFR,3,-1,75,300,8,19300,29.93,NA,FEW  ft; SCT  ft; BKN  ft,METAR CYVO 012100Z 30008KT 260V330 12SM VCSH FEW020 SCT037 BKN240 03/M01 A2993 RMK CU2SC2CI1 SLP153,2025-11-01T21:21:11Z,2025-11-01T17:21:11Z
CYVO,2025-11-01T22:00:00Z,2025-11-01T18:00:00Z,VFR,2,-2,75,290,4,24100,29.96,NA,BKN  ft,METAR CYVO 012200Z 29004KT 270V340 15SM BKN031 02/M02 A2996 RMK SC6 SLP164,2025-11-01T22:23:06Z,2025-11-01T18:23:06Z
CYVO,2025-11-01T23:00:00Z,2025-11-01T19:00:00Z,VFR,2,-2,75,0,2,24100,29.98,NA,OVC  ft,METAR CYVO 012300Z VRB02KT 15SM OVC036 02/M02 A2998 RMK SC8 SLP174,2025-11-01T23:22:49Z,2025-11-01T19:22:49Z
CYVO,2025-11-02T01:00:00Z,2025-11-01T21:00:00Z,MVFR,1,-1,87,290,3,24100,30.02,NA,FEW  ft; BKN  ft; OVC  ft,METAR CYVO 020100Z 29003KT 270V340 15SM -SHSN FEW020 BKN029 OVC036 01/M01 A3002 RMK CF2CU4SC2 SLP186,2025-11-02T02:08:17Z,2025-11-01T22:08:17Z
CYVO,2025-11-02T02:00:00Z,2025-11-01T22:00:00Z,VFR,1,-2,81,290,4,24100,30.04,NA,OVC  ft,METAR CYVO 020200Z 29004KT 15SM OVC036 01/M02 A3004 RMK SC8 CVCTV CLD EMBD LAST STFD OBS/NXT 021100Z SLP192,2025-11-02T02:25:13Z,2025-11-01T22:25:13Z
CYVO,2025-11-02T03:00:00Z,2025-11-01T23:00:00Z,VFR,2,-2,75,290,3,14500,30.05,NA,OVC  ft,METAR CYVO 020300Z AUTO 29003KT 260V320 9SM OVC034 02/M02 A3005 RMK SLP195,2025-11-02T03:49:52Z,2025-11-01T23:49:52Z
CYVO,2025-11-02T04:00:00Z,2025-11-02T00:00:00Z,VFR,1,-2,81,260,3,14500,30.04,NA,OVC  ft,METAR CYVO 020400Z AUTO 26003KT 240V310 9SM OVC032 01/M02 A3004 RMK SLP193,2025-11-02T04:30:21Z,2025-11-02T00:30:21Z
CYVO,2025-11-02T05:00:00Z,2025-11-02T01:00:00Z,VFR,1,-3,75,270,3,14500,30.05,NA,OVC  ft,METAR CYVO 020500Z AUTO 27003KT 250V320 9SM OVC032 01/M03 A3005 RMK SLP195,2025-11-02T05:25:48Z,2025-11-02T01:25:48Z
CYVO,2025-11-02T06:00:00Z,2025-11-02T01:00:00Z,VFR,1,-2,81,250,5,14500,30.05,NA,OVC  ft,METAR CYVO 020600Z AUTO 25005KT 9SM OVC032 01/M02 A3005 RMK SLP196,2025-11-02T06:36:54Z,2025-11-02T01:36:54Z
CYVO,2025-11-02T07:16:00Z,2025-11-02T02:16:00Z,VFR,1,-3,75,240,6,14500,30.07,NA,OVC  ft,SPECI CYVO 020716Z AUTO 24006KT 9SM -SN -UP OVC032 01/M03 A3007 RMK SLP204,2025-11-02T07:23:39Z,2025-11-02T02:23:39Z
CYVO,2025-11-02T08:00:00Z,2025-11-02T03:00:00Z,VFR,0,-3,80,260,5,14500,30.08,NA,BKN  ft,METAR CYVO 020800Z AUTO 26005KT 9SM BKN041 M00/M03 A3008 RMK SLP205,2025-11-02T08:30:00Z,2025-11-02T03:30:00Z
CYVO,2025-11-02T09:00:00Z,2025-11-02T04:00:00Z,VFR,0,-3,80,240,3,14500,30.09,NA,OVC  ft,METAR CYVO 020900Z AUTO 24003KT 9SM OVC043 M00/M03 A3009 RMK SLP212,2025-11-02T09:23:22Z,2025-11-02T04:23:22Z
CYVO,2025-11-02T10:00:00Z,2025-11-02T05:00:00Z,VFR,0,-3,80,250,3,14500,30.11,NA,FEW  ft; OVC  ft,METAR CYVO 021000Z AUTO 25003KT 9SM FEW028 OVC033 00/M03 A3011 RMK SLP217,2025-11-02T10:25:00Z,2025-11-02T05:25:00Z
CYVO,2025-11-02T11:00:00Z,2025-11-02T06:00:00Z,VFR,0,-2,87,230,2,24100,30.13,NA,OVC  ft,METAR CYVO 021100Z 23002KT 15SM OVC037 M00/M02 A3013 RMK SC8 SLP223,2025-11-02T11:19:32Z,2025-11-02T06:19:32Z
CYVO,2025-11-02T12:00:00Z,2025-11-02T07:00:00Z,VFR,0,-3,80,210,3,24100,30.13,NA,OVC  ft,METAR CYVO 021200Z 21003KT 15SM OVC035 M00/M03 A3013 RMK SC8 SLP225,2025-11-02T12:48:26Z,2025-11-02T07:48:26Z
CYVO,2025-11-02T13:00:00Z,2025-11-02T08:00:00Z,VFR,0,-3,80,220,3,24100,30.13,NA,OVC  ft,METAR CYVO 021300Z 22003KT 15SM OVC039 M00/M03 A3013 RMK SC8 SLP223,2025-11-02T13:28:13Z,2025-11-02T08:28:13Z
CYVR,2025-11-01T04:00:00Z,2025-11-01T00:00:00Z,VFR,11,10,94,80,7,20900,29.88,NA,SCT  ft; SCT  ft; BKN  ft; BKN  ft,METAR CYVR 010400Z 08007KT 060V130 13SM SCT011 SCT056 BKN110 BKN210 11/10 A2988 RMK SF3SC1AC1CI2 SLP122,2025-11-01T04:28:33Z,2025-11-01T00:28:33Z
CYVR,2025-11-01T05:00:00Z,2025-11-01T01:00:00Z,MVFR,11,11,100,70,6,12900,29.9,NA,BKN  ft; BKN  ft; OVC  ft,METAR CYVR 010500Z 07006KT 8SM BKN013 BKN150 OVC210 11/11 A2990 RMK SF5AC2CI1 SLP129,2025-11-01T05:25:06Z,2025-11-01T01:25:06Z
CYVR,2025-11-01T06:00:00Z,2025-11-01T02:00:00Z,IFR,11,11,100,70,7,8000,29.91,NA,BKN  ft; OVC  ft,METAR CYVR 010600Z 07007KT 5SM BR BKN009 OVC062 11/11 A2991 RMK SF7SC1 SLP132,2025-11-01T06:35:12Z,2025-11-01T02:35:12Z
CYVR,2025-11-01T07:00:00Z,2025-11-01T03:00:00Z,IFR,11,11,100,100,9,12900,29.91,NA,BKN  ft; OVC  ft,METAR CYVR 010700Z 10009KT 8SM BKN009 OVC150 11/11 A2991 RMK SF6AC2 SLP131,2025-11-01T07:23:00Z,2025-11-01T03:23:00Z
CYVR,2025-11-01T08:24:00Z,2025-11-01T04:24:00Z,IFR,11,11,100,90,8,12900,29.89,NA,FEW  ft; BKN  ft; OVC  ft,SPECI CYVR 010824Z 09008KT 8SM -RA FEW005 BKN009 OVC098 11/11 A2989 RMK SF2SC5AC1 SLP124,2025-11-01T08:30:52Z,2025-11-01T04:30:52Z
CYVR,2025-11-01T09:00:00Z,2025-11-01T05:00:00Z,MVFR,11,11,100,110,8,8000,29.87,NA,FEW  ft; OVC  ft,METAR CYVR 010900Z 11008KT 5SM -RA FEW005 OVC011 11/11 A2987 RMK SF1SC7 SLP119,2025-11-01T09:24:37Z,2025-11-01T05:24:37Z
CYVR,2025-11-01T10:00:00Z,2025-11-01T06:00:00Z,IFR,11,11,100,60,4,4000,29.85,NA,FEW  ft; BKN  ft; BKN  ft; OVC  ft,METAR CYVR 011000Z 06004KT 2 1/2SM -RA BR FEW005 BKN011 BKN019 OVC058 11/11 A2985 RMK SF1SC6SC1SC1 SF TR SLP111,2025-11-01T10:25:45Z,2025-11-01T06:25:45Z
CYVR,2025-11-01T11:00:00Z,2025-11-01T07:00:00Z,MVFR,11,11,100,100,4,8000,29.78,NA,SCT  ft; OVC  ft,METAR CYVR 011100Z 10004KT 5SM -RA BR SCT009 OVC074 11/11 A2978 RMK SC4AS4 PRESFR SLP088,2025-11-01T11:19:34Z,2025-11-01T07:19:34Z
CYVR,2025-11-01T12:00:00Z,2025-11-01T08:00:00Z,MVFR,11,11,100,70,5,8000,29.72,NA,FEW  ft; SCT  ft; OVC  ft,METAR CYVR 011200Z 07005KT 5SM -RA BR FEW009 SCT062 OVC069 11/11 A2972 RMK SF2SC2AS4 PRESFR SLP068,2025-11-01T12:49:06Z,2025-11-01T08:49:06Z
CYVR,2025-11-01T13:00:00Z,2025-11-01T09:00:00Z,MVFR,10,10,100,30,5,6400,29.69,NA,FEW  ft; SCT  ft; OVC  ft,METAR CYVR 011300Z 03005KT 4SM -RA BR FEW007 SCT022 OVC038 10/10 A2969 RMK SF2SC1SC5 PRESFR SLP058,2025-11-01T13:28:52Z,2025-11-01T09:28:52Z
CYVR,2025-11-01T14:00:00Z,2025-11-01T10:00:00Z,MVFR,10,10,100,30,9,6400,29.64,NA,FEW  ft; BKN  ft; OVC  ft,METAR CYVR 011400Z 03009KT 4SM -RA BR FEW013 BKN020 OVC042 10/10 A2964 RMK SF2SC3SC3 PRESFR SLP038,2025-11-01T14:22:16Z,2025-11-01T10:22:16Z
CYVR,2025-11-01T15:00:00Z,2025-11-01T11:00:00Z,MVFR,9,9,100,320,7,4800,29.63,NA,FEW  ft; BKN  ft; OVC  ft,METAR CYVR 011500Z 32007KT 3SM RA BR FEW006 BKN023 OVC040 09/09 A2963 RMK ST2SC3NS3 SLP035,2025-11-01T15:22:37Z,2025-11-01T11:22:37Z
CYVR,2025-11-01T16:00:00Z,2025-11-01T12:00:00Z,VFR,9,9,100,310,12,12900,29.62,NA,OVC  ft,METAR CYVR 011600Z 31012KT 8SM -RA OVC045 09/09 A2962 RMK SC8 SLP031,2025-11-01T16:28:37Z,2025-11-01T12:28:37Z
CYVR,2025-11-01T17:00:00Z,2025-11-01T13:00:00Z,VFR,9,9,100,320,17,12900,29.64,NA,OVC  ft,METAR CYVR 011700Z 32017KT 8SM -RA OVC046 09/09 A2964 RMK SC8 PRESRR SLP038,2025-11-01T17:20:01Z,2025-11-01T13:20:01Z
CYVR,2025-11-01T18:00:00Z,2025-11-01T14:00:00Z,VFR,9,9,100,310,11,9700,29.67,NA,FEW  ft; BKN  ft; OVC  ft,METAR CYVR 011800Z 31011KT 6SM -RA FEW008 BKN044 OVC064 09/09 A2967 RMK SF1SC5SC3 PRESRR SLP050,2025-11-01T18:32:54Z,2025-11-01T14:32:54Z
CYVR,2025-11-01T19:00:00Z,2025-11-01T15:00:00Z,MVFR,10,10,100,280,12,32200,29.71,NA,BKN  ft; OVC  ft,METAR CYVR 011900Z 28012G18KT 20SM -RA BKN025 OVC068 10/10 A2971 RMK SC6AC2 SLP063,2025-11-01T19:18:50Z,2025-11-01T15:18:50Z
CYVR,2025-11-01T20:00:00Z,2025-11-01T16:00:00Z,VFR,11,10,94,280,17,32200,29.75,NA,FEW  ft; FEW  ft; FEW  ft,METAR CYVR 012000Z 28017KT 20SM FEW020 FEW070 FEW110 11/10 A2975 RMK SC1AC1AC1 AC TR SLP077,2025-11-01T20:25:26Z,2025-11-01T16:25:26Z
CYVR,2025-11-01T21:00:00Z,2025-11-01T17:00:00Z,VFR,10,8,88,280,21,32200,29.8,NA,FEW  ft; FEW  ft; SCT  ft,METAR CYVR 012100Z 28021KT 20SM FEW015 FEW065 SCT082 10/08 A2980 RMK SF1SC2AC1 SF TR PRESRR SLP095,2025-11-01T21:21:10Z,2025-11-01T17:21:10Z
CYVR,2025-11-01T22:00:00Z,2025-11-01T18:00:00Z,VFR,10,9,94,280,15,32200,29.85,NA,FEW  ft; FEW  ft,METAR CYVR 012200Z 28015G20KT 20SM FEW030 FEW068 10/09 A2985 RMK CU1AC2 CU TR SLP111,2025-11-01T22:23:04Z,2025-11-01T18:23:04Z
CYVR,2025-11-01T23:00:00Z,2025-11-01T19:00:00Z,VFR,11,8,82,280,11,32200,29.89,NA,FEW  ft,METAR CYVR 012300Z 28011KT 20SM FEW055 11/08 A2989 RMK CU1 PRESRR SLP125,2025-11-01T23:22:48Z,2025-11-01T19:22:48Z
CYVR,2025-11-02T01:00:00Z,2025-11-01T21:00:00Z,VFR,10,9,94,200,7,32200,29.96,NA,FEW  ft; SCT  ft,METAR CYVR 020100Z 20007G15KT 170V270 20SM FEW044 SCT053 10/09 A2996 RMK SC2SC1 SLP147,2025-11-02T02:08:16Z,2025-11-01T22:08:16Z
CYVR,2025-11-02T02:00:00Z,2025-11-01T22:00:00Z,VFR,8,7,93,160,4,32200,29.98,NA,FEW  ft,METAR CYVR 020200Z 16004KT 20SM FEW044 08/07 A2998 RMK CU2 SLP155,2025-11-02T02:25:12Z,2025-11-01T22:25:12Z
CYVR,2025-11-02T03:00:00Z,2025-11-01T23:00:00Z,VFR,8,7,93,130,5,32200,30,NA,FEW  ft; SCT  ft,METAR CYVR 020300Z 13005KT 20SM FEW044 SCT130 08/07 A3000 RMK CU1AC2 SLP161,2025-11-02T03:49:51Z,2025-11-01T23:49:51Z
CYVR,2025-11-02T04:00:00Z,2025-11-02T00:00:00Z,VFR,10,7,82,200,9,24100,30.02,NA,FEW  ft; SCT  ft; BKN  ft,METAR CYVR 020400Z 20009KT 15SM FEW044 SCT071 BKN120 10/07 A3002 RMK CU1AC4AC2 CU TR SLP169,2025-11-02T04:30:20Z,2025-11-02T00:30:20Z
CYVR,2025-11-02T05:09:00Z,2025-11-02T01:09:00Z,VFR,10,7,82,270,16,24100,30.06,NA,FEW  ft; SCT  ft; OVC  ft,SPECI CYVR 020509Z 27016KT 220V280 15SM -SHRA FEW024 SCT046 OVC063 10/07 A3006 RMK CU2SC2SC4 PRESRR SLP183,2025-11-02T05:25:47Z,2025-11-02T01:25:47Z
CYVR,2025-11-02T06:18:00Z,2025-11-02T01:18:00Z,VFR,9,7,87,220,4,32200,30.09,NA,FEW  ft; SCT  ft; BKN  ft; BKN  ft,SPECI CYVR 020618Z 22004KT 20SM FEW028 SCT048 BKN067 BKN082 09/07 A3009 RMK CU1SC2AC3AC1 SLP192,2025-11-02T06:36:53Z,2025-11-02T01:36:53Z
CYVR,2025-11-02T07:00:00Z,2025-11-02T02:00:00Z,VFR,7,6,93,0,0,32200,30.11,NA,SCT  ft; SCT  ft,METAR CYVR 020700Z 00000KT 20SM SCT062 SCT082 07/06 A3011 RMK CU3AC1 SLP198,2025-11-02T07:23:38Z,2025-11-02T02:23:38Z
CYVR,2025-11-02T08:00:00Z,2025-11-02T03:00:00Z,VFR,6,4,87,90,5,32200,30.12,NA,FEW  ft,METAR CYVR 020800Z 09005KT 20SM FEW062 06/04 A3012 RMK CU1 SLP202,2025-11-02T08:29:59Z,2025-11-02T03:29:59Z
CYVR,2025-11-02T09:00:00Z,2025-11-02T04:00:00Z,VFR,7,6,93,0,2,32200,30.15,NA,FEW  ft,METAR CYVR 020900Z VRB02KT 20SM FEW071 07/06 A3015 RMK AC1 SLP212,2025-11-02T09:23:21Z,2025-11-02T04:23:21Z
CYVR,2025-11-02T10:00:00Z,2025-11-02T05:00:00Z,VFR,5,5,100,110,5,32200,30.17,NA,FEW  ft; FEW  ft,METAR CYVR 021000Z 11005KT 20SM FEW070 FEW170 05/05 A3017 RMK AC1AC1 AC TR SLP220,2025-11-02T10:24:58Z,2025-11-02T05:24:58Z
CYVR,2025-11-02T11:00:00Z,2025-11-02T06:00:00Z,VFR,6,6,100,90,3,24100,30.2,NA,BKN  ft; BKN  ft; OVC  ft,METAR CYVR 021100Z 09003KT 15SM BKN066 BKN110 OVC160 06/06 A3020 RMK AC5AC1AC2 SLP230,2025-11-02T11:19:31Z,2025-11-02T06:19:31Z
CYVR,2025-11-02T12:00:00Z,2025-11-02T07:00:00Z,VFR,6,6,100,100,5,19300,30.23,NA,BKN  ft; BKN  ft; OVC  ft,METAR CYVR 021200Z 10005KT 12SM -SHRA BKN040 BKN069 OVC150 06/06 A3023 RMK SC5AC2AC1 CVCTV CLD EMBD SLP240,2025-11-02T12:48:25Z,2025-11-02T07:48:25Z
CYVR,2025-11-02T13:00:00Z,2025-11-02T08:00:00Z,VFR,5,5,100,90,5,24100,30.24,NA,SCT  ft; SCT  ft,METAR CYVR 021300Z 09005KT 15SM SCT066 SCT100 05/05 A3024 RMK AC2AC1 SLP243,2025-11-02T13:28:12Z,2025-11-02T08:28:12Z
CYVV,2025-11-01T04:00:00Z,2025-11-01T00:00:00Z,VFR,6,1,71,330,7,24100,29.77,NA,BKN  ft,METAR CYVV 010400Z 33007KT 300V360 15SM BKN050 06/01 A2977 RMK SC7 SLP090,2025-11-01T04:28:33Z,2025-11-01T00:28:33Z
CYVV,2025-11-01T05:00:00Z,2025-11-01T01:00:00Z,VFR,6,0,66,330,6,24100,29.79,NA,OVC  ft,METAR CYVV 010500Z 33006KT 290V010 15SM OVC055 06/00 A2979 RMK SC8 SLP094,2025-11-01T05:25:06Z,2025-11-01T01:25:06Z
CYVV,2025-11-01T06:00:00Z,2025-11-01T02:00:00Z,VFR,6,0,66,330,6,24100,29.8,NA,SCT  ft,METAR CYVV 010600Z 33006G19KT 270V030 15SM SCT058 06/M00 A2980 RMK SC4 SLP099,2025-11-01T06:35:12Z,2025-11-01T02:35:12Z
CYVV,2025-11-01T07:00:00Z,2025-11-01T03:00:00Z,VFR,5,2,81,330,3,24100,29.82,NA,SCT  ft,METAR CYVV 010700Z 33003KT 290V040 15SM SCT056 05/02 A2982 RMK SC3 SLP105,2025-11-01T07:23:00Z,2025-11-01T03:23:00Z
CYVV,2025-11-01T08:00:00Z,2025-11-01T04:00:00Z,VFR,5,1,76,310,4,24100,29.83,NA,BKN  ft,METAR CYVV 010800Z 31004KT 270V350 15SM BKN052 05/01 A2983 RMK SC7 SLP109,2025-11-01T08:30:52Z,2025-11-01T04:30:52Z
CYVV,2025-11-01T09:00:00Z,2025-11-01T05:00:00Z,VFR,5,2,81,10,3,24100,29.85,NA,OVC  ft,METAR CYVV 010900Z 01003KT 280V060 15SM OVC054 05/02 A2985 RMK SC8 SLP115,2025-11-01T09:24:37Z,2025-11-01T05:24:37Z
CYVV,2025-11-01T10:00:00Z,2025-11-01T06:00:00Z,VFR,5,2,81,300,2,24100,29.87,NA,OVC  ft,METAR CYVV 011000Z 30002KT 15SM OVC054 05/02 A2987 RMK SC8 SLP123,2025-11-01T10:25:45Z,2025-11-01T06:25:45Z
CYVV,2025-11-01T11:00:00Z,2025-11-01T07:00:00Z,VFR,5,1,76,300,5,24100,29.89,NA,OVC  ft,METAR CYVV 011100Z 30005KT 220V320 15SM OVC054 05/01 A2989 RMK SC8 SLP130,2025-11-01T11:19:34Z,2025-11-01T07:19:34Z
CYVV,2025-11-01T12:00:00Z,2025-11-01T08:00:00Z,VFR,5,0,70,320,5,24100,29.91,NA,OVC  ft,METAR CYVV 011200Z 32005KT 290V020 15SM OVC054 05/00 A2991 RMK SC8 SLP136,2025-11-01T12:49:06Z,2025-11-01T08:49:06Z
CYVV,2025-11-01T13:00:00Z,2025-11-01T09:00:00Z,VFR,5,0,70,310,4,24100,29.94,NA,FEW  ft; BKN  ft,METAR CYVV 011300Z 31004KT 290V010 15SM FEW020 BKN052 05/M00 A2994 RMK SC1SC7 SC TR SLP147,2025-11-01T13:28:52Z,2025-11-01T09:28:52Z
CYVV,2025-11-01T14:00:00Z,2025-11-01T10:00:00Z,VFR,5,-1,66,320,4,24100,29.97,NA,FEW  ft; BKN  ft,METAR CYVV 011400Z 32004KT 290V360 15SM FEW020 BKN050 05/M01 A2997 RMK CU1SC7 CU TR SLP157,2025-11-01T14:22:16Z,2025-11-01T10:22:16Z
CYVV,2025-11-01T15:00:00Z,2025-11-01T11:00:00Z,VFR,6,-2,57,320,8,24100,29.98,NA,SCT  ft; SCT  ft,METAR CYVV 011500Z 32008KT 280V030 15SM SCT045 SCT250 06/M02 A2998 RMK SC4CI1 CI TR SLP162,2025-11-01T15:22:37Z,2025-11-01T11:22:37Z
CYVV,2025-11-01T16:00:00Z,2025-11-01T12:00:00Z,VFR,7,-3,49,320,7,24100,30,NA,SCT  ft; BKN  ft,METAR CYVV 011600Z 32007KT 290V020 15SM SCT045 BKN250 07/M03 A3000 RMK SC4CI1 SLP167,2025-11-01T16:28:36Z,2025-11-01T12:28:36Z
CYVV,2025-11-01T17:00:00Z,2025-11-01T13:00:00Z,VFR,7,-3,49,310,7,24100,30,NA,BKN  ft,METAR CYVV 011700Z 31007KT 290V350 15SM BKN053 07/M03 A3000 RMK SC6 SLP168,2025-11-01T17:20:01Z,2025-11-01T13:20:01Z
CYVV,2025-11-01T18:00:00Z,2025-11-01T14:00:00Z,VFR,7,-3,49,330,8,24100,30.01,NA,FEW  ft; BKN  ft; BKN  ft,METAR CYVV 011800Z 33008KT 270V360 15SM FEW015 BKN045 BKN250 07/M03 A3001 RMK CU1SC4CI1 CI TR SLP169,2025-11-01T18:32:53Z,2025-11-01T14:32:53Z
CYVV,2025-11-01T19:00:00Z,2025-11-01T15:00:00Z,VFR,7,-2,53,300,8,24100,30.01,NA,BKN  ft,METAR CYVV 011900Z 30008KT 260V340 15SM BKN052 07/M02 A3001 RMK SC6 SLP171,2025-11-01T19:18:50Z,2025-11-01T15:18:50Z
CYVV,2025-11-01T20:00:00Z,2025-11-01T16:00:00Z,VFR,7,-3,49,320,5,24100,30.03,NA,BKN  ft,METAR CYVV 012000Z 32005KT 15SM BKN052 07/M03 A3003 RMK SC7 SLP178,2025-11-01T20:25:25Z,2025-11-01T16:25:25Z
CYVV,2025-11-01T21:00:00Z,2025-11-01T17:00:00Z,VFR,6,-2,57,290,8,24100,30.04,NA,FEW  ft; BKN  ft,METAR CYVV 012100Z 29008KT 250V310 15SM FEW020 BKN051 06/M02 A3004 RMK CU1SC6 SLP182,2025-11-01T21:21:10Z,2025-11-01T17:21:10Z
CYVV,2025-11-01T22:00:00Z,2025-11-01T18:00:00Z,VFR,5,-2,61,300,5,24100,30.06,NA,BKN  ft,METAR CYVV 012200Z 30005KT 270V330 15SM BKN050 05/M02 A3006 RMK SC7 SLP189,2025-11-01T22:23:04Z,2025-11-01T18:23:04Z
CYVV,2025-11-01T23:00:00Z,2025-11-01T19:00:00Z,VFR,5,-2,61,320,4,24100,30.08,NA,FEW  ft; BKN  ft,METAR CYVV 012300Z 32004KT 270V360 15SM FEW026 BKN049 05/M02 A3008 RMK CU1SC7 CU TR SLP197,2025-11-01T23:22:48Z,2025-11-01T19:22:48Z
CYVV,2025-11-02T01:00:00Z,2025-11-01T21:00:00Z,VFR,5,-2,61,360,3,24100,30.1,NA,OVC  ft,METAR CYVV 020100Z 36003KT 300V060 15SM OVC041 05/M02 A3010 RMK SC8 SLP204,2025-11-02T02:08:16Z,2025-11-01T22:08:16Z
CYVV,2025-11-02T02:00:00Z,2025-11-01T22:00:00Z,VFR,5,-2,61,0,0,24100,30.12,NA,OVC  ft,METAR CYVV 020200Z 00000KT 15SM OVC040 05/M02 A3012 RMK SC8 SLP210,2025-11-02T02:25:12Z,2025-11-01T22:25:12Z
CYVV,2025-11-02T03:00:00Z,2025-11-01T23:00:00Z,VFR,5,-2,61,0,2,24100,30.13,NA,OVC  ft,METAR CYVV 020300Z VRB02KT 15SM OVC044 05/M02 A3013 RMK SC8 SLP212,2025-11-02T03:49:51Z,2025-11-01T23:49:51Z
CYVV,2025-11-02T04:00:00Z,2025-11-02T00:00:00Z,VFR,3,-1,75,210,5,24100,30.14,NA,SCT  ft,METAR CYVV 020400Z 21005KT 200V260 15SM SCT033 03/M01 A3014 RMK SC3 SLP215,2025-11-02T04:30:20Z,2025-11-02T00:30:20Z
CYVV,2025-11-02T05:00:00Z,2025-11-02T01:00:00Z,VFR,1,0,93,190,4,24100,30.14,NA,FEW  ft; SCT  ft,METAR CYVV 020500Z 19004KT 15SM FEW036 SCT100 01/M00 A3014 RMK SC2AC2 SLP216,2025-11-02T05:25:47Z,2025-11-02T01:25:47Z
CYVV,2025-11-02T06:00:00Z,2025-11-02T01:00:00Z,VFR,3,0,81,190,6,24100,30.14,NA,OVC  ft,METAR CYVV 020600Z 19006KT 15SM OVC041 03/M00 A3014 RMK SC8 SLP216,2025-11-02T06:36:53Z,2025-11-02T01:36:53Z
CYVV,2025-11-02T07:00:00Z,2025-11-02T02:00:00Z,VFR,3,0,81,180,6,24100,30.15,NA,OVC  ft,METAR CYVV 020700Z 18006KT 15SM OVC033 03/00 A3015 RMK SC8 SLP219,2025-11-02T07:23:38Z,2025-11-02T02:23:38Z
CYVV,2025-11-02T08:00:00Z,2025-11-02T03:00:00Z,VFR,2,0,87,160,4,24100,30.16,NA,BKN  ft,METAR CYVV 020800Z 16004KT 15SM BKN032 02/M00 A3016 RMK SC5 SLP224,2025-11-02T08:29:59Z,2025-11-02T03:29:59Z
CYVV,2025-11-02T09:00:00Z,2025-11-02T04:00:00Z,MVFR,3,-1,75,160,9,24100,30.17,NA,OVC  ft,METAR CYVV 020900Z 16009KT 15SM OVC030 03/M01 A3017 RMK SC8 SLP227,2025-11-02T09:23:21Z,2025-11-02T04:23:21Z
CYVV,2025-11-02T10:00:00Z,2025-11-02T05:00:00Z,VFR,3,0,81,160,5,24100,30.19,NA,OVC  ft,METAR CYVV 021000Z 16005KT 15SM OVC046 03/00 A3019 RMK SC8 SLP233,2025-11-02T10:24:58Z,2025-11-02T05:24:58Z
CYVV,2025-11-02T11:00:00Z,2025-11-02T06:00:00Z,MVFR,3,0,81,170,4,24100,30.2,NA,OVC  ft,METAR CYVV 021100Z 17004KT 15SM OVC027 03/00 A3020 RMK SC8 SLP237,2025-11-02T11:19:30Z,2025-11-02T06:19:30Z
CYVV,2025-11-02T12:00:00Z,2025-11-02T07:00:00Z,MVFR,3,0,81,170,6,24100,30.21,NA,BKN  ft,METAR CYVV 021200Z 17006KT 15SM BKN028 03/00 A3021 RMK SC7 SLP240,2025-11-02T12:48:25Z,2025-11-02T07:48:25Z
CYVV,2025-11-02T13:00:00Z,2025-11-02T08:00:00Z,VFR,4,0,75,160,6,24100,30.21,NA,BKN  ft,METAR CYVV 021300Z 16006KT 15SM BKN042 04/00 A3021 RMK SC5 SLP241,2025-11-02T13:28:11Z,2025-11-02T08:28:11Z
CYWG,2025-11-01T04:23:00Z,2025-11-01T00:23:00Z,MVFR,2,0,87,340,6,22500,30.15,NA,BKN  ft,SPECI CYWG 010423Z 34006KT 14SM -RA BKN027 02/00 A3015 RMK SC7 SLP224,2025-11-01T04:28:34Z,2025-11-01T00:28:34Z
CYWG,2025-11-01T05:16:00Z,2025-11-01T01:16:00Z,MVFR,2,1,93,330,7,24100,30.15,NA,FEW  ft; BKN  ft,SPECI CYWG 010516Z 33007KT 15SM FEW015 BKN029 02/01 A3015 RMK SF1SC7 SF TR SLP224,2025-11-01T05:25:07Z,2025-11-01T01:25:07Z
CYWG,2025-11-01T06:15:00Z,2025-11-01T02:15:00Z,VFR,1,0,93,320,7,24100,30.15,NA,BKN  ft,SPECI CYWG 010615Z 32007KT 15SM BKN035 01/00 A3015 RMK SC7 SLP225,2025-11-01T06:35:13Z,2025-11-01T02:35:13Z
CYWG,2025-11-01T07:00:00Z,2025-11-01T03:00:00Z,VFR,1,0,93,330,5,24100,30.15,NA,BKN  ft,METAR CYWG 010700Z 33005KT 15SM BKN031 01/00 A3015 RMK SC7 SLP224,2025-11-01T07:23:02Z,2025-11-01T03:23:02Z
CYWG,2025-11-01T08:00:00Z,2025-11-01T04:00:00Z,VFR,1,0,93,340,6,24100,30.16,NA,FEW  ft; BKN  ft,METAR CYWG 010800Z 34006KT 15SM FEW015 BKN033 01/00 A3016 RMK SF1SC6 SLP226,2025-11-01T08:30:53Z,2025-11-01T04:30:53Z
CYWG,2025-11-01T09:00:00Z,2025-11-01T05:00:00Z,VFR,0,0,100,330,3,24100,30.15,NA,BKN  ft,METAR CYWG 010900Z 33003KT 15SM BKN032 00/M00 A3015 RMK SC5 SLP223,2025-11-01T09:24:38Z,2025-11-01T05:24:38Z
CYWG,2025-11-01T10:00:00Z,2025-11-01T06:00:00Z,VFR,0,0,100,280,4,24100,30.15,NA,BKN  ft,METAR CYWG 011000Z 28004KT 15SM BKN031 00/00 A3015 RMK SC6 SLP225,2025-11-01T10:25:46Z,2025-11-01T06:25:46Z
CYWG,2025-11-01T11:00:00Z,2025-11-01T07:00:00Z,LIFR,0,0,100,280,6,24100,30.15,NA,BKN  ft; BKN  ft,METAR CYWG 011100Z 28006KT 15SM BKN004 BKN031 00/00 A3015 RMK SF6SC1 SLP225,2025-11-01T11:19:35Z,2025-11-01T07:19:35Z
CYWG,2025-11-01T12:25:00Z,2025-11-01T08:25:00Z,IFR,0,0,100,270,5,24100,30.13,NA,BKN  ft; BKN  ft,SPECI CYWG 011225Z 27005KT 15SM BKN005 BKN028 M00/M00 A3013 RMK SF6SC1 SLP218,2025-11-01T12:49:07Z,2025-11-01T08:49:07Z
CYWG,2025-11-01T13:06:00Z,2025-11-01T09:06:00Z,LIFR,0,0,100,260,6,NA,30.14,NA,OVX  ft,SPECI CYWG 011306Z 26006KT 3/4SM R36/P6000FT/D R31/P6000FT/U BR VV002 M00/M00 A3014 RMK FG8 SLP220,2025-11-01T13:28:53Z,2025-11-01T09:28:53Z
CYWG,2025-11-01T14:00:00Z,2025-11-01T10:00:00Z,LIFR,0,0,100,190,5,NA,30.13,NA,OVX  ft,METAR CYWG 011400Z 19005KT 3/4SM R36/P6000FT/D R31/P6000FT/D BR VV002 M00/M00 A3013 RMK FG8 SLP216,2025-11-01T14:22:17Z,2025-11-01T10:22:17Z
CYWG,2025-11-01T15:00:00Z,2025-11-01T11:00:00Z,MVFR,1,1,100,220,6,4800,30.13,NA,FEW  ft; BKN  ft,METAR CYWG 011500Z 22006KT 3SM BR FEW006 BKN025 01/01 A3013 RMK SF1SC6 SLP218,2025-11-01T15:22:38Z,2025-11-01T11:22:38Z
CYWG,2025-11-01T16:00:00Z,2025-11-01T12:00:00Z,MVFR,2,-1,81,230,9,24100,30.14,NA,OVC  ft,METAR CYWG 011600Z 23009G15KT 15SM OVC025 02/M01 A3014 RMK SC8 SLP219,2025-11-01T16:28:37Z,2025-11-01T12:28:37Z
CYWG,2025-11-01T17:00:00Z,2025-11-01T13:00:00Z,MVFR,2,-1,81,200,11,24100,30.11,NA,OVC  ft,METAR CYWG 011700Z 20011KT 15SM OVC018 02/M01 A3011 RMK SC8 SLP212,2025-11-01T17:20:03Z,2025-11-01T13:20:03Z
CYWG,2025-11-01T18:00:00Z,2025-11-01T14:00:00Z,MVFR,2,-1,81,210,11,24100,30.1,NA,OVC  ft,METAR CYWG 011800Z 21011G17KT 15SM OVC022 02/M01 A3010 RMK SC8 SLP208,2025-11-01T18:32:54Z,2025-11-01T14:32:54Z
CYWG,2025-11-01T19:00:00Z,2025-11-01T15:00:00Z,MVFR,2,-1,81,170,13,24100,30.06,NA,BKN  ft,METAR CYWG 011900Z 17013G21KT 15SM BKN017 02/M01 A3006 RMK SC7 PRESFR SLP194,2025-11-01T19:18:51Z,2025-11-01T15:18:51Z
CYWG,2025-11-01T20:00:00Z,2025-11-01T16:00:00Z,MVFR,3,-1,75,180,14,24100,30.03,NA,OVC  ft,METAR CYWG 012000Z 18014G20KT 15SM OVC020 03/M01 A3003 RMK SC8 SLP183,2025-11-01T20:25:27Z,2025-11-01T16:25:27Z
CYWG,2025-11-01T21:00:00Z,2025-11-01T17:00:00Z,MVFR,3,-1,75,170,17,24100,30.01,NA,OVC  ft,METAR CYWG 012100Z 17017G22KT 15SM OVC023 03/M01 A3001 RMK SC8 SLP176,2025-11-01T21:21:11Z,2025-11-01T17:21:11Z
CYWG,2025-11-01T22:00:00Z,2025-11-01T18:00:00Z,MVFR,3,0,81,170,17,24100,29.95,NA,BKN  ft; BKN  ft,METAR CYWG 012200Z 17017G24KT 15SM BKN025 BKN250 03/M00 A2995 RMK SC5CI2 PRESFR SLP155,2025-11-01T22:23:05Z,2025-11-01T18:23:05Z
CYWG,2025-11-01T23:00:00Z,2025-11-01T19:00:00Z,VFR,3,0,81,170,20,24100,29.9,NA,FEW  ft; BKN  ft,METAR CYWG 012300Z 17020KT 15SM FEW021 BKN210 03/00 A2990 RMK SC2CC4 SLP140,2025-11-01T23:22:49Z,2025-11-01T19:22:49Z
CYWG,2025-11-02T01:00:00Z,2025-11-01T21:00:00Z,VFR,3,1,87,170,15,24100,29.89,NA,BKN  ft; BKN  ft,METAR CYWG 020100Z 17015G20KT 15SM BKN160 BKN220 03/01 A2989 RMK AS5CC1 SLP137,2025-11-02T02:08:17Z,2025-11-01T22:08:17Z
CYWG,2025-11-02T02:00:00Z,2025-11-01T22:00:00Z,VFR,3,1,87,170,18,24100,29.85,NA,BKN  ft,METAR CYWG 020200Z 17018G23KT 15SM BKN150 03/01 A2985 RMK AC7 SLP121,2025-11-02T02:25:13Z,2025-11-01T22:25:13Z
CYWG,2025-11-02T03:00:00Z,2025-11-01T23:00:00Z,VFR,4,1,81,180,21,24100,29.8,NA,BKN  ft; BKN  ft,METAR CYWG 020300Z 18021G28KT 15SM BKN150 BKN240 04/01 A2980 RMK AC5CI1 SLP103,2025-11-02T03:49:52Z,2025-11-01T23:49:52Z
CYWG,2025-11-02T04:00:00Z,2025-11-02T00:00:00Z,VFR,4,0,75,180,18,24100,29.77,NA,FEW  ft; BKN  ft,METAR CYWG 020400Z 18018G27KT 15SM FEW150 BKN200 04/00 A2977 RMK AC2CI4 SLP093,2025-11-02T04:30:21Z,2025-11-02T00:30:21Z
CYWG,2025-11-02T05:00:00Z,2025-11-02T01:00:00Z,VFR,4,0,75,180,21,24100,29.72,NA,OVC  ft,METAR CYWG 020500Z 18021G28KT 15SM OVC160 04/00 A2972 RMK AC8 PRESFR SLP077,2025-11-02T05:25:48Z,2025-11-02T01:25:48Z
CYWG,2025-11-02T06:00:00Z,2025-11-02T01:00:00Z,VFR,4,0,75,190,24,24100,29.69,NA,OVC  ft,METAR CYWG 020600Z 19024G34KT 15SM OVC110 04/00 A2969 RMK AC8 SLP065,2025-11-02T06:36:54Z,2025-11-02T01:36:54Z
CYWG,2025-11-02T07:05:00Z,2025-11-02T02:05:00Z,VFR,4,0,75,180,23,24100,29.64,NA,BKN  ft,SPECI CYWG 020705Z 18023G34KT 15SM -RA BKN074 04/00 A2964 RMK AC7 PRESFR SLP048,2025-11-02T07:23:39Z,2025-11-02T02:23:39Z
CYWG,2025-11-02T08:00:00Z,2025-11-02T03:00:00Z,VFR,4,0,75,180,22,24100,29.59,NA,BKN  ft,METAR CYWG 020800Z 18022G30KT 15SM BKN110 04/00 A2959 RMK AC7 SLP032,2025-11-02T08:30:00Z,2025-11-02T03:30:00Z
CYWG,2025-11-02T09:15:00Z,2025-11-02T04:15:00Z,VFR,3,1,87,180,24,24100,29.53,NA,BKN  ft,SPECI CYWG 020915Z 18024G31KT 15SM -SHRA BKN087 03/01 A2953 RMK AC7 CVCTV CLD EMBD PRESFR SLP011,2025-11-02T09:23:22Z,2025-11-02T04:23:22Z
CYWG,2025-11-02T10:00:00Z,2025-11-02T05:00:00Z,VFR,3,1,87,190,23,24100,29.5,NA,BKN  ft,METAR CYWG 021000Z 19023G33KT 15SM BKN110 03/01 A2950 RMK AC6 PRESRR SLP001,2025-11-02T10:24:59Z,2025-11-02T05:24:59Z
CYWG,2025-11-02T11:00:00Z,2025-11-02T06:00:00Z,VFR,4,1,81,190,28,24100,29.45,NA,OVC  ft,METAR CYWG 021100Z 19028G36KT 15SM OVC110 04/01 A2945 RMK AC8 SLP983,2025-11-02T11:19:32Z,2025-11-02T06:19:32Z
CYWG,2025-11-02T12:00:00Z,2025-11-02T07:00:00Z,VFR,4,0,75,190,29,24100,29.41,NA,FEW  ft,METAR CYWG 021200Z 19029G41KT 15SM FEW170 04/00 A2941 RMK AC2 PRESFR SLP970,2025-11-02T12:48:26Z,2025-11-02T07:48:26Z
CYWG,2025-11-02T13:00:00Z,2025-11-02T08:00:00Z,VFR,3,0,81,190,24,24100,29.39,NA,FEW  ft,METAR CYWG 021300Z 19024G32KT 15SM FEW170 03/00 A2939 RMK AC2 SLP963,2025-11-02T13:28:13Z,2025-11-02T08:28:13Z
CYXE,2025-11-01T04:00:00Z,2025-11-01T00:00:00Z,VFR,-1,-4,80,140,13,24100,29.99,NA,BKN  ft,METAR CYXE 010400Z 14013G18KT 15SM BKN280 M01/M04 A2999 RMK CI5 SLP184,2025-11-01T04:28:34Z,2025-11-01T00:28:34Z
CYXE,2025-11-01T05:00:00Z,2025-11-01T01:00:00Z,VFR,-1,-4,80,140,11,24100,29.96,NA,BKN  ft,METAR CYXE 010500Z 14011KT 15SM BKN280 M01/M04 A2996 RMK CI6 SLP173,2025-11-01T05:25:06Z,2025-11-01T01:25:06Z
CYXE,2025-11-01T06:00:00Z,2025-11-01T02:00:00Z,VFR,0,-4,75,140,13,24100,29.92,NA,BKN  ft,METAR CYXE 010600Z 14013G19KT 15SM BKN300 00/M04 A2992 RMK CI5 SLP158,2025-11-01T06:35:13Z,2025-11-01T02:35:13Z
CYXE,2025-11-01T07:00:00Z,2025-11-01T03:00:00Z,VFR,0,-4,75,130,14,24100,29.85,NA,BKN  ft,METAR CYXE 010700Z 13014KT 15SM BKN230 00/M04 A2985 RMK CI6 SLP136,2025-11-01T07:23:01Z,2025-11-01T03:23:01Z
CYXE,2025-11-01T08:00:00Z,2025-11-01T04:00:00Z,VFR,1,-4,70,140,13,24100,29.82,NA,BKN  ft,METAR CYXE 010800Z 14013KT 15SM BKN230 01/M04 A2982 RMK CI6 PRESFR SLP124,2025-11-01T08:30:53Z,2025-11-01T04:30:53Z
CYXE,2025-11-01T09:00:00Z,2025-11-01T05:00:00Z,VFR,1,-4,70,140,19,24100,29.76,NA,BKN  ft,METAR CYXE 010900Z 14019G26KT 15SM BKN210 01/M04 A2976 RMK CI7 SLP102,2025-11-01T09:24:38Z,2025-11-01T05:24:38Z
CYXE,2025-11-01T10:00:00Z,2025-11-01T06:00:00Z,VFR,2,-4,65,160,18,24100,29.73,NA,SCT  ft; BKN  ft,METAR CYXE 011000Z 16018G25KT 15SM SCT150 BKN210 02/M04 A2973 RMK AC4CI3 SLP093,2025-11-01T10:25:45Z,2025-11-01T06:25:45Z
CYXE,2025-11-01T11:00:00Z,2025-11-01T07:00:00Z,VFR,2,-4,65,150,21,24100,29.67,NA,BKN  ft,METAR CYXE 011100Z 15021KT 15SM BKN120 02/M04 A2967 RMK AC7 PRESFR SLP072,2025-11-01T11:19:34Z,2025-11-01T07:19:34Z
CYXE,2025-11-01T12:00:00Z,2025-11-01T08:00:00Z,VFR,2,-3,70,160,19,24100,29.66,NA,BKN  ft; BKN  ft,METAR CYXE 011200Z 16019G26KT 15SM BKN120 BKN240 02/M03 A2966 RMK AC5CI2 SLP068,2025-11-01T12:49:07Z,2025-11-01T08:49:07Z
CYXE,2025-11-01T13:00:00Z,2025-11-01T09:00:00Z,VFR,2,-3,70,160,15,24100,29.64,NA,SCT  ft,METAR CYXE 011300Z 16015G20KT 15SM SCT210 02/M03 A2964 RMK CI4 SLP062,2025-11-01T13:28:53Z,2025-11-01T09:28:53Z
CYXE,2025-11-01T14:00:00Z,2025-11-01T10:00:00Z,VFR,2,-3,70,150,9,24100,29.63,NA,FEW  ft; BKN  ft,METAR CYXE 011400Z 15009KT 15SM FEW120 BKN220 02/M03 A2963 RMK AC1CI6 SLP061,2025-11-01T14:22:17Z,2025-11-01T10:22:17Z
CYXE,2025-11-01T15:00:00Z,2025-11-01T11:00:00Z,VFR,2,-3,70,160,10,24100,29.63,NA,FEW  ft; BKN  ft,METAR CYXE 011500Z 16010KT 15SM FEW120 BKN220 02/M03 A2963 RMK AC2CI3 SLP059,2025-11-01T15:22:38Z,2025-11-01T11:22:38Z
CYXE,2025-11-01T16:00:00Z,2025-11-01T12:00:00Z,VFR,5,-2,61,180,7,24100,29.64,NA,BKN  ft,METAR CYXE 011600Z 18007KT 15SM BKN220 05/M02 A2964 RMK CI5 SLP063,2025-11-01T16:28:37Z,2025-11-01T12:28:37Z
CYXE,2025-11-01T17:00:00Z,2025-11-01T13:00:00Z,VFR,8,-1,53,220,9,24100,29.64,NA,FEW  ft,METAR CYXE 011700Z 22009KT 15SM FEW230 08/M01 A2964 RMK CI2 SLP059,2025-11-01T17:20:03Z,2025-11-01T13:20:03Z
CYXE,2025-11-01T18:00:00Z,2025-11-01T14:00:00Z,VFR,11,-1,44,260,6,24100,29.63,NA,SCT  ft,METAR CYXE 011800Z 26006KT 15SM SCT250 11/M01 A2963 RMK CI4 SLP055 DENSITY ALT 2000FT,2025-11-01T18:32:54Z,2025-11-01T14:32:54Z
CYXE,2025-11-01T19:00:00Z,2025-11-01T15:00:00Z,VFR,13,-1,38,0,0,24100,29.6,NA,SCT  ft,METAR CYXE 011900Z 00000KT 15SM SCT170 13/M01 A2960 RMK AC4 SLP042 DENSITY ALT 2200FT,2025-11-01T19:18:51Z,2025-11-01T15:18:51Z
CYXE,2025-11-01T20:00:00Z,2025-11-01T16:00:00Z,VFR,14,-1,36,190,5,24100,29.58,NA,SCT  ft,METAR CYXE 012000Z 19005KT 15SM SCT200 14/M01 A2958 RMK CI4 SLP034 DENSITY ALT 2400FT,2025-11-01T20:25:27Z,2025-11-01T16:25:27Z
CYXE,2025-11-01T21:00:00Z,2025-11-01T17:00:00Z,VFR,15,0,36,0,2,24100,29.55,NA,SCT  ft; BKN  ft,METAR CYXE 012100Z VRB02KT 15SM SCT120 BKN210 15/M00 A2955 RMK AC3CI3 SLP023 DENSITY ALT 2500FT,2025-11-01T21:21:11Z,2025-11-01T17:21:11Z
CYXE,2025-11-01T22:00:00Z,2025-11-01T18:00:00Z,VFR,15,0,36,110,7,24100,29.52,NA,BKN  ft; OVC  ft,METAR CYXE 012200Z 11007KT 15SM BKN110 OVC220 15/00 A2952 RMK AC6CI2 SLP012 DENSITY ALT 2500FT,2025-11-01T22:23:05Z,2025-11-01T18:23:05Z
CYXE,2025-11-01T23:00:00Z,2025-11-01T19:00:00Z,VFR,13,1,44,100,5,24100,29.48,NA,BKN  ft; OVC  ft,METAR CYXE 012300Z 10005KT 15SM BKN090 OVC220 13/01 A2948 RMK AC6CI2 SLP002 DENSITY ALT 2300FT,2025-11-01T23:22:49Z,2025-11-01T19:22:49Z
CYXE,2025-11-02T01:02:00Z,2025-11-01T21:02:00Z,VFR,12,4,58,140,9,24100,29.39,NA,BKN  ft; OVC  ft,SPECI CYXE 020102Z 14009KT 15SM -RA BKN057 OVC200 12/04 A2939 RMK SC6CI2 SLP968 DENSITY ALT 2400FT,2025-11-02T02:08:17Z,2025-11-01T22:08:17Z
CYXE,2025-11-02T02:00:00Z,2025-11-01T22:00:00Z,VFR,12,5,63,140,6,24100,29.32,NA,BKN  ft; OVC  ft,METAR CYXE 020200Z 14006KT 15SM -RA BKN070 OVC200 12/05 A2932 RMK AC5CI3 SLP948 DENSITY ALT 2400FT,2025-11-02T02:25:13Z,2025-11-01T22:25:13Z
CYXE,2025-11-02T03:00:00Z,2025-11-01T23:00:00Z,VFR,12,5,63,170,10,24100,29.29,NA,BKN  ft; OVC  ft,METAR CYXE 020300Z 17010KT 15SM BKN070 OVC200 12/05 A2929 RMK AC6CI2 SLP934 DENSITY ALT 2500FT,2025-11-02T03:49:52Z,2025-11-01T23:49:52Z
CYXE,2025-11-02T04:00:00Z,2025-11-02T00:00:00Z,VFR,10,4,67,310,4,24100,29.27,NA,FEW  ft; BKN  ft,METAR CYXE 020400Z 31004KT 260V320 15SM FEW070 BKN150 10/04 A2927 RMK AC2AC3 SLP928 DENSITY ALT 2200FT,2025-11-02T04:30:21Z,2025-11-02T00:30:21Z
CYXE,2025-11-02T05:00:00Z,2025-11-02T01:00:00Z,VFR,7,4,81,280,7,24100,29.25,NA,BKN  ft,METAR CYXE 020500Z 28007KT 15SM BKN160 07/04 A2925 RMK AC6 SLP922 DENSITY ALT 2000FT,2025-11-02T05:25:48Z,2025-11-02T01:25:48Z
CYXE,2025-11-02T06:00:00Z,2025-11-02T01:00:00Z,VFR,8,4,76,240,10,24100,29.26,NA,BKN  ft; BKN  ft,METAR CYXE 020600Z 24010KT 15SM BKN150 BKN180 08/04 A2926 RMK AC5AC2 SLP923 DENSITY ALT 2000FT,2025-11-02T06:36:54Z,2025-11-02T01:36:54Z
CYXE,2025-11-02T07:08:00Z,2025-11-02T02:08:00Z,LIFR,3,2,93,310,9,NA,29.3,NA,OVX  ft,SPECI CYXE 020708Z 31009KT 1/2SM R09/4000VP6000FT/D FG VV002 03/02 A2930 RMK FG8 PRESRR SLP938,2025-11-02T07:23:39Z,2025-11-02T02:23:39Z
CYXE,2025-11-02T08:00:00Z,2025-11-02T03:00:00Z,IFR,4,3,93,320,17,12900,29.36,NA,OVC  ft,METAR CYXE 020800Z 32017G23KT 8SM OVC006 04/03 A2936 RMK ST8 SLP958,2025-11-02T08:30:00Z,2025-11-02T03:30:00Z
CYXE,2025-11-02T09:00:00Z,2025-11-02T04:00:00Z,MVFR,5,3,87,300,14,19300,29.4,NA,BKN  ft; OVC  ft,METAR CYXE 020900Z 30014KT 12SM BKN010 OVC018 05/03 A2940 RMK ST6SC2 SLP972,2025-11-02T09:23:22Z,2025-11-02T04:23:22Z
CYXE,2025-11-02T10:00:00Z,2025-11-02T05:00:00Z,MVFR,5,4,93,290,11,24100,29.46,NA,SCT  ft; OVC  ft,METAR CYXE 021000Z 29011KT 15SM SCT015 OVC028 05/04 A2946 RMK ST4SC4 SLP991,2025-11-02T10:24:59Z,2025-11-02T05:24:59Z
CYXE,2025-11-02T11:00:00Z,2025-11-02T06:00:00Z,MVFR,5,4,93,300,15,9999,29.52,NA,OVC  ft,METAR CYXE 021100Z 30015G22KT 10SM -RA OVC014 05/04 A2952 RMK SC8 SLP014,2025-11-02T11:19:32Z,2025-11-02T06:19:32Z
CYXE,2025-11-02T12:00:00Z,2025-11-02T07:00:00Z,MVFR,4,3,93,300,12,24100,29.58,NA,SCT  ft; OVC  ft,METAR CYXE 021200Z 30012G19KT 15SM SCT010 OVC022 04/03 A2958 RMK ST3SC5 SLP035,2025-11-02T12:48:26Z,2025-11-02T07:48:26Z
CYXE,2025-11-02T13:00:00Z,2025-11-02T08:00:00Z,VFR,4,3,93,290,12,24100,29.62,NA,SCT  ft; OVC  ft,METAR CYXE 021300Z 29012KT 15SM -RA SCT025 OVC077 04/03 A2962 RMK SC3AC5 PRESRR SLP047,2025-11-02T13:28:13Z,2025-11-02T08:28:13Z
CYXS,2025-11-01T04:00:00Z,2025-11-01T00:00:00Z,VFR,7,2,71,200,8,14500,29.54,NA,FEW  ft; BKN  ft; OVC  ft,METAR CYXS 010400Z AUTO 20008KT 9SM FEW091 BKN120 OVC140 07/02 A2954 RMK SLP021,2025-11-01T04:28:33Z,2025-11-01T00:28:33Z
CYXS,2025-11-01T05:00:00Z,2025-11-01T01:00:00Z,VFR,7,2,71,200,8,14500,29.54,NA,SCT  ft; BKN  ft; OVC  ft,METAR CYXS 010500Z AUTO 20008KT 9SM SCT100 BKN120 OVC140 07/02 A2954 RMK SLP023,2025-11-01T05:25:06Z,2025-11-01T01:25:06Z
CYXS,2025-11-01T06:00:00Z,2025-11-01T02:00:00Z,VFR,7,2,71,180,11,14500,29.54,NA,OVC  ft,METAR CYXS 010600Z AUTO 18011G16KT 9SM OVC110 07/02 A2954 RMK SLP022,2025-11-01T06:35:12Z,2025-11-01T02:35:12Z
CYXS,2025-11-01T07:00:00Z,2025-11-01T03:00:00Z,VFR,7,2,71,220,8,14500,29.58,NA,OVC  ft,METAR CYXS 010700Z AUTO 22008KT 9SM OVC130 07/02 A2958 RMK SLP035,2025-11-01T07:23:00Z,2025-11-01T03:23:00Z
CYXS,2025-11-01T08:00:00Z,2025-11-01T04:00:00Z,VFR,6,2,76,190,7,14500,29.59,NA,OVC  ft,METAR CYXS 010800Z AUTO 19007KT 9SM OVC150 06/02 A2959 RMK SLP039,2025-11-01T08:30:52Z,2025-11-01T04:30:52Z
CYXS,2025-11-01T09:00:00Z,2025-11-01T05:00:00Z,VFR,6,1,71,190,7,14500,29.6,NA,FEW  ft; SCT  ft,METAR CYXS 010900Z AUTO 19007KT 9SM FEW042 SCT160 06/01 A2960 RMK SLP044,2025-11-01T09:24:38Z,2025-11-01T05:24:38Z
CYXS,2025-11-01T10:00:00Z,2025-11-01T06:00:00Z,VFR,4,1,81,180,6,14500,29.61,NA,BKN  ft; BKN  ft; OVC  ft,METAR CYXS 011000Z AUTO 18006KT 9SM BKN130 BKN150 OVC170 04/01 A2961 RMK SLP047,2025-11-01T10:25:45Z,2025-11-01T06:25:45Z
CYXS,2025-11-01T11:00:00Z,2025-11-01T07:00:00Z,VFR,4,0,75,190,5,14500,29.6,NA,FEW  ft; SCT  ft; BKN  ft,METAR CYXS 011100Z AUTO 19005KT 9SM FEW130 SCT150 BKN240 04/00 A2960 RMK SLP044,2025-11-01T11:19:34Z,2025-11-01T07:19:34Z
CYXS,2025-11-01T12:33:00Z,2025-11-01T08:33:00Z,VFR,2,0,87,180,7,14500,29.59,NA,BKN  ft; OVC  ft,SPECI CYXS 011233Z AUTO 18007KT 9SM BKN140 OVC160 02/00 A2959 RMK SLP042,2025-11-01T12:49:06Z,2025-11-01T08:49:06Z
CYXS,2025-11-01T13:00:00Z,2025-11-01T09:00:00Z,VFR,2,1,93,170,9,14500,29.58,NA,SCT  ft; OVC  ft,METAR CYXS 011300Z AUTO 17009KT 9SM SCT130 OVC220 02/01 A2958 RMK SLP038,2025-11-01T13:28:52Z,2025-11-01T09:28:52Z
CYXS,2025-11-01T14:00:00Z,2025-11-01T10:00:00Z,VFR,1,0,93,150,7,14500,29.57,NA,FEW  ft; OVC  ft,METAR CYXS 011400Z AUTO 15007KT 9SM FEW160 OVC200 01/M00 A2957 RMK SLP038,2025-11-01T14:22:16Z,2025-11-01T10:22:16Z
CYXS,2025-11-01T15:00:00Z,2025-11-01T11:00:00Z,VFR,2,1,93,160,6,14500,29.56,NA,SCT  ft; BKN  ft; OVC  ft,METAR CYXS 011500Z AUTO 16006KT 9SM SCT130 BKN150 OVC170 02/01 A2956 RMK SLP034,2025-11-01T15:22:37Z,2025-11-01T11:22:37Z
CYXS,2025-11-01T16:00:00Z,2025-11-01T12:00:00Z,VFR,2,1,93,0,0,14500,29.55,NA,BKN  ft; OVC  ft,METAR CYXS 011600Z AUTO 00000KT 9SM BKN110 OVC130 02/01 A2955 RMK SLP030,2025-11-01T16:28:37Z,2025-11-01T12:28:37Z
CYXS,2025-11-01T17:16:00Z,2025-11-01T13:16:00Z,VFR,2,2,100,0,2,14500,29.55,NA,OVC  ft,SPECI CYXS 011716Z AUTO VRB02KT 9SM OVC110 02/02 A2955 RMK SLP029,2025-11-01T17:20:02Z,2025-11-01T13:20:02Z
CYXS,2025-11-01T18:00:00Z,2025-11-01T14:00:00Z,VFR,4,2,87,0,0,14500,29.54,NA,OVC  ft,METAR CYXS 011800Z AUTO 00000KT 9SM OVC120 04/02 A2954 RMK SLP027,2025-11-01T18:32:54Z,2025-11-01T14:32:54Z
CYXS,2025-11-01T19:00:00Z,2025-11-01T15:00:00Z,VFR,5,2,81,190,5,14500,29.54,NA,SCT  ft,METAR CYXS 011900Z AUTO 19005KT 9SM SCT120 05/02 A2954 RMK SLP026,2025-11-01T19:18:50Z,2025-11-01T15:18:50Z
CYXS,2025-11-01T20:00:00Z,2025-11-01T16:00:00Z,VFR,6,0,66,240,5,14500,29.55,NA,OVC  ft,METAR CYXS 012000Z AUTO 24005KT 9SM OVC120 06/00 A2955 RMK SLP029,2025-11-01T20:25:26Z,2025-11-01T16:25:26Z
CYXS,2025-11-01T21:00:00Z,2025-11-01T17:00:00Z,VFR,6,0,66,230,4,14500,29.56,NA,BKN  ft,METAR CYXS 012100Z AUTO 23004KT 9SM BKN140 06/M00 A2956 RMK SLP031,2025-11-01T21:21:11Z,2025-11-01T17:21:11Z
CYXS,2025-11-01T22:00:00Z,2025-11-01T18:00:00Z,VFR,8,0,57,210,4,14500,29.57,NA,FEW  ft,METAR CYXS 012200Z AUTO 21004KT 180V260 9SM FEW160 08/M00 A2957 RMK SLP035,2025-11-01T22:23:05Z,2025-11-01T18:23:05Z
CYXS,2025-11-01T23:00:00Z,2025-11-01T19:00:00Z,VFR,7,-2,53,240,7,14500,29.58,NA,FEW  ft; SCT  ft,METAR CYXS 012300Z AUTO 24007G15KT 9SM FEW049 SCT066 07/M02 A2958 RMK SLP041,2025-11-01T23:22:48Z,2025-11-01T19:22:48Z
CYXS,2025-11-02T01:43:00Z,2025-11-01T21:43:00Z,VFR,2,-5,60,210,6,14500,29.66,NA,SCT  ft,SPECI CYXS 020143Z AUTO 21006KT 9SM SCT060 02/M05 A2966 RMK SLP074,2025-11-02T02:08:16Z,2025-11-01T22:08:16Z
CYXS,2025-11-02T02:12:00Z,2025-11-01T22:12:00Z,VFR,2,-5,60,220,10,14500,29.68,NA,FEW  ft; BKN  ft,SPECI CYXS 020212Z AUTO 22010KT 9SM FEW060 BKN170 02/M05 A2968 RMK SLP079,2025-11-02T02:25:12Z,2025-11-01T22:25:12Z
CYXS,2025-11-02T03:00:00Z,2025-11-01T23:00:00Z,VFR,-1,-5,75,240,5,14500,29.7,NA,FEW  ft,METAR CYXS 020300Z AUTO 24005KT 9SM FEW150 M01/M05 A2970 RMK SLP088,2025-11-02T03:49:51Z,2025-11-01T23:49:51Z
CYXS,2025-11-02T04:00:00Z,2025-11-02T00:00:00Z,VFR,0,-5,69,150,8,14500,29.71,NA,OVC  ft,METAR CYXS 020400Z AUTO 15008KT 9SM OVC140 00/M05 A2971 RMK SLP093,2025-11-02T04:30:20Z,2025-11-02T00:30:20Z
CYXS,2025-11-02T05:00:00Z,2025-11-02T01:00:00Z,VFR,1,-5,65,160,7,14500,29.73,NA,OVC  ft,METAR CYXS 020500Z AUTO 16007KT 9SM OVC110 01/M05 A2973 RMK SLP098,2025-11-02T05:25:47Z,2025-11-02T01:25:47Z
CYXS,2025-11-02T06:00:00Z,2025-11-02T01:00:00Z,VFR,2,-4,65,180,10,14500,29.74,NA,BKN  ft; OVC  ft,METAR CYXS 020600Z AUTO 18010KT 9SM BKN100 OVC120 02/M04 A2974 RMK SLP100,2025-11-02T06:36:53Z,2025-11-02T01:36:53Z
CYXS,2025-11-02T07:00:00Z,2025-11-02T02:00:00Z,VFR,1,-1,87,170,10,14500,29.76,NA,BKN  ft; BKN  ft; OVC  ft,METAR CYXS 020700Z AUTO 17010KT 9SM BKN086 BKN100 OVC130 01/M01 A2976 RMK SLP104,2025-11-02T07:23:39Z,2025-11-02T02:23:39Z
CYXS,2025-11-02T08:00:00Z,2025-11-02T03:00:00Z,VFR,1,-1,87,170,10,14500,29.78,NA,FEW  ft; BKN  ft,METAR CYXS 020800Z AUTO 17010G15KT 9SM FEW200 BKN220 01/M01 A2978 RMK SLP113,2025-11-02T08:29:59Z,2025-11-02T03:29:59Z
CYXS,2025-11-02T09:00:00Z,2025-11-02T04:00:00Z,VFR,1,-2,81,170,11,14500,29.8,NA,FEW  ft; SCT  ft,METAR CYXS 020900Z AUTO 17011G16KT 9SM FEW096 SCT220 01/M02 A2980 RMK SLP121,2025-11-02T09:23:21Z,2025-11-02T04:23:21Z
CYXS,2025-11-02T10:00:00Z,2025-11-02T05:00:00Z,VFR,-2,-3,93,160,7,14500,29.82,NA,BKN  ft,METAR CYXS 021000Z AUTO 16007KT 9SM BKN220 M02/M03 A2982 RMK SLP128,2025-11-02T10:24:59Z,2025-11-02T05:24:59Z
CYXS,2025-11-02T11:00:00Z,2025-11-02T06:00:00Z,VFR,-2,-3,93,160,6,14500,29.85,NA,BKN  ft; OVC  ft,METAR CYXS 021100Z AUTO 16006KT 9SM BKN180 OVC200 M02/M03 A2985 RMK SLP136,2025-11-02T11:19:31Z,2025-11-02T06:19:31Z
CYXS,2025-11-02T12:00:00Z,2025-11-02T07:00:00Z,VFR,-2,-3,93,160,8,14500,29.86,NA,FEW  ft; BKN  ft; BKN  ft; BKN  ft,METAR CYXS 021200Z AUTO 16008KT 9SM FEW096 BKN140 BKN180 BKN210 M02/M03 A2986 RMK SLP144,2025-11-02T12:48:25Z,2025-11-02T07:48:25Z
CYXS,2025-11-02T13:00:00Z,2025-11-02T08:00:00Z,VFR,-1,-3,86,170,9,14500,29.88,NA,BKN  ft; BKN  ft; OVC  ft,METAR CYXS 021300Z AUTO 17009KT 9SM BKN140 BKN160 OVC180 M01/M03 A2988 RMK SLP152,2025-11-02T13:28:12Z,2025-11-02T08:28:12Z
CYXT,2025-11-01T04:00:00Z,2025-11-01T00:00:00Z,MVFR,6,6,100,160,13,6400,29.45,NA,FEW  ft; FEW  ft; OVC  ft,METAR CYXT 010400Z 16013G20KT 4SM -RA BR FEW006 FEW025 OVC050 06/06 A2945 RMK SF1CU1SC6 SLP981,2025-11-01T04:28:33Z,2025-11-01T00:28:33Z
CYXT,2025-11-01T05:17:00Z,2025-11-01T01:17:00Z,MVFR,6,6,100,170,24,4800,29.48,NA,FEW  ft; OVC  ft,SPECI CYXT 010517Z 17024G32KT 3SM RA BR FEW007 OVC030 06/06 A2948 RMK SF1SC7 SLP990,2025-11-01T05:25:06Z,2025-11-01T01:25:06Z
CYXT,2025-11-01T06:00:00Z,2025-11-01T02:00:00Z,MVFR,6,6,100,180,18,6400,29.5,NA,FEW  ft; SCT  ft; OVC  ft,METAR CYXT 010600Z 18018G23KT 4SM -RA BR FEW005 SCT012 OVC035 06/06 A2950 RMK SF1SC2SC5 SLP997,2025-11-01T06:35:12Z,2025-11-01T02:35:12Z
CYXT,2025-11-01T07:00:00Z,2025-11-01T03:00:00Z,MVFR,5,4,93,160,23,6400,29.51,NA,FEW  ft; SCT  ft; BKN  ft; OVC  ft,METAR CYXT 010700Z 16023G30KT 4SM -RA BR FEW007 SCT020 BKN050 OVC100 05/04 A2951 RMK SF1SC2SC4AC1 SLP000,2025-11-01T07:23:01Z,2025-11-01T03:23:01Z
CYXT,2025-11-01T08:00:00Z,2025-11-01T04:00:00Z,MVFR,5,4,93,160,19,6400,29.54,NA,FEW  ft; SCT  ft; OVC  ft,METAR CYXT 010800Z 16019G28KT 4SM -RA BR FEW006 SCT015 OVC040 05/04 A2954 RMK SF1SC2SC5 SLP011,2025-11-01T08:30:52Z,2025-11-01T04:30:52Z
CYXT,2025-11-01T09:00:00Z,2025-11-01T05:00:00Z,MVFR,5,5,100,160,17,6400,29.55,NA,FEW  ft; SCT  ft; OVC  ft,METAR CYXT 010900Z 16017G25KT 4SM -RA BR FEW006 SCT015 OVC035 05/05 A2955 RMK SF1SC3SC4 SLP014,2025-11-01T09:24:38Z,2025-11-01T05:24:38Z
CYXT,2025-11-01T10:00:00Z,2025-11-01T06:00:00Z,MVFR,5,5,100,180,15,6400,29.55,NA,FEW  ft; SCT  ft; OVC  ft,METAR CYXT 011000Z 18015G21KT 4SM -RA BR FEW006 SCT015 OVC050 05/05 A2955 RMK SF1SC2SC5 SLP016,2025-11-01T10:25:45Z,2025-11-01T06:25:45Z
CYXT,2025-11-01T11:00:00Z,2025-11-01T07:00:00Z,MVFR,5,5,100,170,15,6400,29.55,NA,FEW  ft; SCT  ft; BKN  ft; OVC  ft,METAR CYXT 011100Z 17015G20KT 4SM -RA BR FEW006 SCT020 BKN060 OVC090 05/05 A2955 RMK SF1SC2SC4AC1 SLP016,2025-11-01T11:19:34Z,2025-11-01T07:19:34Z
CYXT,2025-11-01T12:00:00Z,2025-11-01T08:00:00Z,MVFR,5,4,93,180,16,6400,29.57,NA,FEW  ft; SCT  ft; OVC  ft,METAR CYXT 011200Z 18016G23KT 4SM -RA BR FEW006 SCT020 OVC040 05/04 A2957 RMK SF1SC2SC5 SLP022,2025-11-01T12:49:06Z,2025-11-01T08:49:06Z
CYXT,2025-11-01T13:00:00Z,2025-11-01T09:00:00Z,VFR,4,4,100,180,12,9700,29.57,NA,FEW  ft; SCT  ft; SCT  ft,METAR CYXT 011300Z 18012G20KT 6SM -RA BR FEW009 SCT050 SCT080 04/04 A2957 RMK SF1SC3AC1 SF TR SLP023,2025-11-01T13:28:52Z,2025-11-01T09:28:52Z
CYXT,2025-11-01T14:00:00Z,2025-11-01T10:00:00Z,VFR,4,4,100,180,14,9999,29.57,NA,FEW  ft; FEW  ft; FEW  ft; SCT  ft,METAR CYXT 011400Z 18014G20KT 10SM FEW002 FEW009 FEW075 SCT200 04/04 A2957 RMK SF1SF1AC2CI1 SF TR SF TR SLP024,2025-11-01T14:22:16Z,2025-11-01T10:22:16Z
CYXT,2025-11-01T15:00:00Z,2025-11-01T11:00:00Z,VFR,4,4,100,200,9,24100,29.59,NA,FEW  ft; FEW  ft; BKN  ft; BKN  ft,METAR CYXT 011500Z 20009KT 15SM FEW001 FEW009 BKN040 BKN068 04/04 A2959 RMK SF1SC1SC5AC2 SF TR SC TR SLP030,2025-11-01T15:22:37Z,2025-11-01T11:22:37Z
CYXT,2025-11-01T16:00:00Z,2025-11-01T12:00:00Z,VFR,4,4,100,180,11,9999,29.59,NA,FEW  ft; FEW  ft; SCT  ft; BKN  ft,METAR CYXT 011600Z 18011G17KT 10SM FEW002 FEW008 SCT020 BKN035 BKN070 04/04 A2959 RMK SF1SF1SC2SC2AC2 SF TR VIS SW LWR SLP030,2025-11-01T16:28:37Z,2025-11-01T12:28:37Z
CYXT,2025-11-01T17:00:00Z,2025-11-01T13:00:00Z,VFR,4,3,93,170,14,24100,29.6,NA,FEW  ft; FEW  ft; FEW  ft; SCT  ft,METAR CYXT 011700Z 17014KT 15SM FEW002 FEW007 FEW019 SCT045 BKN095 04/03 A2960 RMK SF1SF1SC1SC3AC3 SF TR SF TR SLP031,2025-11-01T17:20:02Z,2025-11-01T13:20:02Z
CYXT,2025-11-01T18:18:00Z,2025-11-01T14:18:00Z,VFR,5,4,93,170,15,9999,29.61,NA,FEW  ft; FEW  ft; OVC  ft,SPECI CYXT 011818Z 17015KT 10SM -RA FEW002 FEW015 OVC050 05/04 A2961 RMK SF1SC2SC6 SF TR SLP034,2025-11-01T18:32:54Z,2025-11-01T14:32:54Z
CYXT,2025-11-01T19:00:00Z,2025-11-01T15:00:00Z,VFR,5,4,93,160,9,24100,29.61,NA,FEW  ft; FEW  ft; OVC  ft,METAR CYXT 011900Z 16009KT 15SM -RA FEW002 FEW015 OVC065 05/04 A2961 RMK SF1SC1SC7 SF TR SLP036,2025-11-01T19:18:50Z,2025-11-01T15:18:50Z
CYXT,2025-11-01T20:00:00Z,2025-11-01T16:00:00Z,VFR,5,4,93,170,14,9700,29.62,NA,FEW  ft; FEW  ft; SCT  ft; OVC  ft,METAR CYXT 012000Z 17014KT 6SM -RA BR FEW002 FEW015 SCT020 OVC040 05/04 A2962 RMK SF1SC1SC2SC4 SLP041,2025-11-01T20:25:26Z,2025-11-01T16:25:26Z
CYXT,2025-11-01T21:00:00Z,2025-11-01T17:00:00Z,VFR,4,3,93,160,13,9700,29.63,NA,FEW  ft; SCT  ft; OVC  ft,METAR CYXT 012100Z 16013KT 6SM -RA BR FEW009 SCT015 OVC035 04/03 A2963 RMK SC2SC1SC5 SLP042,2025-11-01T21:21:11Z,2025-11-01T17:21:11Z
CYXT,2025-11-01T22:00:00Z,2025-11-01T18:00:00Z,VFR,3,3,100,170,13,9700,29.64,NA,FEW  ft; FEW  ft; OVC  ft,METAR CYXT 012200Z 17013KT 6SM -RA BR FEW002 FEW009 OVC035 03/03 A2964 RMK SF1SF1SC7 SF TR SLP047,2025-11-01T22:23:05Z,2025-11-01T18:23:05Z
CYXT,2025-11-01T23:00:00Z,2025-11-01T19:00:00Z,MVFR,3,3,100,180,12,9700,29.65,NA,FEW  ft; FEW  ft; BKN  ft; BKN  ft,METAR CYXT 012300Z CCA 18012KT 6SM -RA BR FEW003 FEW009 BKN025 BKN073 BKN150 03/03 A2965 RMK SF1SF1SC4AC1AC1 AC TR SLP051,2025-11-01T23:22:48Z,2025-11-01T19:22:48Z
CYXT,2025-11-02T01:00:00Z,2025-11-01T21:00:00Z,IFR,3,3,100,170,16,6400,29.67,NA,FEW  ft; BKN  ft; OVC  ft,METAR CYXT 020100Z 17016G23KT 4SM -SHRA BR FEW002 BKN007 OVC020 03/03 A2967 RMK SF1SC6SC2 SF TR CVCTV CLD EMBD SLP059,2025-11-02T02:08:16Z,2025-11-01T22:08:16Z
CYXT,2025-11-02T02:12:00Z,2025-11-01T22:12:00Z,IFR,2,2,100,190,7,4800,29.7,NA,BKN  ft; OVC  ft,SPECI CYXT 020212Z 19007G15KT 3SM BR BKN007 OVC040 02/02 A2970 RMK SC7SC1 SLP069,2025-11-02T02:25:13Z,2025-11-01T22:25:13Z
CYXT,2025-11-02T03:04:00Z,2025-11-01T23:04:00Z,IFR,2,2,100,160,10,4800,29.71,NA,BKN  ft; BKN  ft; OVC  ft,SPECI CYXT 020304Z 16010KT 3SM BR BKN007 BKN033 OVC080 02/02 A2971 RMK SF5SC1AC2 SLP070,2025-11-02T03:49:51Z,2025-11-01T23:49:51Z
CYXT,2025-11-02T04:00:00Z,2025-11-02T00:00:00Z,IFR,2,2,100,160,9,8000,29.73,NA,BKN  ft; BKN  ft; OVC  ft,METAR CYXT 020400Z 16009G16KT 5SM BR BKN008 BKN040 OVC080 02/02 A2973 RMK SC5SC2AC1 SLP078,2025-11-02T04:30:20Z,2025-11-02T00:30:20Z
CYXT,2025-11-02T05:00:00Z,2025-11-02T01:00:00Z,IFR,2,2,100,180,10,8000,29.75,NA,BKN  ft; BKN  ft; OVC  ft,METAR CYXT 020500Z 18010KT 5SM -RA BR BKN008 BKN025 OVC050 02/02 A2975 RMK SC5SC2SC1 SLP085,2025-11-02T05:25:47Z,2025-11-02T01:25:47Z
CYXT,2025-11-02T06:00:00Z,2025-11-02T01:00:00Z,IFR,2,2,100,180,13,8000,29.78,NA,BKN  ft; BKN  ft; BKN  ft,METAR CYXT 020600Z 18013G19KT 5SM BR BKN008 BKN025 BKN057 02/02 A2978 RMK SC5SC1SC1 SLP096,2025-11-02T06:36:53Z,2025-11-02T01:36:53Z
CYXT,2025-11-02T07:00:00Z,2025-11-02T02:00:00Z,MVFR,2,2,100,170,9,9700,29.8,NA,FEW  ft; BKN  ft; BKN  ft; BKN  ft,METAR CYXT 020700Z 17009KT 140V210 6SM BR FEW007 BKN017 BKN055 BKN070 02/02 A2980 RMK SF2SC3SC1AC1 OBS TAKEN +9 SLP102,2025-11-02T07:23:39Z,2025-11-02T02:23:39Z
CYXT,2025-11-02T08:00:00Z,2025-11-02T03:00:00Z,MVFR,2,2,100,180,5,8000,29.82,NA,FEW  ft; SCT  ft; BKN  ft; BKN  ft,METAR CYXT 020800Z 18005KT 140V200 5SM BR FEW007 SCT025 BKN075 BKN190 02/02 A2982 RMK SF2SC2AC2AC1 SLP108,2025-11-02T08:29:59Z,2025-11-02T03:29:59Z
CYXT,2025-11-02T09:18:00Z,2025-11-02T04:18:00Z,IFR,2,2,100,200,9,6400,29.85,NA,BKN  ft; OVC  ft,SPECI CYXT 020918Z 20009KT 4SM BR BKN006 OVC020 02/02 A2985 RMK SF5SC3 SLP120,2025-11-02T09:23:21Z,2025-11-02T04:23:21Z
CYXT,2025-11-02T10:00:00Z,2025-11-02T05:00:00Z,IFR,2,2,100,140,8,8000,29.86,NA,BKN  ft; BKN  ft; OVC  ft,METAR CYXT 021000Z 14008KT 5SM -RA BR BKN006 BKN024 OVC040 02/02 A2986 RMK SF5SC2SC1 SLP122,2025-11-02T10:24:59Z,2025-11-02T05:24:59Z
CYXT,2025-11-02T11:00:00Z,2025-11-02T06:00:00Z,IFR,2,2,100,190,5,8000,29.88,NA,BKN  ft; OVC  ft,METAR CYXT 021100Z 19005KT 120V240 5SM BR BKN005 OVC020 02/02 A2988 RMK SC6SC2 SLP130,2025-11-02T11:19:31Z,2025-11-02T06:19:31Z
CYXT,2025-11-02T12:00:00Z,2025-11-02T07:00:00Z,IFR,2,2,100,150,5,8000,29.89,NA,BKN  ft; OVC  ft,METAR CYXT 021200Z 15005KT 5SM BR BKN005 OVC020 02/02 A2989 RMK SC6SC2 SLP134,2025-11-02T12:48:25Z,2025-11-02T07:48:25Z
CYXT,2025-11-02T13:08:00Z,2025-11-02T08:08:00Z,IFR,2,2,100,160,3,8000,29.9,NA,BKN  ft; BKN  ft; OVC  ft,SPECI CYXT 021308Z 16003KT 090V190 5SM -RA BR BKN005 BKN018 OVC050 02/02 A2990 RMK SC5SC2SC1 SLP137,2025-11-02T13:28:12Z,2025-11-02T08:28:12Z
CYXY,2025-11-01T04:00:00Z,2025-11-01T00:00:00Z,VFR,4,1,81,150,13,24100,28.83,NA,FEW  ft; SCT  ft; BKN  ft,METAR CYXY 010400Z 15013KT 15SM FEW023 SCT065 BKN170 04/01 A2883 RMK SC2SC2AS3 SLP791 DENSITY ALT 2800FT,2025-11-01T04:28:35Z,2025-11-01T00:28:35Z
CYXY,2025-11-01T05:00:00Z,2025-11-01T01:00:00Z,VFR,4,0,75,150,16,24100,28.86,NA,FEW  ft; SCT  ft; OVC  ft,METAR CYXY 010500Z 15016KT 15SM FEW023 SCT060 OVC170 04/00 A2886 RMK SC1SC2AS5 SLP802 DENSITY ALT 2800FT,2025-11-01T05:25:08Z,2025-11-01T01:25:08Z
CYXY,2025-11-01T06:00:00Z,2025-11-01T02:00:00Z,VFR,4,-1,70,160,16,24100,28.9,NA,FEW  ft; OVC  ft,METAR CYXY 010600Z 16016G24KT 15SM FEW023 OVC170 04/M01 A2890 RMK SC1AS7 SLP815 DENSITY ALT 2800FT,2025-11-01T06:35:14Z,2025-11-01T02:35:14Z
CYXY,2025-11-01T07:00:00Z,2025-11-01T03:00:00Z,VFR,4,-2,65,150,16,24100,28.93,NA,FEW  ft; BKN  ft,METAR CYXY 010700Z 15016KT 15SM FEW065 BKN210 04/M02 A2893 RMK SC2CS6 SLP826 DENSITY ALT 2700FT,2025-11-01T07:23:04Z,2025-11-01T03:23:04Z
CYXY,2025-11-01T08:00:00Z,2025-11-01T04:00:00Z,VFR,3,-2,70,140,10,24100,28.97,NA,FEW  ft; SCT  ft; OVC  ft,METAR CYXY 010800Z 14010KT 15SM FEW055 SCT170 OVC210 03/M02 A2897 RMK SC2AS1CS5 SLP838 DENSITY ALT 2600FT,2025-11-01T08:30:54Z,2025-11-01T04:30:54Z
CYXY,2025-11-01T09:00:00Z,2025-11-01T05:00:00Z,VFR,2,-2,75,160,11,24100,29,NA,SCT  ft; OVC  ft,METAR CYXY 010900Z 16011KT 15SM SCT170 OVC210 02/M02 A2900 RMK AS4CI4 SLP847,2025-11-01T09:24:39Z,2025-11-01T05:24:39Z
CYXY,2025-11-01T10:00:00Z,2025-11-01T06:00:00Z,VFR,2,-3,70,150,8,24100,29.02,NA,FEW  ft; OVC  ft,METAR CYXY 011000Z 15008KT 15SM FEW073 OVC190 02/M03 A2902 RMK AC2AS7 SLP855,2025-11-01T10:25:47Z,2025-11-01T06:25:47Z
CYXY,2025-11-01T11:00:00Z,2025-11-01T07:00:00Z,VFR,2,-3,70,160,12,24100,29.03,NA,OVC  ft,METAR CYXY 011100Z 16012KT 15SM OVC180 02/M03 A2903 RMK AS8 SLP859,2025-11-01T11:19:36Z,2025-11-01T07:19:36Z
CYXY,2025-11-01T12:00:00Z,2025-11-01T08:00:00Z,VFR,2,-3,70,150,11,24100,29.05,NA,FEW  ft; OVC  ft,METAR CYXY 011200Z 15011KT 15SM FEW072 OVC200 02/M03 A2905 RMK AC2CS6 SLP866,2025-11-01T12:49:08Z,2025-11-01T08:49:08Z
CYXY,2025-11-01T13:00:00Z,2025-11-01T09:00:00Z,VFR,2,-3,70,140,11,24100,29.06,NA,FEW  ft; SCT  ft; BKN  ft,METAR CYXY 011300Z 14011G18KT 15SM FEW068 SCT180 BKN240 02/M03 A2906 RMK AC1AC2CI3 SLP869,2025-11-01T13:28:55Z,2025-11-01T09:28:55Z
CYXY,2025-11-01T14:00:00Z,2025-11-01T10:00:00Z,VFR,2,-4,65,150,14,24100,29.07,NA,FEW  ft; BKN  ft,METAR CYXY 011400Z 15014G20KT 15SM FEW068 BKN230 02/M04 A2907 RMK AC1CI6 SLP873,2025-11-01T14:22:18Z,2025-11-01T10:22:18Z
CYXY,2025-11-01T15:00:00Z,2025-11-01T11:00:00Z,VFR,1,-4,70,180,12,24100,29.07,NA,FEW  ft; BKN  ft,METAR CYXY 011500Z 18012KT 15SM FEW065 BKN230 01/M04 A2907 RMK SC1CI5 SC TR SLP875,2025-11-01T15:22:39Z,2025-11-01T11:22:39Z
CYXY,2025-11-01T16:00:00Z,2025-11-01T12:00:00Z,VFR,1,-3,75,160,14,64400,29.07,NA,FEW  ft; BKN  ft,METAR CYXY 011600Z 16014KT 40SM FEW035 BKN240 01/M03 A2907 RMK SC1CI6 SC TR SLP875,2025-11-01T16:28:39Z,2025-11-01T12:28:39Z
CYXY,2025-11-01T17:00:00Z,2025-11-01T13:00:00Z,VFR,0,-4,75,170,10,64400,29.09,NA,FEW  ft; FEW  ft; BKN  ft,METAR CYXY 011700Z 17010KT 40SM FEW035 FEW190 BKN240 00/M04 A2909 RMK SC1AS2CI4 SC TR SLP882,2025-11-01T17:20:05Z,2025-11-01T13:20:05Z
CYXY,2025-11-01T18:00:00Z,2025-11-01T14:00:00Z,VFR,1,-3,75,160,12,64400,29.1,NA,FEW  ft; FEW  ft; SCT  ft,METAR CYXY 011800Z 16012KT 40SM FEW035 FEW190 SCT230 01/M03 A2910 RMK SC1AS1CI1 SLP885,2025-11-01T18:32:56Z,2025-11-01T14:32:56Z
CYXY,2025-11-01T19:00:00Z,2025-11-01T15:00:00Z,VFR,2,-3,70,160,13,64400,29.1,NA,FEW  ft; FEW  ft; FEW  ft,METAR CYXY 011900Z 16013G18KT 40SM FEW035 FEW190 FEW230 02/M03 A2910 RMK SC1AS1CI1 CI TR SLP884,2025-11-01T19:18:53Z,2025-11-01T15:18:53Z
CYXY,2025-11-01T20:00:00Z,2025-11-01T16:00:00Z,VFR,3,-3,65,160,11,64400,29.1,NA,FEW  ft; FEW  ft,METAR CYXY 012000Z 16011G19KT 40SM FEW035 FEW230 03/M03 A2910 RMK SC1CI1 SLP883,2025-11-01T20:25:28Z,2025-11-01T16:25:28Z
CYXY,2025-11-01T21:00:00Z,2025-11-01T17:00:00Z,VFR,4,-4,56,150,14,64400,29.11,NA,FEW  ft; SCT  ft,METAR CYXY 012100Z 15014KT 40SM FEW040 SCT230 04/M04 A2911 RMK SC1CI3 SLP887,2025-11-01T21:21:12Z,2025-11-01T17:21:12Z
CYXY,2025-11-01T22:00:00Z,2025-11-01T18:00:00Z,VFR,4,-5,52,150,10,64400,29.12,NA,FEW  ft; FEW  ft; SCT  ft; BKN  ft,METAR CYXY 012200Z 15010G17KT 110V170 40SM FEW050 FEW090 SCT170 BKN240 04/M05 A2912 RMK SC1AC1AC2CI2 SLP890,2025-11-01T22:23:07Z,2025-11-01T18:23:07Z
CYXY,2025-11-01T23:00:00Z,2025-11-01T19:00:00Z,VFR,4,-5,52,160,12,64400,29.13,NA,FEW  ft; SCT  ft; SCT  ft,METAR CYXY 012300Z 16012KT 40SM FEW050 SCT160 SCT240 04/M05 A2913 RMK CF1AC3CI1 CF TR SLP893,2025-11-01T23:22:50Z,2025-11-01T19:22:50Z
CYXY,2025-11-02T01:00:00Z,2025-11-01T21:00:00Z,VFR,2,-6,56,160,15,64400,29.15,NA,FEW  ft; SCT  ft; BKN  ft,METAR CYXY 020100Z 16015KT 40SM FEW040 SCT160 BKN210 02/M06 A2915 RMK SC1AC3CI3 SC TR SLP902,2025-11-02T02:08:18Z,2025-11-01T22:08:18Z
CYXY,2025-11-02T02:00:00Z,2025-11-01T22:00:00Z,VFR,2,-5,60,170,12,40200,29.16,NA,FEW  ft; BKN  ft,METAR CYXY 020200Z 17012KT 25SM FEW050 BKN160 02/M05 A2916 RMK SC1AC7 SC TR SLP908,2025-11-02T02:25:14Z,2025-11-01T22:25:14Z
CYXY,2025-11-02T03:00:00Z,2025-11-01T23:00:00Z,VFR,2,-5,60,170,13,24100,29.18,NA,SCT  ft; OVC  ft,METAR CYXY 020300Z 17013KT 15SM SCT120 OVC170 02/M05 A2918 RMK AC4AC4 SLP913,2025-11-02T03:49:53Z,2025-11-01T23:49:53Z
CYXY,2025-11-02T04:00:00Z,2025-11-02T00:00:00Z,VFR,2,-4,65,160,11,24100,29.18,NA,OVC  ft,METAR CYXY 020400Z 16011KT 15SM OVC130 02/M04 A2918 RMK AC8 SLP914,2025-11-02T04:30:22Z,2025-11-02T00:30:22Z
CYXY,2025-11-02T05:00:00Z,2025-11-02T01:00:00Z,VFR,1,-4,70,170,12,24100,29.19,NA,BKN  ft; BKN  ft; OVC  ft,METAR CYXY 020500Z 17012KT 15SM BKN084 BKN130 OVC170 01/M04 A2919 RMK AC5AC2AC1 SLP918,2025-11-02T05:25:49Z,2025-11-02T01:25:49Z
CYXY,2025-11-02T06:00:00Z,2025-11-02T01:00:00Z,VFR,1,-3,75,150,12,24100,29.2,NA,BKN  ft; BKN  ft; OVC  ft,METAR CYXY 020600Z 15012G19KT 15SM BKN081 BKN160 OVC210 01/M03 A2920 RMK AC5AC2CI1 SLP920,2025-11-02T06:36:55Z,2025-11-02T01:36:55Z
CYXY,2025-11-02T07:00:00Z,2025-11-02T02:00:00Z,VFR,1,-3,75,150,14,24100,29.2,NA,BKN  ft; BKN  ft; BKN  ft; OVC  ft,METAR CYXY 020700Z 15014G21KT 15SM BKN074 BKN130 BKN170 OVC200 01/M03 A2920 RMK AC5AC2AC1CI1 AC TR SLP922,2025-11-02T07:23:40Z,2025-11-02T02:23:40Z
CYXY,2025-11-02T08:00:00Z,2025-11-02T03:00:00Z,VFR,1,-4,70,160,14,24100,29.22,NA,BKN  ft; OVC  ft,METAR CYXY 020800Z 16014G20KT 15SM BKN062 OVC220 01/M04 A2922 RMK SC6CI2 SLP927,2025-11-02T08:30:02Z,2025-11-02T03:30:02Z
CYXY,2025-11-02T09:00:00Z,2025-11-02T04:00:00Z,VFR,1,-4,70,160,16,24100,29.23,NA,FEW  ft; BKN  ft; BKN  ft; OVC  ft,METAR CYXY 020900Z 16016G22KT 15SM FEW027 BKN060 BKN150 OVC210 01/M04 A2923 RMK SC1SC5AC1CI1 SLP928,2025-11-02T09:23:23Z,2025-11-02T04:23:23Z
CYXY,2025-11-02T10:00:00Z,2025-11-02T05:00:00Z,VFR,1,-3,75,150,14,24100,29.24,NA,SCT  ft; BKN  ft; OVC  ft,METAR CYXY 021000Z 15014G22KT 15SM SCT058 BKN130 OVC180 01/M03 A2924 RMK SC3AC2AC3 SLP932,2025-11-02T10:25:00Z,2025-11-02T05:25:00Z
CYXY,2025-11-02T11:00:00Z,2025-11-02T06:00:00Z,VFR,1,-3,75,170,17,24100,29.25,NA,BKN  ft; OVC  ft,METAR CYXY 021100Z 17017KT 15SM BKN150 OVC210 01/M03 A2925 RMK AC5CI3 SLP937,2025-11-02T11:19:34Z,2025-11-02T06:19:34Z
CYXY,2025-11-02T12:00:00Z,2025-11-02T07:00:00Z,VFR,1,-3,75,160,16,24100,29.26,NA,OVC  ft,METAR CYXY 021200Z 16016KT 15SM OVC220 01/M03 A2926 RMK CI8 SLP940,2025-11-02T12:48:27Z,2025-11-02T07:48:27Z
CYXY,2025-11-02T13:00:00Z,2025-11-02T08:00:00Z,VFR,1,-3,75,160,11,24100,29.28,NA,BKN  ft,METAR CYXY 021300Z 16011G21KT 15SM BKN230 01/M03 A2928 RMK CI5 SLP947,2025-11-02T13:28:14Z,2025-11-02T08:28:14Z
CYYB,2025-11-01T04:00:00Z,2025-11-01T00:00:00Z,VFR,2,-2,75,320,12,14500,29.66,NA,BKN  ft,METAR CYYB 010400Z AUTO 32012G19KT 9SM BKN043 02/M02 A2966 RMK SLP059,2025-11-01T04:28:32Z,2025-11-01T00:28:32Z
CYYB,2025-11-01T05:08:00Z,2025-11-01T01:08:00Z,MVFR,2,0,87,310,7,14500,29.69,NA,FEW  ft; BKN  ft; BKN  ft; OVC  ft,SPECI CYYB 010508Z AUTO 31007KT 9SM FEW016 BKN023 BKN027 OVC036 02/M00 A2969 RMK SLP070,2025-11-01T05:25:05Z,2025-11-01T01:25:05Z
CYYB,2025-11-01T06:22:00Z,2025-11-01T02:22:00Z,MVFR,2,-1,81,310,8,14500,29.71,NA,FEW  ft; OVC  ft,SPECI CYYB 010622Z AUTO 31008KT 9SM FEW023 OVC028 02/M01 A2971 RMK SLP076,2025-11-01T06:35:12Z,2025-11-01T02:35:12Z
CYYB,2025-11-01T07:00:00Z,2025-11-01T03:00:00Z,VFR,2,-2,75,310,10,14500,29.72,NA,OVC  ft,METAR CYYB 010700Z AUTO 31010G15KT 9SM OVC033 02/M02 A2972 RMK SLP081,2025-11-01T07:23:00Z,2025-11-01T03:23:00Z
CYYB,2025-11-01T08:04:00Z,2025-11-01T04:04:00Z,MVFR,2,-3,70,330,13,12900,29.74,NA,OVC  ft,SPECI CYYB 010804Z AUTO 33013KT 8SM -RA OVC029 02/M03 A2974 RMK SLP089,2025-11-01T08:30:52Z,2025-11-01T04:30:52Z
CYYB,2025-11-01T09:16:00Z,2025-11-01T05:16:00Z,VFR,1,-1,87,320,7,14500,29.77,NA,FEW  ft; OVC  ft,SPECI CYYB 010916Z AUTO 32007KT 9SM FEW027 OVC034 01/M01 A2977 RMK SLP098,2025-11-01T09:24:37Z,2025-11-01T05:24:37Z
CYYB,2025-11-01T10:00:00Z,2025-11-01T06:00:00Z,VFR,1,-1,87,310,7,14500,29.79,NA,FEW  ft; OVC  ft,METAR CYYB 011000Z AUTO 31007KT 260V010 9SM FEW014 OVC032 01/M01 A2979 RMK SLP102,2025-11-01T10:25:44Z,2025-11-01T06:25:44Z
CYYB,2025-11-01T11:00:00Z,2025-11-01T07:00:00Z,MVFR,1,-1,87,320,3,24100,29.81,NA,BKN  ft; OVC  ft,METAR CYYB 011100Z 32003KT 15SM BKN018 OVC026 01/M01 A2981 RMK SC5SC3 SLP111,2025-11-01T11:19:33Z,2025-11-01T07:19:33Z
CYYB,2025-11-01T12:00:00Z,2025-11-01T08:00:00Z,VFR,0,-1,93,270,5,48300,29.83,NA,SCT  ft; OVC  ft,METAR CYYB 011200Z 27005KT 30SM SCT018 OVC034 00/M01 A2983 RMK SC4SC4 SLP118,2025-11-01T12:49:05Z,2025-11-01T08:49:05Z
CYYB,2025-11-01T13:00:00Z,2025-11-01T09:00:00Z,VFR,1,-1,87,280,6,48300,29.87,NA,OVC  ft,METAR CYYB 011300Z 28006KT 30SM OVC032 01/M01 A2987 RMK SC8 SLP131,2025-11-01T13:28:52Z,2025-11-01T09:28:52Z
CYYB,2025-11-01T14:00:00Z,2025-11-01T10:00:00Z,VFR,1,-1,87,280,8,48300,29.9,NA,OVC  ft,METAR CYYB 011400Z 28008KT 30SM OVC032 01/M01 A2990 RMK SC8 SLP140,2025-11-01T14:22:15Z,2025-11-01T10:22:15Z
CYYB,2025-11-01T15:00:00Z,2025-11-01T11:00:00Z,VFR,3,-1,75,290,8,48300,29.91,NA,OVC  ft,METAR CYYB 011500Z 29008KT 270V330 30SM OVC036 03/M01 A2991 RMK SC8 SLP145,2025-11-01T15:22:36Z,2025-11-01T11:22:36Z
CYYB,2025-11-01T16:00:00Z,2025-11-01T12:00:00Z,MVFR,3,-2,70,310,8,48300,29.93,NA,OVC  ft,METAR CYYB 011600Z 31008KT 30SM OVC030 03/M02 A2993 RMK SC8 SLP153,2025-11-01T16:28:36Z,2025-11-01T12:28:36Z
CYYB,2025-11-01T17:00:00Z,2025-11-01T13:00:00Z,VFR,4,-4,56,340,10,48300,29.94,NA,OVC  ft,METAR CYYB 011700Z 34010G15KT 300V020 30SM OVC032 04/M04 A2994 RMK SC8 SLP155,2025-11-01T17:20:00Z,2025-11-01T13:20:00Z
CYYB,2025-11-01T18:00:00Z,2025-11-01T14:00:00Z,VFR,4,-4,56,340,9,48300,29.94,NA,OVC  ft,METAR CYYB 011800Z 34009G16KT 320V020 30SM OVC032 04/M04 A2994 RMK SC8 SLP157,2025-11-01T18:32:53Z,2025-11-01T14:32:53Z
CYYB,2025-11-01T19:00:00Z,2025-11-01T15:00:00Z,VFR,4,-4,56,340,8,48300,29.95,NA,OVC  ft,METAR CYYB 011900Z 34008KT 290V350 30SM OVC034 04/M04 A2995 RMK SC8 SLP160,2025-11-01T19:18:49Z,2025-11-01T15:18:49Z
CYYB,2025-11-01T20:00:00Z,2025-11-01T16:00:00Z,VFR,4,-4,56,350,8,48300,29.97,NA,OVC  ft,METAR CYYB 012000Z 35008KT 320V020 30SM OVC032 04/M04 A2997 RMK SC8 SLP165,2025-11-01T20:25:25Z,2025-11-01T16:25:25Z
CYYB,2025-11-01T21:00:00Z,2025-11-01T17:00:00Z,VFR,3,-4,60,290,6,48300,29.99,NA,OVC  ft,METAR CYYB 012100Z 29006KT 30SM OVC034 03/M04 A2999 RMK SC8 SLP173,2025-11-01T21:21:10Z,2025-11-01T17:21:10Z
CYYB,2025-11-01T22:00:00Z,2025-11-01T18:00:00Z,VFR,3,-4,60,300,7,48300,30.01,NA,OVC  ft,METAR CYYB 012200Z 30007KT 30SM OVC034 03/M04 A3001 RMK SC8 SLP180,2025-11-01T22:23:04Z,2025-11-01T18:23:04Z
CYYB,2025-11-01T23:00:00Z,2025-11-01T19:00:00Z,VFR,2,-4,65,290,4,24100,30.03,NA,OVC  ft,METAR CYYB 012300Z 29004KT 15SM OVC034 02/M04 A3003 RMK SC8 SLP188,2025-11-01T23:22:47Z,2025-11-01T19:22:47Z
CYYB,2025-11-02T01:00:00Z,2025-11-01T21:00:00Z,VFR,2,-3,70,310,5,24100,30.07,NA,OVC  ft,METAR CYYB 020100Z 31005KT 15SM OVC034 02/M03 A3007 RMK SC8 SLP201,2025-11-02T02:08:16Z,2025-11-01T22:08:16Z
CYYB,2025-11-02T02:00:00Z,2025-11-01T22:00:00Z,VFR,2,-4,65,300,4,24100,30.08,NA,OVC  ft,METAR CYYB 020200Z 30004KT 15SM OVC034 02/M04 A3008 RMK SC8 LASTR STFD OBS/NEXT 021200 UTC SLP204,2025-11-02T02:25:12Z,2025-11-01T22:25:12Z
CYYB,2025-11-02T03:00:00Z,2025-11-01T23:00:00Z,VFR,1,-4,70,310,4,14500,30.09,NA,OVC  ft,METAR CYYB 020300Z AUTO 31004KT 9SM OVC032 01/M04 A3009 RMK SLP208,2025-11-02T03:49:51Z,2025-11-01T23:49:51Z
CYYB,2025-11-02T04:00:00Z,2025-11-02T00:00:00Z,VFR,1,-5,65,330,5,14500,30.09,NA,OVC  ft,METAR CYYB 020400Z AUTO 33005KT 290V350 9SM OVC032 01/M05 A3009 RMK SLP207,2025-11-02T04:30:19Z,2025-11-02T00:30:19Z
CYYB,2025-11-02T05:00:00Z,2025-11-02T01:00:00Z,VFR,1,-5,65,0,2,14500,30.09,NA,OVC  ft,METAR CYYB 020500Z AUTO VRB02KT 9SM OVC032 01/M05 A3009 RMK SLP207,2025-11-02T05:25:47Z,2025-11-02T01:25:47Z
CYYB,2025-11-02T06:00:00Z,2025-11-02T01:00:00Z,VFR,1,-5,65,260,3,14500,30.1,NA,OVC  ft,METAR CYYB 020600Z AUTO 26003KT 9SM OVC032 01/M05 A3010 RMK SLP210,2025-11-02T06:36:52Z,2025-11-02T01:36:52Z
CYYB,2025-11-02T07:00:00Z,2025-11-02T02:00:00Z,VFR,1,-5,65,300,6,14500,30.11,NA,OVC  ft,METAR CYYB 020700Z AUTO 30006KT 9SM OVC032 01/M05 A3011 RMK SLP214,2025-11-02T07:23:38Z,2025-11-02T02:23:38Z
CYYB,2025-11-02T08:00:00Z,2025-11-02T03:00:00Z,VFR,1,-5,65,310,5,14500,30.12,NA,OVC  ft,METAR CYYB 020800Z AUTO 31005KT 9SM OVC032 01/M05 A3012 RMK SLP218,2025-11-02T08:29:59Z,2025-11-02T03:29:59Z
CYYB,2025-11-02T09:00:00Z,2025-11-02T04:00:00Z,MVFR,1,-5,65,0,2,14500,30.13,NA,OVC  ft,METAR CYYB 020900Z AUTO VRB02KT 9SM OVC030 01/M05 A3013 RMK SLP221,2025-11-02T09:23:20Z,2025-11-02T04:23:20Z
CYYB,2025-11-02T10:00:00Z,2025-11-02T05:00:00Z,MVFR,1,-5,65,280,3,14500,30.16,NA,OVC  ft,METAR CYYB 021000Z AUTO 28003KT 9SM OVC030 01/M05 A3016 RMK SLP230,2025-11-02T10:24:58Z,2025-11-02T05:24:58Z
CYYB,2025-11-02T11:00:00Z,2025-11-02T06:00:00Z,VFR,1,-4,70,290,2,14500,30.16,NA,OVC  ft,METAR CYYB 021100Z AUTO 29002KT 9SM OVC034 01/M04 A3016 RMK SLP231,2025-11-02T11:19:30Z,2025-11-02T06:19:30Z
CYYB,2025-11-02T12:00:00Z,2025-11-02T07:00:00Z,VFR,0,-4,75,280,2,48300,30.17,NA,OVC  ft,METAR CYYB 021200Z 28002KT 30SM OVC034 00/M04 A3017 RMK SC8 SLP236,2025-11-02T12:48:24Z,2025-11-02T07:48:24Z
CYYB,2025-11-02T13:00:00Z,2025-11-02T08:00:00Z,VFR,1,-4,70,260,2,48300,30.18,NA,OVC  ft,METAR CYYB 021300Z 26002KT 30SM OVC034 01/M04 A3018 RMK SC8 SLP238,2025-11-02T13:28:11Z,2025-11-02T08:28:11Z
CYYC,2025-11-01T04:00:00Z,2025-11-01T00:00:00Z,VFR,9,-6,34,210,7,24100,29.64,NA,FEW  ft; BKN  ft,METAR CYYC 010400Z 21007KT 15SM FEW090 BKN240 09/M06 A2964 RMK AC1CI6 AC TR SLP071 DENSITY ALT 4200FT,2025-11-01T04:28:33Z,2025-11-01T00:28:33Z
CYYC,2025-11-01T05:00:00Z,2025-11-01T01:00:00Z,VFR,9,-5,37,190,5,24100,29.62,NA,BKN  ft,METAR CYYC 010500Z 19005KT 15SM BKN250 09/M05 A2962 RMK CI6 SLP062 DENSITY ALT 4200FT,2025-11-01T05:25:06Z,2025-11-01T01:25:06Z
CYYC,2025-11-01T06:00:00Z,2025-11-01T02:00:00Z,VFR,9,-4,40,260,3,24100,29.62,NA,BKN  ft,METAR CYYC 010600Z 26003KT 230V300 15SM BKN250 09/M04 A2962 RMK CI6 PRESRR SLP062 DENSITY ALT 4200FT,2025-11-01T06:35:13Z,2025-11-01T02:35:13Z
CYYC,2025-11-01T07:00:00Z,2025-11-01T03:00:00Z,VFR,6,-4,49,0,2,24100,29.62,NA,BKN  ft,METAR CYYC 010700Z VRB02KT 15SM BKN250 06/M04 A2962 RMK CI6 SLP063,2025-11-01T07:23:01Z,2025-11-01T03:23:01Z
CYYC,2025-11-01T08:00:00Z,2025-11-01T04:00:00Z,VFR,6,-4,49,0,0,24100,29.63,NA,FEW  ft; BKN  ft,METAR CYYC 010800Z 00000KT 15SM FEW210 BKN250 06/M04 A2963 RMK CI2CI4 SLP065,2025-11-01T08:30:53Z,2025-11-01T04:30:53Z
CYYC,2025-11-01T09:00:00Z,2025-11-01T05:00:00Z,VFR,7,-3,49,180,4,24100,29.65,NA,OVC  ft,METAR CYYC 010900Z 18004KT 15SM OVC250 07/M03 A2965 RMK CI8 SLP068,2025-11-01T09:24:38Z,2025-11-01T05:24:38Z
CYYC,2025-11-01T10:00:00Z,2025-11-01T06:00:00Z,VFR,5,-3,57,170,5,24100,29.65,NA,FEW  ft; OVC  ft,METAR CYYC 011000Z 17005KT 15SM FEW220 OVC250 05/M03 A2965 RMK CI2CI6 SLP072,2025-11-01T10:25:45Z,2025-11-01T06:25:45Z
CYYC,2025-11-01T11:00:00Z,2025-11-01T07:00:00Z,VFR,10,-2,43,230,7,24100,29.63,NA,OVC  ft,METAR CYYC 011100Z 23007KT 200V280 15SM OVC240 10/M02 A2963 RMK CI8 SLP057 DENSITY ALT 4200FT,2025-11-01T11:19:34Z,2025-11-01T07:19:34Z
CYYC,2025-11-01T12:00:00Z,2025-11-01T08:00:00Z,VFR,12,-1,41,230,8,24100,29.62,NA,BKN  ft,METAR CYYC 011200Z 23008G18KT 210V270 15SM BKN240 12/M01 A2962 RMK CI5 SLP050 DENSITY ALT 4500FT,2025-11-01T12:49:07Z,2025-11-01T08:49:07Z
CYYC,2025-11-01T13:00:00Z,2025-11-01T09:00:00Z,VFR,11,-1,44,230,12,24100,29.63,NA,SCT  ft; BKN  ft,METAR CYYC 011300Z 23012G17KT 15SM SCT180 BKN230 11/M01 A2963 RMK AC3CI3 SLP054 DENSITY ALT 4400FT,2025-11-01T13:28:52Z,2025-11-01T09:28:52Z
CYYC,2025-11-01T14:00:00Z,2025-11-01T10:00:00Z,VFR,11,0,47,230,8,24100,29.66,NA,SCT  ft; BKN  ft,METAR CYYC 011400Z 23008KT 15SM SCT180 BKN220 11/00 A2966 RMK AC4CI3 SLP064 DENSITY ALT 4400FT,2025-11-01T14:22:16Z,2025-11-01T10:22:16Z
CYYC,2025-11-01T15:00:00Z,2025-11-01T11:00:00Z,VFR,11,1,50,280,4,32200,29.67,NA,FEW  ft; BKN  ft,METAR CYYC 011500Z 28004KT 220V290 20SM FEW170 BKN200 11/01 A2967 RMK AC2CC5 VIRGA SW-NW SLP063 DENSITY ALT 4300FT,2025-11-01T15:22:37Z,2025-11-01T11:22:37Z
CYYC,2025-11-01T16:00:00Z,2025-11-01T12:00:00Z,VFR,10,1,54,140,3,32200,29.65,NA,BKN  ft; BKN  ft,METAR CYYC 011600Z 14003KT 090V160 20SM BKN190 BKN220 10/01 A2965 RMK AC5CI1 VIRGA SW-W SLP059 DENSITY ALT 4200FT,2025-11-01T16:28:37Z,2025-11-01T12:28:37Z
CYYC,2025-11-01T17:00:00Z,2025-11-01T13:00:00Z,VFR,11,1,50,190,9,24100,29.62,NA,SCT  ft; BKN  ft,METAR CYYC 011700Z 19009KT 15SM SCT130 BKN170 11/01 A2962 RMK AC3AC4 VIRGA SW-W SLP047 DENSITY ALT 4400FT,2025-11-01T17:20:02Z,2025-11-01T13:20:02Z
CYYC,2025-11-01T18:00:00Z,2025-11-01T14:00:00Z,VFR,12,1,47,190,7,32200,29.57,NA,FEW  ft; SCT  ft; BKN  ft,METAR CYYC 011800Z 19007KT 20SM FEW130 SCT170 BKN210 12/01 A2957 RMK AC1AC3CC2 PRESFR SLP027 DENSITY ALT 4600FT,2025-11-01T18:32:54Z,2025-11-01T14:32:54Z
CYYC,2025-11-01T19:00:00Z,2025-11-01T15:00:00Z,VFR,13,1,44,190,9,32200,29.54,NA,SCT  ft; BKN  ft; OVC  ft,METAR CYYC 011900Z 19009KT 20SM SCT150 BKN210 OVC250 13/01 A2954 RMK AC4CC3CI1 VIRGA S-SW SLP020 DENSITY ALT 4700FT,2025-11-01T19:18:51Z,2025-11-01T15:18:51Z
CYYC,2025-11-01T20:00:00Z,2025-11-01T16:00:00Z,VFR,13,2,47,190,15,32200,29.47,NA,SCT  ft; BKN  ft; BKN  ft,METAR CYYC 012000Z 19015G21KT 20SM SCT100 BKN140 BKN220 13/02 A2947 RMK AC3AC3CC1 CC TR DIST SH SW-W PRESFR SLP995 DENSITY ALT 4800FT,2025-11-01T20:25:26Z,2025-11-01T16:25:26Z
CYYC,2025-11-01T21:00:00Z,2025-11-01T17:00:00Z,VFR,15,2,42,190,20,32200,29.38,NA,FEW  ft; FEW  ft; SCT  ft,METAR CYYC 012100Z 19020G25KT 20SM FEW100 FEW140 SCT180 15/02 A2938 RMK AC1AC1AC2 DIST SH SW-W PRESFR SLP962 DENSITY ALT 5000FT,2025-11-01T21:21:11Z,2025-11-01T17:21:11Z
CYYC,2025-11-01T22:00:00Z,2025-11-01T18:00:00Z,VFR,15,2,42,210,18,32200,29.35,NA,FEW  ft; SCT  ft,METAR CYYC 012200Z 21018G26KT 20SM FEW110 SCT180 15/02 A2935 RMK AC2AC1 SLP956 DENSITY ALT 5100FT,2025-11-01T22:23:05Z,2025-11-01T18:23:05Z
CYYC,2025-11-01T23:00:00Z,2025-11-01T19:00:00Z,VFR,13,2,47,230,10,32200,29.39,NA,SCT  ft; SCT  ft,METAR CYYC 012300Z 23010G18KT 20SM SCT110 SCT180 13/02 A2939 RMK AC3AC1 DIST SH W SLP964 DENSITY ALT 4900FT,2025-11-01T23:22:48Z,2025-11-01T19:22:48Z
CYYC,2025-11-02T01:47:00Z,2025-11-01T21:47:00Z,VFR,9,5,76,250,4,24100,29.43,NA,FEW  ft; FEW  ft,SPECI CYYC 020147Z 25004KT 210V280 15SM FEW096 FEW120 09/05 A2943 RMK AC1AC1 AC TR VIRGA S SLP982 DENSITY ALT 4300FT,2025-11-02T02:08:17Z,2025-11-01T22:08:17Z
CYYC,2025-11-02T02:00:00Z,2025-11-01T22:00:00Z,VFR,9,5,76,230,6,24100,29.43,NA,FEW  ft; FEW  ft,METAR CYYC 020200Z 23006KT 15SM FEW096 FEW120 09/05 A2943 RMK AC1AC1 AC TR VIRGA SE-S SLP982 DENSITY ALT 4300FT,2025-11-02T02:25:13Z,2025-11-01T22:25:13Z
CYYC,2025-11-02T03:00:00Z,2025-11-01T23:00:00Z,VFR,7,5,87,240,5,24100,29.45,NA,FEW  ft,METAR CYYC 020300Z 24005KT 15SM FEW100 07/05 A2945 RMK AC1 AC TR SLP991 DENSITY ALT 4100FT,2025-11-02T03:49:52Z,2025-11-01T23:49:52Z
CYYC,2025-11-02T04:00:00Z,2025-11-02T00:00:00Z,VFR,7,3,76,270,11,24100,29.47,NA,FEW  ft,METAR CYYC 020400Z 27011G17KT 15SM FEW100 07/03 A2947 RMK AC1 AC TR SLP000 DENSITY ALT 4000FT,2025-11-02T04:30:21Z,2025-11-02T00:30:21Z
CYYC,2025-11-02T05:00:00Z,2025-11-02T01:00:00Z,VFR,5,2,81,330,11,24100,29.53,NA,FEW  ft,METAR CYYC 020500Z 33011KT 15SM FEW090 05/02 A2953 RMK AC1 AC TR SLP021,2025-11-02T05:25:47Z,2025-11-02T01:25:47Z
CYYC,2025-11-02T06:12:00Z,2025-11-02T01:12:00Z,MVFR,2,0,87,10,12,24100,29.61,NA,BKN  ft,SPECI CYYC 020612Z 01012KT 15SM BKN026 02/00 A2961 RMK SC5 PRESRR SLP051,2025-11-02T06:36:53Z,2025-11-02T01:36:53Z
CYYC,2025-11-02T07:00:00Z,2025-11-02T02:00:00Z,MVFR,2,-1,81,340,22,9999,29.68,NA,SCT  ft; BKN  ft; BKN  ft,METAR CYYC 020700Z 34022G30KT 10SM SCT012 BKN026 BKN096 02/M01 A2968 RMK SC3SC2AC2 PRESRR SLP075,2025-11-02T07:23:39Z,2025-11-02T02:23:39Z
CYYC,2025-11-02T08:10:00Z,2025-11-02T03:10:00Z,IFR,1,-1,87,330,17,2000,29.75,NA,BKN  ft; OVC  ft,SPECI CYYC 020810Z 33017G23KT 1 1/4SM -SNDZ BKN007 OVC014 01/M01 A2975 RMK ST6SC2 PRESRR SLP101,2025-11-02T08:29:59Z,2025-11-02T03:29:59Z
CYYC,2025-11-02T09:00:00Z,2025-11-02T04:00:00Z,VFR,0,0,100,350,12,12900,29.79,NA,SCT  ft,METAR CYYC 020900Z 35012KT 8SM VCSH SCT014 00/M00 A2979 RMK SC3 VIS N LWR / SHSN N / PRESRR SLP112,2025-11-02T09:23:21Z,2025-11-02T04:23:21Z
CYYC,2025-11-02T10:00:00Z,2025-11-02T05:00:00Z,VFR,0,-1,93,320,5,24100,29.82,NA,FEW  ft,METAR CYYC 021000Z 32005KT 15SM FEW096 00/M01 A2982 RMK AC1 AC TR SLP123,2025-11-02T10:24:59Z,2025-11-02T05:24:59Z
CYYC,2025-11-02T11:00:00Z,2025-11-02T06:00:00Z,VFR,0,-2,87,220,6,24100,29.82,NA,SKC  ft,METAR CYYC 021100Z 22006KT 15SM SKC 00/M02 A2982 RMK SLP126,2025-11-02T11:19:31Z,2025-11-02T06:19:31Z
CYYC,2025-11-02T12:00:00Z,2025-11-02T07:00:00Z,VFR,0,-2,87,230,9,24100,29.84,NA,SKC  ft,METAR CYYC 021200Z 23009KT 15SM SKC M00/M02 A2984 RMK SLP134,2025-11-02T12:48:25Z,2025-11-02T07:48:25Z
CYYC,2025-11-02T13:00:00Z,2025-11-02T08:00:00Z,VFR,-2,-3,93,190,6,24100,29.84,NA,FEW  ft,METAR CYYC 021300Z 19006KT 15SM FEW110 M02/M03 A2984 RMK AC2 SLP142,2025-11-02T13:28:12Z,2025-11-02T08:28:12Z
CYYG,2025-11-01T04:00:00Z,2025-11-01T00:00:00Z,MVFR,12,9,82,190,16,24100,28.94,NA,OVC  ft,METAR CYYG 010400Z 19016G23KT 15SM OVC022 12/09 A2894 RMK SC8 SLP801 DENSITY ALT 1000FT,2025-11-01T04:28:35Z,2025-11-01T00:28:35Z
CYYG,2025-11-01T05:00:00Z,2025-11-01T01:00:00Z,MVFR,11,9,88,200,15,24100,28.92,NA,OVC  ft,METAR CYYG 010500Z 20015G23KT 15SM -SHRA OVC023 11/09 A2892 RMK SC8 CVCTV CLD EMBD SLP794 DENSITY ALT 1000FT,2025-11-01T05:25:07Z,2025-11-01T01:25:07Z
CYYG,2025-11-01T06:00:00Z,2025-11-01T02:00:00Z,MVFR,11,8,82,210,16,24100,28.91,NA,OVC  ft,METAR CYYG 010600Z 21016G28KT 15SM -SHRA OVC017 11/08 A2891 RMK SC8 CVCTV CLD EMBD SLP793 DENSITY ALT 900FT,2025-11-01T06:35:14Z,2025-11-01T02:35:14Z
CYYG,2025-11-01T07:00:00Z,2025-11-01T03:00:00Z,MVFR,10,7,82,220,20,24100,28.92,NA,OVC  ft,METAR CYYG 010700Z 22020G32KT 15SM OVC018 10/07 A2892 RMK SC8 CVCTV CLD EMBD SLP795 DENSITY ALT 900FT,2025-11-01T07:23:04Z,2025-11-01T03:23:04Z
CYYG,2025-11-01T08:00:00Z,2025-11-01T04:00:00Z,MVFR,10,7,82,220,18,24100,28.91,NA,OVC  ft,METAR CYYG 010800Z 22018G27KT 15SM OVC018 10/07 A2891 RMK SC8 CVCTV CLD EMBD SLP792 DENSITY ALT 900FT,2025-11-01T08:30:54Z,2025-11-01T04:30:54Z
CYYG,2025-11-01T09:00:00Z,2025-11-01T05:00:00Z,MVFR,10,7,82,220,20,24100,28.91,NA,OVC  ft,METAR CYYG 010900Z 22020G31KT 15SM -SHRA OVC018 10/07 A2891 RMK SC8 CVCTV CLD EMBD SLP792 DENSITY ALT 800FT,2025-11-01T09:24:39Z,2025-11-01T05:24:39Z
CYYG,2025-11-01T10:00:00Z,2025-11-01T06:00:00Z,MVFR,9,6,82,210,17,24100,28.91,NA,OVC  ft,METAR CYYG 011000Z 21017G28KT 15SM OVC020 09/06 A2891 RMK SC8 SLP791 DENSITY ALT 700FT,2025-11-01T10:25:46Z,2025-11-01T06:25:46Z
CYYG,2025-11-01T11:00:00Z,2025-11-01T07:00:00Z,MVFR,9,6,82,230,18,24100,28.92,NA,OVC  ft,METAR CYYG 011100Z 23018G28KT 15SM -SHRA OVC022 09/06 A2892 RMK SC8 CVCTV CLD EMBD SLP794 DENSITY ALT 700FT,2025-11-01T11:19:35Z,2025-11-01T07:19:35Z
CYYG,2025-11-01T12:00:00Z,2025-11-01T08:00:00Z,MVFR,9,6,82,240,18,24100,28.94,NA,OVC  ft,METAR CYYG 011200Z 24018G27KT 15SM -SHRA OVC024 09/06 A2894 RMK SC8 CVCTV CLD EMBD SLP803 DENSITY ALT 700FT,2025-11-01T12:49:08Z,2025-11-01T08:49:08Z
CYYG,2025-11-01T13:00:00Z,2025-11-01T09:00:00Z,MVFR,8,6,87,250,20,6400,28.98,NA,OVC  ft,METAR CYYG 011300Z 25020G30KT 4SM -SHRA BR OVC016 08/06 A2898 RMK SC8 CVCTV CLD EMBD SLP817 DENSITY ALT 500FT,2025-11-01T13:28:55Z,2025-11-01T09:28:55Z
CYYG,2025-11-01T14:00:00Z,2025-11-01T10:00:00Z,MVFR,9,6,82,270,22,24100,29.01,NA,BKN  ft,METAR CYYG 011400Z 27022G35KT 15SM -SHRA BKN017 09/06 A2901 RMK SC7 CVCTV CLD EMBD SLP827 DENSITY ALT 600FT,2025-11-01T14:22:18Z,2025-11-01T10:22:18Z
CYYG,2025-11-01T15:00:00Z,2025-11-01T11:00:00Z,MVFR,10,5,71,260,19,24100,29.07,NA,BKN  ft; BKN  ft,METAR CYYG 011500Z 26019G32KT 15SM BKN028 BKN100 10/05 A2907 RMK SC6AC1 SLP846 DENSITY ALT 700FT,2025-11-01T15:22:39Z,2025-11-01T11:22:39Z
CYYG,2025-11-01T16:00:00Z,2025-11-01T12:00:00Z,VFR,10,4,67,260,18,24100,29.11,NA,BKN  ft,METAR CYYG 011600Z 26018G36KT 15SM BKN031 10/04 A2911 RMK SC7 SLP862 DENSITY ALT 600FT,2025-11-01T16:28:38Z,2025-11-01T12:28:38Z
CYYG,2025-11-01T17:00:00Z,2025-11-01T13:00:00Z,MVFR,10,4,67,260,17,24100,29.14,NA,BKN  ft,METAR CYYG 011700Z 26017G31KT 15SM BKN028 10/04 A2914 RMK SC7 SLP872 DENSITY ALT 500FT,2025-11-01T17:20:04Z,2025-11-01T13:20:04Z
CYYG,2025-11-01T18:00:00Z,2025-11-01T14:00:00Z,MVFR,10,4,67,260,15,24100,29.17,NA,OVC  ft,METAR CYYG 011800Z 26015G31KT 15SM OVC030 10/04 A2917 RMK SC8 PRESRR SLP881 DENSITY ALT 500FT,2025-11-01T18:32:55Z,2025-11-01T14:32:55Z
CYYG,2025-11-01T19:00:00Z,2025-11-01T15:00:00Z,VFR,10,3,62,270,14,24100,29.22,NA,OVC  ft,METAR CYYG 011900Z 27014G28KT 15SM OVC032 10/03 A2922 RMK SC8 SLP897 DENSITY ALT 400FT,2025-11-01T19:18:53Z,2025-11-01T15:18:53Z
CYYG,2025-11-01T20:00:00Z,2025-11-01T16:00:00Z,VFR,10,3,62,260,16,24100,29.26,NA,OVC  ft,METAR CYYG 012000Z 26016G25KT 15SM OVC045 10/03 A2926 RMK SC8 SLP911 DENSITY ALT 400FT,2025-11-01T20:25:28Z,2025-11-01T16:25:28Z
CYYG,2025-11-01T21:00:00Z,2025-11-01T17:00:00Z,VFR,10,3,62,270,10,24100,29.3,NA,OVC  ft,METAR CYYG 012100Z 27010G21KT 240V300 15SM OVC040 10/03 A2930 RMK SC8 SLP924 DENSITY ALT 400FT,2025-11-01T21:21:12Z,2025-11-01T17:21:12Z
CYYG,2025-11-01T22:00:00Z,2025-11-01T18:00:00Z,VFR,10,3,62,270,17,24100,29.34,NA,FEW  ft; OVC  ft,METAR CYYG 012200Z 27017G27KT 15SM FEW022 OVC044 10/03 A2934 RMK SC1SC7 SLP938,2025-11-01T22:23:06Z,2025-11-01T18:23:06Z
CYYG,2025-11-01T23:00:00Z,2025-11-01T19:00:00Z,VFR,9,4,71,260,12,24100,29.39,NA,OVC  ft,METAR CYYG 012300Z 26012G30KT 15SM -SHRA OVC035 09/04 A2939 RMK SC8 CVCTV CLD EMBD PRESRR SLP954,2025-11-01T23:22:49Z,2025-11-01T19:22:49Z
CYYG,2025-11-02T01:00:00Z,2025-11-01T21:00:00Z,VFR,8,2,66,270,18,24100,29.45,NA,OVC  ft,METAR CYYG 020100Z 27018G29KT 15SM -SHRA OVC039 08/02 A2945 RMK SC8 CVCTV CLD EMBD CIG RAG SLP977,2025-11-02T02:08:18Z,2025-11-01T22:08:18Z
CYYG,2025-11-02T02:00:00Z,2025-11-01T22:00:00Z,MVFR,8,2,66,270,16,24100,29.49,NA,OVC  ft,METAR CYYG 020200Z 27016G25KT 15SM -SHRA OVC030 08/02 A2949 RMK SC8 CVCTV CLD EMBD CIG RAG SLP991,2025-11-02T02:25:14Z,2025-11-01T22:25:14Z
CYYG,2025-11-02T03:00:00Z,2025-11-01T23:00:00Z,MVFR,7,2,71,280,15,24100,29.52,NA,BKN  ft,METAR CYYG 020300Z 28015G26KT 15SM BKN028 07/02 A2952 RMK SC7 CIG RAG SLP000,2025-11-02T03:49:53Z,2025-11-01T23:49:53Z
CYYG,2025-11-02T04:00:00Z,2025-11-02T00:00:00Z,MVFR,6,2,76,280,15,24100,29.56,NA,BKN  ft,METAR CYYG 020400Z 28015G27KT 15SM BKN024 06/02 A2956 RMK SC7 SLP014,2025-11-02T04:30:22Z,2025-11-02T00:30:22Z
CYYG,2025-11-02T05:00:00Z,2025-11-02T01:00:00Z,MVFR,6,3,81,270,12,24100,29.61,NA,BKN  ft,METAR CYYG 020500Z 27012G24KT 15SM -SHRA BKN022 06/03 A2961 RMK SC7 CVCTV CLD EMBD CIG RAG SLP029,2025-11-02T05:25:48Z,2025-11-02T01:25:48Z
CYYG,2025-11-02T06:04:00Z,2025-11-02T01:04:00Z,MVFR,5,3,87,280,13,19300,29.66,NA,BKN  ft; BKN  ft,SPECI CYYG 020604Z 28013G23KT 12SM -DZ BKN022 BKN035 05/03 A2966 RMK SC5SC2 PRESRR SLP047,2025-11-02T06:36:55Z,2025-11-02T01:36:55Z
CYYG,2025-11-02T07:00:00Z,2025-11-02T02:00:00Z,VFR,6,1,71,280,15,24100,29.69,NA,SCT  ft,METAR CYYG 020700Z 28015G21KT 15SM -DZ SCT022 06/01 A2969 RMK SC3 SLP056,2025-11-02T07:23:40Z,2025-11-02T02:23:40Z
CYYG,2025-11-02T08:00:00Z,2025-11-02T03:00:00Z,VFR,6,2,76,280,11,24100,29.72,NA,BKN  ft,METAR CYYG 020800Z CCA 28011G21KT 15SM -DZ BKN033 06/02 A2972 RMK SC6 SLP068,2025-11-02T08:30:01Z,2025-11-02T03:30:01Z
CYYG,2025-11-02T09:00:00Z,2025-11-02T04:00:00Z,VFR,5,1,76,280,13,24100,29.76,NA,BKN  ft,METAR CYYG 020900Z 28013G20KT 15SM BKN033 05/01 A2976 RMK SC7 SLP082,2025-11-02T09:23:23Z,2025-11-02T04:23:23Z
CYYG,2025-11-02T10:00:00Z,2025-11-02T05:00:00Z,MVFR,5,1,76,280,14,24100,29.8,NA,BKN  ft,METAR CYYG 021000Z 28014G20KT 15SM BKN027 05/01 A2980 RMK SC6 SLP095,2025-11-02T10:25:00Z,2025-11-02T05:25:00Z
CYYG,2025-11-02T11:00:00Z,2025-11-02T06:00:00Z,MVFR,5,1,76,280,11,24100,29.84,NA,BKN  ft,METAR CYYG 021100Z 28011G19KT 15SM BKN026 05/01 A2984 RMK SC7 SLP108,2025-11-02T11:19:33Z,2025-11-02T06:19:33Z
CYYG,2025-11-02T12:00:00Z,2025-11-02T07:00:00Z,MVFR,5,2,81,300,8,24100,29.88,NA,BKN  ft,METAR CYYG 021200Z 30008KT 15SM -SHRA BKN024 05/02 A2988 RMK SC6 CVCTV CLD EMBD SLP123,2025-11-02T12:48:27Z,2025-11-02T07:48:27Z
CYYG,2025-11-02T13:00:00Z,2025-11-02T08:00:00Z,MVFR,5,3,87,290,9,19300,29.92,NA,BKN  ft,METAR CYYG 021300Z 29009KT 12SM -SHRA BKN022 05/03 A2992 RMK SC7 CVCTV CLD EMBD VIS LWR E SLP135,2025-11-02T13:28:14Z,2025-11-02T08:28:14Z
CYYJ,2025-11-01T04:00:00Z,2025-11-01T00:00:00Z,VFR,11,11,100,150,9,32200,29.89,NA,FEW  ft; BKN  ft; OVC  ft,METAR CYYJ 010400Z 15009KT 20SM FEW012 BKN034 OVC180 11/11 A2989 RMK SC1SC5AC3 SC TR SLP122,2025-11-01T04:28:33Z,2025-11-01T00:28:33Z
CYYJ,2025-11-01T05:00:00Z,2025-11-01T01:00:00Z,VFR,10,10,100,130,10,32200,29.9,NA,FEW  ft; SCT  ft; BKN  ft; BKN  ft,METAR CYYJ 010500Z 13010KT 20SM -RA FEW003 SCT032 BKN094 BKN250 10/10 A2990 RMK SC1SC3AC3CI1 CI TR SLP128,2025-11-01T05:25:06Z,2025-11-01T01:25:06Z
CYYJ,2025-11-01T06:00:00Z,2025-11-01T02:00:00Z,VFR,11,11,100,130,4,48300,29.91,NA,FEW  ft; SCT  ft; BKN  ft,METAR CYYJ 010600Z 13004KT 100V170 30SM FEW004 SCT042 BKN140 11/11 A2991 RMK SF1SC3AC3 SLP130,2025-11-01T06:35:12Z,2025-11-01T02:35:12Z
CYYJ,2025-11-01T07:00:00Z,2025-11-01T03:00:00Z,VFR,11,11,100,160,9,48300,29.91,NA,FEW  ft; BKN  ft; OVC  ft,METAR CYYJ 010700Z 16009KT 30SM FEW050 BKN083 OVC130 11/11 A2991 RMK SC1AC5AC3 SC TR SLP129,2025-11-01T07:23:00Z,2025-11-01T03:23:00Z
CYYJ,2025-11-01T08:00:00Z,2025-11-01T04:00:00Z,VFR,10,10,100,130,9,48300,29.88,NA,BKN  ft,METAR CYYJ 010800Z 13009KT 30SM BKN082 10/10 A2988 RMK AC7 SLP120,2025-11-01T08:30:52Z,2025-11-01T04:30:52Z
CYYJ,2025-11-01T09:00:00Z,2025-11-01T05:00:00Z,VFR,10,10,100,130,6,9700,29.86,NA,FEW  ft; OVC  ft,METAR CYYJ 010900Z 13006KT 6SM -RA BR FEW008 OVC054 10/10 A2986 RMK SF2SC6 SLP114,2025-11-01T09:24:38Z,2025-11-01T05:24:38Z
CYYJ,2025-11-01T10:00:00Z,2025-11-01T06:00:00Z,LIFR,10,10,100,160,6,9700,29.83,NA,BKN  ft; OVC  ft,METAR CYYJ 011000Z 16006KT 6SM -RA BR BKN004 OVC073 10/10 A2983 RMK SC5AC3 SLP104,2025-11-01T10:25:45Z,2025-11-01T06:25:45Z
CYYJ,2025-11-01T11:00:00Z,2025-11-01T07:00:00Z,LIFR,10,10,100,50,4,8000,29.77,NA,OVC  ft,METAR CYYJ 011100Z 05004KT 040V140 5SM -RA BR OVC002 10/10 A2977 RMK SC8 PRESFR SLP082,2025-11-01T11:19:34Z,2025-11-01T07:19:34Z
CYYJ,2025-11-01T12:00:00Z,2025-11-01T08:00:00Z,LIFR,10,10,100,0,0,8000,29.71,NA,OVC  ft,METAR CYYJ 011200Z 00000KT 5SM -RA BR OVC002 10/10 A2971 RMK SC8 SLP064,2025-11-01T12:49:06Z,2025-11-01T08:49:06Z
CYYJ,2025-11-01T13:13:00Z,2025-11-01T09:13:00Z,LIFR,10,10,100,270,2,8000,29.66,NA,BKN  ft; OVC  ft,SPECI CYYJ 011313Z 27002KT 5SM -RA BR BKN001 OVC012 10/10 A2966 RMK SC7SC1 PRESFR SLP046,2025-11-01T13:28:52Z,2025-11-01T09:28:52Z
CYYJ,2025-11-01T14:00:00Z,2025-11-01T10:00:00Z,IFR,10,10,100,300,5,9700,29.61,NA,FEW  ft; OVC  ft,METAR CYYJ 011400Z 30005KT 6SM RA BR FEW003 OVC005 10/10 A2961 RMK SF1SC8 SF TR PRESFR SLP030,2025-11-01T14:22:16Z,2025-11-01T10:22:16Z
CYYJ,2025-11-01T15:16:00Z,2025-11-01T11:16:00Z,MVFR,10,10,100,300,9,4800,29.62,NA,SCT  ft; BKN  ft; OVC  ft,SPECI CYYJ 011516Z 30009KT 3SM RA BR SCT006 BKN013 OVC019 10/10 A2962 RMK SF4SC2NS2 SLP031,2025-11-01T15:22:37Z,2025-11-01T11:22:37Z
CYYJ,2025-11-01T16:15:00Z,2025-11-01T12:15:00Z,MVFR,10,9,94,320,9,8000,29.6,NA,SCT  ft; BKN  ft; OVC  ft,SPECI CYYJ 011615Z 32009KT 290V010 5SM RA BR SCT009 BKN016 OVC032 10/09 A2960 RMK SF3SC2NS3 SLP027,2025-11-01T16:28:37Z,2025-11-01T12:28:37Z
CYYJ,2025-11-01T17:00:00Z,2025-11-01T13:00:00Z,VFR,10,10,100,300,12,24100,29.63,NA,FEW  ft; FEW  ft; BKN  ft; OVC  ft,METAR CYYJ 011700Z 30012KT 15SM -RA FEW009 FEW018 BKN042 OVC058 10/10 A2963 RMK SF1SC1SC4SC3 SF TR SLP036,2025-11-01T17:20:02Z,2025-11-01T13:20:02Z
CYYJ,2025-11-01T18:00:00Z,2025-11-01T14:00:00Z,VFR,10,10,100,250,8,32200,29.69,NA,FEW  ft; SCT  ft; OVC  ft,METAR CYYJ 011800Z 25008KT 20SM -RA FEW026 SCT044 OVC060 10/10 A2969 RMK SC1SC3SC4 SLP056,2025-11-01T18:32:54Z,2025-11-01T14:32:54Z
CYYJ,2025-11-01T19:00:00Z,2025-11-01T15:00:00Z,VFR,12,12,100,220,3,48300,29.73,NA,FEW  ft; SCT  ft; BKN  ft,METAR CYYJ 011900Z 22003KT 180V280 30SM FEW014 SCT055 BKN088 12/12 A2973 RMK SC1SC3AC3 SC TR SLP069,2025-11-01T19:18:50Z,2025-11-01T15:18:50Z
CYYJ,2025-11-01T20:00:00Z,2025-11-01T16:00:00Z,VFR,13,12,94,320,4,48300,29.77,NA,SCT  ft; SCT  ft; BKN  ft,METAR CYYJ 012000Z 32004KT 30SM SCT018TCU SCT028 BKN042 13/12 A2977 RMK TCU3SC1SC2 SLP084,2025-11-01T20:25:26Z,2025-11-01T16:25:26Z
CYYJ,2025-11-01T21:00:00Z,2025-11-01T17:00:00Z,VFR,14,11,82,190,6,48300,29.83,NA,FEW  ft; SCT  ft,METAR CYYJ 012100Z 19006KT 140V230 30SM FEW022TCU SCT040 14/11 A2983 RMK TCU2SC2 SLP102,2025-11-01T21:21:11Z,2025-11-01T17:21:11Z
CYYJ,2025-11-01T22:00:00Z,2025-11-01T18:00:00Z,VFR,13,6,63,250,14,48300,29.87,NA,FEW  ft; FEW  ft,METAR CYYJ 012200Z 25014G23KT 30SM FEW025TCU FEW200 13/06 A2987 RMK TCU2CI1 CI TR SLP117,2025-11-01T22:23:04Z,2025-11-01T18:23:04Z
CYYJ,2025-11-01T23:00:00Z,2025-11-01T19:00:00Z,VFR,14,5,55,250,11,48300,29.92,NA,FEW  ft; FEW  ft,METAR CYYJ 012300Z 25011G17KT 30SM FEW025TCU FEW200 14/05 A2992 RMK TCU2CC1 CC TR SLP133,2025-11-01T23:22:48Z,2025-11-01T19:22:48Z
CYYJ,2025-11-02T01:00:00Z,2025-11-01T21:00:00Z,VFR,10,6,76,260,7,48300,29.98,NA,FEW  ft; SCT  ft; BKN  ft,METAR CYYJ 020100Z 26007KT 30SM FEW025 SCT044 BKN250 10/06 A2998 RMK SC2SC2CI1 SLP153,2025-11-02T02:08:16Z,2025-11-01T22:08:16Z
CYYJ,2025-11-02T02:00:00Z,2025-11-01T22:00:00Z,VFR,9,5,76,0,0,48300,30,NA,FEW  ft; SCT  ft,METAR CYYJ 020200Z 00000KT 30SM FEW025 SCT038 09/05 A3000 RMK SC1SC3 SLP162,2025-11-02T02:25:12Z,2025-11-01T22:25:12Z
CYYJ,2025-11-02T03:00:00Z,2025-11-01T23:00:00Z,VFR,8,5,82,210,4,32200,30.02,NA,FEW  ft; SCT  ft; BKN  ft; BKN  ft,METAR CYYJ 020300Z 21004KT 20SM FEW020 SCT037 BKN100 BKN130 08/05 A3002 RMK SC1SC3AC1AC1 SLP169,2025-11-02T03:49:51Z,2025-11-01T23:49:51Z
CYYJ,2025-11-02T04:00:00Z,2025-11-02T00:00:00Z,VFR,9,6,82,190,9,32200,30.04,NA,FEW  ft; SCT  ft; SCT  ft,METAR CYYJ 020400Z 19009KT 20SM FEW034 SCT052 SCT100 09/06 A3004 RMK SC2SC1AC1 SLP175,2025-11-02T04:30:20Z,2025-11-02T00:30:20Z
CYYJ,2025-11-02T05:00:00Z,2025-11-02T01:00:00Z,VFR,10,5,71,230,7,24100,30.07,NA,FEW  ft; BKN  ft; BKN  ft; OVC  ft,METAR CYYJ 020500Z 23007G20KT 220V280 15SM -SHRA FEW032 BKN053 BKN100 OVC150 10/05 A3007 RMK CU2SC4AC1AC1 SLP185,2025-11-02T05:25:47Z,2025-11-02T01:25:47Z
CYYJ,2025-11-02T06:00:00Z,2025-11-02T01:00:00Z,VFR,8,6,87,180,9,32200,30.1,NA,FEW  ft; SCT  ft; SCT  ft; BKN  ft,METAR CYYJ 020600Z 18009KT 20SM FEW038 SCT050 SCT070 BKN150 08/06 A3010 RMK SC1SC2AC1AC1 SLP194,2025-11-02T06:36:53Z,2025-11-02T01:36:53Z
CYYJ,2025-11-02T07:00:00Z,2025-11-02T02:00:00Z,VFR,8,6,87,230,10,24100,30.13,NA,FEW  ft; SCT  ft; BKN  ft; BKN  ft,METAR CYYJ 020700Z 23010KT 15SM -RA FEW037 SCT056 BKN100 BKN160 08/06 A3013 RMK SC2SC2AC1AC1 SLP204,2025-11-02T07:23:38Z,2025-11-02T02:23:38Z
CYYJ,2025-11-02T08:00:00Z,2025-11-02T03:00:00Z,VFR,7,5,87,270,4,32200,30.14,NA,FEW  ft,METAR CYYJ 020800Z 27004KT 220V280 20SM FEW040 07/05 A3014 RMK SC1 SLP209,2025-11-02T08:29:59Z,2025-11-02T03:29:59Z
CYYJ,2025-11-02T09:00:00Z,2025-11-02T04:00:00Z,VFR,4,3,93,0,2,32200,30.16,NA,FEW  ft,METAR CYYJ 020900Z VRB02KT 20SM FEW040 04/03 A3016 RMK SC1 SLP216,2025-11-02T09:23:21Z,2025-11-02T04:23:21Z
CYYJ,2025-11-02T10:00:00Z,2025-11-02T05:00:00Z,VFR,3,2,93,270,2,32200,30.19,NA,FEW  ft,METAR CYYJ 021000Z 27002KT 20SM FEW040 03/02 A3019 RMK SC1 PRESRR SLP226,2025-11-02T10:24:58Z,2025-11-02T05:24:58Z
CYYJ,2025-11-02T11:00:00Z,2025-11-02T06:00:00Z,VFR,4,4,100,250,4,24100,30.22,NA,BKN  ft; BKN  ft,METAR CYYJ 021100Z CCA 25004KT 250V340 15SM -RA BKN035 BKN072 04/04 A3022 RMK SC5AC2 SLP236,2025-11-02T11:19:31Z,2025-11-02T06:19:31Z
CYYJ,2025-11-02T12:00:00Z,2025-11-02T07:00:00Z,VFR,5,4,93,0,0,24100,30.24,NA,SCT  ft; BKN  ft; BKN  ft; OVC  ft,METAR CYYJ 021200Z 00000KT 15SM -RA SCT037 BKN055 BKN073 OVC140 05/04 A3024 RMK SC3SC2AC1AC2 SLP242,2025-11-02T12:48:25Z,2025-11-02T07:48:25Z
CYYJ,2025-11-02T13:00:00Z,2025-11-02T08:00:00Z,VFR,6,5,93,0,0,24100,30.26,NA,BKN  ft; OVC  ft,METAR CYYJ 021300Z 00000KT 15SM -RA BKN040 OVC058 06/05 A3026 RMK SC6SC2 SLP248,2025-11-02T13:28:12Z,2025-11-02T08:28:12Z
CYYT,2025-11-01T04:08:00Z,2025-11-01T00:08:00Z,LIFR,10,10,100,110,21,1200,29.07,NA,OVC  ft,SPECI CYYT 010408Z 11021G30KT 3/4SM R10/P6000FT/D R16/P6000FT/N RA BR OVC002 10/10 A2907 RMK ST8 PRESFR SLP847 DENSITY ALT 1000FT,2025-11-01T04:28:35Z,2025-11-01T00:28:35Z
CYYT,2025-11-01T05:00:00Z,2025-11-01T01:00:00Z,LIFR,10,10,100,90,21,1200,28.93,NA,OVC  ft,METAR CYYT 010500Z 09021G34KT 3/4SM R10/5000VP6000FT/U R16/6000FT/U +RA BR OVC002 10/10 A2893 RMK ST8 PRESFR SLP802 DENSITY ALT 1100FT,2025-11-01T05:25:08Z,2025-11-01T01:25:08Z
CYYT,2025-11-01T06:00:00Z,2025-11-01T02:00:00Z,LIFR,9,9,100,90,17,NA,28.8,NA,OVX  ft,METAR CYYT 010600Z 09017G27KT 1/2SM R10/P6000FT/U R16/5000VP6000FT/U RA FG VV002 09/09 A2880 RMK FG8 /R37/ PRESFR SLP756 DENSITY ALT 1200FT,2025-11-01T06:35:14Z,2025-11-01T02:35:14Z
CYYT,2025-11-01T07:16:00Z,2025-11-01T03:16:00Z,LIFR,10,10,100,10,7,3200,28.78,NA,OVC  ft,SPECI CYYT 010716Z 01007KT 2SM -RA BR OVC003 10/10 A2878 RMK ST8 SLP751 DENSITY ALT 1300FT,2025-11-01T07:23:04Z,2025-11-01T03:23:04Z
CYYT,2025-11-01T08:12:00Z,2025-11-01T04:12:00Z,LIFR,10,10,100,300,15,2400,28.83,NA,OVC  ft,SPECI CYYT 010812Z 30015KT 1 1/2SM -DZ BR OVC003 10/10 A2883 RMK ST8 SLP767 DENSITY ALT 1300FT,2025-11-01T08:30:54Z,2025-11-01T04:30:54Z
CYYT,2025-11-01T09:10:00Z,2025-11-01T05:10:00Z,LIFR,10,10,100,270,23,1000,28.88,NA,BKN  ft; OVC  ft,SPECI CYYT 010910Z 27023G30KT 5/8SM R28/P6000FT/U R16/P6000FT/U -DZ BR BKN003 OVC160 10/10 A2888 RMK ST6AC2 SLP784 DENSITY ALT 1200FT,2025-11-01T09:24:39Z,2025-11-01T05:24:39Z
CYYT,2025-11-01T10:00:00Z,2025-11-01T06:00:00Z,MVFR,11,11,100,270,33,24100,28.91,NA,SCT  ft; BKN  ft,METAR CYYT 011000Z 27033G40KT 15SM SCT009 BKN016 11/11 A2891 RMK SF4SC3 SLP793 DENSITY ALT 1300FT,2025-11-01T10:25:46Z,2025-11-01T06:25:46Z
CYYT,2025-11-01T11:00:00Z,2025-11-01T07:00:00Z,MVFR,11,9,88,270,27,24100,28.97,NA,SCT  ft; BKN  ft,METAR CYYT 011100Z 27027G37KT 15SM SCT013 BKN021 11/09 A2897 RMK SC4SC3 PRESRR SLP815 DENSITY ALT 1200FT,2025-11-01T11:19:36Z,2025-11-01T07:19:36Z
CYYT,2025-11-01T12:00:00Z,2025-11-01T08:00:00Z,MVFR,11,9,88,260,28,24100,29,NA,SCT  ft; BKN  ft,METAR CYYT 011200Z 26028G40KT 15SM VCSH SCT019 BKN027 11/09 A2900 RMK SC4SC3 SLP823 DENSITY ALT 1200FT,2025-11-01T12:49:08Z,2025-11-01T08:49:08Z
CYYT,2025-11-01T13:10:00Z,2025-11-01T09:10:00Z,VFR,12,9,82,260,29,24100,29.01,NA,SCT  ft; BKN  ft; BKN  ft,SPECI CYYT 011310Z 26029G39KT 15SM -SHRA SCT019 BKN038 BKN086 12/09 A2901 RMK SC4SC3AC1 AC TR CVCTV CLD EMBD SLP827 DENSITY ALT 1300FT,2025-11-01T13:28:55Z,2025-11-01T09:28:55Z
CYYT,2025-11-01T14:12:00Z,2025-11-01T10:12:00Z,VFR,12,9,82,260,29,24100,29.01,NA,SCT  ft; BKN  ft; OVC  ft,SPECI CYYT 011412Z 26029G43KT 15SM -SHRA SCT024 BKN031 OVC040 12/09 A2901 RMK SC4SC3SC1 CVCTV CLD EMBD SLP829 DENSITY ALT 1300FT,2025-11-01T14:22:18Z,2025-11-01T10:22:18Z
CYYT,2025-11-01T15:00:00Z,2025-11-01T11:00:00Z,MVFR,12,9,82,250,31,24100,29.01,NA,BKN  ft; BKN  ft; BKN  ft,METAR CYYT 011500Z 25031G41KT 15SM -SHRA BKN029 BKN045 BKN110 12/09 A2901 RMK SC5SC2AC1 AC TR CVCTV CLD EMBD SLP827 DENSITY ALT 1300FT,2025-11-01T15:22:39Z,2025-11-01T11:22:39Z
CYYT,2025-11-01T16:18:00Z,2025-11-01T12:18:00Z,VFR,11,9,88,250,23,24100,29.02,NA,SCT  ft; BKN  ft,SPECI CYYT 011618Z 25023G32KT 15SM SCT024 BKN037 11/09 A2902 RMK SC3SC3 SLP832 DENSITY ALT 1200FT,2025-11-01T16:28:39Z,2025-11-01T12:28:39Z
CYYT,2025-11-01T17:00:00Z,2025-11-01T13:00:00Z,MVFR,12,8,77,260,23,24100,29.02,NA,BKN  ft; BKN  ft,METAR CYYT 011700Z 26023G37KT 15SM BKN027 BKN043 12/08 A2902 RMK SC5SC2 SLP830 DENSITY ALT 1300FT,2025-11-01T17:20:05Z,2025-11-01T13:20:05Z
CYYT,2025-11-01T18:00:00Z,2025-11-01T14:00:00Z,VFR,12,7,72,260,22,24100,29.01,NA,SCT  ft; BKN  ft,METAR CYYT 011800Z 26022G37KT 15SM SCT028 BKN042 12/07 A2901 RMK SC4SC3 SLP829 DENSITY ALT 1300FT,2025-11-01T18:32:56Z,2025-11-01T14:32:56Z
CYYT,2025-11-01T19:00:00Z,2025-11-01T15:00:00Z,VFR,11,8,82,250,24,24100,29.03,NA,FEW  ft; BKN  ft; BKN  ft,METAR CYYT 011900Z 25024G34KT 15SM FEW021 BKN070 BKN081 11/08 A2903 RMK SC2AC3AC1 SLP833 DENSITY ALT 1100FT,2025-11-01T19:18:53Z,2025-11-01T15:18:53Z
CYYT,2025-11-01T20:08:00Z,2025-11-01T16:08:00Z,VFR,10,8,88,260,21,24100,29.03,NA,SCT  ft; BKN  ft; OVC  ft,SPECI CYYT 012008Z 26021G31KT 15SM -SHRA SCT015 BKN031 OVC120 10/08 A2903 RMK SC3SC3AC2 CVCTV CLD EMBD SLP835 DENSITY ALT 1100FT,2025-11-01T20:25:28Z,2025-11-01T16:25:28Z
CYYT,2025-11-01T21:00:00Z,2025-11-01T17:00:00Z,VFR,10,7,82,260,21,24100,29.04,NA,BKN  ft; BKN  ft,METAR CYYT 012100Z 26021G30KT 15SM BKN033 BKN090 10/07 A2904 RMK SC5AC2 SLP840 DENSITY ALT 1000FT,2025-11-01T21:21:12Z,2025-11-01T17:21:12Z
CYYT,2025-11-01T22:00:00Z,2025-11-01T18:00:00Z,VFR,10,7,82,260,25,24100,29.07,NA,FEW  ft; BKN  ft,METAR CYYT 012200Z 26025KT 15SM FEW019 BKN070 10/07 A2907 RMK SC1AC6 SLP847 DENSITY ALT 1000FT,2025-11-01T22:23:06Z,2025-11-01T18:23:06Z
CYYT,2025-11-01T23:00:00Z,2025-11-01T19:00:00Z,MVFR,10,7,82,270,22,24100,29.08,NA,BKN  ft; BKN  ft,METAR CYYT 012300Z 27022G31KT 15SM BKN016 BKN063 10/07 A2908 RMK SC6SC1 SLP852 DENSITY ALT 1000FT,2025-11-01T23:22:49Z,2025-11-01T19:22:49Z
CYYT,2025-11-02T01:00:00Z,2025-11-01T21:00:00Z,MVFR,10,7,82,270,26,24100,29.12,NA,BKN  ft,METAR CYYT 020100Z 27026G34KT 15SM BKN019 10/07 A2912 RMK SC7 SLP864 DENSITY ALT 900FT,2025-11-02T02:08:18Z,2025-11-01T22:08:18Z
CYYT,2025-11-02T02:00:00Z,2025-11-01T22:00:00Z,MVFR,10,7,82,280,29,24100,29.13,NA,BKN  ft; BKN  ft,METAR CYYT 020200Z 28029G35KT 15SM BKN020 BKN060 10/07 A2913 RMK SC5SC2 SLP869 DENSITY ALT 900FT,2025-11-02T02:25:14Z,2025-11-01T22:25:14Z
CYYT,2025-11-02T03:00:00Z,2025-11-01T23:00:00Z,MVFR,9,7,87,280,28,24100,29.15,NA,FEW  ft; BKN  ft,METAR CYYT 020300Z 28028G34KT 15SM FEW018 BKN026 09/07 A2915 RMK SC2SC5 SLP875 DENSITY ALT 800FT,2025-11-02T03:49:53Z,2025-11-01T23:49:53Z
CYYT,2025-11-02T04:00:00Z,2025-11-02T00:00:00Z,MVFR,9,6,82,280,21,24100,29.18,NA,BKN  ft; BKN  ft; BKN  ft,METAR CYYT 020400Z 28021G31KT 15SM BKN022 BKN055 BKN140 09/06 A2918 RMK SC5SC1AC1 AC TR SLP884 DENSITY ALT 700FT,2025-11-02T04:30:22Z,2025-11-02T00:30:22Z
CYYT,2025-11-02T05:00:00Z,2025-11-02T01:00:00Z,VFR,8,6,87,270,21,24100,29.2,NA,FEW  ft; SCT  ft; BKN  ft; BKN  ft,METAR CYYT 020500Z 27021G32KT 15SM FEW016 SCT022 BKN060 BKN140 08/06 A2920 RMK SC1SC2SC2AC1 SLP893 DENSITY ALT 700FT,2025-11-02T05:25:49Z,2025-11-02T01:25:49Z
CYYT,2025-11-02T06:00:00Z,2025-11-02T01:00:00Z,MVFR,8,6,87,270,20,24100,29.22,NA,SCT  ft; BKN  ft; BKN  ft,METAR CYYT 020600Z 27020G30KT 15SM SCT013 BKN021 BKN080 08/06 A2922 RMK SC3SC4AC1 AC TR SLP901,2025-11-02T06:36:55Z,2025-11-02T01:36:55Z
CYYT,2025-11-02T07:00:00Z,2025-11-02T02:00:00Z,MVFR,8,6,87,270,23,24100,29.24,NA,BKN  ft; OVC  ft,METAR CYYT 020700Z 27023G34KT 15SM BKN015 OVC064 08/06 A2924 RMK SC6SC2 SLP908,2025-11-02T07:23:40Z,2025-11-02T02:23:40Z
CYYT,2025-11-02T08:00:00Z,2025-11-02T03:00:00Z,MVFR,8,6,87,270,16,24100,29.27,NA,OVC  ft,METAR CYYT 020800Z 27016G21KT 15SM OVC014 08/06 A2927 RMK SC8 SLP918,2025-11-02T08:30:01Z,2025-11-02T03:30:01Z
CYYT,2025-11-02T09:00:00Z,2025-11-02T04:00:00Z,MVFR,8,6,87,260,19,24100,29.28,NA,BKN  ft; OVC  ft,METAR CYYT 020900Z 26019G25KT 15SM BKN017 OVC071 08/06 A2928 RMK SC6AC2 SLP921,2025-11-02T09:23:23Z,2025-11-02T04:23:23Z
CYYT,2025-11-02T10:00:00Z,2025-11-02T05:00:00Z,MVFR,7,6,93,290,19,24100,29.3,NA,FEW  ft; BKN  ft; OVC  ft,METAR CYYT 021000Z 29019G25KT 15SM -SHRA FEW015 BKN022 OVC150 07/06 A2930 RMK SC2SC4AC2 TCU EMBD SLP929,2025-11-02T10:25:00Z,2025-11-02T05:25:00Z
CYYT,2025-11-02T11:00:00Z,2025-11-02T06:00:00Z,VFR,7,5,87,270,21,24100,29.32,NA,FEW  ft; FEW  ft; FEW  ft,METAR CYYT 021100Z 27021G29KT 15SM FEW017 FEW071 FEW220 07/05 A2932 RMK CF1AC1CI1 CI TR CU ASOCTD SLP933,2025-11-02T11:19:33Z,2025-11-02T06:19:33Z
CYYT,2025-11-02T12:37:00Z,2025-11-02T07:37:00Z,MVFR,8,6,87,280,16,24100,29.37,NA,BKN  ft; BKN  ft; BKN  ft,SPECI CYYT 021237Z 28016G25KT 15SM -SHRA BKN018 BKN026 BKN140 08/06 A2937 RMK SC5SC1AC1 CVCTV CLD EMBD SLP952,2025-11-02T12:48:27Z,2025-11-02T07:48:27Z
CYYT,2025-11-02T13:00:00Z,2025-11-02T08:00:00Z,MVFR,7,6,93,280,18,24100,29.39,NA,SCT  ft; BKN  ft; BKN  ft,METAR CYYT 021300Z 28018G26KT 15SM -SHRA SCT015 BKN024 BKN140 07/06 A2939 RMK SC3SC3AC1 CVCTV CLD EMBD SLP956,2025-11-02T13:28:14Z,2025-11-02T08:28:14Z
CYYZ,2025-11-01T04:00:00Z,2025-11-01T00:00:00Z,VFR,5,1,76,260,12,24100,29.75,NA,FEW  ft,METAR CYYZ 010400Z 26012KT 15SM FEW030 05/01 A2975 RMK SC1 SLP081,2025-11-01T04:28:33Z,2025-11-01T00:28:33Z
CYYZ,2025-11-01T05:00:00Z,2025-11-01T01:00:00Z,VFR,5,1,76,280,11,24100,29.77,NA,FEW  ft,METAR CYYZ 010500Z 28011KT 15SM FEW030 05/01 A2977 RMK SC2 SLP086,2025-11-01T05:25:06Z,2025-11-01T01:25:06Z
CYYZ,2025-11-01T06:00:00Z,2025-11-01T02:00:00Z,VFR,3,1,87,260,6,24100,29.78,NA,FEW  ft; BKN  ft,METAR CYYZ 010600Z 26006KT 15SM FEW030 BKN058 03/01 A2978 RMK SC1SC6 SC TR SLP091,2025-11-01T06:35:12Z,2025-11-01T02:35:12Z
CYYZ,2025-11-01T07:00:00Z,2025-11-01T03:00:00Z,VFR,5,1,76,270,10,24100,29.8,NA,SCT  ft,METAR CYYZ 010700Z 27010KT 15SM SCT058 05/01 A2980 RMK SC3 SLP097,2025-11-01T07:23:00Z,2025-11-01T03:23:00Z
CYYZ,2025-11-01T08:00:00Z,2025-11-01T04:00:00Z,VFR,5,2,81,250,10,24100,29.81,NA,BKN  ft,METAR CYYZ 010800Z 25010KT 15SM BKN055 05/02 A2981 RMK SC7 SLP100,2025-11-01T08:30:52Z,2025-11-01T04:30:52Z
CYYZ,2025-11-01T09:00:00Z,2025-11-01T05:00:00Z,VFR,5,2,81,270,8,24100,29.83,NA,BKN  ft,METAR CYYZ 010900Z 27008KT 15SM BKN055 05/02 A2983 RMK SC7 SLP107,2025-11-01T09:24:37Z,2025-11-01T05:24:37Z
CYYZ,2025-11-01T10:00:00Z,2025-11-01T06:00:00Z,VFR,5,1,76,280,9,24100,29.85,NA,BKN  ft,METAR CYYZ 011000Z 28009KT 15SM BKN055 05/01 A2985 RMK SC6 SLP115,2025-11-01T10:25:45Z,2025-11-01T06:25:45Z
CYYZ,2025-11-01T11:00:00Z,2025-11-01T07:00:00Z,VFR,4,1,81,270,7,24100,29.89,NA,SCT  ft,METAR CYYZ 011100Z 27007KT 15SM SCT056 04/01 A2989 RMK SC4 SLP127,2025-11-01T11:19:34Z,2025-11-01T07:19:34Z
CYYZ,2025-11-01T12:00:00Z,2025-11-01T08:00:00Z,VFR,5,1,76,280,7,24100,29.91,NA,FEW  ft; BKN  ft,METAR CYYZ 011200Z 28007KT 15SM FEW024 BKN054 05/01 A2991 RMK SC1SC6 SLP135,2025-11-01T12:49:06Z,2025-11-01T08:49:06Z
CYYZ,2025-11-01T13:00:00Z,2025-11-01T09:00:00Z,VFR,5,2,81,260,5,24100,29.94,NA,FEW  ft; BKN  ft,METAR CYYZ 011300Z 26005KT 15SM FEW024 BKN050 05/02 A2994 RMK SC2SC5 SLP144,2025-11-01T13:28:52Z,2025-11-01T09:28:52Z
CYYZ,2025-11-01T14:00:00Z,2025-11-01T10:00:00Z,VFR,7,2,71,300,8,24100,29.96,NA,BKN  ft; BKN  ft,METAR CYYZ 011400Z 30008KT 15SM BKN053 BKN260 07/02 A2996 RMK SC6CI1 CI TR SLP151,2025-11-01T14:22:16Z,2025-11-01T10:22:16Z
CYYZ,2025-11-01T15:00:00Z,2025-11-01T11:00:00Z,VFR,7,1,66,310,6,24100,29.98,NA,FEW  ft; BKN  ft,METAR CYYZ 011500Z 31006KT 15SM FEW020 BKN048 07/01 A2998 RMK CF1SC5 SLP158,2025-11-01T15:22:37Z,2025-11-01T11:22:37Z
CYYZ,2025-11-01T16:00:00Z,2025-11-01T12:00:00Z,VFR,8,1,62,10,4,24100,29.99,NA,BKN  ft; BKN  ft,METAR CYYZ 011600Z 01004KT 300V050 15SM BKN033 BKN045 08/01 A2999 RMK SC5SC2 SLP161,2025-11-01T16:28:36Z,2025-11-01T12:28:36Z
CYYZ,2025-11-01T17:00:00Z,2025-11-01T13:00:00Z,VFR,9,0,54,300,8,24100,29.98,NA,FEW  ft; BKN  ft,METAR CYYZ 011700Z 30008KT 290V350 15SM FEW030 BKN054 09/00 A2998 RMK CF2SC5 SLP160,2025-11-01T17:20:01Z,2025-11-01T13:20:01Z
CYYZ,2025-11-01T18:00:00Z,2025-11-01T14:00:00Z,VFR,9,1,58,300,7,24100,29.99,NA,BKN  ft,METAR CYYZ 011800Z 30007KT 270V350 15SM BKN054 09/01 A2999 RMK SC7 SLP161,2025-11-01T18:32:53Z,2025-11-01T14:32:53Z
CYYZ,2025-11-01T19:00:00Z,2025-11-01T15:00:00Z,VFR,9,1,58,280,7,24100,29.99,NA,SCT  ft; BKN  ft,METAR CYYZ 011900Z 28007KT 260V330 15SM SCT032 BKN058 09/01 A2999 RMK CU3SC4 SLP162,2025-11-01T19:18:50Z,2025-11-01T15:18:50Z
CYYZ,2025-11-01T20:00:00Z,2025-11-01T16:00:00Z,VFR,10,1,54,290,11,24100,30.01,NA,BKN  ft; BKN  ft,METAR CYYZ 012000Z 29011G16KT 15SM BKN040 BKN060 10/01 A3001 RMK SC5SC2 SLP167,2025-11-01T20:25:26Z,2025-11-01T16:25:26Z
CYYZ,2025-11-01T21:00:00Z,2025-11-01T17:00:00Z,VFR,9,0,54,310,10,24100,30.02,NA,BKN  ft,METAR CYYZ 012100Z 31010KT 15SM BKN055 09/M00 A3002 RMK SC7 SLP171,2025-11-01T21:21:10Z,2025-11-01T17:21:10Z
CYYZ,2025-11-01T22:00:00Z,2025-11-01T18:00:00Z,VFR,8,0,57,320,9,24100,30.04,NA,BKN  ft,METAR CYYZ 012200Z 32009KT 15SM BKN053 08/M00 A3004 RMK SC6 SLP179,2025-11-01T22:23:04Z,2025-11-01T18:23:04Z
CYYZ,2025-11-01T23:00:00Z,2025-11-01T19:00:00Z,VFR,6,1,71,10,10,24100,30.06,NA,FEW  ft,METAR CYYZ 012300Z 01010KT 15SM FEW048 06/01 A3006 RMK SC1 SLP185,2025-11-01T23:22:48Z,2025-11-01T19:22:48Z
CYYZ,2025-11-02T01:00:00Z,2025-11-01T21:00:00Z,VFR,5,1,76,10,8,24100,30.1,NA,SKC  ft,METAR CYYZ 020100Z 01008KT 15SM SKC 05/01 A3010 RMK SLP199,2025-11-02T02:08:16Z,2025-11-01T22:08:16Z
CYYZ,2025-11-02T02:00:00Z,2025-11-01T22:00:00Z,VFR,4,1,81,10,4,24100,30.12,NA,FEW  ft,METAR CYYZ 020200Z 01004KT 15SM FEW045 04/01 A3012 RMK SC1 SC TR SLP208,2025-11-02T02:25:12Z,2025-11-01T22:25:12Z
CYYZ,2025-11-02T03:00:00Z,2025-11-01T23:00:00Z,VFR,4,1,81,0,2,24100,30.13,NA,FEW  ft; FEW  ft,METAR CYYZ 020300Z VRB02KT 15SM FEW015 FEW035 04/01 A3013 RMK SF1SC1 SF TR SC TR SLP212,2025-11-02T03:49:51Z,2025-11-01T23:49:51Z
CYYZ,2025-11-02T04:00:00Z,2025-11-02T00:00:00Z,VFR,3,0,81,320,3,24100,30.15,NA,FEW  ft,METAR CYYZ 020400Z 32003KT 300V020 15SM FEW055 03/00 A3015 RMK SC2 SLP216,2025-11-02T04:30:20Z,2025-11-02T00:30:20Z
CYYZ,2025-11-02T05:00:00Z,2025-11-02T01:00:00Z,VFR,4,1,81,360,2,24100,30.15,NA,BKN  ft,METAR CYYZ 020500Z 36002KT 15SM BKN060 04/01 A3015 RMK SC6 SLP218,2025-11-02T05:25:47Z,2025-11-02T01:25:47Z
CYYZ,2025-11-02T06:00:00Z,2025-11-02T01:00:00Z,VFR,1,0,93,280,3,24100,30.16,NA,FEW  ft,METAR CYYZ 020600Z 28003KT 15SM FEW060 01/M00 A3016 RMK SC1 SC TR SLP221,2025-11-02T06:36:53Z,2025-11-02T01:36:53Z
CYYZ,2025-11-02T07:00:00Z,2025-11-02T02:00:00Z,VFR,1,-1,87,0,0,24100,30.17,NA,FEW  ft,METAR CYYZ 020700Z 00000KT 15SM FEW060 01/M01 A3017 RMK SC1 SC TR SLP224,2025-11-02T07:23:38Z,2025-11-02T02:23:38Z
CYYZ,2025-11-02T08:00:00Z,2025-11-02T03:00:00Z,VFR,1,-1,87,280,3,24100,30.19,NA,FEW  ft,METAR CYYZ 020800Z 28003KT 15SM FEW060 01/M01 A3019 RMK SC1 SC TR SLP229,2025-11-02T08:29:59Z,2025-11-02T03:29:59Z
CYYZ,2025-11-02T09:00:00Z,2025-11-02T04:00:00Z,VFR,1,-2,81,330,4,24100,30.19,NA,FEW  ft,METAR CYYZ 020900Z 33004KT 15SM FEW060 01/M02 A3019 RMK SC1 SC TR FROIN SLP232,2025-11-02T09:23:21Z,2025-11-02T04:23:21Z
CYYZ,2025-11-02T10:00:00Z,2025-11-02T05:00:00Z,VFR,0,-3,80,0,0,24100,30.21,NA,FEW  ft,METAR CYYZ 021000Z CCA 00000KT 15SM FEW060 M00/M03 A3021 RMK SC1 SC TR FROIN SLP237,2025-11-02T10:24:58Z,2025-11-02T05:24:58Z
CYYZ,2025-11-02T11:00:00Z,2025-11-02T06:00:00Z,VFR,0,-2,87,20,4,24100,30.23,NA,FEW  ft,METAR CYYZ 021100Z 02004KT 340V040 15SM FEW060 00/M02 A3023 RMK SC2 FROIN SLP244,2025-11-02T11:19:30Z,2025-11-02T06:19:30Z
CYYZ,2025-11-02T12:00:00Z,2025-11-02T07:00:00Z,VFR,-1,-3,86,0,0,24100,30.24,NA,FEW  ft,METAR CYYZ 021200Z 00000KT 15SM FEW060 M01/M03 A3024 RMK SC2 SLP249,2025-11-02T12:48:25Z,2025-11-02T07:48:25Z
CYYZ,2025-11-02T13:00:00Z,2025-11-02T08:00:00Z,VFR,2,-1,81,40,3,24100,30.26,NA,SCT  ft,METAR CYYZ 021300Z 04003KT 15SM SCT053 02/M01 A3026 RMK SC3 SLP254,2025-11-02T13:28:11Z,2025-11-02T08:28:11Z
CYZF,2025-11-01T04:13:00Z,2025-11-01T00:13:00Z,MVFR,4,2,87,150,21,24100,29.23,NA,BKN  ft; OVC  ft,SPECI CYZF 010413Z 15021G27KT 15SM -RA BKN013 OVC032 04/02 A2923 RMK SC7SC1 SLP911,2025-11-01T04:28:35Z,2025-11-01T00:28:35Z
CYZF,2025-11-01T05:00:00Z,2025-11-01T01:00:00Z,IFR,3,3,100,150,19,9700,29.2,NA,OVC  ft,METAR CYZF 010500Z 15019G28KT 6SM -RA OVC007 03/03 A2920 RMK SC8 SLP903,2025-11-01T05:25:08Z,2025-11-01T01:25:08Z
CYZF,2025-11-01T06:00:00Z,2025-11-01T02:00:00Z,IFR,3,3,100,150,15,9700,29.17,NA,OVC  ft,METAR CYZF 010600Z 15015G22KT 6SM -RA OVC005 03/03 A2917 RMK SC8 SLP892,2025-11-01T06:35:14Z,2025-11-01T02:35:14Z
CYZF,2025-11-01T07:00:00Z,2025-11-01T03:00:00Z,LIFR,3,3,100,150,16,9700,29.14,NA,OVC  ft,METAR CYZF 010700Z 15016G27KT 6SM -RA OVC004 03/03 A2914 RMK SC8 SLP880,2025-11-01T07:23:05Z,2025-11-01T03:23:05Z
CYZF,2025-11-01T08:00:00Z,2025-11-01T04:00:00Z,IFR,3,3,100,160,17,19300,29.11,NA,OVC  ft,METAR CYZF 010800Z 16017G25KT 12SM -RA OVC005 03/03 A2911 RMK SC8 SLP870,2025-11-01T08:30:54Z,2025-11-01T04:30:54Z
CYZF,2025-11-01T09:00:00Z,2025-11-01T05:00:00Z,IFR,4,3,93,160,19,19300,29.09,NA,OVC  ft,METAR CYZF 010900Z 16019G25KT 12SM -RA OVC007 04/03 A2909 RMK SC8 SLP865,2025-11-01T09:24:40Z,2025-11-01T05:24:40Z
CYZF,2025-11-01T10:00:00Z,2025-11-01T06:00:00Z,IFR,4,3,93,160,13,24100,29.07,NA,BKN  ft; OVC  ft,METAR CYZF 011000Z 16013G19KT 15SM -RA BKN006 OVC015 04/03 A2907 RMK SC7SC1 SLP858,2025-11-01T10:25:47Z,2025-11-01T06:25:47Z
CYZF,2025-11-01T11:00:00Z,2025-11-01T07:00:00Z,IFR,4,4,100,170,12,24100,29.05,NA,BKN  ft; OVC  ft,METAR CYZF 011100Z 17012KT 15SM -RA BKN008 OVC012 04/04 A2905 RMK SC7SC1 SLP850,2025-11-01T11:19:36Z,2025-11-01T07:19:36Z
CYZF,2025-11-01T12:19:00Z,2025-11-01T08:19:00Z,VFR,4,4,100,170,11,24100,29.04,NA,SCT  ft; BKN  ft,SPECI CYZF 011219Z 17011KT 15SM SCT008 BKN048 04/04 A2904 RMK SC4SC3 SLP845,2025-11-01T12:49:08Z,2025-11-01T08:49:08Z
CYZF,2025-11-01T13:00:00Z,2025-11-01T09:00:00Z,VFR,4,3,93,170,12,24100,29.02,NA,SCT  ft; BKN  ft; BKN  ft,METAR CYZF 011300Z 17012G17KT 15SM SCT007 BKN071 BKN170 04/03 A2902 RMK SC4AC1AC1 VIRGA SLP841,2025-11-01T13:28:55Z,2025-11-01T09:28:55Z
CYZF,2025-11-01T14:00:00Z,2025-11-01T10:00:00Z,VFR,4,4,100,180,10,24100,29.01,NA,FEW  ft; OVC  ft,METAR CYZF 011400Z 18010KT 15SM -RA FEW006 OVC056 04/04 A2901 RMK SC1SC7 SLP838,2025-11-01T14:22:18Z,2025-11-01T10:22:18Z
CYZF,2025-11-01T15:00:00Z,2025-11-01T11:00:00Z,VFR,4,4,100,170,9,24100,29,NA,FEW  ft; FEW  ft; SCT  ft; BKN  ft,METAR CYZF 011500Z 17009KT 15SM FEW005 FEW044 SCT100 BKN140 04/04 A2900 RMK SF1SC2AC2AC2 SF TR SLP834,2025-11-01T15:22:39Z,2025-11-01T11:22:39Z
CYZF,2025-11-01T16:00:00Z,2025-11-01T12:00:00Z,VFR,4,4,100,180,6,24100,29,NA,BKN  ft; BKN  ft,METAR CYZF 011600Z 18006KT 15SM BKN140 BKN190 04/04 A2900 RMK AC5CI1 SLP833,2025-11-01T16:28:39Z,2025-11-01T12:28:39Z
CYZF,2025-11-01T17:00:00Z,2025-11-01T13:00:00Z,VFR,5,4,93,190,7,24100,28.99,NA,FEW  ft; FEW  ft; SCT  ft,METAR CYZF 011700Z 19007KT 15SM FEW044 FEW140 SCT210 05/04 A2899 RMK SC1AC1CI1 SLP830,2025-11-01T17:20:05Z,2025-11-01T13:20:05Z
CYZF,2025-11-01T18:00:00Z,2025-11-01T14:00:00Z,VFR,5,3,87,180,8,24100,28.99,NA,FEW  ft; FEW  ft; FEW  ft,METAR CYZF 011800Z 18008KT 15SM FEW044 FEW160 FEW210 05/03 A2899 RMK SC1AC1CI1 SC TR SLP829,2025-11-01T18:32:56Z,2025-11-01T14:32:56Z
CYZF,2025-11-01T19:00:00Z,2025-11-01T15:00:00Z,VFR,5,2,81,200,5,24100,28.98,NA,FEW  ft; FEW  ft; FEW  ft,METAR CYZF 011900Z 20005KT 15SM FEW044 FEW160 FEW210 05/02 A2898 RMK SC1AC1CI1 SC TR SLP826,2025-11-01T19:18:53Z,2025-11-01T15:18:53Z
CYZF,2025-11-01T20:00:00Z,2025-11-01T16:00:00Z,VFR,6,2,76,220,7,24100,28.98,NA,FEW  ft; FEW  ft,METAR CYZF 012000Z 22007KT 15SM FEW044 FEW160 06/02 A2898 RMK SC1AC1 SC TR SLP824,2025-11-01T20:25:28Z,2025-11-01T16:25:28Z
CYZF,2025-11-01T21:00:00Z,2025-11-01T17:00:00Z,VFR,6,1,71,240,6,24100,28.98,NA,FEW  ft; FEW  ft; SCT  ft,METAR CYZF 012100Z 24006KT 15SM FEW045 FEW160 SCT240 06/01 A2898 RMK SC1AC1CI3 SC TR AC TR SLP826 DENSITY ALT 900FT,2025-11-01T21:21:12Z,2025-11-01T17:21:12Z
CYZF,2025-11-01T22:00:00Z,2025-11-01T18:00:00Z,VFR,6,1,71,210,5,24100,28.99,NA,FEW  ft; FEW  ft,METAR CYZF 012200Z 21005KT 15SM FEW160 FEW240 06/01 A2899 RMK AC1CI2 AC TR SLP828,2025-11-01T22:23:07Z,2025-11-01T18:23:07Z
CYZF,2025-11-01T23:00:00Z,2025-11-01T19:00:00Z,VFR,4,1,81,220,3,24100,29,NA,FEW  ft; FEW  ft,METAR CYZF 012300Z 22003KT 15SM FEW160 FEW240 04/01 A2900 RMK AC1CI1 SLP833,2025-11-01T23:22:50Z,2025-11-01T19:22:50Z
CYZF,2025-11-02T01:00:00Z,2025-11-01T21:00:00Z,VFR,2,1,93,240,4,24100,29.02,NA,FEW  ft; FEW  ft,METAR CYZF 020100Z 24004KT 15SM FEW160 FEW240 02/01 A2902 RMK AC1CI1 SLP839,2025-11-02T02:08:18Z,2025-11-01T22:08:18Z
CYZF,2025-11-02T02:00:00Z,2025-11-01T22:00:00Z,VFR,2,0,87,270,6,24100,29.02,NA,FEW  ft,METAR CYZF 020200Z 27006KT 15SM FEW160 02/00 A2902 RMK AC1 SLP842,2025-11-02T02:25:14Z,2025-11-01T22:25:14Z
CYZF,2025-11-02T03:00:00Z,2025-11-01T23:00:00Z,VFR,1,0,93,250,6,24100,29.03,NA,SCT  ft,METAR CYZF 020300Z 25006KT 15SM SCT094 01/00 A2903 RMK AC3 SLP843,2025-11-02T03:49:53Z,2025-11-01T23:49:53Z
CYZF,2025-11-02T04:00:00Z,2025-11-02T00:00:00Z,VFR,1,0,93,250,4,24100,29.03,NA,SCT  ft,METAR CYZF 020400Z 25004KT 200V280 15SM SCT100 01/00 A2903 RMK AC3 SLP845,2025-11-02T04:30:22Z,2025-11-02T00:30:22Z
CYZF,2025-11-02T05:00:00Z,2025-11-02T01:00:00Z,VFR,0,0,100,230,3,24100,29.04,NA,SCT  ft,METAR CYZF 020500Z 23003KT 15SM SCT100 00/M00 A2904 RMK AC3 SLP849,2025-11-02T05:25:49Z,2025-11-02T01:25:49Z
CYZF,2025-11-02T06:00:00Z,2025-11-02T01:00:00Z,VFR,0,0,100,260,6,24100,29.06,NA,SCT  ft; BKN  ft,METAR CYZF 020600Z 26006KT 15SM SCT080 BKN110 M00/M00 A2906 RMK AC3AC3 SLP855,2025-11-02T06:36:55Z,2025-11-02T01:36:55Z
CYZF,2025-11-02T07:00:00Z,2025-11-02T02:00:00Z,VFR,0,0,100,290,6,24100,29.07,NA,BKN  ft; BKN  ft,METAR CYZF 020700Z 29006KT 15SM BKN130 BKN240 M00/M00 A2907 RMK AC5CI2 SLP856,2025-11-02T07:23:40Z,2025-11-02T02:23:40Z
CYZF,2025-11-02T08:00:00Z,2025-11-02T03:00:00Z,VFR,0,0,100,0,0,24100,29.07,NA,BKN  ft; BKN  ft,METAR CYZF 020800Z 00000KT 15SM BKN060 BKN130 00/M00 A2907 RMK SC5AC2 SLP859,2025-11-02T08:30:02Z,2025-11-02T03:30:02Z
CYZF,2025-11-02T09:00:00Z,2025-11-02T04:00:00Z,VFR,0,0,100,240,3,24100,29.09,NA,BKN  ft,METAR CYZF 020900Z 24003KT 15SM BKN054 00/00 A2909 RMK SC7 SLP865,2025-11-02T09:23:23Z,2025-11-02T04:23:23Z
CYZF,2025-11-02T10:00:00Z,2025-11-02T05:00:00Z,VFR,1,0,93,250,4,24100,29.1,NA,BKN  ft; BKN  ft,METAR CYZF 021000Z 25004KT 15SM BKN045 BKN130 01/00 A2910 RMK SC6AC1 SLP868,2025-11-02T10:25:00Z,2025-11-02T05:25:00Z
CYZF,2025-11-02T11:00:00Z,2025-11-02T06:00:00Z,VFR,0,0,100,310,2,24100,29.1,NA,SCT  ft; BKN  ft; BKN  ft,METAR CYZF 021100Z 31002KT 15SM SCT050 BKN100 BKN150 00/M00 A2910 RMK SC4AC2AC1 SLP870,2025-11-02T11:19:34Z,2025-11-02T06:19:34Z
CYZF,2025-11-02T12:00:00Z,2025-11-02T07:00:00Z,VFR,0,0,100,230,4,24100,29.11,NA,SCT  ft,METAR CYZF 021200Z 23004KT 15SM SCT050 M00/M00 A2911 RMK SC4 SLP873,2025-11-02T12:48:27Z,2025-11-02T07:48:27Z
CYZF,2025-11-02T13:00:00Z,2025-11-02T08:00:00Z,VFR,-1,-1,100,230,3,24100,29.11,NA,SCT  ft,METAR CYZF 021300Z 23003KT 15SM SCT070 M01/M01 A2911 RMK AC4 SLP874,2025-11-02T13:28:15Z,2025-11-02T08:28:15Z
CYZV,2025-11-01T04:00:00Z,2025-11-01T00:00:00Z,MVFR,6,4,87,30,14,8000,28.87,NA,OVC  ft,METAR CYZV 010400Z 03014G20KT 5SM -RA BR OVC025 06/04 A2887 RMK SF8 SLP780,2025-11-01T04:28:34Z,2025-11-01T00:28:34Z
CYZV,2025-11-01T05:00:00Z,2025-11-01T01:00:00Z,MVFR,6,5,93,30,13,8000,28.84,NA,OVC  ft,METAR CYZV 010500Z 03013KT 5SM -RA BR OVC029 06/05 A2884 RMK SF8 SLP770 DENSITY ALT 400FT,2025-11-01T05:25:07Z,2025-11-01T01:25:07Z
CYZV,2025-11-01T06:10:00Z,2025-11-01T02:10:00Z,VFR,6,5,93,10,7,9999,28.83,NA,OVC  ft,SPECI CYZV 010610Z 01007G15KT 10SM OVC036 06/05 A2883 RMK SF8 SLP766 DENSITY ALT 400FT,2025-11-01T06:35:14Z,2025-11-01T02:35:14Z
CYZV,2025-11-01T07:00:00Z,2025-11-01T03:00:00Z,MVFR,6,4,87,360,9,24100,28.82,NA,OVC  ft,METAR CYZV 010700Z 36009KT 15SM OVC026 06/04 A2882 RMK ST8 SLP764 DENSITY ALT 400FT,2025-11-01T07:23:04Z,2025-11-01T03:23:04Z
CYZV,2025-11-01T08:00:00Z,2025-11-01T04:00:00Z,MVFR,6,4,87,10,9,24100,28.82,NA,OVC  ft,METAR CYZV 010800Z 01009G18KT 15SM OVC030 06/04 A2882 RMK ST8 SLP764 DENSITY ALT 400FT,2025-11-01T08:30:54Z,2025-11-01T04:30:54Z
CYZV,2025-11-01T09:00:00Z,2025-11-01T05:00:00Z,VFR,5,4,93,360,11,24100,28.83,NA,BKN  ft; OVC  ft,METAR CYZV 010900Z 36011G18KT 15SM -RA BKN064 OVC075 05/04 A2883 RMK SC7AC1 SLP765,2025-11-01T09:24:39Z,2025-11-01T05:24:39Z
CYZV,2025-11-01T10:00:00Z,2025-11-01T06:00:00Z,VFR,5,3,87,340,9,24100,28.85,NA,BKN  ft; BKN  ft; OVC  ft,METAR CYZV 011000Z 34009KT 15SM BKN032 BKN042 OVC094 05/03 A2885 RMK SC6SC1AC1 SLP772,2025-11-01T10:25:46Z,2025-11-01T06:25:46Z
CYZV,2025-11-01T11:00:00Z,2025-11-01T07:00:00Z,VFR,5,3,87,330,6,48300,28.87,NA,FEW  ft; BKN  ft,METAR CYZV 011100Z 33006KT 300V360 30SM FEW020 BKN037 05/03 A2887 RMK CU1SC6 SLP780,2025-11-01T11:19:35Z,2025-11-01T07:19:35Z
CYZV,2025-11-01T12:00:00Z,2025-11-01T08:00:00Z,VFR,5,2,81,350,8,48300,28.9,NA,FEW  ft; SCT  ft; BKN  ft; BKN  ft,METAR CYZV 011200Z 35008KT 300V020 30SM FEW040 SCT058 BKN090 BKN130 05/02 A2890 RMK CU1SC4AC2AC1 CU TR SLP789,2025-11-01T12:49:08Z,2025-11-01T08:49:08Z
CYZV,2025-11-01T13:00:00Z,2025-11-01T09:00:00Z,VFR,6,2,76,360,11,48300,28.91,NA,FEW  ft; BKN  ft; BKN  ft; BKN  ft,METAR CYZV 011300Z 36011G17KT 30SM FEW030 BKN066 BKN086 BKN130 06/02 A2891 RMK CU1AC5AC1AC1 CU TR AC TR SLP795 DENSITY ALT 400FT,2025-11-01T13:28:53Z,2025-11-01T09:28:53Z
CYZV,2025-11-01T14:00:00Z,2025-11-01T10:00:00Z,VFR,7,3,76,360,11,48300,28.96,NA,FEW  ft; BKN  ft; OVC  ft,METAR CYZV 011400Z 36011G17KT 30SM FEW040 BKN065 OVC100 07/03 A2896 RMK CU1SC6AS2 CU TR SLP811 DENSITY ALT 400FT,2025-11-01T14:22:18Z,2025-11-01T10:22:18Z
CYZV,2025-11-01T15:00:00Z,2025-11-01T11:00:00Z,VFR,7,3,76,350,10,48300,29.02,NA,FEW  ft; BKN  ft; OVC  ft,METAR CYZV 011500Z 35010G16KT 30SM FEW040 BKN075 OVC090 07/03 A2902 RMK SC1AS7AC1 SC TR PRESRR SLP830 DENSITY ALT 400FT,2025-11-01T15:22:38Z,2025-11-01T11:22:38Z
CYZV,2025-11-01T16:00:00Z,2025-11-01T12:00:00Z,VFR,8,3,71,340,11,48300,29.04,NA,FEW  ft; BKN  ft,METAR CYZV 011600Z 34011G18KT 30SM -SHRA FEW030 BKN072 08/03 A2904 RMK SC1AC7 SC TR CVCTV CLD EMBD SLP838 DENSITY ALT 400FT,2025-11-01T16:28:38Z,2025-11-01T12:28:38Z
CYZV,2025-11-01T17:00:00Z,2025-11-01T13:00:00Z,VFR,8,2,66,10,14,48300,29.08,NA,FEW  ft; OVC  ft,METAR CYZV 011700Z 01014G23KT 30SM -SHRA FEW052 OVC067 08/02 A2908 RMK SC1AC8 SC TR CVCTV CLD EMBD SLP853 DENSITY ALT 400FT,2025-11-01T17:20:04Z,2025-11-01T13:20:04Z
CYZV,2025-11-01T18:00:00Z,2025-11-01T14:00:00Z,VFR,8,2,66,350,10,48300,29.14,NA,BKN  ft; OVC  ft,METAR CYZV 011800Z 35010KT 30SM -SHRA BKN035 OVC066 08/02 A2914 RMK SC5AC3 CVCTV CLD EMBD SLP873,2025-11-01T18:32:55Z,2025-11-01T14:32:55Z
CYZV,2025-11-01T19:00:00Z,2025-11-01T15:00:00Z,VFR,7,1,66,350,10,48300,29.19,NA,BKN  ft; OVC  ft,METAR CYZV 011900Z 35010G23KT 30SM -SHRA BKN039 OVC055 07/01 A2919 RMK SC5SC3 CVCTV CLD EMBD PRESRR SLP890,2025-11-01T19:18:52Z,2025-11-01T15:18:52Z
CYZV,2025-11-01T20:00:00Z,2025-11-01T16:00:00Z,VFR,6,1,71,330,9,48300,29.25,NA,BKN  ft; OVC  ft,METAR CYZV 012000Z 33009G17KT 30SM -RA BKN043 OVC067 06/01 A2925 RMK SC5AC3 SLP907,2025-11-01T20:25:27Z,2025-11-01T16:25:27Z
CYZV,2025-11-01T21:00:00Z,2025-11-01T17:00:00Z,VFR,6,0,66,330,9,48300,29.31,NA,SCT  ft; OVC  ft,METAR CYZV 012100Z 33009G18KT 30SM -RA SCT042 OVC067 06/00 A2931 RMK SC4AC4 PRESRR SLP929,2025-11-01T21:21:11Z,2025-11-01T17:21:11Z
CYZV,2025-11-01T22:00:00Z,2025-11-01T18:00:00Z,VFR,5,-1,66,350,13,24100,29.37,NA,OVC  ft,METAR CYZV 012200Z 35013G20KT 15SM -RA OVC066 05/M01 A2937 RMK AC8 PRESRR SLP949,2025-11-01T22:23:06Z,2025-11-01T18:23:06Z
CYZV,2025-11-01T23:00:00Z,2025-11-01T19:00:00Z,VFR,5,-1,66,350,9,24100,29.42,NA,OVC  ft,METAR CYZV 012300Z 35009G23KT 330V030 15SM -RA OVC052 05/M01 A2942 RMK SC8 PRESRR SLP967,2025-11-01T23:22:49Z,2025-11-01T19:22:49Z
CYZV,2025-11-02T01:19:00Z,2025-11-01T21:19:00Z,VFR,4,-2,65,350,8,24100,29.54,NA,OVC  ft,SPECI CYZV 020119Z 35008G17KT 310V020 15SM OVC064 04/M02 A2954 RMK SC8 SLP008,2025-11-02T02:08:18Z,2025-11-01T22:08:18Z
CYZV,2025-11-02T02:00:00Z,2025-11-01T22:00:00Z,VFR,4,-2,65,340,6,24100,29.57,NA,SCT  ft; OVC  ft,METAR CYZV 020200Z 34006G16KT 300V020 15SM SCT065 OVC081 04/M02 A2957 RMK SC3AC5 SLP019,2025-11-02T02:25:14Z,2025-11-01T22:25:14Z
CYZV,2025-11-02T03:00:00Z,2025-11-01T23:00:00Z,VFR,4,-3,61,350,7,24100,29.61,NA,FEW  ft; OVC  ft,METAR CYZV 020300Z 35007KT 300V020 15SM FEW060 OVC085 04/M03 A2961 RMK SC2AC6 SLP033,2025-11-02T03:49:53Z,2025-11-01T23:49:53Z
CYZV,2025-11-02T04:00:00Z,2025-11-02T00:00:00Z,VFR,4,-3,61,340,5,24100,29.64,NA,OVC  ft,METAR CYZV 020400Z 34005KT 15SM OVC080 04/M03 A2964 RMK AC8 SLP043,2025-11-02T04:30:22Z,2025-11-02T00:30:22Z
CYZV,2025-11-02T05:00:00Z,2025-11-02T01:00:00Z,VFR,4,-3,61,320,9,24100,29.68,NA,OVC  ft,METAR CYZV 020500Z 32009KT 300V360 15SM OVC083 04/M03 A2968 RMK AC8 SLP056,2025-11-02T05:25:48Z,2025-11-02T01:25:48Z
CYZV,2025-11-02T06:00:00Z,2025-11-02T01:00:00Z,VFR,3,-3,65,330,4,24100,29.73,NA,BKN  ft; OVC  ft,METAR CYZV 020600Z 33004KT 290V010 15SM BKN086 OVC110 03/M03 A2973 RMK AC6AC2 SLP071,2025-11-02T06:36:54Z,2025-11-02T01:36:54Z
CYZV,2025-11-02T07:00:00Z,2025-11-02T02:00:00Z,VFR,3,-3,65,340,9,24100,29.76,NA,FEW  ft; BKN  ft,METAR CYZV 020700Z 34009KT 15SM FEW080 BKN120 03/M03 A2976 RMK AC2AC4 SLP082,2025-11-02T07:23:40Z,2025-11-02T02:23:40Z
CYZV,2025-11-02T08:00:00Z,2025-11-02T03:00:00Z,VFR,2,-4,65,340,7,24100,29.79,NA,SCT  ft; BKN  ft,METAR CYZV 020800Z 34007G15KT 15SM SCT120 BKN220 02/M04 A2979 RMK AC4CI2 PRESRR SLP093,2025-11-02T08:30:00Z,2025-11-02T03:30:00Z
CYZV,2025-11-02T09:00:00Z,2025-11-02T04:00:00Z,VFR,1,-4,70,320,4,24100,29.83,NA,SCT  ft; BKN  ft,METAR CYZV 020900Z 32004KT 290V350 15SM SCT120 BKN240 01/M04 A2983 RMK AC4CI2 SLP105,2025-11-02T09:23:23Z,2025-11-02T04:23:23Z
CYZV,2025-11-02T10:00:00Z,2025-11-02T05:00:00Z,VFR,0,-4,75,320,6,24100,29.86,NA,FEW  ft; BKN  ft,METAR CYZV 021000Z 32006KT 15SM FEW110 BKN240 00/M04 A2986 RMK AC2CI3 SLP117,2025-11-02T10:25:00Z,2025-11-02T05:25:00Z
CYZV,2025-11-02T11:00:00Z,2025-11-02T06:00:00Z,VFR,0,-5,69,320,5,48300,29.9,NA,FEW  ft; FEW  ft; FEW  ft,METAR CYZV 021100Z 32005KT 30SM FEW095 FEW120 FEW210 M00/M05 A2990 RMK AC1AC1CI1 AC TR AC TR PRESRR SLP129,2025-11-02T11:19:33Z,2025-11-02T06:19:33Z
CYZV,2025-11-02T12:00:00Z,2025-11-02T07:00:00Z,VFR,0,-4,75,350,5,48300,29.93,NA,FEW  ft; FEW  ft; FEW  ft; FEW  ft,METAR CYZV 021200Z 35005KT 30SM FEW052 FEW080 FEW120 FEW210 00/M04 A2993 RMK CU1AC1AC1CI1 CU TR AC TR AC TR CI TR SLP140,2025-11-02T12:48:26Z,2025-11-02T07:48:26Z
CYZV,2025-11-02T13:00:00Z,2025-11-02T08:00:00Z,VFR,2,-4,65,360,4,48300,29.94,NA,FEW  ft; FEW  ft; FEW  ft,METAR CYZV 021300Z 36004KT 30SM FEW075 FEW130 FEW210 02/M04 A2994 RMK AC1AC1CI1 AC TR AC TR SLP145,2025-11-02T13:28:14Z,2025-11-02T08:28:14Z
