icao,observed_utc,observed_local,flight_category,temp_c,dewpoint_c,rh_percent,wind_dir_deg,wind_kts,vis_m,altimeter_hg,conditions,clouds,raw_text,fetched_at_utc,fetched_at_local
CYAM,2025-09-05T18:00:00Z,2025-09-05T14:00:00Z,VFR,13,6,63,270,20,24100,29.51,NA,SCT  ft; BKN  ft; BKN  ft,CYAM 051800Z 27020G26KT 15SM VCSH SCT031 BKN048 BKN084 13/06 A2951 RMK CU4SC2AC1 VCSH S W /R10/ SLP000 DENSITY ALT 1000FT,2025-09-05T18:23:21Z,2025-09-05T14:23:21Z
CYAM,2025-09-05T18:35:00Z,2025-09-05T14:35:00Z,VFR,13,6,63,270,15,9700,29.53,NA,SCT  ft; BKN  ft,CYAM 051835Z 27015G22KT 6SM -SHRA BR SCT026 BKN048 13/06 A2953 RMK CU4SC3 SLP006 DENSITY ALT 1000FT,2025-09-05T18:48:17Z,2025-09-05T14:48:17Z
CYAM,2025-09-05T19:00:00Z,2025-09-05T15:00:00Z,VFR,11,7,77,280,17,9700,29.55,NA,SCT  ft; BKN  ft; OVC  ft,CYAM 051900Z 28017G25KT 6SM -SHRA BR SCT021 BKN042 OVC062 11/07 A2955 RMK CU4SC2SC2 SLP011,2025-09-05T19:20:59Z,2025-09-05T15:20:59Z
CYAM,2025-09-05T20:00:00Z,2025-09-05T16:00:00Z,VFR,11,8,82,270,12,32200,29.58,NA,FEW  ft; BKN  ft; OVC  ft,CYAM 052000Z 27012G19KT 20SM VCSH FEW021 BKN046 OVC100 11/08 A2958 RMK CU2SC4AC2 VCSH SE SLP021,2025-09-05T20:29:27Z,2025-09-05T16:29:27Z
CYAM,2025-09-05T21:00:00Z,2025-09-05T17:00:00Z,VFR,12,7,72,260,12,32200,29.6,NA,SCT  ft; BKN  ft; BKN  ft,CYAM 052100Z 26012G18KT 20SM VCSH SCT024 BKN042 BKN095 12/07 A2960 RMK CU3SC3AC1 VCSH W NW SLP029,2025-09-05T21:14:25Z,2025-09-05T17:14:25Z
CYAM,2025-09-05T21:23:00Z,2025-09-05T17:23:00Z,MVFR,11,7,77,280,14,24100,29.61,NA,BKN  ft; BKN  ft; OVC  ft,CYAM 052123Z 28014G23KT 15SM -SHRA BKN026 BKN042 OVC080 11/07 A2961 RMK CU5SC2AC1 SLP033,2025-09-05T21:31:33Z,2025-09-05T17:31:33Z
CYAM,2025-09-05T21:42:00Z,2025-09-05T17:42:00Z,MVFR,11,7,77,280,13,24100,29.62,NA,FEW  ft; BKN  ft; BKN  ft; OVC  ft,CYAM 052142Z 28013KT 15SM FEW015 BKN022 BKN049 OVC078 11/07 A2962 RMK CF2CU3SC2AC1 SLP036,2025-09-05T21:51:08Z,2025-09-05T17:51:08Z
CYAM,2025-09-05T22:00:00Z,2025-09-05T18:00:00Z,MVFR,11,7,77,260,15,24100,29.62,NA,FEW  ft; BKN  ft; BKN  ft; OVC  ft,CYAM 052200Z 26015KT 15SM -SHRA FEW014 BKN024 BKN041 OVC080 11/07 A2962 RMK CF1CU4SC2AC1 SLP037,2025-09-05T22:18:44Z,2025-09-05T18:18:44Z
CYAM,2025-09-05T22:15:00Z,2025-09-05T18:15:00Z,VFR,11,7,77,250,11,32200,29.63,NA,FEW  ft; SCT  ft; SCT  ft; OVC  ft,CYAM 052215Z 25011G17KT 20SM FEW015 SCT021 SCT049 OVC082 11/07 A2963 RMK SF1CU2SC1AC4 SLP038,2025-09-05T22:40:49Z,2025-09-05T18:40:49Z
CYAM,2025-09-05T22:50:00Z,2025-09-05T18:50:00Z,VFR,11,7,77,250,11,24100,29.64,NA,FEW  ft; SCT  ft; OVC  ft,CYAM 052250Z CCA 25011G19KT 15SM -SHRA FEW033 SCT047 OVC070 11/07 A2964 RMK CU2SC1AS5 SLP044,2025-09-05T23:03:09Z,2025-09-05T19:03:09Z
CYAM,2025-09-05T23:00:00Z,2025-09-05T19:00:00Z,VFR,11,7,77,240,12,32200,29.65,NA,FEW  ft; SCT  ft; OVC  ft,CYAM 052300Z 24012G18KT 20SM -SHRA FEW033 SCT053 OVC070 11/07 A2965 RMK CU2SC1AS5 SLP045,2025-09-05T23:20:06Z,2025-09-05T19:20:06Z
CYAM,2025-09-06T01:00:00Z,2025-09-05T21:00:00Z,VFR,10,7,82,240,9,32200,29.68,NA,OVC  ft; OVC  ft,CYAM 060100Z 24009G17KT 20SM OVC051 OVC091 10/07 A2968 RMK SC2AC6 SLP057,2025-09-06T01:42:35Z,2025-09-05T21:42:35Z
CYAM,2025-09-06T02:00:00Z,2025-09-05T22:00:00Z,VFR,10,8,88,230,10,32200,29.69,NA,FEW  ft; OVC  ft,CYAM 060200Z 23010KT 20SM FEW046 OVC092 10/08 A2969 RMK SC1AC7 SLP061,2025-09-06T02:56:34Z,2025-09-05T22:56:34Z
CYAM,2025-09-06T03:00:00Z,2025-09-05T23:00:00Z,VFR,10,8,88,240,10,32200,29.7,NA,SCT  ft; OVC  ft,CYAM 060300Z 24010G18KT 20SM SCT043 OVC080 10/08 A2970 RMK SC3AC5 SLP062,2025-09-06T03:30:45Z,2025-09-05T23:30:45Z
CYAM,2025-09-06T04:00:00Z,2025-09-06T00:00:00Z,VFR,10,7,82,240,14,32200,29.7,NA,SCT  ft; BKN  ft,CYAM 060400Z 24014G22KT 20SM SCT048 BKN100 10/07 A2970 RMK SC3AC4 SLP062,2025-09-06T04:25:44Z,2025-09-06T00:25:44Z
CYAM,2025-09-06T05:00:00Z,2025-09-06T01:00:00Z,VFR,10,7,82,240,13,32200,29.71,NA,FEW  ft; OVC  ft,CYAM 060500Z 24013KT 20SM FEW056 OVC088 10/07 A2971 RMK SC1AC7 SLP067,2025-09-06T05:19:55Z,2025-09-06T01:19:55Z
CYAM,2025-09-06T06:00:00Z,2025-09-06T02:00:00Z,VFR,9,7,87,240,11,32200,29.73,NA,FEW  ft; BKN  ft; BKN  ft,CYAM 060600Z 24011G17KT 20SM FEW017 BKN044 BKN086 09/07 A2973 RMK SC1SC5AC2 SC TR SLP072,2025-09-06T06:29:49Z,2025-09-06T02:29:49Z
CYAM,2025-09-06T07:00:00Z,2025-09-06T03:00:00Z,VFR,9,7,87,250,11,32200,29.73,NA,SCT  ft; SCT  ft; BKN  ft,CYAM 060700Z 25011KT 20SM SCT051 SCT068 BKN220 09/07 A2973 RMK SC3AC1CI3 AC TR SLP073,2025-09-06T07:18:40Z,2025-09-06T03:18:40Z
CYAM,2025-09-06T08:00:00Z,2025-09-06T04:00:00Z,VFR,9,7,87,240,10,32200,29.74,NA,OVC  ft,CYAM 060800Z 24010KT 20SM OVC052 09/07 A2974 RMK SC8 SLP079,2025-09-06T08:25:11Z,2025-09-06T04:25:11Z
CYAM,2025-09-06T09:00:00Z,2025-09-06T05:00:00Z,VFR,9,7,87,250,10,32200,29.75,NA,FEW  ft; BKN  ft; OVC  ft,CYAM 060900Z 25010G16KT 20SM FEW013 BKN045 OVC070 09/07 A2975 RMK SC1SC7AC1 SC TR SLP081,2025-09-06T09:19:45Z,2025-09-06T05:19:45Z
CYAM,2025-09-06T10:00:00Z,2025-09-06T06:00:00Z,VFR,9,7,87,250,8,32200,29.78,NA,FEW  ft; SCT  ft; OVC  ft,CYAM 061000Z 25008KT 20SM FEW011 SCT044 OVC076 09/07 A2978 RMK SC1SC4AC4 SC TR SLP090,2025-09-06T10:20:30Z,2025-09-06T06:20:30Z
CYAM,2025-09-06T11:00:00Z,2025-09-06T07:00:00Z,VFR,9,7,87,250,11,32200,29.79,NA,FEW  ft; SCT  ft; BKN  ft; OVC  ft,CYAM 061100Z 25011KT 20SM FEW038 SCT044 BKN088 OVC180 09/07 A2979 RMK SC2CU2AC1AC3 SLP095,2025-09-06T11:16:00Z,2025-09-06T07:16:00Z
CYAM,2025-09-06T12:00:00Z,2025-09-06T08:00:00Z,VFR,9,8,94,240,8,24100,29.81,NA,FEW  ft; OVC  ft,CYAM 061200Z 24008KT 15SM FEW010 OVC051 09/08 A2981 RMK SC1SC7 SLP100,2025-09-06T12:40:00Z,2025-09-06T08:40:00Z
CYAM,2025-09-06T13:00:00Z,2025-09-06T09:00:00Z,VFR,10,8,88,260,10,22500,29.82,NA,FEW  ft; OVC  ft,CYAM 061300Z 26010KT 14SM -SHRA FEW010 OVC033 10/08 A2982 RMK CU2SC6 SLP104,2025-09-06T13:22:39Z,2025-09-06T09:22:39Z
CYAM,2025-09-06T14:00:00Z,2025-09-06T10:00:00Z,VFR,10,8,88,260,9,24100,29.83,NA,SCT  ft; BKN  ft; BKN  ft,CYAM 061400Z 26009KT 15SM SCT012 BKN031 BKN059 10/08 A2983 RMK CF3SC2SC2 SLP107,2025-09-06T14:18:38Z,2025-09-06T10:18:38Z
CYAM,2025-09-06T15:00:00Z,2025-09-06T11:00:00Z,VFR,11,7,77,290,9,24100,29.83,NA,SCT  ft; SCT  ft; SCT  ft; BKN  ft,CYAM 061500Z 29009KT 15SM SCT014 SCT048 SCT090 BKN180 11/07 A2983 RMK CU3SC1AC2AC1 SLP108,2025-09-06T15:19:23Z,2025-09-06T11:19:23Z
CYAM,2025-09-06T16:00:00Z,2025-09-06T12:00:00Z,VFR,11,8,82,260,10,24100,29.85,NA,FEW  ft; SCT  ft; OVC  ft,CYAM 061600Z 26010KT 15SM VCSH FEW012 SCT033 OVC049 11/08 A2985 RMK CU2SC1SC5 VCSH W SLP115,2025-09-06T16:24:52Z,2025-09-06T12:24:52Z
CYAM,2025-09-06T16:55:00Z,2025-09-06T12:55:00Z,VFR,11,8,82,260,12,19300,29.87,NA,SCT  ft; BKN  ft; OVC  ft,CYAM 061655Z 26012KT 250V310 12SM -SHRA SCT016 BKN036 OVC046 11/08 A2987 RMK CU3SC4SC1 SLP120,2025-09-06T17:08:11Z,2025-09-06T13:08:11Z
CYAM,2025-09-06T17:00:00Z,2025-09-06T13:00:00Z,VFR,11,7,77,280,8,19300,29.87,NA,SCT  ft; BKN  ft; OVC  ft,CYAM 061700Z 28008G16KT 12SM -SHRA SCT016 BKN036 OVC046 11/07 A2987 RMK CU3SC4SC1 SLP120,2025-09-06T17:24:32Z,2025-09-06T13:24:32Z
CYAM,2025-09-06T18:00:00Z,2025-09-06T14:00:00Z,VFR,10,9,94,310,12,19300,29.88,NA,SCT  ft; BKN  ft; OVC  ft,CYAM 061800Z 31012G20KT 12SM -SHRA SCT014 BKN031 OVC047 10/09 A2988 RMK CU3SC4SC1 SLP127,2025-09-06T18:32:25Z,2025-09-06T14:32:25Z
CYAM,2025-09-06T19:00:00Z,2025-09-06T15:00:00Z,MVFR,11,8,82,320,10,9999,29.9,NA,BKN  ft; OVC  ft,CYAM 061900Z 32010G17KT 10SM -SHRA BKN018 OVC043 11/08 A2990 RMK CU5SC3 SLP131,2025-09-06T19:18:13Z,2025-09-06T15:18:13Z
CYAM,2025-09-06T20:00:00Z,2025-09-06T16:00:00Z,VFR,12,6,67,300,14,32200,29.9,NA,SCT  ft; BKN  ft; OVC  ft,CYAM 062000Z 30014G19KT 20SM SCT018 BKN032 OVC052 12/06 A2990 RMK CU3SC3SC2 OCNL -SHRA SLP133,2025-09-06T20:25:14Z,2025-09-06T16:25:14Z
CYAM,2025-09-06T20:27:00Z,2025-09-06T16:27:00Z,VFR,12,6,67,300,13,32200,29.91,NA,SCT  ft; BKN  ft; BKN  ft,CYAM 062027Z 30013KT 20SM SCT024 BKN045 BKN220 12/06 A2991 RMK CU3SC4CI1 CI TR SLP135,2025-09-06T20:41:46Z,2025-09-06T16:41:46Z
CYAM,2025-09-06T21:00:00Z,2025-09-06T17:00:00Z,VFR,12,6,67,310,12,32200,29.92,NA,SCT  ft; SCT  ft; BKN  ft; BKN  ft,CYAM 062100Z 31012G20KT 20SM SCT027 SCT044 BKN170 BKN210 12/06 A2992 RMK CU3SC1AC1CI2 SLP138,2025-09-06T21:21:19Z,2025-09-06T17:21:19Z
CYAM,2025-09-06T22:00:00Z,2025-09-06T18:00:00Z,VFR,12,4,58,290,13,32200,29.94,NA,SCT  ft; SCT  ft; BKN  ft; BKN  ft,CYAM 062200Z 29013G20KT 20SM SCT027 SCT150 BKN180 BKN220 12/04 A2994 RMK CU3AC1AC2CI1 SLP144,2025-09-06T22:23:56Z,2025-09-06T18:23:56Z
CYAM,2025-09-06T23:00:00Z,2025-09-06T19:00:00Z,VFR,12,5,63,300,14,32200,29.94,NA,BKN  ft; BKN  ft; BKN  ft,CYAM 062300Z 30014G19KT 20SM BKN033 BKN047 BKN180 12/05 A2994 RMK CU5SC1AC1 SLP146,2025-09-06T23:22:36Z,2025-09-06T19:22:36Z
CYAM,2025-09-07T01:00:00Z,2025-09-06T21:00:00Z,VFR,9,4,71,320,6,32200,29.96,NA,FEW  ft; SCT  ft; BKN  ft,CYAM 070100Z 32006KT 20SM FEW032 SCT057 BKN220 09/04 A2996 RMK SC2SC1CI4 SLP151,2025-09-07T02:04:14Z,2025-09-06T22:04:14Z
CYAM,2025-09-07T02:00:00Z,2025-09-06T22:00:00Z,VFR,10,5,71,290,8,32200,29.96,NA,FEW  ft; FEW  ft; BKN  ft,CYAM 070200Z 29008KT 20SM FEW032 FEW150 BKN190 10/05 A2996 RMK SC1AC1AC5 SC TR SLP151,2025-09-07T03:07:53Z,2025-09-06T23:07:53Z
CYAM,2025-09-07T03:00:00Z,2025-09-06T23:00:00Z,VFR,10,4,67,270,7,32200,29.96,NA,SCT  ft; BKN  ft,CYAM 070300Z 27007KT 20SM SCT140 BKN220 10/04 A2996 RMK AC3CI4 SLP153,2025-09-07T03:38:07Z,2025-09-06T23:38:07Z
CYAM,2025-09-07T04:00:00Z,2025-09-07T00:00:00Z,VFR,9,6,82,240,6,32200,29.97,NA,FEW  ft; BKN  ft; OVC  ft,CYAM 070400Z 24006KT 20SM FEW061 BKN190 OVC220 09/06 A2997 RMK SC1AS4CI3 SLP154,2025-09-07T04:29:48Z,2025-09-07T00:29:48Z
CYAM,2025-09-07T05:00:00Z,2025-09-07T01:00:00Z,VFR,9,6,82,240,5,32200,29.97,NA,FEW  ft; SCT  ft; SCT  ft; OVC  ft,CYAM 070500Z 24005KT 20SM FEW046 SCT091 SCT150 OVC190 09/06 A2997 RMK SC1AC3AC1AC4 SC TR SLP155,2025-09-07T05:25:32Z,2025-09-07T01:25:32Z
CYAM,2025-09-07T06:00:00Z,2025-09-07T02:00:00Z,VFR,10,7,82,260,9,32200,29.97,NA,FEW  ft; OVC  ft,CYAM 070600Z 26009KT 20SM FEW036 OVC070 10/07 A2997 RMK SC1AC7 SLP156,2025-09-07T06:34:54Z,2025-09-07T02:34:54Z
CYAM,2025-09-07T07:00:00Z,2025-09-07T03:00:00Z,VFR,9,6,82,250,8,32200,29.97,NA,FEW  ft; OVC  ft,CYAM 070700Z 25008KT 20SM FEW060 OVC089 09/06 A2997 RMK SC1AC8 SC TR SLP155,2025-09-07T07:22:54Z,2025-09-07T03:22:54Z
CYAM,2025-09-07T08:00:00Z,2025-09-07T04:00:00Z,VFR,10,7,82,270,8,32200,29.97,NA,SCT  ft; BKN  ft; OVC  ft,CYAM 070800Z 27008G15KT 20SM SCT057 BKN069 OVC140 10/07 A2997 RMK SC4AC2AC2 SLP154,2025-09-07T08:29:56Z,2025-09-07T04:29:56Z
CYAM,2025-09-07T09:00:00Z,2025-09-07T05:00:00Z,VFR,10,8,88,280,9,32200,29.98,NA,FEW  ft; BKN  ft; BKN  ft,CYAM 070900Z 28009G15KT 20SM FEW016 BKN090 BKN140 10/08 A2998 RMK SC1AC3AC3 SLP157,2025-09-07T09:23:41Z,2025-09-07T05:23:41Z
CYAM,2025-09-07T10:00:00Z,2025-09-07T06:00:00Z,MVFR,10,6,76,290,12,32200,29.98,NA,BKN  ft; BKN  ft; BKN  ft,CYAM 071000Z 29012G17KT 20SM BKN027 BKN110 BKN180 10/06 A2998 RMK SC5AC1AC1 SLP160,2025-09-07T10:26:10Z,2025-09-07T06:26:10Z
CYAM,2025-09-07T11:06:00Z,2025-09-07T07:06:00Z,VFR,10,6,76,290,12,32200,30,NA,FEW  ft; SCT  ft; BKN  ft,CYAM 071106Z 29012KT 20SM -SHRA FEW024 SCT056 BKN140 10/06 A3000 RMK CU1SC2AC3 SLP164,2025-09-07T11:19:23Z,2025-09-07T07:19:23Z
CYAM,2025-09-07T12:22:00Z,2025-09-07T08:22:00Z,VFR,11,6,72,310,10,32200,30.02,NA,SCT  ft; BKN  ft; BKN  ft; OVC  ft,CYAM 071222Z 31010KT 20SM SCT026 BKN046 BKN088 OVC100 11/06 A3002 RMK CU3SC3AC1AC1 SLP172,2025-09-07T12:48:16Z,2025-09-07T08:48:16Z
CYAM,2025-09-07T13:00:00Z,2025-09-07T09:00:00Z,VFR,11,7,77,290,12,24100,30.03,NA,SCT  ft; BKN  ft; OVC  ft,CYAM 071300Z 29012KT 15SM -SHRA SCT022 BKN051 OVC088 11/07 A3003 RMK CU4SC2AC2 SLP175,2025-09-07T13:26:44Z,2025-09-07T09:26:44Z
CYAM,2025-09-07T14:00:00Z,2025-09-07T10:00:00Z,VFR,11,7,77,280,11,24100,30.04,NA,SCT  ft; BKN  ft; BKN  ft,CYAM 071400Z 28011KT 15SM -SHRA SCT022 BKN080 BKN250 11/07 A3004 RMK CU3AC2CI2 SLP180,2025-09-07T14:23:04Z,2025-09-07T10:23:04Z
CYAM,2025-09-07T15:10:00Z,2025-09-07T11:10:00Z,MVFR,9,7,87,280,7,8000,30.07,NA,FEW  ft; FEW  ft; BKN  ft,CYAM 071510Z 28007KT 5SM -SHRA BR FEW014 FEW021TCU BKN038 09/07 A3007 RMK SF1TCU1SC5 TCU SE-SW MOV SE SLP190,2025-09-07T15:23:37Z,2025-09-07T11:23:37Z
CYAM,2025-09-07T16:00:00Z,2025-09-07T12:00:00Z,MVFR,10,8,88,320,11,32200,30.09,NA,SCT  ft; BKN  ft; BKN  ft,CYAM 071600Z 32011G16KT 20SM -SHRA SCT018TCU BKN028 BKN052 10/08 A3009 RMK TCU3SC3SC1 TCU NE S MOV SE SLP196,2025-09-07T16:29:09Z,2025-09-07T12:29:09Z
CYAM,2025-09-07T17:00:00Z,2025-09-07T13:00:00Z,MVFR,12,8,77,320,12,32200,30.1,NA,SCT  ft; BKN  ft,CYAM 071700Z 32012G18KT 20SM SCT024 BKN030 12/08 A3010 RMK CU3SC2 SLP198,2025-09-07T17:21:31Z,2025-09-07T13:21:31Z
CYAM,2025-09-07T18:00:00Z,2025-09-07T14:00:00Z,VFR,12,6,67,310,15,32200,30.11,NA,FEW  ft; BKN  ft; BKN  ft,CYAM 071800Z 31015G21KT 20SM FEW025 BKN040 BKN110 12/06 A3011 RMK CU2SC5AC1 AC TR SLP202,2025-09-07T18:32:52Z,2025-09-07T14:32:52Z
CYAM,2025-09-07T19:00:00Z,2025-09-07T15:00:00Z,VFR,14,6,59,310,16,32200,30.12,NA,SCT  ft; SCT  ft; BKN  ft,CYAM 071900Z 31016KT 20SM SCT026 SCT042 BKN220 14/06 A3012 RMK CU3SC1CI1 SLP205,2025-09-07T19:18:49Z,2025-09-07T15:18:49Z
CYAM,2025-09-07T20:00:00Z,2025-09-07T16:00:00Z,MVFR,13,6,63,310,15,32200,30.13,NA,BKN  ft; BKN  ft; BKN  ft,CYAM 072000Z 31015G22KT 20SM BKN026 BKN048 BKN220 13/06 A3013 RMK CU5SC2CI1 CI TR SLP209,2025-09-07T20:25:52Z,2025-09-07T16:25:52Z
CYAM,2025-09-07T21:00:00Z,2025-09-07T17:00:00Z,VFR,13,7,67,300,17,32200,30.14,NA,FEW  ft; BKN  ft; BKN  ft,CYAM 072100Z 30017G23KT 20SM FEW023 BKN044 BKN220 13/07 A3014 RMK CU2SC3CI1 SLP213,2025-09-07T21:21:33Z,2025-09-07T17:21:33Z
CYAT,2025-09-05T18:00:00Z,2025-09-05T14:00:00Z,MVFR,11,7,77,160,5,14500,29.33,NA,BKN  ft; BKN  ft; OVC  ft,CYAT 051800Z AUTO 16005KT 130V190 9SM -RA BKN026 BKN040 OVC055 11/07 A2933 RMK SLP933 DENSITY ALT 300FT,2025-09-05T18:23:20Z,2025-09-05T14:23:20Z
CYAT,2025-09-05T19:13:00Z,2025-09-05T15:13:00Z,VFR,10,9,94,90,6,14500,29.31,NA,FEW  ft; OVC  ft,CYAT 051913Z AUTO 09006KT 9SM -RA FEW008 OVC040 10/09 A2931 RMK SLP929,2025-09-05T19:20:59Z,2025-09-05T15:20:59Z
CYAT,2025-09-05T19:58:00Z,2025-09-05T15:58:00Z,MVFR,9,8,94,50,4,14500,29.31,NA,OVC  ft,CYAT 051958Z AUTO 05004KT 9SM OVC026 09/08 A2931 RMK PCPN 0.5MM PAST HR SLP926,2025-09-05T20:09:17Z,2025-09-05T16:09:17Z
CYAT,2025-09-05T20:24:00Z,2025-09-05T16:24:00Z,VFR,9,8,94,50,3,14500,29.3,NA,SCT  ft; BKN  ft; OVC  ft,CYAT 052024Z AUTO 05003KT 9SM SCT024 BKN049 OVC060 09/08 A2930 RMK SLP925,2025-09-05T20:29:27Z,2025-09-05T16:29:27Z
CYAT,2025-09-05T20:35:00Z,2025-09-05T16:35:00Z,MVFR,9,8,94,30,5,8000,29.3,NA,FEW  ft; BKN  ft; BKN  ft; OVC  ft,CYAT 052035Z AUTO 03005KT 5SM BR FEW024 BKN032 BKN040 OVC055 09/08 A2930 RMK SLP924,2025-09-05T20:39:13Z,2025-09-05T16:39:13Z
CYAT,2025-09-05T20:37:00Z,2025-09-05T16:37:00Z,MVFR,9,8,94,20,4,6400,29.3,NA,FEW  ft; SCT  ft; BKN  ft; OVC  ft,CYAT 052037Z AUTO 02004KT 4SM -RA BR FEW024 SCT032 BKN038 OVC055 09/08 A2930 RMK SLP924,2025-09-05T20:45:37Z,2025-09-05T16:45:37Z
CYAT,2025-09-05T20:46:00Z,2025-09-05T16:46:00Z,MVFR,9,8,94,20,5,12900,29.3,NA,FEW  ft; BKN  ft; BKN  ft; OVC  ft,CYAT 052046Z AUTO 02005KT 8SM -RA FEW026 BKN030 BKN040 OVC055 09/08 A2930 RMK SLP924,2025-09-05T20:51:31Z,2025-09-05T16:51:31Z
CYAT,2025-09-05T20:54:00Z,2025-09-05T16:54:00Z,MVFR,9,8,94,40,6,12900,29.3,NA,FEW  ft; BKN  ft; BKN  ft; OVC  ft,CYAT 052054Z AUTO 04006KT 8SM -RA FEW017 BKN023 BKN030 OVC036 09/08 A2930 RMK SLP924,2025-09-05T21:01:42Z,2025-09-05T17:01:42Z
CYAT,2025-09-05T21:10:00Z,2025-09-05T17:10:00Z,MVFR,9,8,94,360,5,8000,29.3,NA,FEW  ft; BKN  ft; BKN  ft; OVC  ft,CYAT 052110Z AUTO 36005KT 350V050 5SM -RA BR FEW015 BKN023 BKN030 OVC044 09/08 A2930 RMK SLP923,2025-09-05T21:14:25Z,2025-09-05T17:14:25Z
CYAT,2025-09-05T21:15:00Z,2025-09-05T17:15:00Z,MVFR,9,8,94,10,4,9700,29.3,NA,FEW  ft; BKN  ft; BKN  ft; OVC  ft,CYAT 052115Z AUTO 01004KT 6SM -RA BR FEW015 BKN023 BKN033 OVC044 09/08 A2930 RMK SLP923,2025-09-05T21:23:22Z,2025-09-05T17:23:22Z
CYAT,2025-09-05T21:34:00Z,2025-09-05T17:34:00Z,MVFR,9,8,94,350,5,14500,29.3,NA,FEW  ft; BKN  ft; BKN  ft; OVC  ft,CYAT 052134Z AUTO 35005KT 9SM -RA FEW005 BKN023 BKN031 OVC038 09/08 A2930 RMK PCPN 0.5MM PAST HR SLP923,2025-09-05T21:41:38Z,2025-09-05T17:41:38Z
CYAT,2025-09-05T21:45:00Z,2025-09-05T17:45:00Z,MVFR,9,8,94,340,3,14500,29.3,NA,SCT  ft; BKN  ft; BKN  ft; OVC  ft,CYAT 052145Z AUTO 34003KT 9SM -RA SCT016 BKN023 BKN029 OVC038 09/08 A2930 RMK PCPN 0.8MM PAST HR SLP923,2025-09-05T21:51:08Z,2025-09-05T17:51:08Z
CYAT,2025-09-05T21:59:00Z,2025-09-05T17:59:00Z,MVFR,9,8,94,350,5,14500,29.3,NA,FEW  ft; SCT  ft; BKN  ft; OVC  ft,CYAT 052159Z AUTO 35005KT 320V020 9SM -RA FEW006 SCT012 BKN018 OVC023 09/08 A2930 RMK PCPN 1.0MM PAST HR SLP923,2025-09-05T22:02:52Z,2025-09-05T18:02:52Z
CYAT,2025-09-05T22:00:00Z,2025-09-05T18:00:00Z,MVFR,9,9,100,340,5,14500,29.3,NA,FEW  ft; BKN  ft; BKN  ft; OVC  ft,CYAT 052200Z AUTO 34005KT 320V020 9SM -RA FEW006 BKN012 BKN018 OVC023 09/09 A2930 RMK PCPN 1.0MM PAST HR SLP923,2025-09-05T22:18:44Z,2025-09-05T18:18:44Z
CYAT,2025-09-05T22:48:00Z,2025-09-05T18:48:00Z,VFR,9,9,100,310,7,14500,29.29,NA,SCT  ft; OVC  ft,CYAT 052248Z AUTO 31007KT 9SM -RA SCT014 OVC066 09/09 A2929 RMK PCPN 0.5MM PAST HR SLP921,2025-09-05T23:03:09Z,2025-09-05T19:03:09Z
CYAT,2025-09-05T23:14:00Z,2025-09-05T19:14:00Z,VFR,9,9,100,330,7,14500,29.29,NA,FEW  ft; SCT  ft; SCT  ft; OVC  ft,CYAT 052314Z AUTO 33007KT 9SM -RA FEW007 SCT023 SCT055 OVC066 09/09 A2929 RMK SLP920,2025-09-05T23:20:06Z,2025-09-05T19:20:06Z
CYAT,2025-09-05T23:22:00Z,2025-09-05T19:22:00Z,MVFR,9,9,100,320,7,14500,29.29,NA,FEW  ft; BKN  ft; BKN  ft; OVC  ft,CYAT 052322Z AUTO 32007KT 9SM -RA FEW007 BKN021 BKN035 OVC066 09/09 A2929 RMK SLP920,2025-09-05T23:39:26Z,2025-09-05T19:39:26Z
CYAT,2025-09-06T01:00:00Z,2025-09-05T21:00:00Z,IFR,8,8,100,320,7,14500,29.28,NA,BKN  ft; OVC  ft,CYAT 060100Z AUTO 32007KT 9SM -RA BKN006 OVC046 08/08 A2928 RMK PCPN 1.2MM PAST HR SLP918,2025-09-06T01:42:34Z,2025-09-05T21:42:34Z
CYAT,2025-09-06T02:38:00Z,2025-09-05T22:38:00Z,IFR,9,9,100,300,8,11300,29.27,NA,OVC  ft,CYAT 060238Z AUTO 30008KT 7SM -RA OVC006 09/09 A2927 RMK PCPN 2.2MM PAST HR SLP913,2025-09-06T02:56:34Z,2025-09-05T22:56:34Z
CYAT,2025-09-06T03:00:00Z,2025-09-05T23:00:00Z,IFR,9,9,100,300,8,11300,29.26,NA,OVC  ft,CYAT 060300Z AUTO 30008KT 7SM -RA OVC006 09/09 A2926 RMK PCPN 3.2MM PAST HR SLP911,2025-09-06T03:30:45Z,2025-09-05T23:30:45Z
CYAT,2025-09-06T04:01:00Z,2025-09-06T00:01:00Z,LIFR,9,9,100,300,5,8000,29.26,NA,OVC  ft,CYAT 060401Z AUTO 30005KT 5SM -RA BR OVC004 09/09 A2926 RMK SLP909,2025-09-06T04:25:44Z,2025-09-06T00:25:44Z
CYAT,2025-09-06T05:15:00Z,2025-09-06T01:15:00Z,LIFR,9,9,100,320,4,14500,29.26,NA,OVC  ft,CYAT 060515Z AUTO 32004KT 9SM OVC004 09/09 A2926 RMK SLP909,2025-09-06T05:19:54Z,2025-09-06T01:19:54Z
CYAT,2025-09-06T05:17:00Z,2025-09-06T01:17:00Z,LIFR,9,9,100,330,4,14500,29.26,NA,OVC  ft,CYAT 060517Z AUTO 33004KT 9SM -RA OVC004 09/09 A2926 RMK SLP909,2025-09-06T05:40:02Z,2025-09-06T01:40:02Z
CYAT,2025-09-06T06:10:00Z,2025-09-06T02:10:00Z,LIFR,10,10,100,340,8,8000,29.26,NA,OVC  ft,CYAT 060610Z AUTO 34008KT 5SM -RA BR OVC004 10/10 A2926 RMK SLP912,2025-09-06T06:29:48Z,2025-09-06T02:29:48Z
CYAT,2025-09-06T07:00:00Z,2025-09-06T03:00:00Z,LIFR,10,10,100,340,8,8000,29.28,NA,OVC  ft,CYAT 060700Z AUTO 34008KT 5SM -RA BR OVC004 10/10 A2928 RMK PCPN 1.0MM PAST HR SLP916,2025-09-06T07:18:40Z,2025-09-06T03:18:40Z
CYAT,2025-09-06T07:27:00Z,2025-09-06T03:27:00Z,IFR,10,10,100,330,7,11300,29.28,NA,OVC  ft,CYAT 060727Z AUTO 33007KT 7SM OVC006 10/10 A2928 RMK SLP918,2025-09-06T07:39:07Z,2025-09-06T03:39:07Z
CYAT,2025-09-06T08:00:00Z,2025-09-06T04:00:00Z,IFR,10,10,100,330,8,14500,29.3,NA,OVC  ft,CYAT 060800Z AUTO 33008G17KT 9SM OVC006 10/10 A2930 RMK SLP923,2025-09-06T08:25:10Z,2025-09-06T04:25:10Z
CYAT,2025-09-06T09:00:00Z,2025-09-06T05:00:00Z,IFR,10,10,100,330,8,14500,29.33,NA,BKN  ft; OVC  ft,CYAT 060900Z AUTO 33008KT 9SM BKN008 OVC011 10/10 A2933 RMK SLP934,2025-09-06T09:19:45Z,2025-09-06T05:19:45Z
CYAT,2025-09-06T10:00:00Z,2025-09-06T06:00:00Z,IFR,10,10,100,320,8,14500,29.36,NA,BKN  ft; OVC  ft,CYAT 061000Z AUTO 32008G15KT 9SM BKN008 OVC016 10/10 A2936 RMK SLP945,2025-09-06T10:20:30Z,2025-09-06T06:20:30Z
CYAT,2025-09-06T11:00:00Z,2025-09-06T07:00:00Z,IFR,10,9,94,310,9,14500,29.4,NA,OVC  ft,CYAT 061100Z AUTO 31009G16KT 9SM OVC008 10/09 A2940 RMK SLP959,2025-09-06T11:15:59Z,2025-09-06T07:15:59Z
CYAT,2025-09-06T11:14:00Z,2025-09-06T07:14:00Z,MVFR,9,9,100,310,10,14500,29.41,NA,OVC  ft,CYAT 061114Z AUTO 31010G17KT 9SM OVC010 09/09 A2941 RMK SLP962,2025-09-06T11:38:57Z,2025-09-06T07:38:57Z
CYAT,2025-09-06T12:24:00Z,2025-09-06T08:24:00Z,IFR,9,9,100,290,10,3600,29.46,NA,OVC  ft,CYAT 061224Z AUTO 29010KT 2 1/4SM -RA BR OVC006 09/09 A2946 RMK SLP977,2025-09-06T12:39:59Z,2025-09-06T08:39:59Z
CYAT,2025-09-06T13:14:00Z,2025-09-06T09:14:00Z,IFR,9,9,100,300,11,9700,29.49,NA,OVC  ft,CYAT 061314Z AUTO 30011G16KT 260V320 6SM BR OVC006 09/09 A2949 RMK SLP987,2025-09-06T13:22:39Z,2025-09-06T09:22:39Z
CYAT,2025-09-06T14:06:00Z,2025-09-06T10:06:00Z,IFR,9,9,100,300,10,9700,29.52,NA,OVC  ft,CYAT 061406Z AUTO 30010G15KT 6SM BR OVC006 09/09 A2952 RMK SLP998,2025-09-06T14:18:38Z,2025-09-06T10:18:38Z
CYAT,2025-09-06T15:11:00Z,2025-09-06T11:11:00Z,MVFR,9,8,94,290,9,14500,29.56,NA,OVC  ft,CYAT 061511Z AUTO 29009G17KT 9SM OVC010 09/08 A2956 RMK SLP012,2025-09-06T15:19:23Z,2025-09-06T11:19:23Z
CYAT,2025-09-06T16:00:00Z,2025-09-06T12:00:00Z,MVFR,9,8,94,290,10,14500,29.58,NA,OVC  ft,CYAT 061600Z AUTO 29010G15KT 9SM OVC010 09/08 A2958 RMK SLP019,2025-09-06T16:24:52Z,2025-09-06T12:24:52Z
CYAT,2025-09-06T17:00:00Z,2025-09-06T13:00:00Z,MVFR,10,8,88,290,12,14500,29.61,NA,OVC  ft,CYAT 061700Z AUTO 29012G17KT 9SM OVC012 10/08 A2961 RMK SLP030,2025-09-06T17:24:31Z,2025-09-06T13:24:31Z
CYAT,2025-09-06T18:00:00Z,2025-09-06T14:00:00Z,MVFR,10,8,88,280,9,14500,29.64,NA,OVC  ft,CYAT 061800Z AUTO 28009KT 9SM OVC016 10/08 A2964 RMK SLP040,2025-09-06T18:32:24Z,2025-09-06T14:32:24Z
CYAT,2025-09-06T19:00:00Z,2025-09-06T15:00:00Z,MVFR,10,8,88,280,8,14500,29.66,NA,OVC  ft,CYAT 061900Z AUTO 28008KT 9SM OVC016 10/08 A2966 RMK SLP047,2025-09-06T19:18:13Z,2025-09-06T15:18:13Z
CYAT,2025-09-06T20:08:00Z,2025-09-06T16:08:00Z,MVFR,11,8,82,290,9,14500,29.69,NA,SCT  ft; BKN  ft; OVC  ft,CYAT 062008Z AUTO 29009KT 9SM SCT024 BKN029 OVC038 11/08 A2969 RMK SLP055,2025-09-06T20:25:14Z,2025-09-06T16:25:14Z
CYAT,2025-09-06T21:07:00Z,2025-09-06T17:07:00Z,MVFR,11,8,82,280,6,14500,29.7,NA,OVC  ft,CYAT 062107Z AUTO 28006KT 240V300 9SM OVC026 11/08 A2970 RMK SLP060,2025-09-06T21:21:18Z,2025-09-06T17:21:18Z
CYAT,2025-09-06T22:00:00Z,2025-09-06T18:00:00Z,VFR,11,8,82,360,4,14500,29.71,NA,SCT  ft; BKN  ft; OVC  ft,CYAT 062200Z AUTO 36004KT 9SM SCT032 BKN039 OVC050 11/08 A2971 RMK SLP064,2025-09-06T22:23:56Z,2025-09-06T18:23:56Z
CYAT,2025-09-06T23:08:00Z,2025-09-06T19:08:00Z,VFR,11,9,88,0,2,14500,29.73,NA,FEW  ft; SCT  ft; BKN  ft; OVC  ft,CYAT 062308Z AUTO VRB02KT 9SM -RA FEW031 SCT042 BKN049 OVC060 11/09 A2973 RMK SLP070,2025-09-06T23:22:35Z,2025-09-06T19:22:35Z
CYAT,2025-09-07T01:00:00Z,2025-09-06T21:00:00Z,VFR,9,8,94,250,5,14500,29.76,NA,FEW  ft; BKN  ft; BKN  ft,CYAT 070100Z AUTO 25005KT 9SM FEW030 BKN050 BKN076 09/08 A2976 RMK SLP078,2025-09-07T02:04:14Z,2025-09-06T22:04:14Z
CYAT,2025-09-07T02:00:00Z,2025-09-06T22:00:00Z,VFR,8,7,93,250,4,14500,29.76,NA,OVC  ft,CYAT 070200Z AUTO 25004KT 9SM OVC081 08/07 A2976 RMK SLP081,2025-09-07T03:07:53Z,2025-09-06T23:07:53Z
CYAT,2025-09-07T03:00:00Z,2025-09-06T23:00:00Z,VFR,8,7,93,260,5,14500,29.77,NA,FEW  ft; OVC  ft,CYAT 070300Z AUTO 26005KT 9SM FEW038 OVC046 08/07 A2977 RMK SLP084,2025-09-07T03:38:07Z,2025-09-06T23:38:07Z
CYAT,2025-09-07T04:00:00Z,2025-09-07T00:00:00Z,VFR,8,7,93,280,5,14500,29.78,NA,BKN  ft; BKN  ft; OVC  ft,CYAT 070400Z AUTO 28005KT 9SM BKN046 BKN055 OVC075 08/07 A2978 RMK SLP086,2025-09-07T04:29:47Z,2025-09-07T00:29:47Z
CYAT,2025-09-07T05:00:00Z,2025-09-07T01:00:00Z,VFR,8,7,93,290,5,14500,29.79,NA,SCT  ft; BKN  ft; OVC  ft,CYAT 070500Z AUTO 29005KT 9SM SCT026 BKN060 OVC078 08/07 A2979 RMK SLP090,2025-09-07T05:25:32Z,2025-09-07T01:25:32Z
CYAT,2025-09-07T06:00:00Z,2025-09-07T02:00:00Z,VFR,8,7,93,300,4,14500,29.8,NA,FEW  ft; BKN  ft; OVC  ft,CYAT 070600Z AUTO 30004KT 9SM FEW036 BKN081 OVC094 08/07 A2980 RMK SLP093,2025-09-07T06:34:53Z,2025-09-07T02:34:53Z
CYAT,2025-09-07T07:00:00Z,2025-09-07T03:00:00Z,MVFR,8,6,87,320,4,14500,29.81,NA,BKN  ft; BKN  ft; OVC  ft,CYAT 070700Z AUTO 32004KT 9SM BKN015 BKN060 OVC075 08/06 A2981 RMK SLP098,2025-09-07T07:22:54Z,2025-09-07T03:22:54Z
CYAT,2025-09-07T07:34:00Z,2025-09-07T03:34:00Z,VFR,7,6,93,320,7,14500,29.82,NA,FEW  ft; SCT  ft; BKN  ft; OVC  ft,CYAT 070734Z AUTO 32007KT 9SM FEW020 SCT025 BKN035 OVC081 07/06 A2982 RMK SLP100,2025-09-07T07:41:49Z,2025-09-07T03:41:49Z
CYAT,2025-09-07T08:00:00Z,2025-09-07T04:00:00Z,VFR,7,6,93,310,7,14500,29.83,NA,FEW  ft; SCT  ft; OVC  ft,CYAT 070800Z AUTO 31007KT 9SM FEW032 SCT044 OVC081 07/06 A2983 RMK SLP102,2025-09-07T08:29:56Z,2025-09-07T04:29:56Z
CYAT,2025-09-07T08:28:00Z,2025-09-07T04:28:00Z,MVFR,7,6,93,320,5,14500,29.83,NA,BKN  ft; BKN  ft; OVC  ft,CYAT 070828Z AUTO 32005KT 9SM BKN017 BKN031 OVC096 07/06 A2983 RMK SLP105,2025-09-07T08:44:41Z,2025-09-07T04:44:41Z
CYAT,2025-09-07T09:00:00Z,2025-09-07T05:00:00Z,VFR,6,5,93,320,6,14500,29.84,NA,SCT  ft; BKN  ft; OVC  ft,CYAT 070900Z AUTO 32006KT 9SM SCT013 BKN091 OVC150 06/05 A2984 RMK SLP108,2025-09-07T09:23:40Z,2025-09-07T05:23:40Z
CYAT,2025-09-07T10:00:00Z,2025-09-07T06:00:00Z,VFR,5,4,93,300,4,14500,29.85,NA,SCT  ft; BKN  ft,CYAT 071000Z AUTO 30004KT 9SM SCT140 BKN160 05/04 A2985 RMK SLP111,2025-09-07T10:26:10Z,2025-09-07T06:26:10Z
CYAT,2025-09-07T11:00:00Z,2025-09-07T07:00:00Z,VFR,5,4,93,300,5,14500,29.86,NA,SCT  ft; SCT  ft,CYAT 071100Z AUTO 30005KT 9SM SCT160 SCT180 05/04 A2986 RMK SLP114,2025-09-07T11:19:23Z,2025-09-07T07:19:23Z
CYAT,2025-09-07T12:09:00Z,2025-09-07T08:09:00Z,VFR,6,5,93,290,5,14500,29.87,NA,SCT  ft; BKN  ft; BKN  ft,CYAT 071209Z AUTO 29005KT 9SM SCT014 BKN048 BKN180 06/05 A2987 RMK SLP116,2025-09-07T12:48:15Z,2025-09-07T08:48:15Z
CYAT,2025-09-07T13:00:00Z,2025-09-07T09:00:00Z,VFR,7,5,87,280,8,14500,29.86,NA,OVC  ft,CYAT 071300Z AUTO 28008KT 9SM OVC036 07/05 A2986 RMK SLP115,2025-09-07T13:26:44Z,2025-09-07T09:26:44Z
CYAT,2025-09-07T14:18:00Z,2025-09-07T10:18:00Z,MVFR,7,4,81,290,7,14500,29.86,NA,BKN  ft; OVC  ft,CYAT 071418Z AUTO 29007KT 9SM BKN024 OVC030 07/04 A2986 RMK SLP114,2025-09-07T14:23:04Z,2025-09-07T10:23:04Z
CYAT,2025-09-07T15:13:00Z,2025-09-07T11:13:00Z,MVFR,7,4,81,330,7,14500,29.86,NA,BKN  ft; OVC  ft,CYAT 071513Z AUTO 33007KT 260V350 9SM -RA BKN029 OVC039 07/04 A2986 RMK SLP114,2025-09-07T15:23:36Z,2025-09-07T11:23:36Z
CYAT,2025-09-07T15:24:00Z,2025-09-07T11:24:00Z,VFR,8,5,82,20,4,14500,29.86,NA,SCT  ft; BKN  ft; OVC  ft,CYAT 071524Z AUTO 02004KT 330V040 9SM SCT029 BKN037 OVC050 08/05 A2986 RMK SLP113,2025-09-07T15:41:52Z,2025-09-07T11:41:52Z
CYAT,2025-09-07T16:05:00Z,2025-09-07T12:05:00Z,VFR,9,5,76,270,10,14500,29.86,NA,SCT  ft; BKN  ft; OVC  ft,CYAT 071605Z AUTO 27010KT 9SM SCT030 BKN055 OVC068 09/05 A2986 RMK SLP112,2025-09-07T16:29:08Z,2025-09-07T12:29:08Z
CYAT,2025-09-07T16:35:00Z,2025-09-07T12:35:00Z,MVFR,8,5,82,280,12,14500,29.85,NA,FEW  ft; BKN  ft; BKN  ft; OVC  ft,CYAT 071635Z AUTO 28012G19KT 9SM -RA FEW024 BKN030 BKN040 OVC047 08/05 A2985 RMK SLP111,2025-09-07T16:44:40Z,2025-09-07T12:44:40Z
CYAT,2025-09-07T17:00:00Z,2025-09-07T13:00:00Z,VFR,9,5,76,260,10,14500,29.85,NA,SCT  ft; SCT  ft; BKN  ft,CYAT 071700Z AUTO 26010KT 9SM SCT047 SCT055 BKN170 09/05 A2985 RMK SLP110,2025-09-07T17:21:31Z,2025-09-07T13:21:31Z
CYAT,2025-09-07T17:28:00Z,2025-09-07T13:28:00Z,MVFR,8,5,82,270,16,14500,29.86,NA,SCT  ft; BKN  ft; BKN  ft; OVC  ft,CYAT 071728Z AUTO 27016G24KT 9SM -RA SCT024 BKN029 BKN041 OVC180 08/05 A2986 RMK SLP112,2025-09-07T17:41:26Z,2025-09-07T13:41:26Z
CYAT,2025-09-07T18:04:00Z,2025-09-07T14:04:00Z,VFR,9,4,71,300,18,14500,29.85,NA,BKN  ft; OVC  ft,CYAT 071804Z AUTO 30018G23KT 250V310 9SM BKN033 OVC066 09/04 A2985 RMK SLP110,2025-09-07T18:32:51Z,2025-09-07T14:32:51Z
CYAT,2025-09-07T19:14:00Z,2025-09-07T15:14:00Z,VFR,8,5,82,260,9,14500,29.85,NA,FEW  ft; BKN  ft; OVC  ft,CYAT 071914Z AUTO 26009G15KT 9SM FEW033 BKN042 OVC055 08/05 A2985 RMK SLP111,2025-09-07T19:18:49Z,2025-09-07T15:18:49Z
CYAT,2025-09-07T20:00:00Z,2025-09-07T16:00:00Z,VFR,10,4,67,260,15,14500,29.85,NA,FEW  ft; SCT  ft,CYAT 072000Z AUTO 26015G21KT 250V320 9SM FEW032 SCT060 10/04 A2985 RMK SLP110,2025-09-07T20:25:51Z,2025-09-07T16:25:51Z
CYAT,2025-09-07T21:18:00Z,2025-09-07T17:18:00Z,VFR,9,4,71,290,13,14500,29.87,NA,SCT  ft; BKN  ft; BKN  ft,CYAT 072118Z AUTO 29013G24KT 9SM -RA SCT037 BKN086 BKN160 09/04 A2987 RMK SLP116,2025-09-07T21:21:33Z,2025-09-07T17:21:33Z
CYBC,2025-09-05T21:00:00Z,2025-09-05T17:00:00Z,VFR,20,16,78,180,7,14500,29.8,NA,CLR  ft,CYBC 052100Z AUTO 18007KT 9SM CLR 20/16 A2980 RMK SLP094 DENSITY ALT 900FT,2025-09-05T22:02:55Z,2025-09-05T18:02:55Z
CYBC,2025-09-05T22:00:00Z,2025-09-05T18:00:00Z,VFR,18,15,83,0,2,14500,29.8,NA,FEW  ft,CYBC 052200Z AUTO VRB02KT 9SM FEW048 18/15 A2980 RMK SLP092 DENSITY ALT 600FT,2025-09-05T22:18:46Z,2025-09-05T18:18:46Z
CYBC,2025-09-05T23:00:00Z,2025-09-05T19:00:00Z,VFR,16,15,94,0,0,14500,29.79,NA,CLR  ft,CYBC 052300Z AUTO 00000KT 9SM CLR 16/15 A2979 RMK SLP091 DENSITY ALT 400FT,2025-09-05T23:20:09Z,2025-09-05T19:20:09Z
CYBC,2025-09-06T01:00:00Z,2025-09-05T21:00:00Z,VFR,15,15,100,0,2,14500,29.78,NA,BKN  ft; BKN  ft,CYBC 060100Z AUTO VRB02KT 9SM BKN071 BKN170 15/15 A2978 RMK SLP088 DENSITY ALT 300FT,2025-09-06T01:42:37Z,2025-09-05T21:42:37Z
CYBC,2025-09-06T02:00:00Z,2025-09-05T22:00:00Z,VFR,16,15,94,80,6,14500,29.77,NA,SCT  ft; BKN  ft,CYBC 060200Z AUTO 08006KT 9SM SCT036 BKN180 16/15 A2977 RMK SLP083 DENSITY ALT 400FT,2025-09-06T02:56:37Z,2025-09-05T22:56:37Z
CYBC,2025-09-06T03:26:00Z,2025-09-05T23:26:00Z,IFR,16,15,94,0,2,2400,29.74,NA,FEW  ft; OVC  ft,CYBC 060326Z AUTO VRB02KT 1 1/2SM +RA BR FEW023 OVC029 16/15 A2974 RMK PCPN 2.0MM PAST HR SLP074 DENSITY ALT 500FT,2025-09-06T03:30:48Z,2025-09-05T23:30:48Z
CYBC,2025-09-06T04:00:00Z,2025-09-06T00:00:00Z,MVFR,17,16,94,150,6,14500,29.73,NA,BKN  ft; OVC  ft,CYBC 060400Z AUTO 15006KT 9SM BKN029 OVC040 17/16 A2973 RMK PCPN 4.3MM PAST HR SLP068 DENSITY ALT 600FT,2025-09-06T04:25:47Z,2025-09-06T00:25:47Z
CYBC,2025-09-06T05:00:00Z,2025-09-06T01:00:00Z,VFR,17,16,94,180,5,14500,29.72,NA,OVC  ft,CYBC 060500Z AUTO 18005KT 9SM OVC031 17/16 A2972 RMK SLP065 DENSITY ALT 600FT,2025-09-06T05:19:58Z,2025-09-06T01:19:58Z
CYBC,2025-09-06T06:10:00Z,2025-09-06T02:10:00Z,VFR,17,15,88,220,5,14500,29.7,NA,BKN  ft; BKN  ft,CYBC 060610Z AUTO 22005KT 9SM BKN034 BKN120 17/15 A2970 RMK LTNG DIST N SLP060 DENSITY ALT 600FT,2025-09-06T06:29:51Z,2025-09-06T02:29:51Z
CYBC,2025-09-06T07:00:00Z,2025-09-06T03:00:00Z,VFR,16,15,94,240,6,14500,29.7,NA,BKN  ft; BKN  ft; BKN  ft; OVC  ft,CYBC 060700Z AUTO 24006KT 9SM BKN035 BKN050 BKN066 OVC180 16/15 A2970 RMK SLP061 DENSITY ALT 500FT,2025-09-06T07:18:43Z,2025-09-06T03:18:43Z
CYBC,2025-09-06T08:00:00Z,2025-09-06T04:00:00Z,VFR,15,15,100,230,6,14500,29.71,NA,FEW  ft; BKN  ft,CYBC 060800Z AUTO 23006KT 9SM FEW120 BKN150 15/15 A2971 RMK SLP063 DENSITY ALT 400FT,2025-09-06T08:25:13Z,2025-09-06T04:25:13Z
CYBC,2025-09-06T09:00:00Z,2025-09-06T05:00:00Z,VFR,16,14,88,230,9,14500,29.73,NA,OVC  ft,CYBC 060900Z AUTO 23009KT 9SM OVC130 16/14 A2973 RMK SLP069 DENSITY ALT 500FT,2025-09-06T09:19:48Z,2025-09-06T05:19:48Z
CYBC,2025-09-06T10:00:00Z,2025-09-06T06:00:00Z,VFR,15,14,94,240,9,14500,29.74,NA,CLR  ft,CYBC 061000Z AUTO 24009KT 9SM CLR 15/14 A2974 RMK SLP073 DENSITY ALT 300FT,2025-09-06T10:20:32Z,2025-09-06T06:20:32Z
CYBC,2025-09-06T11:13:00Z,2025-09-06T07:13:00Z,VFR,15,14,94,250,20,14500,29.77,NA,FEW  ft,CYBC 061113Z AUTO 25020G26KT 9SM FEW009 15/14 A2977 RMK SLP084 DENSITY ALT 300FT,2025-09-06T11:16:02Z,2025-09-06T07:16:02Z
CYBC,2025-09-06T12:00:00Z,2025-09-06T08:00:00Z,VFR,16,14,88,250,11,14500,29.8,NA,CLR  ft,CYBC 061200Z AUTO 25011KT 9SM CLR 16/14 A2980 RMK SLP092 DENSITY ALT 400FT,2025-09-06T12:40:02Z,2025-09-06T08:40:02Z
CYBC,2025-09-06T13:00:00Z,2025-09-06T09:00:00Z,VFR,17,14,83,250,8,14500,29.8,NA,CLR  ft,CYBC 061300Z AUTO 25008KT 9SM CLR 17/14 A2980 RMK SLP093 DENSITY ALT 500FT,2025-09-06T13:22:41Z,2025-09-06T09:22:41Z
CYBC,2025-09-06T14:00:00Z,2025-09-06T10:00:00Z,VFR,17,14,83,230,13,14500,29.81,NA,CLR  ft,CYBC 061400Z AUTO 23013G18KT 9SM CLR 17/14 A2981 RMK SLP098 DENSITY ALT 500FT,2025-09-06T14:18:40Z,2025-09-06T10:18:40Z
CYBC,2025-09-06T15:00:00Z,2025-09-06T11:00:00Z,VFR,18,11,64,240,17,14500,29.82,NA,CLR  ft,CYBC 061500Z AUTO 24017G22KT 9SM CLR 18/11 A2982 RMK SLP099 DENSITY ALT 600FT,2025-09-06T15:19:25Z,2025-09-06T11:19:25Z
CYBC,2025-09-06T16:00:00Z,2025-09-06T12:00:00Z,VFR,15,11,77,220,18,14500,29.83,NA,CLR  ft,CYBC 061600Z AUTO 22018G24KT 9SM CLR 15/11 A2983 RMK SLP103,2025-09-06T16:24:54Z,2025-09-06T12:24:54Z
CYBC,2025-09-06T17:00:00Z,2025-09-06T13:00:00Z,VFR,15,10,72,230,22,14500,29.84,NA,CLR  ft,CYBC 061700Z AUTO 23022G29KT 9SM CLR 15/10 A2984 RMK SLP108,2025-09-06T17:24:33Z,2025-09-06T13:24:33Z
CYBC,2025-09-06T18:00:00Z,2025-09-06T14:00:00Z,VFR,15,11,77,240,22,14500,29.85,NA,OVC  ft,CYBC 061800Z AUTO 24022KT 9SM OVC060 15/11 A2985 RMK SLP111,2025-09-06T18:32:27Z,2025-09-06T14:32:27Z
CYBC,2025-09-06T19:00:00Z,2025-09-06T15:00:00Z,VFR,15,10,72,240,18,14500,29.85,NA,BKN  ft,CYBC 061900Z AUTO 24018G29KT 9SM BKN066 15/10 A2985 RMK SLP111,2025-09-06T19:18:16Z,2025-09-06T15:18:16Z
CYBC,2025-09-06T20:00:00Z,2025-09-06T16:00:00Z,VFR,14,10,77,240,19,14500,29.87,NA,OVC  ft,CYBC 062000Z AUTO 24019G26KT 9SM OVC066 14/10 A2987 RMK SLP117,2025-09-06T20:25:17Z,2025-09-06T16:25:17Z
CYBC,2025-09-06T21:00:00Z,2025-09-06T17:00:00Z,VFR,13,10,82,230,14,14500,29.86,NA,BKN  ft,CYBC 062100Z AUTO 23014G22KT 9SM BKN110 13/10 A2986 RMK SLP116,2025-09-06T21:21:21Z,2025-09-06T17:21:21Z
CYBC,2025-09-06T22:00:00Z,2025-09-06T18:00:00Z,VFR,12,10,88,240,13,14500,29.86,NA,OVC  ft,CYBC 062200Z AUTO 24013KT 9SM OVC120 12/10 A2986 RMK SLP116,2025-09-06T22:23:59Z,2025-09-06T18:23:59Z
CYBC,2025-09-06T23:06:00Z,2025-09-06T19:06:00Z,MVFR,12,10,88,230,14,14500,29.87,NA,BKN  ft; BKN  ft; OVC  ft,CYBC 062306Z AUTO 23014G21KT 9SM BKN014 BKN150 OVC180 12/10 A2987 RMK SLP117,2025-09-06T23:22:39Z,2025-09-06T19:22:39Z
CYBC,2025-09-07T01:00:00Z,2025-09-06T21:00:00Z,IFR,12,11,94,230,16,14500,29.87,NA,OVC  ft,CYBC 070100Z AUTO 23016G22KT 9SM OVC007 12/11 A2987 RMK SLP118,2025-09-07T02:04:16Z,2025-09-06T22:04:16Z
CYBC,2025-09-07T02:28:00Z,2025-09-06T22:28:00Z,VFR,12,10,88,250,16,14500,29.87,NA,SCT  ft,CYBC 070228Z AUTO 25016G21KT 9SM SCT007 12/10 A2987 RMK SLP119,2025-09-07T03:07:56Z,2025-09-06T23:07:56Z
CYBC,2025-09-07T03:00:00Z,2025-09-06T23:00:00Z,VFR,11,10,94,240,14,14500,29.89,NA,CLR  ft,CYBC 070300Z AUTO 24014G19KT 9SM CLR 11/10 A2989 RMK SLP123,2025-09-07T03:38:10Z,2025-09-06T23:38:10Z
CYBC,2025-09-07T04:00:00Z,2025-09-07T00:00:00Z,VFR,10,9,94,230,11,14500,29.89,NA,CLR  ft,CYBC 070400Z AUTO 23011KT 9SM CLR 10/09 A2989 RMK SLP125,2025-09-07T04:29:50Z,2025-09-07T00:29:50Z
CYBC,2025-09-07T05:04:00Z,2025-09-07T01:04:00Z,VFR,9,9,100,230,6,14500,29.9,NA,FEW  ft; SCT  ft,CYBC 070504Z AUTO 23006KT 9SM FEW004 SCT066 09/09 A2990 RMK SLP129,2025-09-07T05:25:36Z,2025-09-07T01:25:36Z
CYBC,2025-09-07T05:27:00Z,2025-09-07T01:27:00Z,LIFR,10,9,94,240,7,14500,29.91,NA,BKN  ft,CYBC 070527Z AUTO 24007KT 9SM BKN004 10/09 A2991 RMK SLP130,2025-09-07T05:42:23Z,2025-09-07T01:42:23Z
CYBC,2025-09-07T06:00:00Z,2025-09-07T02:00:00Z,VFR,9,9,100,240,10,14500,29.91,NA,CLR  ft,CYBC 070600Z AUTO 24010KT 9SM CLR 09/09 A2991 RMK SLP130,2025-09-07T06:34:56Z,2025-09-07T02:34:56Z
CYBC,2025-09-07T07:00:00Z,2025-09-07T03:00:00Z,VFR,8,8,100,250,5,14500,29.91,NA,CLR  ft,CYBC 070700Z AUTO 25005KT 9SM CLR 08/08 A2991 RMK SLP131,2025-09-07T07:22:57Z,2025-09-07T03:22:57Z
CYBC,2025-09-07T07:35:00Z,2025-09-07T03:35:00Z,MVFR,8,7,93,270,4,4800,29.91,NA,FEW  ft,CYBC 070735Z AUTO 27004KT 3SM BR FEW002 08/07 A2991 RMK SLP132,2025-09-07T07:41:51Z,2025-09-07T03:41:51Z
CYBC,2025-09-07T08:26:00Z,2025-09-07T04:26:00Z,VFR,8,7,93,300,4,11300,29.91,NA,SCT  ft,CYBC 070826Z AUTO 30004KT 7SM R10/3000VP6000FT/ SCT001 08/07 A2991 RMK SLP133,2025-09-07T08:29:58Z,2025-09-07T04:29:58Z
CYBC,2025-09-07T08:28:00Z,2025-09-07T04:28:00Z,VFR,7,7,100,300,4,12900,29.91,NA,SCT  ft,CYBC 070828Z AUTO 30004KT 8SM SCT001 07/07 A2991 RMK SLP133,2025-09-07T08:44:44Z,2025-09-07T04:44:44Z
CYBC,2025-09-07T09:10:00Z,2025-09-07T05:10:00Z,LIFR,6,6,100,0,0,1200,29.93,NA,BKN  ft,CYBC 070910Z AUTO 00000KT 3/4SM R10/P6000FT/U BR BKN001 06/06 A2993 RMK SLP137,2025-09-07T09:23:43Z,2025-09-07T05:23:43Z
CYBC,2025-09-07T09:36:00Z,2025-09-07T05:36:00Z,LIFR,6,6,100,0,0,NA,29.93,NA,OVX  ft,CYBC 070936Z AUTO 00000KT 3/8SM R10/3000FT/N FG VV001 06/06 A2993 RMK SLP138,2025-09-07T09:41:34Z,2025-09-07T05:41:34Z
CYBC,2025-09-07T10:21:00Z,2025-09-07T06:21:00Z,MVFR,5,5,100,0,0,4800,29.94,NA,CLR  ft,CYBC 071021Z AUTO 00000KT 3SM R10/4000VP6000FT/ BR CLR 05/05 A2994 RMK SLP141,2025-09-07T10:26:13Z,2025-09-07T06:26:13Z
CYBC,2025-09-07T10:28:00Z,2025-09-07T06:28:00Z,VFR,5,5,100,280,2,12900,29.94,NA,CLR  ft,CYBC 071028Z AUTO 28002KT 8SM R10/3000FT/N CLR 05/05 A2994 RMK SLP142,2025-09-07T10:42:06Z,2025-09-07T06:42:06Z
CYBC,2025-09-07T11:12:00Z,2025-09-07T07:12:00Z,LIFR,6,6,100,260,3,600,29.95,NA,FEW  ft,CYBC 071112Z AUTO 26003KT 250V040 3/8SM R10/3500VP6000FT/ FG FEW001 06/06 A2995 RMK VIS VRB 1/8-3 SLP146,2025-09-07T11:19:26Z,2025-09-07T07:19:26Z
CYBC,2025-09-07T11:25:00Z,2025-09-07T07:25:00Z,VFR,7,7,100,0,0,14500,29.95,NA,FEW  ft,CYBC 071125Z AUTO 00000KT 9SM R10/2600VP6000FT FEW001 07/07 A2995 RMK SLP145,2025-09-07T11:41:31Z,2025-09-07T07:41:31Z
CYBC,2025-09-07T12:00:00Z,2025-09-07T08:00:00Z,VFR,9,9,100,0,2,14500,29.95,NA,OVC  ft,CYBC 071200Z AUTO VRB02KT 9SM OVC076 09/09 A2995 RMK SLP146,2025-09-07T12:48:18Z,2025-09-07T08:48:18Z
CYBC,2025-09-07T13:00:00Z,2025-09-07T09:00:00Z,VFR,12,11,94,210,3,14500,29.96,NA,OVC  ft,CYBC 071300Z AUTO 21003KT 9SM OVC076 12/11 A2996 RMK SLP149,2025-09-07T13:26:46Z,2025-09-07T09:26:46Z
CYBC,2025-09-07T14:00:00Z,2025-09-07T10:00:00Z,VFR,13,11,88,210,4,14500,29.96,NA,OVC  ft,CYBC 071400Z AUTO 21004KT 9SM OVC076 13/11 A2996 RMK SLP148,2025-09-07T14:23:06Z,2025-09-07T10:23:06Z
CYBC,2025-09-07T15:00:00Z,2025-09-07T11:00:00Z,VFR,13,10,82,210,8,14500,29.96,NA,OVC  ft,CYBC 071500Z AUTO 21008KT 9SM OVC076 13/10 A2996 RMK SLP149,2025-09-07T15:23:39Z,2025-09-07T11:23:39Z
CYBC,2025-09-07T16:00:00Z,2025-09-07T12:00:00Z,VFR,14,11,82,240,10,14500,29.94,NA,BKN  ft; OVC  ft,CYBC 071600Z AUTO 24010KT 9SM BKN043 OVC076 14/11 A2994 RMK SLP143,2025-09-07T16:29:12Z,2025-09-07T12:29:12Z
CYBC,2025-09-07T17:00:00Z,2025-09-07T13:00:00Z,VFR,16,12,77,250,10,14500,29.91,NA,BKN  ft,CYBC 071700Z AUTO 25010KT 9SM BKN091 16/12 A2991 RMK SLP133,2025-09-07T17:21:33Z,2025-09-07T13:21:33Z
CYBC,2025-09-07T18:00:00Z,2025-09-07T14:00:00Z,VFR,16,12,77,230,8,14500,29.89,NA,FEW  ft,CYBC 071800Z AUTO 23008KT 9SM FEW096 16/12 A2989 RMK SLP126 DENSITY ALT 300FT,2025-09-07T18:32:55Z,2025-09-07T14:32:55Z
CYBC,2025-09-07T19:00:00Z,2025-09-07T15:00:00Z,VFR,15,11,77,220,8,14500,29.88,NA,CLR  ft,CYBC 071900Z AUTO 22008KT 9SM CLR 15/11 A2988 RMK SLP122,2025-09-07T19:18:52Z,2025-09-07T15:18:52Z
CYBC,2025-09-07T20:00:00Z,2025-09-07T16:00:00Z,VFR,15,12,82,190,6,14500,29.87,NA,FEW  ft,CYBC 072000Z AUTO 19006KT 180V240 9SM FEW120 15/12 A2987 RMK SLP119,2025-09-07T20:25:54Z,2025-09-07T16:25:54Z
CYBC,2025-09-07T21:00:00Z,2025-09-07T17:00:00Z,VFR,14,11,82,190,7,14500,29.88,NA,FEW  ft; OVC  ft,CYBC 072100Z AUTO 19007KT 9SM FEW046 OVC110 14/11 A2988 RMK SLP121,2025-09-07T21:21:35Z,2025-09-07T17:21:35Z
CYBK,2025-09-05T21:00:00Z,2025-09-05T17:00:00Z,VFR,7,2,71,360,15,40200,30.03,NA,OVC  ft,CYBK 052100Z 36015KT 25SM OVC035 07/02 A3003 RMK SC8 SLP174,2025-09-05T22:02:55Z,2025-09-05T18:02:55Z
CYBK,2025-09-05T22:00:00Z,2025-09-05T18:00:00Z,VFR,7,3,76,360,11,40200,30.03,NA,OVC  ft,CYBK 052200Z 36011G16KT 25SM OVC037 07/03 A3003 RMK SC8 SLP174,2025-09-05T22:18:47Z,2025-09-05T18:18:47Z
CYBK,2025-09-05T23:00:00Z,2025-09-05T19:00:00Z,VFR,8,3,71,360,9,40200,30.04,NA,OVC  ft,CYBK 052300Z 36009KT 25SM OVC039 08/03 A3004 RMK SC8 SLP176,2025-09-05T23:20:09Z,2025-09-05T19:20:09Z
CYBK,2025-09-06T01:00:00Z,2025-09-05T21:00:00Z,VFR,7,1,66,350,13,40200,30.05,NA,BKN  ft,CYBK 060100Z 35013KT 25SM BKN035 07/01 A3005 RMK SC7 SLP178,2025-09-06T01:42:38Z,2025-09-05T21:42:38Z
CYBK,2025-09-06T02:00:00Z,2025-09-05T22:00:00Z,VFR,6,1,71,330,10,32200,30.05,NA,BKN  ft,CYBK 060200Z 33010KT 20SM BKN035 06/01 A3005 RMK SC7 SLP178,2025-09-06T02:56:38Z,2025-09-05T22:56:38Z
CYBK,2025-09-06T03:00:00Z,2025-09-05T23:00:00Z,VFR,6,2,76,330,11,32200,30.04,NA,BKN  ft,CYBK 060300Z 33011KT 20SM BKN035 06/02 A3004 RMK SC7 SLP175,2025-09-06T03:30:48Z,2025-09-05T23:30:48Z
CYBK,2025-09-06T04:00:00Z,2025-09-06T00:00:00Z,VFR,5,2,81,340,9,24100,30.04,NA,BKN  ft,CYBK 060400Z 34009KT 15SM BKN032 05/02 A3004 RMK SC8 SLP177,2025-09-06T04:25:49Z,2025-09-06T00:25:49Z
CYBK,2025-09-06T05:00:00Z,2025-09-06T01:00:00Z,MVFR,6,2,76,350,10,24100,30.04,NA,OVC  ft,CYBK 060500Z 35010KT 15SM OVC030 06/02 A3004 RMK SC8 SLP177,2025-09-06T05:19:59Z,2025-09-06T01:19:59Z
CYBK,2025-09-06T06:00:00Z,2025-09-06T02:00:00Z,MVFR,5,1,76,20,10,24100,30.04,NA,OVC  ft,CYBK 060600Z 02010KT 15SM OVC025 05/01 A3004 RMK SC8 SLP177,2025-09-06T06:29:51Z,2025-09-06T02:29:51Z
CYBK,2025-09-06T07:00:00Z,2025-09-06T03:00:00Z,MVFR,5,1,76,360,5,24100,30.06,NA,OVC  ft,CYBK 060700Z 36005KT 15SM OVC028 05/01 A3006 RMK SC8 SLP182,2025-09-06T07:18:44Z,2025-09-06T03:18:44Z
CYBK,2025-09-06T08:00:00Z,2025-09-06T04:00:00Z,MVFR,5,3,87,330,7,24100,30.06,NA,OVC  ft,CYBK 060800Z 33007KT 15SM OVC016 05/03 A3006 RMK SC8 SLP182,2025-09-06T08:25:14Z,2025-09-06T04:25:14Z
CYBK,2025-09-06T09:00:00Z,2025-09-06T05:00:00Z,VFR,2,1,93,310,9,24100,30.05,NA,SCT  ft; BKN  ft,CYBK 060900Z 31009KT 15SM SCT028 BKN052 02/01 A3005 RMK SC4SC2 SLP179,2025-09-06T09:19:49Z,2025-09-06T05:19:49Z
CYBK,2025-09-06T10:00:00Z,2025-09-06T06:00:00Z,VFR,4,3,93,320,9,24100,30.04,NA,SCT  ft; BKN  ft,CYBK 061000Z 32009KT 15SM SCT028 BKN052 04/03 A3004 RMK SC3SC4 SLP177,2025-09-06T10:20:33Z,2025-09-06T06:20:33Z
CYBK,2025-09-06T11:00:00Z,2025-09-06T07:00:00Z,VFR,4,2,87,310,10,32200,30.05,NA,FEW  ft; BKN  ft,CYBK 061100Z 31010KT 20SM FEW025 BKN051 04/02 A3005 RMK SC1SC6 SLP179,2025-09-06T11:16:03Z,2025-09-06T07:16:03Z
CYBK,2025-09-06T12:00:00Z,2025-09-06T08:00:00Z,VFR,5,3,87,320,11,32200,30.04,NA,FEW  ft; BKN  ft,CYBK 061200Z 32011KT 20SM FEW019 BKN050 05/03 A3004 RMK SC4SC3 SLP178,2025-09-06T12:40:04Z,2025-09-06T08:40:04Z
CYBK,2025-09-06T13:00:00Z,2025-09-06T09:00:00Z,VFR,5,3,87,320,9,32200,30.04,NA,SCT  ft; OVC  ft,CYBK 061300Z 32009KT 20SM SCT016 OVC048 05/03 A3004 RMK SC3SC5 SLP175,2025-09-06T13:22:42Z,2025-09-06T09:22:42Z
CYBK,2025-09-06T14:00:00Z,2025-09-06T10:00:00Z,VFR,6,4,87,320,9,40200,30.04,NA,FEW  ft; OVC  ft,CYBK 061400Z 32009KT 25SM FEW016 OVC045 06/04 A3004 RMK SC2SC6 SLP175,2025-09-06T14:18:41Z,2025-09-06T10:18:41Z
CYBK,2025-09-06T15:00:00Z,2025-09-06T11:00:00Z,VFR,7,4,81,340,8,40200,30.02,NA,SCT  ft; BKN  ft,CYBK 061500Z 34008KT 25SM SCT017 BKN047 07/04 A3002 RMK SC4SC3 SLP170,2025-09-06T15:19:26Z,2025-09-06T11:19:26Z
CYBK,2025-09-06T16:00:00Z,2025-09-06T12:00:00Z,MVFR,6,3,81,360,11,40200,30.02,NA,BKN  ft; BKN  ft,CYBK 061600Z 36011G18KT 25SM -RA BKN021 BKN051 06/03 A3002 RMK SC6SC1 SLP171,2025-09-06T16:24:55Z,2025-09-06T12:24:55Z
CYBK,2025-09-06T16:32:00Z,2025-09-06T12:32:00Z,VFR,7,2,71,340,9,40200,30.02,NA,SCT  ft; BKN  ft,CYBK 061632Z 34009KT 25SM SCT021 BKN042 07/02 A3002 RMK SC4SC3 SLP167,2025-09-06T16:42:33Z,2025-09-06T12:42:33Z
CYBK,2025-09-06T17:00:00Z,2025-09-06T13:00:00Z,VFR,8,3,71,360,8,40200,30.01,NA,SCT  ft; BKN  ft,CYBK 061700Z 36008KT 25SM SCT028 BKN039 08/03 A3001 RMK SC3SC4 SLP165,2025-09-06T17:24:34Z,2025-09-06T13:24:34Z
CYBK,2025-09-06T18:00:00Z,2025-09-06T14:00:00Z,VFR,7,1,66,360,14,40200,30.01,NA,BKN  ft; BKN  ft,CYBK 061800Z 36014KT 25SM BKN031 BKN049 07/01 A3001 RMK SC5SC2 SLP165,2025-09-06T18:32:28Z,2025-09-06T14:32:28Z
CYBK,2025-09-06T19:00:00Z,2025-09-06T15:00:00Z,VFR,8,1,62,360,13,40200,30,NA,SCT  ft; BKN  ft,CYBK 061900Z 36013KT 25SM SCT033 BKN047 08/01 A3000 RMK SC3SC4 SLP162,2025-09-06T19:18:17Z,2025-09-06T15:18:17Z
CYBK,2025-09-06T20:00:00Z,2025-09-06T16:00:00Z,VFR,9,0,54,350,11,40200,30,NA,FEW  ft; BKN  ft,CYBK 062000Z 35011KT 25SM FEW033 BKN045 09/M00 A3000 RMK SC1SC7 SC TR SLP161,2025-09-06T20:25:18Z,2025-09-06T16:25:18Z
CYBK,2025-09-06T21:00:00Z,2025-09-06T17:00:00Z,VFR,8,0,57,350,11,40200,29.99,NA,BKN  ft,CYBK 062100Z 35011KT 25SM BKN048 08/00 A2999 RMK SC7 SLP160,2025-09-06T21:21:22Z,2025-09-06T17:21:22Z
CYBK,2025-09-06T22:00:00Z,2025-09-06T18:00:00Z,VFR,8,1,62,20,9,40200,29.99,NA,BKN  ft,CYBK 062200Z 02009KT 25SM BKN041 08/01 A2999 RMK SC7 SLP160,2025-09-06T22:24:00Z,2025-09-06T18:24:00Z
CYBK,2025-09-06T23:00:00Z,2025-09-06T19:00:00Z,VFR,8,1,62,360,8,40200,29.99,NA,BKN  ft,CYBK 062300Z 36008G20KT 330V050 25SM BKN040 08/01 A2999 RMK SC7 SLP159,2025-09-06T23:22:40Z,2025-09-06T19:22:40Z
CYBK,2025-09-07T01:00:00Z,2025-09-06T21:00:00Z,VFR,5,1,76,330,6,40200,29.99,NA,BKN  ft; BKN  ft,CYBK 070100Z 33006KT 25SM BKN038 BKN210 05/01 A2999 RMK SC6CI1 CI TR SLP158,2025-09-07T02:04:17Z,2025-09-06T22:04:17Z
CYBK,2025-09-07T02:00:00Z,2025-09-06T22:00:00Z,VFR,5,1,76,330,5,32200,29.98,NA,BKN  ft,CYBK 070200Z 33005KT 20SM BKN041 05/01 A2998 RMK SC5 SLP156,2025-09-07T03:07:57Z,2025-09-06T23:07:57Z
CYBK,2025-09-07T03:00:00Z,2025-09-06T23:00:00Z,VFR,2,-1,81,340,6,24100,29.98,NA,FEW  ft,CYBK 070300Z 34006KT 15SM FEW040 02/M01 A2998 RMK SC1 SLP155,2025-09-07T03:38:11Z,2025-09-06T23:38:11Z
CYBK,2025-09-07T04:00:00Z,2025-09-07T00:00:00Z,VFR,2,-1,81,340,5,24100,29.97,NA,FEW  ft,CYBK 070400Z 34005KT 15SM FEW040 02/M01 A2997 RMK SC1 SC TR SLP152,2025-09-07T04:29:51Z,2025-09-07T00:29:51Z
CYBK,2025-09-07T05:00:00Z,2025-09-07T01:00:00Z,VFR,1,-1,87,340,5,24100,29.96,NA,SKC  ft,CYBK 070500Z 34005KT 15SM SKC 01/M01 A2996 RMK SLP150,2025-09-07T05:25:37Z,2025-09-07T01:25:37Z
CYBK,2025-09-07T06:00:00Z,2025-09-07T02:00:00Z,VFR,0,-1,93,330,5,24100,29.96,NA,SKC  ft,CYBK 070600Z 33005KT 15SM SKC 00/M01 A2996 RMK SLP149,2025-09-07T06:34:57Z,2025-09-07T02:34:57Z
CYBK,2025-09-07T07:00:00Z,2025-09-07T03:00:00Z,VFR,0,-2,87,340,5,24100,29.96,NA,SKC  ft,CYBK 070700Z 34005KT 15SM SKC 00/M02 A2996 RMK SLP149,2025-09-07T07:22:57Z,2025-09-07T03:22:57Z
CYBK,2025-09-07T08:00:00Z,2025-09-07T04:00:00Z,VFR,0,-3,80,340,4,24100,29.95,NA,FEW  ft,CYBK 070800Z 34004KT 15SM FEW040 M00/M03 A2995 RMK SC1 SLP147,2025-09-07T08:29:59Z,2025-09-07T04:29:59Z
CYBK,2025-09-07T09:00:00Z,2025-09-07T05:00:00Z,VFR,1,-2,81,200,2,24100,29.95,NA,FEW  ft,CYBK 070900Z 20002KT 15SM FEW040 01/M02 A2995 RMK SC1 SLP144,2025-09-07T09:23:43Z,2025-09-07T05:23:43Z
CYBK,2025-09-07T10:00:00Z,2025-09-07T06:00:00Z,VFR,0,-2,87,320,2,24100,29.94,NA,FEW  ft; SCT  ft,CYBK 071000Z 32002KT 15SM FEW012 SCT040 M00/M02 A2994 RMK CU1SC3 CU TR SLP141,2025-09-07T10:26:14Z,2025-09-07T06:26:14Z
CYBK,2025-09-07T11:00:00Z,2025-09-07T07:00:00Z,VFR,-1,-2,93,200,3,32200,29.93,NA,FEW  ft; FEW  ft,CYBK 071100Z 20003KT 20SM FEW010 FEW200 M01/M02 A2993 RMK SC1CI1 SC TR SLP139,2025-09-07T11:19:27Z,2025-09-07T07:19:27Z
CYBK,2025-09-07T12:00:00Z,2025-09-07T08:00:00Z,VFR,0,-1,93,0,0,32200,29.92,NA,FEW  ft; FEW  ft; SCT  ft,CYBK 071200Z 00000KT 20SM FEW012 FEW045 SCT210 00/M01 A2992 RMK SC1SC1CI2 SC TR SLP134,2025-09-07T12:48:19Z,2025-09-07T08:48:19Z
CYBK,2025-09-07T13:00:00Z,2025-09-07T09:00:00Z,VFR,3,2,93,0,0,32200,29.91,NA,FEW  ft; FEW  ft; BKN  ft,CYBK 071300Z 00000KT 20SM FEW009 FEW040 BKN210 03/02 A2991 RMK SC1SC1CI6 SC TR SC TR SLP132,2025-09-07T13:26:47Z,2025-09-07T09:26:47Z
CYBK,2025-09-07T14:00:00Z,2025-09-07T10:00:00Z,VFR,4,2,87,180,3,32200,29.91,NA,FEW  ft; FEW  ft; BKN  ft,CYBK 071400Z 18003KT 20SM FEW010 FEW040 BKN210 04/02 A2991 RMK SC1SC1CI7 SC TR SC TR SLP130,2025-09-07T14:23:07Z,2025-09-07T10:23:07Z
CYBK,2025-09-07T15:00:00Z,2025-09-07T11:00:00Z,VFR,5,2,81,140,4,40200,29.89,NA,FEW  ft; FEW  ft; BKN  ft,CYBK 071500Z 14004KT 25SM FEW012 FEW041 BKN210 05/02 A2989 RMK SC1SC1CI7 SC TR SC TR SLP126,2025-09-07T15:23:40Z,2025-09-07T11:23:40Z
CYBK,2025-09-07T16:00:00Z,2025-09-07T12:00:00Z,VFR,7,3,76,170,6,40200,29.89,NA,FEW  ft; BKN  ft,CYBK 071600Z 17006KT 140V200 25SM FEW014 BKN210 07/03 A2989 RMK SC1CI7 SC TR SLP124,2025-09-07T16:29:13Z,2025-09-07T12:29:13Z
CYBK,2025-09-07T17:00:00Z,2025-09-07T13:00:00Z,VFR,9,1,58,210,6,40200,29.87,NA,FEW  ft; FEW  ft; BKN  ft,CYBK 071700Z 21006KT 25SM FEW015 FEW041 BKN210 09/01 A2987 RMK SC1SC1CI7 SC TR SC TR SLP118,2025-09-07T17:21:34Z,2025-09-07T13:21:34Z
CYBK,2025-09-07T18:00:00Z,2025-09-07T14:00:00Z,VFR,9,1,58,200,7,40200,29.86,NA,FEW  ft; FEW  ft; FEW  ft; BKN  ft,CYBK 071800Z 20007KT 25SM FEW015 FEW041 FEW080 BKN210 09/01 A2986 RMK SC1SC1AC1CI5 SC TR SLP115,2025-09-07T18:32:56Z,2025-09-07T14:32:56Z
CYBK,2025-09-07T19:00:00Z,2025-09-07T15:00:00Z,VFR,9,3,66,210,6,40200,29.86,NA,BKN  ft; BKN  ft,CYBK 071900Z 21006KT 25SM BKN051 BKN210 09/03 A2986 RMK SC5CI2 SLP113,2025-09-07T19:18:53Z,2025-09-07T15:18:53Z
CYBK,2025-09-07T20:00:00Z,2025-09-07T16:00:00Z,VFR,10,3,62,210,9,40200,29.85,NA,BKN  ft; BKN  ft; BKN  ft,CYBK 072000Z CCA 21009KT 25SM BKN046 BKN130 BKN210 10/03 A2985 RMK SC5AC2CI1 CI TR SLP110,2025-09-07T20:25:55Z,2025-09-07T16:25:55Z
CYBK,2025-09-07T21:00:00Z,2025-09-07T17:00:00Z,VFR,10,4,67,220,8,40200,29.84,NA,BKN  ft; BKN  ft; BKN  ft,CYBK 072100Z 22008KT 25SM BKN049 BKN130 BKN210 10/04 A2984 RMK SC5AC2CI1 CI TR SLP108,2025-09-07T21:21:36Z,2025-09-07T17:21:36Z
CYBR,2025-09-05T21:48:00Z,2025-09-05T17:48:00Z,VFR,13,5,59,330,19,24100,29.95,NA,BKN  ft; BKN  ft; BKN  ft,CYBR 052148Z 33019G25KT 15SM BKN050 BKN075 BKN160 13/05 A2995 RMK SC6AC1AC1 AC TR SLP156,2025-09-05T22:02:54Z,2025-09-05T18:02:54Z
CYBR,2025-09-05T22:00:00Z,2025-09-05T18:00:00Z,VFR,12,5,63,340,14,24100,29.95,NA,BKN  ft; BKN  ft; BKN  ft,CYBR 052200Z 34014G22KT 15SM BKN050 BKN072 BKN160 12/05 A2995 RMK SC6AC1AC1 AC TR SLP157,2025-09-05T22:18:46Z,2025-09-05T18:18:46Z
CYBR,2025-09-05T23:16:00Z,2025-09-05T19:16:00Z,VFR,11,6,72,340,15,24100,29.97,NA,BKN  ft; BKN  ft,CYBR 052316Z 34015G29KT 15SM -SHRA BKN050 BKN075 11/06 A2997 RMK SC5AC2 CVCTV CLD EMBD SLP163,2025-09-05T23:20:08Z,2025-09-05T19:20:08Z
CYBR,2025-09-06T01:00:00Z,2025-09-05T21:00:00Z,VFR,9,7,87,310,7,24100,29.98,NA,SCT  ft; BKN  ft,CYBR 060100Z 31007KT 15SM SCT055 BKN090 09/07 A2998 RMK SC3AC4 SLP171,2025-09-06T01:42:36Z,2025-09-05T21:42:36Z
CYBR,2025-09-06T02:00:00Z,2025-09-05T22:00:00Z,VFR,9,7,87,280,6,24100,29.99,NA,BKN  ft,CYBR 060200Z 28006KT 15SM BKN095 09/07 A2999 RMK AC7 SLP170,2025-09-06T02:56:36Z,2025-09-05T22:56:36Z
CYBR,2025-09-06T03:00:00Z,2025-09-05T23:00:00Z,VFR,8,6,87,280,5,24100,30,NA,BKN  ft,CYBR 060300Z 28005KT 15SM BKN097 08/06 A3000 RMK AC6 LAST STFD OBS/NEXT 061200Z SLP173,2025-09-06T03:30:47Z,2025-09-05T23:30:47Z
CYBR,2025-09-06T04:00:00Z,2025-09-06T00:00:00Z,VFR,8,7,93,260,7,14500,29.99,NA,OVC  ft,CYBR 060400Z AUTO 26007KT 9SM OVC096 08/07 A2999 RMK SLP171,2025-09-06T04:25:47Z,2025-09-06T00:25:47Z
CYBR,2025-09-06T05:00:00Z,2025-09-06T01:00:00Z,VFR,8,7,93,280,8,14500,30,NA,OVC  ft,CYBR 060500Z AUTO 28008KT 9SM OVC091 08/07 A3000 RMK SLP172,2025-09-06T05:19:57Z,2025-09-06T01:19:57Z
CYBR,2025-09-06T06:00:00Z,2025-09-06T02:00:00Z,VFR,8,6,87,270,9,14500,30,NA,OVC  ft,CYBR 060600Z AUTO 27009KT 9SM OVC096 08/06 A3000 RMK SLP172,2025-09-06T06:29:50Z,2025-09-06T02:29:50Z
CYBR,2025-09-06T07:00:00Z,2025-09-06T03:00:00Z,VFR,7,6,93,260,8,14500,30.01,NA,OVC  ft,CYBR 060700Z AUTO 26008KT 9SM OVC091 07/06 A3001 RMK SLP176,2025-09-06T07:18:42Z,2025-09-06T03:18:42Z
CYBR,2025-09-06T08:00:00Z,2025-09-06T04:00:00Z,VFR,6,5,93,270,8,14500,30.01,NA,OVC  ft,CYBR 060800Z AUTO 27008KT 9SM OVC091 06/05 A3001 RMK SLP178,2025-09-06T08:25:12Z,2025-09-06T04:25:12Z
CYBR,2025-09-06T09:00:00Z,2025-09-06T05:00:00Z,VFR,4,3,93,250,6,14500,30.02,NA,CLR  ft,CYBR 060900Z AUTO 25006KT 9SM CLR 04/03 A3002 RMK SLP182,2025-09-06T09:19:47Z,2025-09-06T05:19:47Z
CYBR,2025-09-06T10:00:00Z,2025-09-06T06:00:00Z,VFR,3,3,100,270,7,14500,30.03,NA,CLR  ft,CYBR 061000Z AUTO 27007KT 9SM CLR 03/03 A3003 RMK SLP186,2025-09-06T10:20:31Z,2025-09-06T06:20:31Z
CYBR,2025-09-06T11:00:00Z,2025-09-06T07:00:00Z,VFR,4,3,93,260,10,14500,30.04,NA,CLR  ft,CYBR 061100Z AUTO 26010KT 9SM CLR 04/03 A3004 RMK SLP191,2025-09-06T11:16:02Z,2025-09-06T07:16:02Z
CYBR,2025-09-06T12:00:00Z,2025-09-06T08:00:00Z,VFR,3,3,100,270,6,24100,30.06,NA,FEW  ft,CYBR 061200Z 27006KT 15SM FEW030 03/03 A3006 RMK SC2 SLP197,2025-09-06T12:40:02Z,2025-09-06T08:40:02Z
CYBR,2025-09-06T13:00:00Z,2025-09-06T09:00:00Z,VFR,4,4,100,270,5,24100,30.08,NA,FEW  ft; FEW  ft,CYBR 061300Z 27005KT 15SM FEW008 FEW030 04/04 A3008 RMK ST1SC1 ST TR SLP203,2025-09-06T13:22:41Z,2025-09-06T09:22:41Z
CYBR,2025-09-06T14:00:00Z,2025-09-06T10:00:00Z,VFR,7,6,93,320,7,24100,30.09,NA,FEW  ft; BKN  ft; BKN  ft,CYBR 061400Z 32007KT 15SM FEW004 BKN050 BKN250 07/06 A3009 RMK SF1SC6CI1 CI TR SLP206,2025-09-06T14:18:40Z,2025-09-06T10:18:40Z
CYBR,2025-09-06T15:00:00Z,2025-09-06T11:00:00Z,VFR,9,7,87,310,8,24100,30.11,NA,FEW  ft; OVC  ft,CYBR 061500Z 31008KT 15SM FEW010 OVC055 09/07 A3011 RMK CU1SC8 CU TR SLP211,2025-09-06T15:19:25Z,2025-09-06T11:19:25Z
CYBR,2025-09-06T16:00:00Z,2025-09-06T12:00:00Z,VFR,10,6,76,310,8,24100,30.12,NA,FEW  ft; OVC  ft,CYBR 061600Z 31008KT 15SM FEW010 OVC055 10/06 A3012 RMK SF1SC7 SLP215,2025-09-06T16:24:54Z,2025-09-06T12:24:54Z
CYBR,2025-09-06T17:00:00Z,2025-09-06T13:00:00Z,MVFR,11,6,72,330,9,24100,30.13,NA,BKN  ft; BKN  ft,CYBR 061700Z 33009KT 15SM BKN018 BKN055 11/06 A3013 RMK SC6SC1 SLP219,2025-09-06T17:24:33Z,2025-09-06T13:24:33Z
CYBR,2025-09-06T18:00:00Z,2025-09-06T14:00:00Z,MVFR,12,6,67,340,11,24100,30.13,NA,BKN  ft; BKN  ft,CYBR 061800Z 34011G17KT 15SM BKN030 BKN060 12/06 A3013 RMK CU5SC2 SLP219,2025-09-06T18:32:26Z,2025-09-06T14:32:26Z
CYBR,2025-09-06T19:00:00Z,2025-09-06T15:00:00Z,VFR,11,6,72,10,7,24100,30.14,NA,FEW  ft; BKN  ft,CYBR 061900Z 01007KT 15SM FEW033 BKN050 11/06 A3014 RMK CU1SC6 SLP222,2025-09-06T19:18:15Z,2025-09-06T15:18:15Z
CYBR,2025-09-06T20:00:00Z,2025-09-06T16:00:00Z,VFR,12,5,63,20,7,24100,30.14,NA,FEW  ft; BKN  ft,CYBR 062000Z 02007KT 15SM FEW032 BKN055 12/05 A3014 RMK CU2SC5 SLP223,2025-09-06T20:25:16Z,2025-09-06T16:25:16Z
CYBR,2025-09-06T21:00:00Z,2025-09-06T17:00:00Z,VFR,13,4,55,350,4,24100,30.14,NA,FEW  ft; BKN  ft,CYBR 062100Z 35004KT 15SM FEW044 BKN055 13/04 A3014 RMK CU2SC5 SLP224,2025-09-06T21:21:20Z,2025-09-06T17:21:20Z
CYBR,2025-09-06T22:00:00Z,2025-09-06T18:00:00Z,VFR,13,4,55,350,5,24100,30.14,NA,FEW  ft; BKN  ft,CYBR 062200Z 35005KT 310V020 15SM FEW044 BKN055 13/04 A3014 RMK CU2SC5 SLP223,2025-09-06T22:23:58Z,2025-09-06T18:23:58Z
CYBR,2025-09-06T23:00:00Z,2025-09-06T19:00:00Z,VFR,13,4,55,10,7,24100,30.14,NA,FEW  ft; BKN  ft,CYBR 062300Z 01007KT 15SM FEW042 BKN050 13/04 A3014 RMK CU2SC5 SLP224,2025-09-06T23:22:38Z,2025-09-06T19:22:38Z
CYBR,2025-09-07T01:00:00Z,2025-09-06T21:00:00Z,VFR,12,5,63,70,2,24100,30.15,NA,BKN  ft,CYBR 070100Z 07002KT 15SM BKN050 12/05 A3015 RMK SC7 SLP226,2025-09-07T02:04:16Z,2025-09-06T22:04:16Z
CYBR,2025-09-07T02:00:00Z,2025-09-06T22:00:00Z,VFR,8,5,82,80,5,24100,30.16,NA,BKN  ft,CYBR 070200Z 08005KT 15SM BKN050 08/05 A3016 RMK SC7 SLP231,2025-09-07T03:07:55Z,2025-09-06T23:07:55Z
CYBR,2025-09-07T03:00:00Z,2025-09-06T23:00:00Z,VFR,7,5,87,80,6,24100,30.17,NA,BKN  ft,CYBR 070300Z 08006KT 15SM BKN050 07/05 A3017 RMK SC5 LAST STFD OBS/NEXT 071200Z SLP234,2025-09-07T03:38:09Z,2025-09-06T23:38:09Z
CYBR,2025-09-07T04:00:00Z,2025-09-07T00:00:00Z,VFR,7,5,87,80,2,14500,30.19,NA,SCT  ft,CYBR 070400Z AUTO 08002KT 9SM SCT048 07/05 A3019 RMK SLP239,2025-09-07T04:29:49Z,2025-09-07T00:29:49Z
CYBR,2025-09-07T05:00:00Z,2025-09-07T01:00:00Z,VFR,3,2,93,20,3,14500,30.19,NA,CLR  ft,CYBR 070500Z AUTO 02003KT 9SM CLR 03/02 A3019 RMK SLP241,2025-09-07T05:25:35Z,2025-09-07T01:25:35Z
CYBR,2025-09-07T06:00:00Z,2025-09-07T02:00:00Z,VFR,2,1,93,30,2,14500,30.19,NA,CLR  ft,CYBR 070600Z AUTO 03002KT 9SM CLR 02/01 A3019 RMK SLP242,2025-09-07T06:34:55Z,2025-09-07T02:34:55Z
CYBR,2025-09-07T07:00:00Z,2025-09-07T03:00:00Z,VFR,1,0,93,0,0,14500,30.2,NA,CLR  ft,CYBR 070700Z AUTO 00000KT 9SM CLR 01/M00 A3020 RMK SLP244,2025-09-07T07:22:56Z,2025-09-07T03:22:56Z
CYBR,2025-09-07T08:00:00Z,2025-09-07T04:00:00Z,VFR,-1,-2,93,340,2,14500,30.19,NA,CLR  ft,CYBR 070800Z AUTO 34002KT 9SM CLR M01/M02 A3019 RMK SLP242,2025-09-07T08:29:58Z,2025-09-07T04:29:58Z
CYBR,2025-09-07T09:00:00Z,2025-09-07T05:00:00Z,VFR,0,-2,87,360,4,14500,30.18,NA,CLR  ft,CYBR 070900Z AUTO 36004KT 9SM CLR M00/M02 A3018 RMK SLP240,2025-09-07T09:23:42Z,2025-09-07T05:23:42Z
CYBR,2025-09-07T10:00:00Z,2025-09-07T06:00:00Z,VFR,-1,-2,93,330,2,14500,30.17,NA,CLR  ft,CYBR 071000Z AUTO 33002KT 9SM CLR M01/M02 A3017 RMK SLP237,2025-09-07T10:26:12Z,2025-09-07T06:26:12Z
CYBR,2025-09-07T10:35:00Z,2025-09-07T06:35:00Z,VFR,-2,-3,93,330,2,14500,30.18,NA,FEW  ft,CYBR 071035Z AUTO 33002KT 9SM FEW002 M02/M03 A3018 RMK SLP246,2025-09-07T10:42:05Z,2025-09-07T06:42:05Z
CYBR,2025-09-07T11:00:00Z,2025-09-07T07:00:00Z,VFR,-1,-2,93,330,2,14500,30.17,NA,CLR  ft,CYBR 071100Z AUTO 33002KT 9SM CLR M01/M02 A3017 RMK SLP237,2025-09-07T11:19:25Z,2025-09-07T07:19:25Z
CYBR,2025-09-07T12:00:00Z,2025-09-07T08:00:00Z,VFR,-2,-3,93,320,3,24100,30.17,NA,FEW  ft,CYBR 071200Z 32003KT 15SM FEW250 M02/M03 A3017 RMK CI1 SLP235,2025-09-07T12:48:17Z,2025-09-07T08:48:17Z
CYBR,2025-09-07T13:00:00Z,2025-09-07T09:00:00Z,VFR,0,-1,93,0,0,24100,30.16,NA,FEW  ft,CYBR 071300Z 00000KT 15SM FEW250 M00/M01 A3016 RMK CI2 SLP231,2025-09-07T13:26:46Z,2025-09-07T09:26:46Z
CYBR,2025-09-07T14:00:00Z,2025-09-07T10:00:00Z,VFR,6,3,81,0,2,24100,30.15,NA,SCT  ft,CYBR 071400Z VRB02KT 15SM SCT250 06/03 A3015 RMK CI3 SLP228,2025-09-07T14:23:05Z,2025-09-07T10:23:05Z
CYBR,2025-09-07T15:00:00Z,2025-09-07T11:00:00Z,VFR,9,5,76,210,5,24100,30.14,NA,SCT  ft,CYBR 071500Z 21005KT 180V260 15SM SCT250 09/05 A3014 RMK CI3 SLP223,2025-09-07T15:23:38Z,2025-09-07T11:23:38Z
CYBR,2025-09-07T16:00:00Z,2025-09-07T12:00:00Z,VFR,12,6,67,180,5,24100,30.12,NA,BKN  ft,CYBR 071600Z 18005KT 160V230 15SM BKN240 12/06 A3012 RMK CI5 SLP215,2025-09-07T16:29:11Z,2025-09-07T12:29:11Z
CYBR,2025-09-07T17:00:00Z,2025-09-07T13:00:00Z,VFR,16,7,55,160,6,24100,30.11,NA,BKN  ft,CYBR 071700Z 16006KT 110V220 15SM BKN250 16/07 A3011 RMK CI5 CONTRAILS SLP210 DENSITY ALT 1600FT,2025-09-07T17:21:33Z,2025-09-07T13:21:33Z
CYBR,2025-09-07T18:00:00Z,2025-09-07T14:00:00Z,VFR,19,5,40,200,13,24100,30.08,NA,BKN  ft,CYBR 071800Z 20013G18KT 15SM BKN250 19/05 A3008 RMK CI5 SLP201 DENSITY ALT 2000FT,2025-09-07T18:32:54Z,2025-09-07T14:32:54Z
CYBR,2025-09-07T19:00:00Z,2025-09-07T15:00:00Z,VFR,20,4,35,220,14,24100,30.06,NA,SCT  ft,CYBR 071900Z 22014G20KT 15SM SCT250 20/04 A3006 RMK CI4 SLP194 DENSITY ALT 2100FT,2025-09-07T19:18:51Z,2025-09-07T15:18:51Z
CYBR,2025-09-07T20:00:00Z,2025-09-07T16:00:00Z,VFR,21,4,33,220,13,24100,30.03,NA,SCT  ft,CYBR 072000Z 22013G25KT 190V250 15SM SCT250 21/04 A3003 RMK CI3 SLP185 DENSITY ALT 2300FT,2025-09-07T20:25:53Z,2025-09-07T16:25:53Z
CYBR,2025-09-07T21:00:00Z,2025-09-07T17:00:00Z,VFR,22,4,31,240,10,24100,30.01,NA,SCT  ft,CYBR 072100Z 24010G18KT 15SM SCT250 22/04 A3001 RMK CI3 SLP176 DENSITY ALT 2400FT,2025-09-07T21:21:35Z,2025-09-07T17:21:35Z
CYCO,2025-09-05T21:00:00Z,2025-09-05T17:00:00Z,VFR,19,6,43,200,10,9700,29.89,NA,BKN  ft; BKN  ft,CYCO 052100Z 20010G17KT 6SM FU BKN100 BKN240 19/06 A2989 RMK FU2AC3CI2 SLP125 DENSITY ALT 600FT,2025-09-05T22:02:56Z,2025-09-05T18:02:56Z
CYCO,2025-09-05T22:00:00Z,2025-09-05T18:00:00Z,VFR,20,6,40,210,9,9700,29.88,NA,BKN  ft; BKN  ft,CYCO 052200Z 21009G15KT 6SM FU BKN110 BKN240 20/06 A2988 RMK FU2AC3CI2 SLP121 DENSITY ALT 700FT,2025-09-05T22:18:47Z,2025-09-05T18:18:47Z
CYCO,2025-09-05T23:00:00Z,2025-09-05T19:00:00Z,MVFR,19,6,43,210,7,8000,29.87,NA,BKN  ft; BKN  ft,CYCO 052300Z 21007KT 5SM FU BKN110 BKN240 19/06 A2987 RMK FU2AC4CI1 SLP119 DENSITY ALT 700FT,2025-09-05T23:20:10Z,2025-09-05T19:20:10Z
CYCO,2025-09-06T01:00:00Z,2025-09-05T21:00:00Z,MVFR,18,6,46,180,7,8000,29.85,NA,BKN  ft; BKN  ft,CYCO 060100Z 18007KT 5SM FU BKN110 BKN280 18/06 A2985 RMK FU2AC3CI2 SLP111 DENSITY ALT 600FT,2025-09-06T01:42:38Z,2025-09-05T21:42:38Z
CYCO,2025-09-06T02:00:00Z,2025-09-05T22:00:00Z,VFR,15,7,59,160,7,9700,29.84,NA,FEW  ft; BKN  ft,CYCO 060200Z 16007KT 6SM FU FEW100 BKN260 15/07 A2984 RMK FU1AC1CI3 SLP109 DENSITY ALT 300FT,2025-09-06T02:56:39Z,2025-09-05T22:56:39Z
CYCO,2025-09-06T03:00:00Z,2025-09-05T23:00:00Z,VFR,13,7,67,170,9,12900,29.84,NA,FEW  ft; SCT  ft,CYCO 060300Z 17009KT 8SM FEW100 SCT260 13/07 A2984 RMK FU1AC1CI2 AC TR SLP107,2025-09-06T03:30:48Z,2025-09-05T23:30:48Z
CYCO,2025-09-06T04:00:00Z,2025-09-06T00:00:00Z,VFR,11,6,72,190,6,9999,29.83,NA,FEW  ft; FEW  ft,CYCO 060400Z 19006KT 10SM FEW120 FEW260 11/06 A2983 RMK AC1CI2 AC TR SLP103,2025-09-06T04:25:49Z,2025-09-06T00:25:49Z
CYCO,2025-09-06T05:00:00Z,2025-09-06T01:00:00Z,VFR,11,5,67,190,8,9999,29.82,NA,FEW  ft; BKN  ft,CYCO 060500Z 19008KT 10SM FEW120 BKN260 11/05 A2982 RMK AC1CI5 AC TR SLP101,2025-09-06T05:19:59Z,2025-09-06T01:19:59Z
CYCO,2025-09-06T06:00:00Z,2025-09-06T02:00:00Z,VFR,12,6,67,180,12,9999,29.8,NA,BKN  ft,CYCO 060600Z 18012KT 10SM BKN120 12/06 A2980 RMK AC6 SLP094,2025-09-06T06:29:52Z,2025-09-06T02:29:52Z
CYCO,2025-09-06T07:00:00Z,2025-09-06T03:00:00Z,VFR,12,6,67,180,11,24100,29.79,NA,SCT  ft,CYCO 060700Z 18011KT 15SM SCT120 12/06 A2979 RMK AC4 AURBO SLP090,2025-09-06T07:18:44Z,2025-09-06T03:18:44Z
CYCO,2025-09-06T08:00:00Z,2025-09-06T04:00:00Z,VFR,13,6,63,180,14,24100,29.77,NA,BKN  ft,CYCO 060800Z 18014KT 15SM BKN110 13/06 A2977 RMK AC7 SLP085,2025-09-06T08:25:14Z,2025-09-06T04:25:14Z
CYCO,2025-09-06T09:00:00Z,2025-09-06T05:00:00Z,VFR,12,7,72,190,15,24100,29.75,NA,SCT  ft; SCT  ft,CYCO 060900Z 19015KT 15SM SCT100 SCT190 12/07 A2975 RMK AC3AC1 SLP077,2025-09-06T09:19:50Z,2025-09-06T05:19:50Z
CYCO,2025-09-06T10:00:00Z,2025-09-06T06:00:00Z,VFR,12,7,72,190,9,9999,29.74,NA,BKN  ft; OVC  ft,CYCO 061000Z 19009G16KT 10SM -RA BKN110 OVC150 12/07 A2974 RMK AC7AC1 SLP073,2025-09-06T10:20:33Z,2025-09-06T06:20:33Z
CYCO,2025-09-06T11:00:00Z,2025-09-06T07:00:00Z,VFR,12,7,72,190,7,9999,29.72,NA,FEW  ft,CYCO 061100Z 19007KT 10SM FEW180 12/07 A2972 RMK AC2 SLP068,2025-09-06T11:16:03Z,2025-09-06T07:16:03Z
CYCO,2025-09-06T12:00:00Z,2025-09-06T08:00:00Z,MVFR,12,7,72,180,8,8000,29.7,NA,BKN  ft,CYCO 061200Z 18008KT 5SM FU BKN160 12/07 A2970 RMK FU2AC3 SLP062,2025-09-06T12:40:04Z,2025-09-06T08:40:04Z
CYCO,2025-09-06T13:00:00Z,2025-09-06T09:00:00Z,VFR,12,7,72,180,11,12900,29.67,NA,SCT  ft; BKN  ft,CYCO 061300Z 18011KT 8SM SCT110 BKN150 12/07 A2967 RMK FU2AC2AC3 FU SLP052,2025-09-06T13:22:43Z,2025-09-06T09:22:43Z
CYCO,2025-09-06T14:00:00Z,2025-09-06T10:00:00Z,VFR,13,7,67,190,13,9999,29.65,NA,SCT  ft; BKN  ft,CYCO 061400Z 19013KT 10SM SCT120 BKN170 13/07 A2965 RMK FU2AC3AC2 FU SLP044,2025-09-06T14:18:42Z,2025-09-06T10:18:42Z
CYCO,2025-09-06T15:00:00Z,2025-09-06T11:00:00Z,VFR,13,7,67,190,18,9999,29.63,NA,BKN  ft; BKN  ft; OVC  ft,CYCO 061500Z 19018KT 10SM BKN120 BKN160 OVC210 13/07 A2963 RMK FU4AC1AC2CI1 FU SLP036 DENSITY ALT 300FT,2025-09-06T15:19:26Z,2025-09-06T11:19:26Z
CYCO,2025-09-06T16:00:00Z,2025-09-06T12:00:00Z,VFR,14,7,63,210,15,9999,29.62,NA,SCT  ft; BKN  ft; OVC  ft,CYCO 061600Z 21015G26KT 10SM SCT140 BKN170 OVC210 14/07 A2962 RMK FU2AC2AC3CI1 FU SLP035 DENSITY ALT 400FT,2025-09-06T16:24:55Z,2025-09-06T12:24:55Z
CYCO,2025-09-06T17:00:00Z,2025-09-06T13:00:00Z,VFR,15,8,63,210,19,9999,29.61,NA,BKN  ft; OVC  ft,CYCO 061700Z 21019KT 10SM BKN150 OVC180 15/08 A2961 RMK FU4AC3AC1 FU SLP030 DENSITY ALT 500FT,2025-09-06T17:24:34Z,2025-09-06T13:24:34Z
CYCO,2025-09-06T18:00:00Z,2025-09-06T14:00:00Z,VFR,16,8,59,230,14,9999,29.62,NA,BKN  ft; OVC  ft,CYCO 061800Z 23014G23KT 10SM BKN150 OVC180 16/08 A2962 RMK FU4AC3AC1 FU SLP033 DENSITY ALT 600FT,2025-09-06T18:32:28Z,2025-09-06T14:32:28Z
CYCO,2025-09-06T19:00:00Z,2025-09-06T15:00:00Z,VFR,14,9,72,260,21,9700,29.64,NA,BKN  ft; BKN  ft,CYCO 061900Z 26021G28KT 6SM FU BKN068 BKN150 14/09 A2964 RMK FU3AC3AC2 SLP042 DENSITY ALT 400FT,2025-09-06T19:18:17Z,2025-09-06T15:18:17Z
CYCO,2025-09-06T19:18:00Z,2025-09-06T15:18:00Z,MVFR,13,10,82,260,15,8000,29.66,NA,BKN  ft; OVC  ft,CYCO 061918Z 26015G24KT 5SM -RA FU BKN060 OVC140 13/10 A2966 RMK FU3SC3AC2 SLP047,2025-09-06T19:41:26Z,2025-09-06T15:41:26Z
CYCO,2025-09-06T20:15:00Z,2025-09-06T16:15:00Z,IFR,11,11,100,270,13,3200,29.7,NA,OVC  ft,CYCO 062015Z 27013G18KT 2SM -RA FU OVC018 11/11 A2970 RMK FU2SC6 SLP062,2025-09-06T20:25:18Z,2025-09-06T16:25:18Z
CYCO,2025-09-06T21:00:00Z,2025-09-06T17:00:00Z,MVFR,6,6,100,340,11,24100,29.76,NA,FEW  ft; OVC  ft,CYCO 062100Z 34011KT 15SM FEW005 OVC019 06/06 A2976 RMK ST2SC6 SLP081,2025-09-06T21:21:22Z,2025-09-06T17:21:22Z
CYCO,2025-09-06T22:00:00Z,2025-09-06T18:00:00Z,MVFR,8,7,93,340,11,24100,29.8,NA,FEW  ft; BKN  ft; BKN  ft,CYCO 062200Z 34011KT 15SM FEW005 BKN019 BKN140 08/07 A2980 RMK ST1SC6AC1 AC TR SLP094,2025-09-06T22:24:00Z,2025-09-06T18:24:00Z
CYCO,2025-09-06T23:00:00Z,2025-09-06T19:00:00Z,MVFR,8,6,87,340,10,24100,29.84,NA,FEW  ft; BKN  ft; BKN  ft,CYCO 062300Z 34010KT 15SM FEW006 BKN020 BKN130 08/06 A2984 RMK ST1SC6AC1 AC TR SLP109,2025-09-06T23:22:40Z,2025-09-06T19:22:40Z
CYCO,2025-09-07T01:00:00Z,2025-09-06T21:00:00Z,VFR,7,3,76,330,17,24100,29.91,NA,SCT  ft; SCT  ft; BKN  ft,CYCO 070100Z 33017G22KT 15SM SCT028 SCT120 BKN240 07/03 A2991 RMK SC3AC1CI4 AC TR SLP132,2025-09-07T02:04:17Z,2025-09-06T22:04:17Z
CYCO,2025-09-07T02:00:00Z,2025-09-06T22:00:00Z,VFR,5,1,76,330,21,24100,29.93,NA,FEW  ft; FEW  ft; FEW  ft; SCT  ft,CYCO 070200Z 33021G28KT 15SM FEW018 FEW031 FEW150 SCT280 05/01 A2993 RMK CF1SC1AC1CI2 CF TR SLP140,2025-09-07T03:07:57Z,2025-09-06T23:07:57Z
CYCO,2025-09-07T03:00:00Z,2025-09-06T23:00:00Z,VFR,4,1,81,330,20,24100,29.97,NA,FEW  ft; FEW  ft; FEW  ft,CYCO 070300Z 33020KT 15SM FEW016 FEW030 FEW180 04/01 A2997 RMK CU1SC1AC1 CU TR SLP152,2025-09-07T03:38:11Z,2025-09-06T23:38:11Z
CYCO,2025-09-07T04:00:00Z,2025-09-07T00:00:00Z,VFR,3,0,81,300,12,24100,29.99,NA,FEW  ft; FEW  ft,CYCO 070400Z 30012G21KT 15SM FEW010 FEW030 03/00 A2999 RMK ST1SC1 ST TR SLP160,2025-09-07T04:29:51Z,2025-09-07T00:29:51Z
CYCO,2025-09-07T05:00:00Z,2025-09-07T01:00:00Z,MVFR,3,0,81,330,17,24100,30.02,NA,BKN  ft,CYCO 070500Z 33017G23KT 15SM BKN019 03/M00 A3002 RMK SC6 SLP168,2025-09-07T05:25:37Z,2025-09-07T01:25:37Z
CYCO,2025-09-07T06:00:00Z,2025-09-07T02:00:00Z,MVFR,2,-1,81,320,12,24100,30.04,NA,BKN  ft,CYCO 070600Z 32012KT 15SM BKN018 02/M01 A3004 RMK SC7 SLP175,2025-09-07T06:34:57Z,2025-09-07T02:34:57Z
CYCO,2025-09-07T07:00:00Z,2025-09-07T03:00:00Z,MVFR,2,-1,81,310,16,24100,30.06,NA,BKN  ft,CYCO 070700Z 31016KT 15SM BKN019 02/M01 A3006 RMK SC6 SLP181,2025-09-07T07:22:58Z,2025-09-07T03:22:58Z
CYCO,2025-09-07T08:00:00Z,2025-09-07T04:00:00Z,MVFR,1,-1,87,320,15,24100,30.06,NA,SCT  ft; BKN  ft,CYCO 070800Z 32015KT 15SM SCT013 BKN018 01/M01 A3006 RMK SF3SC3 SLP182,2025-09-07T08:29:59Z,2025-09-07T04:29:59Z
CYCO,2025-09-07T09:00:00Z,2025-09-07T05:00:00Z,VFR,0,-2,87,280,7,24100,30.07,NA,SCT  ft,CYCO 070900Z 28007KT 15SM SCT014 00/M02 A3007 RMK SF3 SLP188,2025-09-07T09:23:44Z,2025-09-07T05:23:44Z
CYCO,2025-09-07T10:00:00Z,2025-09-07T06:00:00Z,VFR,-1,-3,86,270,9,24100,30.07,NA,FEW  ft,CYCO 071000Z 27009KT 15SM FEW014 M01/M03 A3007 RMK SF1 SF TR SLP188,2025-09-07T10:26:14Z,2025-09-07T06:26:14Z
CYCO,2025-09-07T11:00:00Z,2025-09-07T07:00:00Z,VFR,-2,-3,93,230,7,24100,30.08,NA,FEW  ft,CYCO 071100Z 23007KT 15SM FEW006 M02/M03 A3008 RMK SF1 SF TR SLP191,2025-09-07T11:19:27Z,2025-09-07T07:19:27Z
CYCO,2025-09-07T12:00:00Z,2025-09-07T08:00:00Z,VFR,-2,-3,93,250,8,24100,30.09,NA,FEW  ft,CYCO 071200Z 25008KT 15SM FEW004 M02/M03 A3009 RMK SF1 SF TR SLP194,2025-09-07T12:48:19Z,2025-09-07T08:48:19Z
CYCO,2025-09-07T13:00:00Z,2025-09-07T09:00:00Z,VFR,-2,-3,93,250,9,24100,30.1,NA,FEW  ft; FEW  ft,CYCO 071300Z 25009KT 15SM FEW002 FEW020 M02/M03 A3010 RMK SF1SC1 SF TR SLP198,2025-09-07T13:26:48Z,2025-09-07T09:26:48Z
CYCO,2025-09-07T14:00:00Z,2025-09-07T10:00:00Z,VFR,-2,-3,93,250,6,24100,30.12,NA,FEW  ft; FEW  ft,CYCO 071400Z 25006KT 15SM FEW002 FEW018 M02/M03 A3012 RMK SF1SC1 SF TR SLP203,2025-09-07T14:23:07Z,2025-09-07T10:23:07Z
CYCO,2025-09-07T15:00:00Z,2025-09-07T11:00:00Z,VFR,-1,-2,93,240,6,24100,30.12,NA,FEW  ft; FEW  ft,CYCO 071500Z 24006KT 15SM FEW002 FEW017 M01/M02 A3012 RMK SF1SC1 SF TR SLP204,2025-09-07T15:23:40Z,2025-09-07T11:23:40Z
CYCO,2025-09-07T16:00:00Z,2025-09-07T12:00:00Z,VFR,1,-2,81,280,8,24100,30.12,NA,FEW  ft; FEW  ft; FEW  ft,CYCO 071600Z 28008KT 15SM FEW002 FEW012 FEW017 01/M02 A3012 RMK SF1SC1SC1 SF TR SC TR SC TR SLP203,2025-09-07T16:29:13Z,2025-09-07T12:29:13Z
CYCO,2025-09-07T17:00:00Z,2025-09-07T13:00:00Z,VFR,2,-2,75,270,6,24100,30.11,NA,FEW  ft; FEW  ft; FEW  ft,CYCO 071700Z 27006KT 240V300 15SM FEW002 FEW013 FEW018 02/M02 A3011 RMK SF1SC1SC1 SF TR SLP202,2025-09-07T17:21:34Z,2025-09-07T13:21:34Z
CYCO,2025-09-07T18:00:00Z,2025-09-07T14:00:00Z,VFR,3,-1,75,260,4,24100,30.12,NA,FEW  ft; FEW  ft; FEW  ft,CYCO 071800Z 26004KT 230V310 15SM FEW003 FEW013 FEW018 03/M01 A3012 RMK SC1SC1SC1 SC TR SC TR SC TR SLP203,2025-09-07T18:32:56Z,2025-09-07T14:32:56Z
CYCO,2025-09-07T19:00:00Z,2025-09-07T15:00:00Z,VFR,5,-1,66,260,5,24100,30.11,NA,SKC  ft,CYCO 071900Z 26005KT 240V330 15SM SKC 05/M01 A3011 RMK SLP201,2025-09-07T19:18:54Z,2025-09-07T15:18:54Z
CYCO,2025-09-07T20:00:00Z,2025-09-07T16:00:00Z,VFR,6,-3,53,310,3,24100,30.1,NA,SKC  ft,CYCO 072000Z 31003KT 210V350 15SM SKC 06/M03 A3010 RMK SLP196,2025-09-07T20:25:55Z,2025-09-07T16:25:55Z
CYCO,2025-09-07T21:00:00Z,2025-09-07T17:00:00Z,VFR,7,-2,53,10,3,24100,30.09,NA,FEW  ft,CYCO 072100Z 01003KT 250V020 15SM FEW300 07/M02 A3009 RMK CI1 CI TR SLP195,2025-09-07T21:21:36Z,2025-09-07T17:21:36Z
CYEG,2025-09-05T21:00:00Z,2025-09-05T17:00:00Z,VFR,22,1,25,150,8,32200,30.02,NA,FEW  ft; FEW  ft,CYEG 052100Z 15008G18KT 20SM FEW180 FEW250 22/01 A3002 RMK AC1CI2 AC TR SLP179 DENSITY ALT 3600FT,2025-09-05T22:02:54Z,2025-09-05T18:02:54Z
CYEG,2025-09-05T22:00:00Z,2025-09-05T18:00:00Z,VFR,23,0,22,170,10,32200,30,NA,FEW  ft; FEW  ft,CYEG 052200Z 17010G15KT 20SM FEW180 FEW250 23/00 A3000 RMK AC1CI2 AC TR SLP172 DENSITY ALT 3800FT,2025-09-05T22:18:45Z,2025-09-05T18:18:45Z
CYEG,2025-09-05T23:00:00Z,2025-09-05T19:00:00Z,VFR,23,1,23,180,9,32200,29.99,NA,FEW  ft,CYEG 052300Z 18009KT 20SM FEW250 23/01 A2999 RMK CI2 SLP168 DENSITY ALT 3800FT,2025-09-05T23:20:08Z,2025-09-05T19:20:08Z
CYEG,2025-09-06T01:00:00Z,2025-09-05T21:00:00Z,VFR,21,1,27,150,6,32200,29.96,NA,FEW  ft,CYEG 060100Z 15006KT 20SM FEW250 21/01 A2996 RMK CI1 CI TR SLP162 DENSITY ALT 3600FT,2025-09-06T01:42:36Z,2025-09-05T21:42:36Z
CYEG,2025-09-06T02:00:00Z,2025-09-05T22:00:00Z,VFR,16,3,42,120,7,32200,29.96,NA,FEW  ft,CYEG 060200Z 12007KT 20SM FEW250 16/03 A2996 RMK CI1 CI TR SLP162 DENSITY ALT 3000FT,2025-09-06T02:56:36Z,2025-09-05T22:56:36Z
CYEG,2025-09-06T03:00:00Z,2025-09-05T23:00:00Z,VFR,10,3,62,110,9,32200,29.96,NA,FEW  ft,CYEG 060300Z 11009KT 20SM FEW250 10/03 A2996 RMK CI1 CI TR SLP162,2025-09-06T03:30:47Z,2025-09-05T23:30:47Z
CYEG,2025-09-06T04:00:00Z,2025-09-06T00:00:00Z,VFR,10,3,62,120,8,32200,29.96,NA,FEW  ft,CYEG 060400Z 12008KT 20SM FEW250 10/03 A2996 RMK CI1 CI TR SLP157,2025-09-06T04:25:46Z,2025-09-06T00:25:46Z
CYEG,2025-09-06T05:00:00Z,2025-09-06T01:00:00Z,VFR,10,2,58,130,9,32200,29.96,NA,FEW  ft,CYEG 060500Z 13009KT 20SM FEW250 10/02 A2996 RMK CI1 CI TR SLP155,2025-09-06T05:19:56Z,2025-09-06T01:19:56Z
CYEG,2025-09-06T06:00:00Z,2025-09-06T02:00:00Z,VFR,9,2,62,140,8,32200,29.96,NA,SKC  ft,CYEG 060600Z 14008KT 20SM SKC 09/02 A2996 RMK SLP155,2025-09-06T06:29:50Z,2025-09-06T02:29:50Z
CYEG,2025-09-06T07:00:00Z,2025-09-06T03:00:00Z,VFR,9,3,66,170,5,32200,29.96,NA,FEW  ft,CYEG 060700Z 17005KT 20SM FEW250 09/03 A2996 RMK CI1 CI TR SLP155,2025-09-06T07:18:42Z,2025-09-06T03:18:42Z
CYEG,2025-09-06T08:00:00Z,2025-09-06T04:00:00Z,VFR,11,2,54,160,7,32200,29.96,NA,SKC  ft,CYEG 060800Z 16007KT 20SM SKC 11/02 A2996 RMK SLP152,2025-09-06T08:25:12Z,2025-09-06T04:25:12Z
CYEG,2025-09-06T09:00:00Z,2025-09-06T05:00:00Z,VFR,9,2,62,170,7,32200,29.95,NA,FEW  ft,CYEG 060900Z 17007KT 20SM FEW250 09/02 A2995 RMK CI1 CI TR SLP150,2025-09-06T09:19:47Z,2025-09-06T05:19:47Z
CYEG,2025-09-06T10:00:00Z,2025-09-06T06:00:00Z,VFR,7,1,66,160,4,32200,29.95,NA,FEW  ft,CYEG 061000Z 16004KT 20SM FEW250 07/01 A2995 RMK CI2 SLP150,2025-09-06T10:20:31Z,2025-09-06T06:20:31Z
CYEG,2025-09-06T11:00:00Z,2025-09-06T07:00:00Z,VFR,6,1,71,150,7,32200,29.95,NA,SCT  ft,CYEG 061100Z 15007KT 20SM SCT250 06/01 A2995 RMK CI3 SLP150,2025-09-06T11:16:01Z,2025-09-06T07:16:01Z
CYEG,2025-09-06T12:00:00Z,2025-09-06T08:00:00Z,VFR,6,1,71,150,6,32200,29.95,NA,BKN  ft,CYEG 061200Z 15006KT 20SM BKN250 06/01 A2995 RMK CI5 SLP150,2025-09-06T12:40:01Z,2025-09-06T08:40:01Z
CYEG,2025-09-06T13:00:00Z,2025-09-06T09:00:00Z,VFR,5,1,76,170,4,32200,29.94,NA,SCT  ft,CYEG 061300Z 17004KT 20SM SCT220 05/01 A2994 RMK CI3 SLP151,2025-09-06T13:22:41Z,2025-09-06T09:22:41Z
CYEG,2025-09-06T14:00:00Z,2025-09-06T10:00:00Z,VFR,4,2,87,220,3,32200,29.96,NA,BKN  ft,CYEG 061400Z 22003KT 20SM BKN220 04/02 A2996 RMK CI5 SLP160,2025-09-06T14:18:39Z,2025-09-06T10:18:39Z
CYEG,2025-09-06T15:00:00Z,2025-09-06T11:00:00Z,VFR,9,3,66,180,5,32200,29.95,NA,BKN  ft,CYEG 061500Z 18005KT 20SM BKN220 09/03 A2995 RMK CI5 SLP160,2025-09-06T15:19:24Z,2025-09-06T11:19:24Z
CYEG,2025-09-06T16:00:00Z,2025-09-06T12:00:00Z,VFR,13,3,51,180,7,32200,29.95,NA,FEW  ft,CYEG 061600Z 18007KT 20SM FEW250 13/03 A2995 RMK CI2 SLP157 DENSITY ALT 2700FT,2025-09-06T16:24:53Z,2025-09-06T12:24:53Z
CYEG,2025-09-06T17:00:00Z,2025-09-06T13:00:00Z,VFR,16,5,48,160,3,32200,29.96,NA,FEW  ft,CYEG 061700Z 16003KT 140V250 20SM FEW250 16/05 A2996 RMK CI2 SLP155 DENSITY ALT 3000FT,2025-09-06T17:24:33Z,2025-09-06T13:24:33Z
CYEG,2025-09-06T18:00:00Z,2025-09-06T14:00:00Z,VFR,18,6,46,190,4,32200,29.95,NA,SCT  ft,CYEG 061800Z 19004KT 130V210 20SM SCT250 18/06 A2995 RMK CI3 SLP153 DENSITY ALT 3300FT,2025-09-06T18:32:26Z,2025-09-06T14:32:26Z
CYEG,2025-09-06T19:00:00Z,2025-09-06T15:00:00Z,VFR,21,7,40,0,2,32200,29.95,NA,SCT  ft,CYEG 061900Z VRB02KT 20SM SCT250 21/07 A2995 RMK CI3 SLP150 DENSITY ALT 3600FT,2025-09-06T19:18:15Z,2025-09-06T15:18:15Z
CYEG,2025-09-06T20:00:00Z,2025-09-06T16:00:00Z,VFR,22,7,38,0,0,32200,29.93,NA,FEW  ft; BKN  ft,CYEG 062000Z 00000KT 20SM FEW140 BKN250 22/07 A2993 RMK AC1CI4 SLP142 DENSITY ALT 3800FT,2025-09-06T20:25:16Z,2025-09-06T16:25:16Z
CYEG,2025-09-06T21:00:00Z,2025-09-06T17:00:00Z,VFR,24,7,34,140,4,32200,29.93,NA,FEW  ft; BKN  ft,CYEG 062100Z 14004KT 20SM FEW140 BKN250 24/07 A2993 RMK AC1CI4 SLP141 DENSITY ALT 4000FT,2025-09-06T21:21:20Z,2025-09-06T17:21:20Z
CYEG,2025-09-06T22:00:00Z,2025-09-06T18:00:00Z,VFR,25,7,32,0,3,32200,29.92,NA,FEW  ft; SCT  ft,CYEG 062200Z VRB03KT 20SM FEW140 SCT250 25/07 A2992 RMK AC1CI3 AC TR SLP139 DENSITY ALT 4100FT,2025-09-06T22:23:58Z,2025-09-06T18:23:58Z
CYEG,2025-09-06T23:00:00Z,2025-09-06T19:00:00Z,VFR,25,7,32,260,3,32200,29.92,NA,FEW  ft,CYEG 062300Z 26003KT 190V310 20SM FEW250 25/07 A2992 RMK CI2 SLP138 DENSITY ALT 4100FT,2025-09-06T23:22:37Z,2025-09-06T19:22:37Z
CYEG,2025-09-07T01:00:00Z,2025-09-06T21:00:00Z,VFR,24,8,36,360,3,32200,29.91,NA,SCT  ft,CYEG 070100Z 36003KT 20SM SCT250 24/08 A2991 RMK CI4 SLP136 DENSITY ALT 4000FT,2025-09-07T02:04:15Z,2025-09-06T22:04:15Z
CYEG,2025-09-07T02:00:00Z,2025-09-06T22:00:00Z,VFR,20,8,46,40,4,32200,29.9,NA,SCT  ft,CYEG 070200Z 04004KT 20SM SCT250 20/08 A2990 RMK CI4 SLP137 DENSITY ALT 3600FT,2025-09-07T03:07:55Z,2025-09-06T23:07:55Z
CYEG,2025-09-07T03:00:00Z,2025-09-06T23:00:00Z,VFR,16,7,55,0,2,32200,29.91,NA,SCT  ft,CYEG 070300Z VRB02KT 20SM SCT250 16/07 A2991 RMK CI3 SLP138 DENSITY ALT 3100FT,2025-09-07T03:38:08Z,2025-09-06T23:38:08Z
CYEG,2025-09-07T04:00:00Z,2025-09-07T00:00:00Z,VFR,12,8,77,170,3,32200,29.91,NA,BKN  ft,CYEG 070400Z 17003KT 20SM BKN220 12/08 A2991 RMK CI5 SLP140 DENSITY ALT 2600FT,2025-09-07T04:29:49Z,2025-09-07T00:29:49Z
CYEG,2025-09-07T05:00:00Z,2025-09-07T01:00:00Z,VFR,9,7,87,220,3,32200,29.91,NA,BKN  ft,CYEG 070500Z 22003KT 20SM BKN220 09/07 A2991 RMK CI6 SLP141,2025-09-07T05:25:34Z,2025-09-07T01:25:34Z
CYEG,2025-09-07T06:00:00Z,2025-09-07T02:00:00Z,VFR,9,8,94,200,3,32200,29.91,NA,BKN  ft,CYEG 070600Z 20003KT 20SM BKN220 09/08 A2991 RMK CI7 SLP137,2025-09-07T06:34:55Z,2025-09-07T02:34:55Z
CYEG,2025-09-07T07:00:00Z,2025-09-07T03:00:00Z,VFR,7,7,100,190,4,32200,29.9,NA,BKN  ft,CYEG 070700Z 19004KT 20SM BKN220 07/07 A2990 RMK CI6 SLP134,2025-09-07T07:22:56Z,2025-09-07T03:22:56Z
CYEG,2025-09-07T08:00:00Z,2025-09-07T04:00:00Z,VFR,6,6,100,240,2,32200,29.89,NA,BKN  ft,CYEG 070800Z 24002KT 20SM BKN220 06/06 A2989 RMK CI7 SLP131,2025-09-07T08:29:57Z,2025-09-07T04:29:57Z
CYEG,2025-09-07T09:00:00Z,2025-09-07T05:00:00Z,VFR,5,5,100,190,3,32200,29.89,NA,BKN  ft,CYEG 070900Z 19003KT 20SM BKN220 05/05 A2989 RMK CI7 SLP129,2025-09-07T09:23:42Z,2025-09-07T05:23:42Z
CYEG,2025-09-07T10:00:00Z,2025-09-07T06:00:00Z,VFR,6,6,100,180,3,32200,29.89,NA,FEW  ft; BKN  ft,CYEG 071000Z 18003KT 20SM FEW130 BKN220 06/06 A2989 RMK FU1CI5 SLP128,2025-09-07T10:26:12Z,2025-09-07T06:26:12Z
CYEG,2025-09-07T11:00:00Z,2025-09-07T07:00:00Z,VFR,5,5,100,200,4,32200,29.89,NA,SCT  ft; BKN  ft,CYEG 071100Z 20004KT 20SM SCT140 BKN220 05/05 A2989 RMK AS4CI3 SLP129,2025-09-07T11:19:25Z,2025-09-07T07:19:25Z
CYEG,2025-09-07T12:00:00Z,2025-09-07T08:00:00Z,VFR,5,5,100,190,3,32200,29.88,NA,SCT  ft; BKN  ft,CYEG 071200Z 19003KT 20SM SCT140 BKN250 05/05 A2988 RMK AS3CI2 SLP127,2025-09-07T12:48:17Z,2025-09-07T08:48:17Z
CYEG,2025-09-07T13:00:00Z,2025-09-07T09:00:00Z,VFR,5,5,100,190,5,19300,29.89,NA,BKN  ft; BKN  ft,CYEG 071300Z 19005KT 12SM BKN140 BKN250 05/05 A2989 RMK AS5CI2 BR SLP131,2025-09-07T13:26:45Z,2025-09-07T09:26:45Z
CYEG,2025-09-07T14:00:00Z,2025-09-07T10:00:00Z,VFR,6,6,100,230,5,9999,29.9,NA,SCT  ft; BKN  ft,CYEG 071400Z 23005KT 10SM SCT130 BKN250 06/06 A2990 RMK AS4CI3 BR CONTRAILS SLP135,2025-09-07T14:23:05Z,2025-09-07T10:23:05Z
CYEG,2025-09-07T15:00:00Z,2025-09-07T11:00:00Z,VFR,9,8,94,220,4,12900,29.9,NA,SCT  ft; BKN  ft,CYEG 071500Z 22004KT 8SM SCT130 BKN250 09/08 A2990 RMK AS3CI4 HZ SLP136,2025-09-07T15:23:38Z,2025-09-07T11:23:38Z
CYEG,2025-09-07T16:00:00Z,2025-09-07T12:00:00Z,VFR,14,12,88,210,4,9999,29.89,NA,SCT  ft; BKN  ft,CYEG 071600Z 21004KT 10SM SCT130 BKN230 14/12 A2989 RMK AS3CI4 HZ SLP133 DENSITY ALT 2900FT,2025-09-07T16:29:10Z,2025-09-07T12:29:10Z
CYEG,2025-09-07T17:00:00Z,2025-09-07T13:00:00Z,VFR,17,12,73,250,3,9999,29.9,NA,FEW  ft; OVC  ft,CYEG 071700Z 25003KT 190V280 10SM FEW130 OVC250 17/12 A2990 RMK AS2CI6 HZ SLP134 DENSITY ALT 3300FT,2025-09-07T17:21:32Z,2025-09-07T13:21:32Z
CYEG,2025-09-07T18:00:00Z,2025-09-07T14:00:00Z,VFR,20,13,64,0,2,19300,29.9,NA,SCT  ft; OVC  ft,CYEG 071800Z VRB02KT 12SM SCT130 OVC250 20/13 A2990 RMK AS3CI5 HZ SLP133 DENSITY ALT 3600FT,2025-09-07T18:32:53Z,2025-09-07T14:32:53Z
CYEG,2025-09-07T19:00:00Z,2025-09-07T15:00:00Z,VFR,22,12,53,280,3,19300,29.9,NA,SCT  ft; SCT  ft; OVC  ft,CYEG 071900Z 28003KT 190V340 12SM SCT130 SCT150 OVC250 22/12 A2990 RMK AS3AC1CI4 HZ SLP132 DENSITY ALT 3800FT,2025-09-07T19:18:51Z,2025-09-07T15:18:51Z
CYEG,2025-09-07T20:00:00Z,2025-09-07T16:00:00Z,VFR,24,11,44,260,2,19300,29.9,NA,SCT  ft; OVC  ft,CYEG 072000Z 26002KT 12SM SCT130 OVC210 24/11 A2990 RMK AS3CI5 HZ SLP133 DENSITY ALT 4000FT,2025-09-07T20:25:53Z,2025-09-07T16:25:53Z
CYEG,2025-09-07T21:00:00Z,2025-09-07T17:00:00Z,VFR,24,11,44,340,4,24100,29.89,NA,FEW  ft; OVC  ft,CYEG 072100Z 34004KT 310V020 15SM FEW130 OVC210 24/11 A2989 RMK AS2CI6 SLP131 DENSITY ALT 4000FT,2025-09-07T21:21:34Z,2025-09-07T17:21:34Z
CYER,2025-09-05T18:10:00Z,2025-09-05T14:10:00Z,IFR,8,8,100,30,13,3600,29.4,NA,OVC  ft,CYER 051810Z AUTO 03013G19KT 2 1/4SM -RA BR OVC010 08/08 A2940 RMK VIS VRB 1 1/4-3 SLP958,2025-09-05T18:23:20Z,2025-09-05T14:23:20Z
CYER,2025-09-05T18:22:00Z,2025-09-05T14:22:00Z,IFR,8,8,100,30,13,2800,29.4,NA,OVC  ft,CYER 051822Z AUTO 03013G19KT 1 3/4SM -RA BR OVC008 08/08 A2940 RMK PCPN 0.5MM PAST HR SLP959,2025-09-05T18:32:24Z,2025-09-05T14:32:24Z
CYER,2025-09-05T18:29:00Z,2025-09-05T14:29:00Z,IFR,8,8,100,30,13,4000,29.4,NA,OVC  ft,CYER 051829Z AUTO 03013G19KT 2 1/2SM -RA BR OVC008 08/08 A2940 RMK PCPN 0.5MM PAST HR SLP959,2025-09-05T18:37:17Z,2025-09-05T14:37:17Z
CYER,2025-09-05T18:44:00Z,2025-09-05T14:44:00Z,IFR,8,8,100,40,11,12900,29.4,NA,BKN  ft; OVC  ft,CYER 051844Z AUTO 04011G16KT 8SM BKN006 OVC010 08/08 A2940 RMK PCPN 0.5MM PAST HR SLP959,2025-09-05T18:48:16Z,2025-09-05T14:48:16Z
CYER,2025-09-05T18:53:00Z,2025-09-05T14:53:00Z,IFR,8,8,100,30,12,8000,29.4,NA,BKN  ft; OVC  ft,CYER 051853Z AUTO 03012KT 5SM BR BKN006 OVC013 08/08 A2940 RMK PCPN 0.5MM PAST HR SLP959,2025-09-05T19:01:59Z,2025-09-05T15:01:59Z
CYER,2025-09-05T19:12:00Z,2025-09-05T15:12:00Z,IFR,8,8,100,30,9,9700,29.41,NA,BKN  ft; OVC  ft,CYER 051912Z AUTO 03009G16KT 6SM -RA BR BKN006 OVC013 08/08 A2941 RMK SLP961,2025-09-05T19:20:59Z,2025-09-05T15:20:59Z
CYER,2025-09-05T19:22:00Z,2025-09-05T15:22:00Z,IFR,9,9,100,30,12,14500,29.41,NA,BKN  ft; OVC  ft,CYER 051922Z AUTO 03012KT 9SM BKN006 OVC014 09/09 A2941 RMK SLP962,2025-09-05T19:31:28Z,2025-09-05T15:31:28Z
CYER,2025-09-05T19:28:00Z,2025-09-05T15:28:00Z,MVFR,9,8,94,20,12,14500,29.41,NA,FEW  ft; SCT  ft; OVC  ft,CYER 051928Z AUTO 02012KT 9SM FEW006 SCT010 OVC014 09/08 A2941 RMK SLP961,2025-09-05T19:41:03Z,2025-09-05T15:41:03Z
CYER,2025-09-05T20:00:00Z,2025-09-05T16:00:00Z,MVFR,9,8,94,40,10,14500,29.42,NA,BKN  ft; OVC  ft,CYER 052000Z AUTO 04010G16KT 9SM BKN018 OVC023 09/08 A2942 RMK SLP966,2025-09-05T20:29:26Z,2025-09-05T16:29:26Z
CYER,2025-09-05T21:00:00Z,2025-09-05T17:00:00Z,MVFR,10,7,82,40,9,14500,29.43,NA,BKN  ft; OVC  ft,CYER 052100Z AUTO 04009G15KT 9SM BKN018 OVC025 10/07 A2943 RMK SLP969,2025-09-05T21:14:25Z,2025-09-05T17:14:25Z
CYER,2025-09-05T22:00:00Z,2025-09-05T18:00:00Z,MVFR,9,7,87,20,9,14500,29.44,NA,BKN  ft; BKN  ft,CYER 052200Z AUTO 02009KT 9SM BKN016 BKN021 09/07 A2944 RMK SLP974,2025-09-05T22:18:44Z,2025-09-05T18:18:44Z
CYER,2025-09-05T23:00:00Z,2025-09-05T19:00:00Z,MVFR,8,7,93,360,9,14500,29.46,NA,BKN  ft; BKN  ft,CYER 052300Z AUTO 36009KT 9SM BKN018 BKN024 08/07 A2946 RMK SLP980,2025-09-05T23:20:06Z,2025-09-05T19:20:06Z
CYER,2025-09-05T23:24:00Z,2025-09-05T19:24:00Z,VFR,8,6,87,360,9,14500,29.47,NA,SCT  ft; BKN  ft; BKN  ft,CYER 052324Z AUTO 36009KT 9SM SCT022 BKN044 BKN250 08/06 A2947 RMK SLP982,2025-09-05T23:39:26Z,2025-09-05T19:39:26Z
CYER,2025-09-06T01:00:00Z,2025-09-05T21:00:00Z,VFR,8,7,93,360,6,14500,29.49,NA,SCT  ft; OVC  ft,CYER 060100Z AUTO 36006KT 9SM SCT011 OVC040 08/07 A2949 RMK SLP988,2025-09-06T01:42:34Z,2025-09-05T21:42:34Z
CYER,2025-09-06T02:13:00Z,2025-09-05T22:13:00Z,MVFR,8,7,93,360,7,14500,29.49,NA,SCT  ft; BKN  ft; OVC  ft,CYER 060213Z AUTO 36007KT 9SM SCT013 BKN017 OVC036 08/07 A2949 RMK SLP990,2025-09-06T02:56:33Z,2025-09-05T22:56:33Z
CYER,2025-09-06T03:25:00Z,2025-09-05T23:25:00Z,IFR,7,7,100,350,9,14500,29.5,NA,OVC  ft,CYER 060325Z AUTO 35009KT 9SM OVC009 07/07 A2950 RMK SLP992,2025-09-06T03:30:45Z,2025-09-05T23:30:45Z
CYER,2025-09-06T04:00:00Z,2025-09-06T00:00:00Z,IFR,7,7,100,350,9,14500,29.5,NA,OVC  ft,CYER 060400Z AUTO 35009KT 9SM OVC009 07/07 A2950 RMK SLP993,2025-09-06T04:25:44Z,2025-09-06T00:25:44Z
CYER,2025-09-06T05:00:00Z,2025-09-06T01:00:00Z,IFR,7,7,100,350,7,14500,29.51,NA,OVC  ft,CYER 060500Z AUTO 35007KT 9SM -RA OVC009 07/07 A2951 RMK SLP995,2025-09-06T05:19:54Z,2025-09-06T01:19:54Z
CYER,2025-09-06T06:15:00Z,2025-09-06T02:15:00Z,IFR,7,7,100,350,9,12900,29.52,NA,OVC  ft,CYER 060615Z AUTO 35009G15KT 8SM OVC005 07/07 A2952 RMK SLP001,2025-09-06T06:29:48Z,2025-09-06T02:29:48Z
CYER,2025-09-06T06:39:00Z,2025-09-06T02:39:00Z,IFR,6,6,100,350,7,9700,29.53,NA,OVC  ft,CYER 060639Z AUTO 35007KT 6SM -RA BR OVC005 06/06 A2953 RMK SLP002,2025-09-06T06:46:47Z,2025-09-06T02:46:47Z
CYER,2025-09-06T07:09:00Z,2025-09-06T03:09:00Z,IFR,6,6,100,350,10,8000,29.53,NA,OVC  ft,CYER 060709Z AUTO 35010KT 5SM -RA BR OVC005 06/06 A2953 RMK SLP004,2025-09-06T07:18:40Z,2025-09-06T03:18:40Z
CYER,2025-09-06T07:22:00Z,2025-09-06T03:22:00Z,IFR,6,6,100,350,7,9700,29.54,NA,OVC  ft,CYER 060722Z AUTO 35007KT 6SM BR OVC005 06/06 A2954 RMK SLP006,2025-09-06T07:39:07Z,2025-09-06T03:39:07Z
CYER,2025-09-06T08:07:00Z,2025-09-06T04:07:00Z,IFR,6,6,100,360,7,14500,29.55,NA,BKN  ft; OVC  ft,CYER 060807Z AUTO 36007KT 9SM BKN009 OVC013 06/06 A2955 RMK SLP009,2025-09-06T08:25:10Z,2025-09-06T04:25:10Z
CYER,2025-09-06T09:10:00Z,2025-09-06T05:10:00Z,IFR,6,6,100,330,6,14500,29.56,NA,OVC  ft,CYER 060910Z AUTO 33006KT 9SM OVC009 06/06 A2956 RMK SLP014,2025-09-06T09:19:45Z,2025-09-06T05:19:45Z
CYER,2025-09-06T10:00:00Z,2025-09-06T06:00:00Z,MVFR,6,6,100,330,7,14500,29.57,NA,OVC  ft,CYER 061000Z AUTO 33007KT 9SM OVC011 06/06 A2957 RMK SLP018,2025-09-06T10:20:29Z,2025-09-06T06:20:29Z
CYER,2025-09-06T11:00:00Z,2025-09-06T07:00:00Z,MVFR,6,6,100,310,4,14500,29.59,NA,OVC  ft,CYER 061100Z AUTO 31004KT 9SM OVC013 06/06 A2959 RMK SLP023,2025-09-06T11:15:59Z,2025-09-06T07:15:59Z
CYER,2025-09-06T11:30:00Z,2025-09-06T07:30:00Z,IFR,6,6,100,310,5,3600,29.6,NA,BKN  ft; OVC  ft,CYER 061130Z AUTO 31005KT 2 1/4SM BR BKN007 OVC013 06/06 A2960 RMK SLP025,2025-09-06T11:38:56Z,2025-09-06T07:38:56Z
CYER,2025-09-06T12:30:00Z,2025-09-06T08:30:00Z,IFR,7,7,100,320,7,4000,29.61,NA,OVC  ft,CYER 061230Z AUTO 32007KT 2 1/2SM BR OVC007 07/07 A2961 RMK SLP029,2025-09-06T12:39:59Z,2025-09-06T08:39:59Z
CYER,2025-09-06T13:00:00Z,2025-09-06T09:00:00Z,IFR,7,7,100,320,8,14500,29.61,NA,OVC  ft,CYER 061300Z AUTO 32008G15KT 270V010 9SM OVC007 07/07 A2961 RMK SLP030,2025-09-06T13:22:39Z,2025-09-06T09:22:39Z
CYER,2025-09-06T13:33:00Z,2025-09-06T09:33:00Z,IFR,7,7,100,350,10,4800,29.62,NA,OVC  ft,CYER 061333Z AUTO 35010KT 3SM BR OVC007 07/07 A2962 RMK SLP033,2025-09-06T13:38:40Z,2025-09-06T09:38:40Z
CYER,2025-09-06T14:09:00Z,2025-09-06T10:09:00Z,IFR,7,7,100,330,10,11300,29.64,NA,BKN  ft; BKN  ft; OVC  ft,CYER 061409Z AUTO 33010G15KT 7SM BKN007 BKN014 OVC026 07/07 A2964 RMK SLP039,2025-09-06T14:18:38Z,2025-09-06T10:18:38Z
CYER,2025-09-06T14:25:00Z,2025-09-06T10:25:00Z,MVFR,7,7,100,340,8,9700,29.64,NA,SCT  ft; BKN  ft; BKN  ft; OVC  ft,CYER 061425Z AUTO 34008KT 6SM BR SCT007 BKN011 BKN016 OVC024 07/07 A2964 RMK SLP041,2025-09-06T14:38:50Z,2025-09-06T10:38:50Z
CYER,2025-09-06T15:00:00Z,2025-09-06T11:00:00Z,MVFR,8,7,93,350,12,14500,29.66,NA,BKN  ft; BKN  ft; OVC  ft,CYER 061500Z AUTO 35012G20KT 9SM BKN012 BKN018 OVC025 08/07 A2966 RMK SLP046,2025-09-06T15:19:23Z,2025-09-06T11:19:23Z
CYER,2025-09-06T15:29:00Z,2025-09-06T11:29:00Z,MVFR,8,7,93,340,9,9700,29.66,NA,BKN  ft; OVC  ft,CYER 061529Z AUTO 34009G15KT 6SM BR BKN012 OVC021 08/07 A2966 RMK SLP048,2025-09-06T15:38:45Z,2025-09-06T11:38:45Z
CYER,2025-09-06T16:14:00Z,2025-09-06T12:14:00Z,IFR,8,8,100,340,11,4800,29.68,NA,BKN  ft; OVC  ft,CYER 061614Z AUTO 34011G19KT 3SM -RA BR BKN007 OVC015 08/08 A2968 RMK SLP052,2025-09-06T16:24:51Z,2025-09-06T12:24:51Z
CYER,2025-09-06T16:37:00Z,2025-09-06T12:37:00Z,IFR,8,8,100,340,10,6400,29.69,NA,BKN  ft; BKN  ft; BKN  ft; OVC  ft,CYER 061637Z AUTO 34010G20KT 4SM -RA BR BKN009 BKN014 BKN022 OVC037 08/08 A2969 RMK SLP056,2025-09-06T16:42:29Z,2025-09-06T12:42:29Z
CYER,2025-09-06T16:52:00Z,2025-09-06T12:52:00Z,IFR,8,8,100,340,10,9700,29.69,NA,BKN  ft; BKN  ft; OVC  ft,CYER 061652Z AUTO 34010G18KT 6SM -RA BR BKN009 BKN014 OVC021 08/08 A2969 RMK SLP058,2025-09-06T16:59:45Z,2025-09-06T12:59:45Z
CYER,2025-09-06T17:02:00Z,2025-09-06T13:02:00Z,IFR,8,8,100,340,13,8000,29.7,NA,BKN  ft; BKN  ft; OVC  ft,CYER 061702Z AUTO 34013G19KT 5SM -RA BR BKN009 BKN014 OVC020 08/08 A2970 RMK SLP060,2025-09-06T17:08:10Z,2025-09-06T13:08:10Z
CYER,2025-09-06T17:20:00Z,2025-09-06T13:20:00Z,IFR,8,8,100,330,13,12900,29.7,NA,BKN  ft; BKN  ft; OVC  ft,CYER 061720Z AUTO 33013G19KT 8SM -RA BKN009 BKN015 OVC019 08/08 A2970 RMK SLP061,2025-09-06T17:24:31Z,2025-09-06T13:24:31Z
CYER,2025-09-06T17:36:00Z,2025-09-06T13:36:00Z,MVFR,8,8,100,330,13,4800,29.71,NA,SCT  ft; BKN  ft; BKN  ft; OVC  ft,CYER 061736Z AUTO 33013G22KT 3SM -RA BR SCT009 BKN015 BKN022 OVC027 08/08 A2971 RMK SLP064,2025-09-06T17:41:52Z,2025-09-06T13:41:52Z
CYER,2025-09-06T18:25:00Z,2025-09-06T14:25:00Z,MVFR,7,7,100,330,12,4800,29.73,NA,BKN  ft; OVC  ft,CYER 061825Z AUTO 33012G22KT 3SM -RA BR BKN010 OVC013 07/07 A2973 RMK SLP071,2025-09-06T18:32:23Z,2025-09-06T14:32:23Z
CYER,2025-09-06T18:34:00Z,2025-09-06T14:34:00Z,IFR,7,7,100,330,14,4800,29.73,NA,OVC  ft,CYER 061834Z AUTO 33014G21KT 3SM -RA BR OVC008 07/07 A2973 RMK SLP072,2025-09-06T18:45:14Z,2025-09-06T14:45:14Z
CYER,2025-09-06T19:03:00Z,2025-09-06T15:03:00Z,MVFR,7,7,100,330,12,14500,29.75,NA,OVC  ft,CYER 061903Z AUTO 33012G20KT 9SM OVC012 07/07 A2975 RMK SLP076,2025-09-06T19:18:13Z,2025-09-06T15:18:13Z
CYER,2025-09-06T20:00:00Z,2025-09-06T16:00:00Z,MVFR,8,7,93,330,11,14500,29.77,NA,OVC  ft,CYER 062000Z AUTO 33011G19KT 9SM OVC014 08/07 A2977 RMK SLP085,2025-09-06T20:25:14Z,2025-09-06T16:25:14Z
CYER,2025-09-06T21:00:00Z,2025-09-06T17:00:00Z,MVFR,8,4,76,330,14,14500,29.79,NA,SCT  ft; OVC  ft,CYER 062100Z AUTO 33014G26KT 9SM SCT023 OVC029 08/04 A2979 RMK SLP092,2025-09-06T21:21:18Z,2025-09-06T17:21:18Z
CYER,2025-09-06T22:00:00Z,2025-09-06T18:00:00Z,VFR,8,4,76,330,12,14500,29.81,NA,FEW  ft; OVC  ft,CYER 062200Z AUTO 33012G25KT 9SM FEW025 OVC032 08/04 A2981 RMK SLP098,2025-09-06T22:23:56Z,2025-09-06T18:23:56Z
CYER,2025-09-06T23:00:00Z,2025-09-06T19:00:00Z,VFR,8,4,76,330,16,14500,29.83,NA,OVC  ft,CYER 062300Z AUTO 33016G24KT 9SM OVC032 08/04 A2983 RMK SLP104,2025-09-06T23:22:35Z,2025-09-06T19:22:35Z
CYER,2025-09-07T01:00:00Z,2025-09-06T21:00:00Z,MVFR,7,4,81,340,9,14500,29.86,NA,BKN  ft; OVC  ft,CYER 070100Z AUTO 34009G17KT 9SM BKN030 OVC038 07/04 A2986 RMK SLP113,2025-09-07T02:04:14Z,2025-09-06T22:04:14Z
CYER,2025-09-07T02:49:00Z,2025-09-06T22:49:00Z,MVFR,6,5,93,300,8,14500,29.86,NA,FEW  ft; SCT  ft; BKN  ft; OVC  ft,CYER 070249Z AUTO 30008G15KT 9SM FEW017 SCT021 BKN027 OVC036 06/05 A2986 RMK SLP113,2025-09-07T03:07:53Z,2025-09-06T23:07:53Z
CYER,2025-09-07T03:34:00Z,2025-09-06T23:34:00Z,MVFR,6,6,100,300,7,8000,29.86,NA,FEW  ft; BKN  ft; BKN  ft; OVC  ft,CYER 070334Z AUTO 30007KT 5SM BR FEW016 BKN021 BKN026 OVC035 06/06 A2986 RMK SLP114,2025-09-07T03:38:07Z,2025-09-06T23:38:07Z
CYER,2025-09-07T03:40:00Z,2025-09-06T23:40:00Z,IFR,6,6,100,310,6,3200,29.86,NA,FEW  ft; BKN  ft; OVC  ft,CYER 070340Z AUTO 31006KT 2SM -RA BR FEW011 BKN019 OVC024 06/06 A2986 RMK SLP114,2025-09-07T03:50:40Z,2025-09-06T23:50:40Z
CYER,2025-09-07T04:19:00Z,2025-09-07T00:19:00Z,IFR,6,6,100,310,6,9700,29.86,NA,OVC  ft,CYER 070419Z AUTO 31006KT 280V350 6SM -RA BR OVC009 06/06 A2986 RMK SLP115,2025-09-07T04:29:47Z,2025-09-07T00:29:47Z
CYER,2025-09-07T04:34:00Z,2025-09-07T00:34:00Z,MVFR,6,6,100,300,9,8000,29.86,NA,BKN  ft; BKN  ft; OVC  ft,CYER 070434Z AUTO 30009KT 5SM -RA BR BKN011 BKN017 OVC025 06/06 A2986 RMK SLP115,2025-09-07T04:44:23Z,2025-09-07T00:44:23Z
CYER,2025-09-07T05:00:00Z,2025-09-07T01:00:00Z,MVFR,6,6,100,300,6,14500,29.86,NA,BKN  ft; BKN  ft; OVC  ft,CYER 070500Z AUTO 30006KT 9SM BKN013 BKN018 OVC026 06/06 A2986 RMK SLP115,2025-09-07T05:25:32Z,2025-09-07T01:25:32Z
CYER,2025-09-07T05:25:00Z,2025-09-07T01:25:00Z,VFR,6,6,100,290,8,14500,29.86,NA,SCT  ft; SCT  ft; OVC  ft,CYER 070525Z AUTO 29008G15KT 9SM SCT013 SCT033 OVC043 06/06 A2986 RMK SLP114,2025-09-07T05:42:18Z,2025-09-07T01:42:18Z
CYER,2025-09-07T06:00:00Z,2025-09-07T02:00:00Z,VFR,5,5,100,280,9,14500,29.85,NA,BKN  ft,CYER 070600Z AUTO 28009KT 9SM BKN047 05/05 A2985 RMK SLP112,2025-09-07T06:34:53Z,2025-09-07T02:34:53Z
CYER,2025-09-07T07:13:00Z,2025-09-07T03:13:00Z,MVFR,5,5,100,280,12,11300,29.84,NA,SCT  ft; OVC  ft,CYER 070713Z AUTO 28012G17KT 7SM -RA SCT015 OVC021 05/05 A2984 RMK SLP108,2025-09-07T07:22:54Z,2025-09-07T03:22:54Z
CYER,2025-09-07T07:24:00Z,2025-09-07T03:24:00Z,MVFR,5,5,100,280,12,14500,29.84,NA,SCT  ft; BKN  ft; OVC  ft,CYER 070724Z AUTO 28012KT 9SM SCT015 BKN019 OVC024 05/05 A2984 RMK SLP108,2025-09-07T07:41:48Z,2025-09-07T03:41:48Z
CYER,2025-09-07T08:00:00Z,2025-09-07T04:00:00Z,VFR,5,5,100,290,11,14500,29.84,NA,SCT  ft; SCT  ft; SCT  ft; OVC  ft,CYER 070800Z AUTO 29011G17KT 9SM SCT021 SCT031 SCT038 OVC055 05/05 A2984 RMK SLP107,2025-09-07T08:29:56Z,2025-09-07T04:29:56Z
CYER,2025-09-07T08:32:00Z,2025-09-07T04:32:00Z,MVFR,5,5,100,290,9,14500,29.84,NA,BKN  ft; BKN  ft; BKN  ft; OVC  ft,CYER 070832Z AUTO 29009G16KT 9SM -RA BKN015 BKN023 BKN033 OVC050 05/05 A2984 RMK SLP106,2025-09-07T08:44:41Z,2025-09-07T04:44:41Z
CYER,2025-09-07T09:03:00Z,2025-09-07T05:03:00Z,MVFR,5,5,100,280,10,14500,29.83,NA,BKN  ft; BKN  ft; OVC  ft,CYER 070903Z AUTO 28010G15KT 9SM BKN020 BKN035 OVC050 05/05 A2983 RMK SLP105,2025-09-07T09:23:40Z,2025-09-07T05:23:40Z
CYER,2025-09-07T10:00:00Z,2025-09-07T06:00:00Z,MVFR,5,5,100,290,9,14500,29.84,NA,BKN  ft; BKN  ft; OVC  ft,CYER 071000Z AUTO 29009G15KT 9SM BKN018 BKN026 OVC240 05/05 A2984 RMK SLP107,2025-09-07T10:26:10Z,2025-09-07T06:26:10Z
CYER,2025-09-07T11:00:00Z,2025-09-07T07:00:00Z,VFR,5,5,100,290,10,14500,29.84,NA,FEW  ft; SCT  ft; BKN  ft; BKN  ft,CYER 071100Z AUTO 29010G17KT 9SM FEW014 SCT025 BKN055 BKN076 05/05 A2984 RMK SLP108,2025-09-07T11:19:23Z,2025-09-07T07:19:23Z
CYER,2025-09-07T11:32:00Z,2025-09-07T07:32:00Z,VFR,5,5,100,290,12,14500,29.84,NA,FEW  ft; BKN  ft; OVC  ft,CYER 071132Z AUTO 29012G19KT 9SM -RA FEW025 BKN032 OVC039 05/05 A2984 RMK SLP108,2025-09-07T11:41:27Z,2025-09-07T07:41:27Z
CYER,2025-09-07T12:37:00Z,2025-09-07T08:37:00Z,VFR,5,5,100,280,9,14500,29.84,NA,FEW  ft; SCT  ft; OVC  ft,CYER 071237Z AUTO 28009G16KT 9SM FEW012 SCT026 OVC037 05/05 A2984 RMK SLP109,2025-09-07T12:48:15Z,2025-09-07T08:48:15Z
CYER,2025-09-07T13:18:00Z,2025-09-07T09:18:00Z,MVFR,6,5,93,300,10,14500,29.85,NA,FEW  ft; BKN  ft; BKN  ft,CYER 071318Z AUTO 30010G18KT 9SM -RA FEW014 BKN026 BKN037 06/05 A2985 RMK SLP110,2025-09-07T13:26:44Z,2025-09-07T09:26:44Z
CYER,2025-09-07T13:24:00Z,2025-09-07T09:24:00Z,MVFR,5,5,100,290,11,11300,29.85,NA,SCT  ft; BKN  ft; BKN  ft; OVC  ft,CYER 071324Z AUTO 29011G18KT 7SM -RA SCT016 BKN023 BKN029 OVC037 05/05 A2985 RMK SLP110,2025-09-07T13:41:59Z,2025-09-07T09:41:59Z
CYER,2025-09-07T14:12:00Z,2025-09-07T10:12:00Z,MVFR,6,6,100,300,10,14500,29.84,NA,SCT  ft; BKN  ft,CYER 071412Z AUTO 30010G20KT 9SM SCT014 BKN019 06/06 A2984 RMK SLP109,2025-09-07T14:23:03Z,2025-09-07T10:23:03Z
CYER,2025-09-07T14:30:00Z,2025-09-07T10:30:00Z,MVFR,7,6,93,300,9,14500,29.85,NA,BKN  ft; BKN  ft,CYER 071430Z AUTO 30009G17KT 9SM BKN016 BKN031 07/06 A2985 RMK SLP110,2025-09-07T14:41:55Z,2025-09-07T10:41:55Z
CYER,2025-09-07T15:16:00Z,2025-09-07T11:16:00Z,MVFR,8,6,87,300,12,14500,29.85,NA,SCT  ft; BKN  ft; BKN  ft,CYER 071516Z AUTO 30012G19KT 9SM SCT018 BKN024 BKN040 08/06 A2985 RMK SLP111,2025-09-07T15:23:36Z,2025-09-07T11:23:36Z
CYER,2025-09-07T15:29:00Z,2025-09-07T11:29:00Z,MVFR,7,6,93,310,13,11300,29.85,NA,SCT  ft; BKN  ft; BKN  ft,CYER 071529Z AUTO 31013G18KT 7SM -RA SCT018 BKN027 BKN036 07/06 A2985 RMK SLP111,2025-09-07T15:41:52Z,2025-09-07T11:41:52Z
CYER,2025-09-07T16:00:00Z,2025-09-07T12:00:00Z,VFR,8,6,87,300,11,14500,29.85,NA,FEW  ft; SCT  ft; BKN  ft; OVC  ft,CYER 071600Z AUTO 30011G17KT 9SM FEW019 SCT025 BKN036 OVC130 08/06 A2985 RMK SLP112,2025-09-07T16:29:08Z,2025-09-07T12:29:08Z
CYER,2025-09-07T17:00:00Z,2025-09-07T13:00:00Z,MVFR,8,5,82,310,11,14500,29.85,NA,SCT  ft; BKN  ft; BKN  ft; OVC  ft,CYER 071700Z AUTO 31011G18KT 9SM SCT024 BKN029 BKN042 OVC120 08/05 A2985 RMK SLP111,2025-09-07T17:21:31Z,2025-09-07T13:21:31Z
CYER,2025-09-07T17:22:00Z,2025-09-07T13:22:00Z,VFR,8,5,82,330,10,14500,29.85,NA,SCT  ft; BKN  ft; BKN  ft; OVC  ft,CYER 071722Z AUTO 33010G19KT 9SM -RA SCT025 BKN032 BKN043 OVC050 08/05 A2985 RMK SLP112,2025-09-07T17:41:26Z,2025-09-07T13:41:26Z
CYER,2025-09-07T18:10:00Z,2025-09-07T14:10:00Z,VFR,8,6,87,320,9,14500,29.86,NA,SCT  ft; BKN  ft; BKN  ft,CYER 071810Z AUTO 32009G15KT 9SM SCT027 BKN038 BKN230 08/06 A2986 RMK SLP115,2025-09-07T18:32:51Z,2025-09-07T14:32:51Z
CYER,2025-09-07T18:31:00Z,2025-09-07T14:31:00Z,VFR,8,4,76,310,10,14500,29.87,NA,SCT  ft; BKN  ft; BKN  ft,CYER 071831Z AUTO 31010G24KT 9SM -RA SCT033 BKN048 BKN230 08/04 A2987 RMK SLP118,2025-09-07T18:45:30Z,2025-09-07T14:45:30Z
CYER,2025-09-07T19:00:00Z,2025-09-07T15:00:00Z,VFR,8,5,82,310,10,14500,29.87,NA,FEW  ft; BKN  ft; OVC  ft,CYER 071900Z AUTO 31010G16KT 9SM FEW035 BKN045 OVC140 08/05 A2987 RMK SLP118,2025-09-07T19:18:48Z,2025-09-07T15:18:48Z
CYER,2025-09-07T19:36:00Z,2025-09-07T15:36:00Z,VFR,8,5,82,320,9,14500,29.87,NA,FEW  ft; SCT  ft; BKN  ft; BKN  ft,CYER 071936Z AUTO 32009G17KT 280V340 9SM -RA FEW028 SCT035 BKN041 BKN150 08/05 A2987 RMK SLP117,2025-09-07T19:41:48Z,2025-09-07T15:41:48Z
CYER,2025-09-07T20:13:00Z,2025-09-07T16:13:00Z,VFR,9,5,76,330,10,14500,29.87,NA,FEW  ft; SCT  ft; OVC  ft,CYER 072013Z AUTO 33010G19KT 300V360 9SM FEW031 SCT039 OVC048 09/05 A2987 RMK SLP119,2025-09-07T20:25:51Z,2025-09-07T16:25:51Z
CYER,2025-09-07T20:33:00Z,2025-09-07T16:33:00Z,VFR,8,5,82,330,10,14500,29.88,NA,FEW  ft; SCT  ft; OVC  ft,CYER 072033Z AUTO 33010G18KT 9SM -RA FEW023 SCT034 OVC046 08/05 A2988 RMK SLP121,2025-09-07T20:42:07Z,2025-09-07T16:42:07Z
CYER,2025-09-07T21:05:00Z,2025-09-07T17:05:00Z,VFR,9,4,71,320,9,14500,29.88,NA,FEW  ft; SCT  ft; BKN  ft,CYER 072105Z AUTO 32009G19KT 9SM FEW029 SCT039 BKN050 09/04 A2988 RMK SLP122,2025-09-07T21:21:33Z,2025-09-07T17:21:33Z
CYFB,2025-09-05T21:00:00Z,2025-09-05T17:00:00Z,VFR,4,0,75,140,15,48300,30.01,NA,FEW  ft; SCT  ft; BKN  ft,CYFB 052100Z 14015KT 30SM FEW020 SCT160 BKN220 04/M00 A3001 RMK SC1AS3CI3 SC TR SLP168,2025-09-05T22:02:55Z,2025-09-05T18:02:55Z
CYFB,2025-09-05T22:00:00Z,2025-09-05T18:00:00Z,VFR,4,-1,70,140,15,48300,30,NA,FEW  ft; BKN  ft; BKN  ft,CYFB 052200Z 14015KT 30SM FEW020 BKN130 BKN220 04/M01 A3000 RMK SC1AS5CS2 SC TR SLP163,2025-09-05T22:18:47Z,2025-09-05T18:18:47Z
CYFB,2025-09-05T23:00:00Z,2025-09-05T19:00:00Z,VFR,4,0,75,140,12,48300,30,NA,FEW  ft; BKN  ft; OVC  ft,CYFB 052300Z 14012KT 30SM FEW020 BKN120 OVC220 04/M00 A3000 RMK SC1AC6CS2 SC TR SLP163,2025-09-05T23:20:09Z,2025-09-05T19:20:09Z
CYFB,2025-09-06T01:00:00Z,2025-09-05T21:00:00Z,VFR,4,0,75,140,14,24100,29.97,NA,OVC  ft,CYFB 060100Z 14014KT 15SM OVC110 04/M00 A2997 RMK AS8 SLP153,2025-09-06T01:42:38Z,2025-09-05T21:42:38Z
CYFB,2025-09-06T02:00:00Z,2025-09-05T22:00:00Z,VFR,3,0,81,140,13,24100,29.96,NA,OVC  ft,CYFB 060200Z 14013KT 15SM OVC100 03/00 A2996 RMK AS8 SLP149,2025-09-06T02:56:38Z,2025-09-05T22:56:38Z
CYFB,2025-09-06T03:00:00Z,2025-09-05T23:00:00Z,VFR,3,0,81,150,9,24100,29.94,NA,BKN  ft; OVC  ft,CYFB 060300Z 15009G15KT 15SM -RA BKN041 OVC078 03/00 A2994 RMK SC6AC2 SLP145,2025-09-06T03:30:48Z,2025-09-05T23:30:48Z
CYFB,2025-09-06T04:00:00Z,2025-09-06T00:00:00Z,VFR,3,1,87,0,2,24100,29.92,NA,BKN  ft; OVC  ft,CYFB 060400Z VRB02KT 15SM -RA BKN041 OVC078 03/01 A2992 RMK SC6AC2 SLP136,2025-09-06T04:25:48Z,2025-09-06T00:25:48Z
CYFB,2025-09-06T05:00:00Z,2025-09-06T01:00:00Z,MVFR,3,1,87,150,10,24100,29.9,NA,BKN  ft; OVC  ft,CYFB 060500Z 15010KT 15SM -RA BKN028 OVC078 03/01 A2990 RMK SC6AC2 SLP129,2025-09-06T05:19:59Z,2025-09-06T01:19:59Z
CYFB,2025-09-06T06:00:00Z,2025-09-06T02:00:00Z,MVFR,3,1,87,120,15,24100,29.87,NA,BKN  ft; OVC  ft,CYFB 060600Z 12015KT 15SM -RA BKN027 OVC078 03/01 A2987 RMK SC6AC2 SLP119,2025-09-06T06:29:51Z,2025-09-06T02:29:51Z
CYFB,2025-09-06T07:00:00Z,2025-09-06T03:00:00Z,VFR,2,1,93,120,12,24100,29.84,NA,BKN  ft; OVC  ft,CYFB 060700Z 12012KT 15SM -RA BKN033 OVC078 02/01 A2984 RMK SC6AC2 SLP108,2025-09-06T07:18:44Z,2025-09-06T03:18:44Z
CYFB,2025-09-06T08:00:00Z,2025-09-06T04:00:00Z,VFR,3,1,87,120,11,24100,29.8,NA,OVC  ft,CYFB 060800Z 12011KT 15SM -RA OVC033 03/01 A2980 RMK SC8 SLP096,2025-09-06T08:25:14Z,2025-09-06T04:25:14Z
CYFB,2025-09-06T09:00:00Z,2025-09-06T05:00:00Z,MVFR,4,1,81,120,12,24100,29.77,NA,BKN  ft; OVC  ft,CYFB 060900Z 12012G17KT 15SM -RA BKN030 OVC078 04/01 A2977 RMK SC7AC1 SLP086,2025-09-06T09:19:49Z,2025-09-06T05:19:49Z
CYFB,2025-09-06T10:00:00Z,2025-09-06T06:00:00Z,MVFR,3,2,93,140,8,40200,29.76,NA,OVC  ft,CYFB 061000Z 14008KT 25SM -RA OVC030 03/02 A2976 RMK SC8 SLP081,2025-09-06T10:20:32Z,2025-09-06T06:20:32Z
CYFB,2025-09-06T11:00:00Z,2025-09-06T07:00:00Z,MVFR,2,1,93,150,9,19300,29.73,NA,BKN  ft; OVC  ft,CYFB 061100Z 15009KT 12SM -RA BKN026 OVC078 02/01 A2973 RMK SC7AC1 SLP073,2025-09-06T11:16:03Z,2025-09-06T07:16:03Z
CYFB,2025-09-06T12:00:00Z,2025-09-06T08:00:00Z,MVFR,3,1,87,120,17,9700,29.71,NA,OVC  ft,CYFB 061200Z 12017KT 6SM -RA BR OVC025 03/01 A2971 RMK SC8 SLP066,2025-09-06T12:40:03Z,2025-09-06T08:40:03Z
CYFB,2025-09-06T13:00:00Z,2025-09-06T09:00:00Z,VFR,4,0,75,120,16,40200,29.69,NA,OVC  ft,CYFB 061300Z 12016G22KT 25SM -RA OVC034 04/00 A2969 RMK SC8 SLP059,2025-09-06T13:22:42Z,2025-09-06T09:22:42Z
CYFB,2025-09-06T14:00:00Z,2025-09-06T10:00:00Z,VFR,4,-1,70,120,19,19300,29.68,NA,OVC  ft,CYFB 061400Z 12019G28KT 12SM -RA OVC032 04/M01 A2968 RMK SC8 SLP054,2025-09-06T14:18:41Z,2025-09-06T10:18:41Z
CYFB,2025-09-06T15:00:00Z,2025-09-06T11:00:00Z,MVFR,4,0,75,130,15,11300,29.67,NA,OVC  ft,CYFB 061500Z 13015G26KT 7SM -RA OVC025 04/00 A2967 RMK SC8 SLP051,2025-09-06T15:19:26Z,2025-09-06T11:19:26Z
CYFB,2025-09-06T16:10:00Z,2025-09-06T12:10:00Z,IFR,2,1,93,130,16,6400,29.65,NA,OVC  ft,CYFB 061610Z 13016G23KT 4SM -RASN BR OVC009 02/01 A2965 RMK ST8 SLP046,2025-09-06T16:24:55Z,2025-09-06T12:24:55Z
CYFB,2025-09-06T16:39:00Z,2025-09-06T12:39:00Z,MVFR,2,1,93,130,15,8000,29.65,NA,OVC  ft,CYFB 061639Z 13015G22KT 5SM -RASN BR OVC011 02/01 A2965 RMK SC8 SLP043,2025-09-06T16:42:33Z,2025-09-06T12:42:33Z
CYFB,2025-09-06T17:00:00Z,2025-09-06T13:00:00Z,MVFR,2,1,93,130,14,8000,29.64,NA,OVC  ft,CYFB 061700Z 13014G19KT 5SM -RASN BR OVC014 02/01 A2964 RMK SC8 SLP041,2025-09-06T17:24:34Z,2025-09-06T13:24:34Z
CYFB,2025-09-06T17:31:00Z,2025-09-06T13:31:00Z,IFR,2,1,93,150,13,6400,29.64,NA,OVC  ft,CYFB 061731Z 15013G20KT 4SM -RASN BR OVC009 02/01 A2964 RMK ST8 SLP040,2025-09-06T17:41:56Z,2025-09-06T13:41:56Z
CYFB,2025-09-06T18:15:00Z,2025-09-06T14:15:00Z,MVFR,3,1,87,130,15,8000,29.64,NA,OVC  ft,CYFB 061815Z 13015G20KT 5SM -RA BR OVC010 03/01 A2964 RMK SC8 SLP040,2025-09-06T18:32:28Z,2025-09-06T14:32:28Z
CYFB,2025-09-06T19:00:00Z,2025-09-06T15:00:00Z,MVFR,2,1,93,150,11,8000,29.64,NA,OVC  ft,CYFB 061900Z 15011KT 5SM -RA BR OVC014 02/01 A2964 RMK SC8 SLP040,2025-09-06T19:18:17Z,2025-09-06T15:18:17Z
CYFB,2025-09-06T19:30:00Z,2025-09-06T15:30:00Z,MVFR,2,1,93,130,12,8000,29.63,NA,OVC  ft,CYFB 061930Z 13012G22KT 5SM -RASN BR OVC010 02/01 A2963 RMK SC8 SLP039,2025-09-06T19:41:26Z,2025-09-06T15:41:26Z
CYFB,2025-09-06T20:00:00Z,2025-09-06T16:00:00Z,IFR,2,1,93,120,15,8000,29.63,NA,BKN  ft; OVC  ft,CYFB 062000Z 12015G23KT 5SM -RASN BR BKN008 OVC018 02/01 A2963 RMK SC7SC1 SLP038,2025-09-06T20:25:18Z,2025-09-06T16:25:18Z
CYFB,2025-09-06T21:00:00Z,2025-09-06T17:00:00Z,IFR,2,1,93,130,13,9700,29.62,NA,BKN  ft; BKN  ft; OVC  ft,CYFB 062100Z 13013G19KT 6SM -RASN BR BKN009 BKN015 OVC021 02/01 A2962 RMK ST5SC2SC1 SLP035,2025-09-06T21:21:22Z,2025-09-06T17:21:22Z
CYFB,2025-09-06T21:34:00Z,2025-09-06T17:34:00Z,MVFR,2,1,93,110,13,9700,29.62,NA,OVC  ft,CYFB 062134Z 11013KT 6SM -SNRA BR OVC010 02/01 A2962 RMK SC8 VIS N LWR SLP034,2025-09-06T21:41:57Z,2025-09-06T17:41:57Z
CYFB,2025-09-06T22:00:00Z,2025-09-06T18:00:00Z,MVFR,2,1,93,120,9,9700,29.62,NA,OVC  ft,CYFB 062200Z 12009KT 6SM -RASN BR OVC010 02/01 A2962 RMK SC8 VIS N 3 CIG RAG SLP033,2025-09-06T22:24:00Z,2025-09-06T18:24:00Z
CYFB,2025-09-06T23:00:00Z,2025-09-06T19:00:00Z,IFR,2,0,87,130,11,6400,29.61,NA,BKN  ft; OVC  ft,CYFB 062300Z 13011KT 4SM -SNRA BR BKN008 OVC015 02/00 A2961 RMK ST6SC2 VIS N 2 SLP031,2025-09-06T23:22:40Z,2025-09-06T19:22:40Z
CYFB,2025-09-07T01:00:00Z,2025-09-06T21:00:00Z,MVFR,2,1,93,150,8,9700,29.6,NA,OVC  ft,CYFB 070100Z 15008KT 6SM -RASN BR OVC013 02/01 A2960 RMK SC8 SLP029,2025-09-07T02:04:17Z,2025-09-06T22:04:17Z
CYFB,2025-09-07T02:00:00Z,2025-09-06T22:00:00Z,MVFR,2,1,93,130,5,9999,29.59,NA,BKN  ft; OVC  ft,CYFB 070200Z 13005KT 090V160 10SM -RA BKN015 OVC029 02/01 A2959 RMK SC5SC3 SLP026,2025-09-07T03:07:57Z,2025-09-06T23:07:57Z
CYFB,2025-09-07T03:00:00Z,2025-09-06T23:00:00Z,VFR,3,0,81,70,4,24100,29.57,NA,FEW  ft; OVC  ft,CYFB 070300Z 07004KT 15SM FEW025 OVC041 03/00 A2957 RMK SC2SC6 SLP019,2025-09-07T03:38:10Z,2025-09-06T23:38:10Z
CYFB,2025-09-07T04:00:00Z,2025-09-07T00:00:00Z,VFR,3,1,87,130,2,24100,29.56,NA,FEW  ft; OVC  ft,CYFB 070400Z 13002KT 15SM FEW025 OVC041 03/01 A2956 RMK SC2SC6 SLP015,2025-09-07T04:29:50Z,2025-09-07T00:29:50Z
CYFB,2025-09-07T05:00:00Z,2025-09-07T01:00:00Z,VFR,3,0,81,0,0,24100,29.55,NA,OVC  ft,CYFB 070500Z 00000KT 15SM OVC041 03/M00 A2955 RMK SC8 SLP011,2025-09-07T05:25:37Z,2025-09-07T01:25:37Z
CYFB,2025-09-07T06:00:00Z,2025-09-07T02:00:00Z,VFR,3,0,81,80,4,24100,29.55,NA,BKN  ft,CYFB 070600Z 08004KT 060V210 15SM BKN045 03/00 A2955 RMK SC7 SLP010,2025-09-07T06:34:57Z,2025-09-07T02:34:57Z
CYFB,2025-09-07T07:00:00Z,2025-09-07T03:00:00Z,VFR,4,0,75,80,6,24100,29.55,NA,BKN  ft,CYFB 070700Z 08006KT 15SM BKN045 04/M00 A2955 RMK SC7 SLP011,2025-09-07T07:22:57Z,2025-09-07T03:22:57Z
CYFB,2025-09-07T08:00:00Z,2025-09-07T04:00:00Z,VFR,4,-1,70,80,8,24100,29.55,NA,BKN  ft,CYFB 070800Z 08008KT 15SM BKN052 04/M01 A2955 RMK SC7 SLP012,2025-09-07T08:29:59Z,2025-09-07T04:29:59Z
CYFB,2025-09-07T09:00:00Z,2025-09-07T05:00:00Z,VFR,4,-1,70,80,7,48300,29.57,NA,FEW  ft; BKN  ft,CYFB 070900Z 08007KT 30SM FEW030 BKN056 04/M01 A2957 RMK SC1SC6 SLP016,2025-09-07T09:23:43Z,2025-09-07T05:23:43Z
CYFB,2025-09-07T10:00:00Z,2025-09-07T06:00:00Z,VFR,4,-1,70,90,9,48300,29.57,NA,BKN  ft,CYFB 071000Z 09009KT 30SM BKN057 04/M01 A2957 RMK SC7 SLP019,2025-09-07T10:26:14Z,2025-09-07T06:26:14Z
CYFB,2025-09-07T11:00:00Z,2025-09-07T07:00:00Z,VFR,4,-1,70,80,7,48300,29.59,NA,BKN  ft,CYFB 071100Z 08007KT 30SM BKN057 04/M01 A2959 RMK SC7 SLP024,2025-09-07T11:19:27Z,2025-09-07T07:19:27Z
CYFB,2025-09-07T12:00:00Z,2025-09-07T08:00:00Z,VFR,4,-1,70,80,9,48300,29.6,NA,BKN  ft,CYFB 071200Z 08009KT 30SM BKN048 04/M01 A2960 RMK SC7 CIG RAG SLP029,2025-09-07T12:48:18Z,2025-09-07T08:48:18Z
CYFB,2025-09-07T13:00:00Z,2025-09-07T09:00:00Z,VFR,4,0,75,90,6,48300,29.62,NA,OVC  ft,CYFB 071300Z 09006KT 30SM OVC042 04/M00 A2962 RMK SC8 SLP033,2025-09-07T13:26:47Z,2025-09-07T09:26:47Z
CYFB,2025-09-07T14:00:00Z,2025-09-07T10:00:00Z,VFR,4,0,75,70,4,48300,29.63,NA,OVC  ft,CYFB 071400Z 07004KT 060V120 30SM OVC044 04/00 A2963 RMK SC8 CIG RAG SLP038,2025-09-07T14:23:06Z,2025-09-07T10:23:06Z
CYFB,2025-09-07T15:00:00Z,2025-09-07T11:00:00Z,MVFR,5,1,76,320,4,48300,29.63,NA,OVC  ft,CYFB 071500Z 32004KT 270V340 30SM OVC028 05/01 A2963 RMK SC8 CIG RAG SLP039,2025-09-07T15:23:39Z,2025-09-07T11:23:39Z
CYFB,2025-09-07T16:00:00Z,2025-09-07T12:00:00Z,MVFR,5,1,76,60,7,40200,29.63,NA,OVC  ft,CYFB 071600Z 06007KT 050V170 25SM OVC027 05/01 A2963 RMK SC8 SLP039,2025-09-07T16:29:13Z,2025-09-07T12:29:13Z
CYFB,2025-09-07T17:00:00Z,2025-09-07T13:00:00Z,VFR,6,0,66,160,5,48300,29.64,NA,SCT  ft; BKN  ft,CYFB 071700Z 16005KT 130V190 30SM SCT021 BKN060 06/00 A2964 RMK SC3SC4 SLP040,2025-09-07T17:21:34Z,2025-09-07T13:21:34Z
CYFB,2025-09-07T18:00:00Z,2025-09-07T14:00:00Z,VFR,6,1,71,240,4,48300,29.65,NA,FEW  ft; BKN  ft; BKN  ft,CYFB 071800Z 24004KT 180V260 30SM FEW022 BKN040 BKN090 06/01 A2965 RMK SC2SC3AC2 SLP046,2025-09-07T18:32:55Z,2025-09-07T14:32:55Z
CYFB,2025-09-07T19:00:00Z,2025-09-07T15:00:00Z,VFR,6,1,71,240,5,48300,29.67,NA,OVC  ft,CYFB 071900Z 24005KT 30SM OVC049 06/01 A2967 RMK SC8 CIG RAG SLP051,2025-09-07T19:18:53Z,2025-09-07T15:18:53Z
CYFB,2025-09-07T20:00:00Z,2025-09-07T16:00:00Z,VFR,5,1,76,250,5,48300,29.68,NA,OVC  ft,CYFB 072000Z 25005KT 30SM OVC031 05/01 A2968 RMK SC8 SLP056,2025-09-07T20:25:54Z,2025-09-07T16:25:54Z
CYFB,2025-09-07T21:00:00Z,2025-09-07T17:00:00Z,VFR,5,1,76,0,2,48300,29.7,NA,FEW  ft; BKN  ft; OVC  ft,CYFB 072100Z VRB02KT 30SM FEW020 BKN032 OVC048 05/01 A2970 RMK SC1SC5SC3 SC TR SLP063,2025-09-07T21:21:36Z,2025-09-07T17:21:36Z
CYFC,2025-09-05T21:00:00Z,2025-09-05T17:00:00Z,VFR,22,13,57,180,10,14500,29.94,NA,OVC  ft,CYFC 052100Z AUTO 18010G17KT 9SM OVC071 22/13 A2994 RMK SLP142 DENSITY ALT 900FT,2025-09-05T22:02:55Z,2025-09-05T18:02:55Z
CYFC,2025-09-05T22:00:00Z,2025-09-05T18:00:00Z,VFR,21,15,69,170,10,14500,29.95,NA,SCT  ft; BKN  ft; OVC  ft,CYFC 052200Z AUTO 17010G16KT 150V210 9SM SCT060 BKN075 OVC087 21/15 A2995 RMK SLP143 DENSITY ALT 800FT,2025-09-05T22:18:47Z,2025-09-05T18:18:47Z
CYFC,2025-09-05T23:00:00Z,2025-09-05T19:00:00Z,VFR,20,15,73,170,8,14500,29.95,NA,FEW  ft; BKN  ft,CYFC 052300Z AUTO 17008G15KT 9SM FEW055 BKN083 20/15 A2995 RMK SLP143 DENSITY ALT 600FT,2025-09-05T23:20:09Z,2025-09-05T19:20:09Z
CYFC,2025-09-06T01:00:00Z,2025-09-05T21:00:00Z,VFR,18,15,83,190,11,14500,29.96,NA,FEW  ft,CYFC 060100Z AUTO 19011G17KT 9SM FEW014 18/15 A2996 RMK SLP149 DENSITY ALT 400FT,2025-09-06T01:42:37Z,2025-09-05T21:42:37Z
CYFC,2025-09-06T02:34:00Z,2025-09-05T22:34:00Z,MVFR,17,15,88,160,7,14500,29.95,NA,BKN  ft; BKN  ft; BKN  ft,CYFC 060234Z AUTO 16007G16KT 9SM BKN016 BKN027 BKN060 17/15 A2995 RMK SLP144 DENSITY ALT 400FT,2025-09-06T02:56:38Z,2025-09-05T22:56:38Z
CYFC,2025-09-06T03:00:00Z,2025-09-05T23:00:00Z,MVFR,17,15,88,190,8,14500,29.96,NA,BKN  ft,CYFC 060300Z AUTO 19008G15KT 9SM BKN016 17/15 A2996 RMK SLP146 DENSITY ALT 400FT,2025-09-06T03:30:48Z,2025-09-05T23:30:48Z
CYFC,2025-09-06T04:20:00Z,2025-09-06T00:20:00Z,IFR,18,16,88,180,7,14500,29.95,NA,OVC  ft,CYFC 060420Z AUTO 18007KT 9SM OVC008 18/16 A2995 RMK SLP143 DENSITY ALT 400FT,2025-09-06T04:25:48Z,2025-09-06T00:25:48Z
CYFC,2025-09-06T05:00:00Z,2025-09-06T01:00:00Z,IFR,18,16,88,180,8,14500,29.94,NA,OVC  ft,CYFC 060500Z AUTO 18008G16KT 9SM OVC008 18/16 A2994 RMK SLP141 DENSITY ALT 400FT,2025-09-06T05:19:58Z,2025-09-06T01:19:58Z
CYFC,2025-09-06T06:00:00Z,2025-09-06T02:00:00Z,IFR,18,16,88,190,8,14500,29.93,NA,OVC  ft,CYFC 060600Z AUTO 19008G17KT 9SM OVC006 18/16 A2993 RMK SLP139 DENSITY ALT 400FT,2025-09-06T06:29:51Z,2025-09-06T02:29:51Z
CYFC,2025-09-06T07:00:00Z,2025-09-06T03:00:00Z,IFR,18,17,94,180,9,14500,29.91,NA,OVC  ft,CYFC 060700Z AUTO 18009KT 9SM OVC008 18/17 A2991 RMK SLP131 DENSITY ALT 500FT,2025-09-06T07:18:43Z,2025-09-06T03:18:43Z
CYFC,2025-09-06T08:00:00Z,2025-09-06T04:00:00Z,IFR,18,17,94,190,6,14500,29.93,NA,OVC  ft,CYFC 060800Z AUTO 19006KT 9SM OVC008 18/17 A2993 RMK SLP137 DENSITY ALT 500FT,2025-09-06T08:25:13Z,2025-09-06T04:25:13Z
CYFC,2025-09-06T09:00:00Z,2025-09-06T05:00:00Z,IFR,18,17,94,190,7,14500,29.95,NA,OVC  ft,CYFC 060900Z AUTO 19007KT 9SM OVC006 18/17 A2995 RMK SLP143 DENSITY ALT 500FT,2025-09-06T09:19:49Z,2025-09-06T05:19:49Z
CYFC,2025-09-06T10:00:00Z,2025-09-06T06:00:00Z,IFR,18,17,94,180,12,14500,29.94,NA,OVC  ft,CYFC 061000Z AUTO 18012KT 9SM OVC008 18/17 A2994 RMK SLP142 DENSITY ALT 500FT,2025-09-06T10:20:32Z,2025-09-06T06:20:32Z
CYFC,2025-09-06T11:00:00Z,2025-09-06T07:00:00Z,IFR,18,17,94,180,5,14500,29.96,NA,OVC  ft,CYFC 061100Z AUTO 18005KT 9SM OVC008 18/17 A2996 RMK SLP147 DENSITY ALT 500FT,2025-09-06T11:16:03Z,2025-09-06T07:16:03Z
CYFC,2025-09-06T12:00:00Z,2025-09-06T08:00:00Z,IFR,19,17,88,170,4,14500,29.99,NA,OVC  ft,CYFC 061200Z AUTO 17004KT 9SM OVC008 19/17 A2999 RMK SLP157 DENSITY ALT 500FT,2025-09-06T12:40:03Z,2025-09-06T08:40:03Z
CYFC,2025-09-06T13:00:00Z,2025-09-06T09:00:00Z,MVFR,20,18,88,180,7,14500,29.98,NA,OVC  ft,CYFC 061300Z AUTO 18007KT 9SM OVC010 20/18 A2998 RMK SLP156 DENSITY ALT 600FT,2025-09-06T13:22:42Z,2025-09-06T09:22:42Z
CYFC,2025-09-06T14:00:00Z,2025-09-06T10:00:00Z,MVFR,21,18,83,210,5,14500,29.99,NA,OVC  ft,CYFC 061400Z AUTO 21005KT 9SM OVC012 21/18 A2999 RMK SLP158 DENSITY ALT 700FT,2025-09-06T14:18:41Z,2025-09-06T10:18:41Z
CYFC,2025-09-06T15:00:00Z,2025-09-06T11:00:00Z,MVFR,22,18,78,170,8,14500,29.98,NA,OVC  ft,CYFC 061500Z AUTO 17008G15KT 9SM OVC016 22/18 A2998 RMK SLP155 DENSITY ALT 900FT,2025-09-06T15:19:26Z,2025-09-06T11:19:26Z
CYFC,2025-09-06T16:09:00Z,2025-09-06T12:09:00Z,MVFR,23,18,74,170,9,14500,29.96,NA,BKN  ft; BKN  ft,CYFC 061609Z AUTO 17009G16KT 9SM BKN018 BKN100 23/18 A2996 RMK SLP148 DENSITY ALT 1000FT,2025-09-06T16:24:54Z,2025-09-06T12:24:54Z
CYFC,2025-09-06T16:49:00Z,2025-09-06T12:49:00Z,VFR,23,18,74,190,9,14500,29.96,NA,SCT  ft; OVC  ft,CYFC 061649Z AUTO 19009G15KT 9SM SCT022 OVC086 23/18 A2996 RMK SLP147 DENSITY ALT 1000FT,2025-09-06T16:59:48Z,2025-09-06T12:59:48Z
CYFC,2025-09-06T17:00:00Z,2025-09-06T13:00:00Z,VFR,23,19,78,190,8,14500,29.95,NA,FEW  ft; OVC  ft,CYFC 061700Z AUTO 19008KT 9SM FEW022 OVC081 23/19 A2995 RMK SLP145 DENSITY ALT 1000FT,2025-09-06T17:24:34Z,2025-09-06T13:24:34Z
CYFC,2025-09-06T17:36:00Z,2025-09-06T13:36:00Z,MVFR,23,19,78,180,8,14500,29.95,NA,BKN  ft; OVC  ft,CYFC 061736Z AUTO 18008KT 9SM BKN020 OVC086 23/19 A2995 RMK SLP143 DENSITY ALT 1000FT,2025-09-06T17:41:56Z,2025-09-06T13:41:56Z
CYFC,2025-09-06T18:00:00Z,2025-09-06T14:00:00Z,VFR,23,19,78,190,6,14500,29.94,NA,SCT  ft; OVC  ft,CYFC 061800Z AUTO 19006KT 9SM SCT020 OVC076 23/19 A2994 RMK SLP142 DENSITY ALT 1100FT,2025-09-06T18:32:27Z,2025-09-06T14:32:27Z
CYFC,2025-09-06T19:00:00Z,2025-09-06T15:00:00Z,VFR,24,19,74,170,11,14500,29.92,NA,FEW  ft; SCT  ft; BKN  ft,CYFC 061900Z AUTO 17011KT 9SM FEW024 SCT081 BKN097 24/19 A2992 RMK SLP134 DENSITY ALT 1200FT,2025-09-06T19:18:16Z,2025-09-06T15:18:16Z
CYFC,2025-09-06T20:00:00Z,2025-09-06T16:00:00Z,VFR,24,19,74,190,9,14500,29.9,NA,BKN  ft,CYFC 062000Z AUTO 19009KT 160V220 9SM BKN091 24/19 A2990 RMK SLP128 DENSITY ALT 1200FT,2025-09-06T20:25:17Z,2025-09-06T16:25:17Z
CYFC,2025-09-06T21:00:00Z,2025-09-06T17:00:00Z,VFR,24,19,74,180,13,14500,29.88,NA,CLR  ft,CYFC 062100Z AUTO 18013G18KT 9SM CLR 24/19 A2988 RMK LTNG DIST W SLP119 DENSITY ALT 1200FT,2025-09-06T21:21:21Z,2025-09-06T17:21:21Z
CYFC,2025-09-06T22:18:00Z,2025-09-06T18:18:00Z,MVFR,22,19,83,180,10,14500,29.89,NA,BKN  ft,CYFC 062218Z AUTO 18010G20KT 9SM BKN020 22/19 A2989 RMK SLP124 DENSITY ALT 1000FT,2025-09-06T22:23:59Z,2025-09-06T18:23:59Z
CYFC,2025-09-06T23:00:00Z,2025-09-06T19:00:00Z,MVFR,22,19,83,200,11,14500,29.91,NA,OVC  ft,CYFC 062300Z AUTO 20011G18KT 9SM OVC016 22/19 A2991 RMK SLP129 DENSITY ALT 900FT,2025-09-06T23:22:39Z,2025-09-06T19:22:39Z
CYFC,2025-09-07T01:47:00Z,2025-09-06T21:47:00Z,MVFR,15,15,100,320,3,14500,29.94,NA,SCT  ft; OVC  ft,CYFC 070147Z AUTO 32003KT 230V350 9SM -RA SCT009 OVC017 15/15 A2994 RMK PCPN 1.8MM PAST HR SLP141,2025-09-07T02:04:17Z,2025-09-06T22:04:17Z
CYFC,2025-09-07T02:55:00Z,2025-09-06T22:55:00Z,MVFR,15,14,94,0,2,14500,29.94,NA,OVC  ft,CYFC 070255Z AUTO VRB02KT 9SM OVC023 15/14 A2994 RMK SLP141,2025-09-07T03:07:56Z,2025-09-06T23:07:56Z
CYFC,2025-09-07T03:34:00Z,2025-09-06T23:34:00Z,VFR,15,14,94,310,3,9700,29.95,NA,SCT  ft; BKN  ft; OVC  ft,CYFC 070334Z AUTO 31003KT 6SM -RA BR SCT027 BKN037 OVC048 15/14 A2995 RMK SLP143,2025-09-07T03:38:10Z,2025-09-06T23:38:10Z
CYFC,2025-09-07T03:42:00Z,2025-09-06T23:42:00Z,VFR,15,14,94,250,3,14500,29.96,NA,SCT  ft; BKN  ft; OVC  ft,CYFC 070342Z AUTO 25003KT 230V320 9SM SCT029 BKN037 OVC048 15/14 A2996 RMK PRESRR SLP146,2025-09-07T03:50:43Z,2025-09-06T23:50:43Z
CYFC,2025-09-07T04:25:00Z,2025-09-07T00:25:00Z,MVFR,15,14,94,0,2,4800,29.96,NA,FEW  ft; SCT  ft; OVC  ft,CYFC 070425Z AUTO VRB02KT 3SM -RA BR FEW014 SCT029 OVC037 15/14 A2996 RMK SLP148,2025-09-07T04:29:50Z,2025-09-07T00:29:50Z
CYFC,2025-09-07T05:00:00Z,2025-09-07T01:00:00Z,VFR,14,14,100,230,2,14500,29.96,NA,OVC  ft,CYFC 070500Z AUTO 23002KT 9SM OVC033 14/14 A2996 RMK PCPN 0.5MM PAST HR SLP147,2025-09-07T05:25:36Z,2025-09-07T01:25:36Z
CYFC,2025-09-07T06:00:00Z,2025-09-07T02:00:00Z,VFR,15,14,94,230,3,14500,29.96,NA,OVC  ft,CYFC 070600Z AUTO 23003KT 9SM OVC036 15/14 A2996 RMK SLP146,2025-09-07T06:34:56Z,2025-09-07T02:34:56Z
CYFC,2025-09-07T07:00:00Z,2025-09-07T03:00:00Z,VFR,14,14,100,250,3,14500,29.96,NA,BKN  ft; OVC  ft,CYFC 070700Z AUTO 25003KT 9SM BKN045 OVC055 14/14 A2996 RMK SLP146,2025-09-07T07:22:57Z,2025-09-07T03:22:57Z
CYFC,2025-09-07T08:12:00Z,2025-09-07T04:12:00Z,VFR,14,14,100,270,3,14500,29.96,NA,OVC  ft,CYFC 070812Z AUTO 27003KT 240V310 9SM -RA OVC049 14/14 A2996 RMK SLP149,2025-09-07T08:29:58Z,2025-09-07T04:29:58Z
CYFC,2025-09-07T08:38:00Z,2025-09-07T04:38:00Z,VFR,14,14,100,270,2,14500,29.97,NA,FEW  ft; SCT  ft; BKN  ft,CYFC 070838Z AUTO 27002KT 9SM FEW049 SCT100 BKN130 14/14 A2997 RMK SLP150,2025-09-07T08:44:44Z,2025-09-07T04:44:44Z
CYFC,2025-09-07T09:13:00Z,2025-09-07T05:13:00Z,VFR,14,13,94,250,3,14500,29.98,NA,BKN  ft,CYFC 070913Z AUTO 25003KT 9SM -RA BKN130 14/13 A2998 RMK SLP156,2025-09-07T09:23:43Z,2025-09-07T05:23:43Z
CYFC,2025-09-07T10:21:00Z,2025-09-07T06:21:00Z,VFR,14,13,94,250,3,14500,29.99,NA,BKN  ft; BKN  ft; BKN  ft,CYFC 071021Z AUTO 25003KT 9SM -RA BKN120 BKN140 BKN170 14/13 A2999 RMK SLP157,2025-09-07T10:26:14Z,2025-09-07T06:26:14Z
CYFC,2025-09-07T10:39:00Z,2025-09-07T06:39:00Z,VFR,14,13,94,260,3,14500,29.99,NA,FEW  ft; BKN  ft; BKN  ft,CYFC 071039Z AUTO 26003KT 9SM FEW086 BKN130 BKN160 14/13 A2999 RMK SLP157,2025-09-07T10:42:06Z,2025-09-07T06:42:06Z
CYFC,2025-09-07T11:00:00Z,2025-09-07T07:00:00Z,VFR,14,13,94,260,3,14500,29.99,NA,BKN  ft; BKN  ft,CYFC 071100Z AUTO 26003KT 9SM BKN130 BKN150 14/13 A2999 RMK SLP159,2025-09-07T11:19:26Z,2025-09-07T07:19:26Z
CYFC,2025-09-07T11:34:00Z,2025-09-07T07:34:00Z,VFR,14,13,94,250,3,14500,30,NA,FEW  ft; SCT  ft; BKN  ft,CYFC 071134Z AUTO 25003KT 9SM -RA FEW055 SCT070 BKN130 14/13 A3000 RMK SLP161,2025-09-07T11:41:31Z,2025-09-07T07:41:31Z
CYFC,2025-09-07T12:00:00Z,2025-09-07T08:00:00Z,VFR,14,13,94,250,3,14500,30.01,NA,FEW  ft; SCT  ft; OVC  ft,CYFC 071200Z AUTO 25003KT 9SM -RA FEW055 SCT072 OVC100 14/13 A3001 RMK SLP163,2025-09-07T12:48:18Z,2025-09-07T08:48:18Z
CYFC,2025-09-07T13:00:00Z,2025-09-07T09:00:00Z,VFR,15,14,94,240,3,14500,30.02,NA,FEW  ft; BKN  ft; OVC  ft,CYFC 071300Z AUTO 24003KT 9SM -RA FEW066 BKN098 OVC120 15/14 A3002 RMK SLP168,2025-09-07T13:26:47Z,2025-09-07T09:26:47Z
CYFC,2025-09-07T13:34:00Z,2025-09-07T09:34:00Z,VFR,15,14,94,230,4,14500,30.02,NA,FEW  ft; SCT  ft; BKN  ft; OVC  ft,CYFC 071334Z AUTO 23004KT 9SM -RA FEW006 SCT060 BKN070 OVC100 15/14 A3002 RMK SLP168,2025-09-07T13:42:03Z,2025-09-07T09:42:03Z
CYFC,2025-09-07T14:16:00Z,2025-09-07T10:16:00Z,MVFR,15,14,94,0,2,14500,30.01,NA,BKN  ft; BKN  ft; BKN  ft; OVC  ft,CYFC 071416Z AUTO VRB02KT 9SM -RA BKN010 BKN060 BKN078 OVC110 15/14 A3001 RMK SLP166,2025-09-07T14:23:06Z,2025-09-07T10:23:06Z
CYFC,2025-09-07T14:27:00Z,2025-09-07T10:27:00Z,VFR,15,14,94,290,3,14500,30.01,NA,SCT  ft; BKN  ft; BKN  ft; OVC  ft,CYFC 071427Z AUTO 29003KT 9SM -RA SCT010 BKN060 BKN074 OVC120 15/14 A3001 RMK SLP166,2025-09-07T14:41:59Z,2025-09-07T10:41:59Z
CYFC,2025-09-07T15:00:00Z,2025-09-07T11:00:00Z,VFR,15,13,88,0,0,14500,30.01,NA,FEW  ft; SCT  ft; OVC  ft,CYFC 071500Z AUTO 00000KT 9SM -RA FEW048 SCT060 OVC076 15/13 A3001 RMK PCPN 0.5MM PAST HR SLP166,2025-09-07T15:23:39Z,2025-09-07T11:23:39Z
CYFC,2025-09-07T15:35:00Z,2025-09-07T11:35:00Z,MVFR,15,13,88,0,2,14500,30.01,NA,BKN  ft; BKN  ft; OVC  ft,CYFC 071535Z AUTO VRB02KT 9SM -RA BKN015 BKN046 OVC060 15/13 A3001 RMK SLP165,2025-09-07T15:41:56Z,2025-09-07T11:41:56Z
CYFC,2025-09-07T16:09:00Z,2025-09-07T12:09:00Z,VFR,15,14,94,200,5,14500,30.02,NA,FEW  ft; SCT  ft; BKN  ft; OVC  ft,CYFC 071609Z AUTO 20005KT 9SM -RA FEW015 SCT024 BKN076 OVC096 15/14 A3002 RMK SLP167,2025-09-07T16:29:12Z,2025-09-07T12:29:12Z
CYFC,2025-09-07T17:09:00Z,2025-09-07T13:09:00Z,IFR,15,14,94,200,4,14500,30.01,NA,BKN  ft; BKN  ft; OVC  ft,CYFC 071709Z AUTO 20004KT 9SM -RA BKN009 BKN076 OVC089 15/14 A3001 RMK SLP164,2025-09-07T17:21:33Z,2025-09-07T13:21:33Z
CYFC,2025-09-07T17:22:00Z,2025-09-07T13:22:00Z,VFR,15,14,94,200,3,14500,30,NA,SCT  ft; BKN  ft; OVC  ft,CYFC 071722Z AUTO 20003KT 9SM RA SCT009 BKN076 OVC090 15/14 A3000 RMK PCPN 0.5MM PAST HR SLP162,2025-09-07T17:41:29Z,2025-09-07T13:41:29Z
CYFC,2025-09-07T18:00:00Z,2025-09-07T14:00:00Z,VFR,15,14,94,210,4,14500,29.99,NA,FEW  ft; BKN  ft; OVC  ft,CYFC 071800Z AUTO 21004KT 9SM -RA FEW009 BKN076 OVC092 15/14 A2999 RMK PCPN 1.2MM PAST HR SLP159,2025-09-07T18:32:55Z,2025-09-07T14:32:55Z
CYFC,2025-09-07T18:42:00Z,2025-09-07T14:42:00Z,MVFR,15,14,94,240,3,14500,29.98,NA,SCT  ft; BKN  ft; BKN  ft; OVC  ft,CYFC 071842Z AUTO 24003KT 210V280 9SM -RA SCT009 BKN019 BKN025 OVC045 15/14 A2998 RMK SLP155,2025-09-07T18:45:34Z,2025-09-07T14:45:34Z
CYFC,2025-09-07T19:00:00Z,2025-09-07T15:00:00Z,VFR,15,14,94,220,5,14500,29.98,NA,SCT  ft; SCT  ft; BKN  ft; OVC  ft,CYFC 071900Z AUTO 22005KT 170V240 9SM -RA SCT009 SCT043 BKN066 OVC094 15/14 A2998 RMK SLP156,2025-09-07T19:18:53Z,2025-09-07T15:18:53Z
CYFC,2025-09-07T20:07:00Z,2025-09-07T16:07:00Z,VFR,15,14,94,290,2,14500,29.95,NA,OVC  ft,CYFC 072007Z AUTO 29002KT 9SM OVC060 15/14 A2995 RMK SLP145,2025-09-07T20:25:54Z,2025-09-07T16:25:54Z
CYFC,2025-09-07T21:00:00Z,2025-09-07T17:00:00Z,VFR,15,14,94,0,2,14500,29.95,NA,BKN  ft; OVC  ft,CYFC 072100Z AUTO VRB02KT 9SM -RA BKN060 OVC074 15/14 A2995 RMK SLP144,2025-09-07T21:21:35Z,2025-09-07T17:21:35Z
CYGK,2025-09-05T18:00:00Z,2025-09-05T14:00:00Z,VFR,22,14,61,200,19,24100,29.75,NA,SCT  ft; SCT  ft,CYGK 051800Z 20019G27KT 15SM SCT036 SCT250 22/14 A2975 RMK CU3CI1 SLP075 DENSITY ALT 1400FT,2025-09-05T18:23:21Z,2025-09-05T14:23:21Z
CYGK,2025-09-05T19:00:00Z,2025-09-05T15:00:00Z,VFR,22,16,69,190,15,24100,29.73,NA,SCT  ft; SCT  ft; BKN  ft,CYGK 051900Z 19015KT 15SM SCT040 SCT120 BKN250 22/16 A2973 RMK SC3AC1CI2 SLP069 DENSITY ALT 1500FT,2025-09-05T19:20:59Z,2025-09-05T15:20:59Z
CYGK,2025-09-05T20:00:00Z,2025-09-05T16:00:00Z,VFR,23,16,65,210,14,24100,29.73,NA,FEW  ft; SCT  ft; BKN  ft,CYGK 052000Z 21014G20KT 15SM FEW050 SCT100 BKN220 23/16 A2973 RMK SC2AC2CI1 SLP068 DENSITY ALT 1500FT,2025-09-05T20:29:27Z,2025-09-05T16:29:27Z
CYGK,2025-09-05T21:00:00Z,2025-09-05T17:00:00Z,VFR,22,16,69,200,14,24100,29.73,NA,SCT  ft; SCT  ft; BKN  ft,CYGK 052100Z 20014KT 15SM SCT060 SCT120 BKN220 22/16 A2973 RMK SC3AC1CI1 SLP068 DENSITY ALT 1500FT,2025-09-05T21:14:26Z,2025-09-05T17:14:26Z
CYGK,2025-09-05T22:00:00Z,2025-09-05T18:00:00Z,VFR,21,16,73,200,12,24100,29.72,NA,SCT  ft; BKN  ft,CYGK 052200Z 20012KT 15SM SCT100 BKN220 21/16 A2972 RMK AC3CI2 SLP067 DENSITY ALT 1400FT,2025-09-05T22:18:44Z,2025-09-05T18:18:44Z
CYGK,2025-09-05T23:00:00Z,2025-09-05T19:00:00Z,VFR,21,17,78,190,12,24100,29.72,NA,SCT  ft; BKN  ft,CYGK 052300Z 19012KT 15SM SCT080 BKN240 21/17 A2972 RMK AC3CI3 SLP067 DENSITY ALT 1300FT,2025-09-05T23:20:07Z,2025-09-05T19:20:07Z
CYGK,2025-09-06T01:00:00Z,2025-09-05T21:00:00Z,VFR,21,15,69,250,11,24100,29.75,NA,BKN  ft; BKN  ft,CYGK 060100Z 25011KT 15SM BKN060TCU BKN220 21/15 A2975 RMK TCU5CI2 SLP077 DENSITY ALT 1300FT,2025-09-06T01:42:35Z,2025-09-05T21:42:35Z
CYGK,2025-09-06T02:00:00Z,2025-09-05T22:00:00Z,VFR,21,12,57,260,12,24100,29.78,NA,SCT  ft; BKN  ft,CYGK 060200Z 26012G19KT 15SM SCT060 BKN220 21/12 A2978 RMK CU4CI2 SLP087 DENSITY ALT 1200FT,2025-09-06T02:56:35Z,2025-09-05T22:56:35Z
CYGK,2025-09-06T03:00:00Z,2025-09-05T23:00:00Z,VFR,17,11,68,300,7,24100,29.83,NA,FEW  ft; SCT  ft,CYGK 060300Z 30007KT 15SM FEW080 SCT250 17/11 A2983 RMK AC2CI2 LAST STFD OBS/ NXT 061000Z PRESRR SLP105 DENSITY ALT 800FT,2025-09-06T03:30:46Z,2025-09-05T23:30:46Z
CYGK,2025-09-06T10:00:00Z,2025-09-06T06:00:00Z,VFR,16,6,52,260,9,24100,29.91,NA,BKN  ft,CYGK 061000Z 26009KT 15SM BKN120 16/06 A2991 RMK AC7 SLP132,2025-09-06T10:20:30Z,2025-09-06T06:20:30Z
CYGK,2025-09-06T11:00:00Z,2025-09-06T07:00:00Z,VFR,16,8,59,230,9,24100,29.94,NA,OVC  ft,CYGK 061100Z 23009KT 15SM -SHRA OVC100 16/08 A2994 RMK AC8 CVCTV CLD EMBD SLP141,2025-09-06T11:16:00Z,2025-09-06T07:16:00Z
CYGK,2025-09-06T12:00:00Z,2025-09-06T08:00:00Z,VFR,15,10,72,210,9,24100,29.95,NA,BKN  ft; OVC  ft,CYGK 061200Z 21009KT 15SM BKN055 OVC100 15/10 A2995 RMK SC6AC2 SLP145,2025-09-06T12:40:00Z,2025-09-06T08:40:00Z
CYGK,2025-09-06T13:00:00Z,2025-09-06T09:00:00Z,VFR,16,9,63,230,8,24100,29.94,NA,FEW  ft; BKN  ft; OVC  ft,CYGK 061300Z 23008KT 15SM FEW030 BKN054 OVC130 16/09 A2994 RMK CU1SC4AC3 SLP142,2025-09-06T13:22:40Z,2025-09-06T09:22:40Z
CYGK,2025-09-06T14:00:00Z,2025-09-06T10:00:00Z,VFR,16,9,63,260,5,24100,29.96,NA,SCT  ft; OVC  ft,CYGK 061400Z 26005KT 15SM SCT028 OVC060 16/09 A2996 RMK CU3SC5 SLP147,2025-09-06T14:18:38Z,2025-09-06T10:18:38Z
CYGK,2025-09-06T14:21:00Z,2025-09-06T10:21:00Z,VFR,16,10,68,210,9,24100,29.96,NA,SCT  ft; OVC  ft,CYGK 061421Z 21009KT 15SM -SHRA SCT030 OVC062 16/10 A2996 RMK CU3SC5 SLP148,2025-09-06T14:38:51Z,2025-09-06T10:38:51Z
CYGK,2025-09-06T15:00:00Z,2025-09-06T11:00:00Z,VFR,16,9,63,250,9,19300,29.96,NA,SCT  ft; OVC  ft,CYGK 061500Z 25009G15KT 12SM -SHRA SCT030 OVC070 16/09 A2996 RMK CU3AC5 SLP149,2025-09-06T15:19:23Z,2025-09-06T11:19:23Z
CYGK,2025-09-06T15:22:00Z,2025-09-06T11:22:00Z,VFR,16,9,63,230,8,24100,29.96,NA,SCT  ft; BKN  ft; OVC  ft,CYGK 061522Z 23008KT 15SM VCSH SCT030 BKN060 OVC100 16/09 A2996 RMK CU3SC2AC3 SLP148,2025-09-06T15:38:46Z,2025-09-06T11:38:46Z
CYGK,2025-09-06T16:00:00Z,2025-09-06T12:00:00Z,VFR,17,9,59,230,9,24100,29.96,NA,FEW  ft; SCT  ft; BKN  ft,CYGK 061600Z 23009KT 15SM VCSH FEW020 SCT060 BKN100 17/09 A2996 RMK CU2SC2AC3 SLP149 DENSITY ALT 700FT,2025-09-06T16:24:52Z,2025-09-06T12:24:52Z
CYGK,2025-09-06T17:00:00Z,2025-09-06T13:00:00Z,VFR,18,8,52,230,11,24100,29.96,NA,FEW  ft; BKN  ft,CYGK 061700Z 23011G16KT 15SM FEW025 BKN074 18/08 A2996 RMK CU2AC4 SLP148 DENSITY ALT 700FT,2025-09-06T17:24:32Z,2025-09-06T13:24:32Z
CYGK,2025-09-06T18:00:00Z,2025-09-06T14:00:00Z,VFR,20,9,49,230,11,24100,29.95,NA,FEW  ft; SCT  ft; SCT  ft; BKN  ft,CYGK 061800Z 23011G16KT 190V260 15SM FEW025 SCT090 SCT170 BKN250 20/09 A2995 RMK CU2AC1AC1CI1 SLP145 DENSITY ALT 1000FT,2025-09-06T18:32:25Z,2025-09-06T14:32:25Z
CYGK,2025-09-06T19:00:00Z,2025-09-06T15:00:00Z,VFR,19,11,60,190,18,24100,29.94,NA,FEW  ft; SCT  ft; BKN  ft,CYGK 061900Z 19018KT 15SM FEW025 SCT080 BKN250 19/11 A2994 RMK SC1AC3CI1 SLP142 DENSITY ALT 900FT,2025-09-06T19:18:14Z,2025-09-06T15:18:14Z
CYGK,2025-09-06T20:00:00Z,2025-09-06T16:00:00Z,VFR,19,11,60,200,15,24100,29.93,NA,FEW  ft; SCT  ft; BKN  ft,CYGK 062000Z 20015G24KT 15SM FEW032 SCT070 BKN250 19/11 A2993 RMK CU2AC1CI2 SLP139 DENSITY ALT 800FT,2025-09-06T20:25:15Z,2025-09-06T16:25:15Z
CYGK,2025-09-06T21:00:00Z,2025-09-06T17:00:00Z,VFR,18,11,64,190,18,24100,29.94,NA,FEW  ft; SCT  ft; BKN  ft,CYGK 062100Z 19018G23KT 15SM FEW030 SCT070 BKN250 18/11 A2994 RMK SC2AC2CI1 SLP142 DENSITY ALT 800FT,2025-09-06T21:21:19Z,2025-09-06T17:21:19Z
CYGK,2025-09-06T22:00:00Z,2025-09-06T18:00:00Z,VFR,18,10,60,200,15,24100,29.93,NA,FEW  ft; SCT  ft; BKN  ft,CYGK 062200Z 20015KT 15SM FEW038 SCT080 BKN250 18/10 A2993 RMK SC2AC2CI1 SLP139 DENSITY ALT 700FT,2025-09-06T22:23:57Z,2025-09-06T18:23:57Z
CYGK,2025-09-06T23:00:00Z,2025-09-06T19:00:00Z,VFR,18,10,60,220,10,24100,29.94,NA,FEW  ft; SCT  ft; BKN  ft,CYGK 062300Z 22010KT 15SM FEW038 SCT080 BKN250 18/10 A2994 RMK ST1AC3CI2 ST TR SLP141 DENSITY ALT 700FT,2025-09-06T23:22:36Z,2025-09-06T19:22:36Z
CYGK,2025-09-07T01:00:00Z,2025-09-06T21:00:00Z,VFR,17,10,64,220,7,24100,29.98,NA,SCT  ft; BKN  ft,CYGK 070100Z 22007KT 15SM SCT090 BKN250 17/10 A2998 RMK AC4CI1 SLP156,2025-09-07T02:04:14Z,2025-09-06T22:04:14Z
CYGK,2025-09-07T02:00:00Z,2025-09-06T22:00:00Z,VFR,17,10,64,220,6,24100,29.99,NA,BKN  ft; BKN  ft,CYGK 070200Z 22006KT 15SM BKN090 BKN250 17/10 A2999 RMK AC5CI1 SLP156,2025-09-07T03:07:54Z,2025-09-06T23:07:54Z
CYGK,2025-09-07T03:00:00Z,2025-09-06T23:00:00Z,VFR,17,10,64,250,4,24100,29.98,NA,BKN  ft; BKN  ft,CYGK 070300Z 25004KT 15SM BKN080 BKN250 17/10 A2998 RMK AC5CI1 LAST STFD OBS/ NXT 071000Z SLP155,2025-09-07T03:38:07Z,2025-09-06T23:38:07Z
CYGK,2025-09-07T10:00:00Z,2025-09-07T06:00:00Z,VFR,13,9,77,270,4,24100,29.97,NA,BKN  ft; BKN  ft,CYGK 071000Z 27004KT 15SM BKN040 BKN110 13/09 A2997 RMK SC5AC2 SLP152,2025-09-07T10:26:11Z,2025-09-07T06:26:11Z
CYGK,2025-09-07T11:00:00Z,2025-09-07T07:00:00Z,VFR,13,9,77,270,6,24100,29.98,NA,FEW  ft; SCT  ft; BKN  ft,CYGK 071100Z 27006KT 15SM FEW016 SCT040 BKN110 13/09 A2998 RMK CU1SC3AC1 SLP155,2025-09-07T11:19:24Z,2025-09-07T07:19:24Z
CYGK,2025-09-07T12:00:00Z,2025-09-07T08:00:00Z,VFR,15,9,68,250,7,24100,29.99,NA,FEW  ft; SCT  ft; BKN  ft,CYGK 071200Z 25007KT 230V290 15SM FEW016 SCT040 BKN120 15/09 A2999 RMK CU1SC2AC4 SLP159,2025-09-07T12:48:16Z,2025-09-07T08:48:16Z
CYGK,2025-09-07T13:00:00Z,2025-09-07T09:00:00Z,VFR,15,10,72,280,10,24100,30,NA,FEW  ft; SCT  ft; BKN  ft; BKN  ft,CYGK 071300Z 28010G16KT 15SM VCSH FEW016 SCT035 BKN080 BKN120 15/10 A3000 RMK CU2SC1AC2AC1 SLP162,2025-09-07T13:26:44Z,2025-09-07T09:26:44Z
CYGK,2025-09-07T14:00:00Z,2025-09-07T10:00:00Z,VFR,16,9,63,270,13,24100,30.02,NA,FEW  ft; SCT  ft; BKN  ft,CYGK 071400Z 27013G18KT 230V290 15SM VCSH FEW018 SCT030 BKN080 16/09 A3002 RMK SF2CU2AC2 SLP167,2025-09-07T14:23:04Z,2025-09-07T10:23:04Z
CYGK,2025-09-07T15:00:00Z,2025-09-07T11:00:00Z,VFR,17,9,59,250,9,24100,30.02,NA,FEW  ft; SCT  ft; BKN  ft,CYGK 071500Z 25009G17KT 210V300 15SM FEW018 SCT035 BKN070 17/09 A3002 RMK CU1SC3AC1 SH NE SLP170 DENSITY ALT 600FT,2025-09-07T15:23:37Z,2025-09-07T11:23:37Z
CYGK,2025-09-07T16:00:00Z,2025-09-07T12:00:00Z,VFR,18,8,52,250,13,24100,30.03,NA,SCT  ft; BKN  ft,CYGK 071600Z 25013G18KT 220V280 15SM SCT040 BKN070 18/08 A3003 RMK CU4AC1 SLP172 DENSITY ALT 700FT,2025-09-07T16:29:09Z,2025-09-07T12:29:09Z
CYGK,2025-09-07T17:00:00Z,2025-09-07T13:00:00Z,VFR,18,8,52,290,9,24100,30.03,NA,SCT  ft,CYGK 071700Z 29009G17KT 210V310 15SM SCT050 18/08 A3003 RMK SC4 SLP173 DENSITY ALT 600FT,2025-09-07T17:21:31Z,2025-09-07T13:21:31Z
CYGK,2025-09-07T18:00:00Z,2025-09-07T14:00:00Z,VFR,19,5,40,270,11,24100,30.04,NA,SCT  ft,CYGK 071800Z 27011G22KT 210V310 15SM SCT050 19/05 A3004 RMK SC4 SLP174 DENSITY ALT 800FT,2025-09-07T18:32:52Z,2025-09-07T14:32:52Z
CYGK,2025-09-07T19:00:00Z,2025-09-07T15:00:00Z,VFR,19,5,40,250,10,24100,30.04,NA,BKN  ft,CYGK 071900Z 25010G20KT 15SM BKN060 19/05 A3004 RMK CU5 SLP175 DENSITY ALT 800FT,2025-09-07T19:18:49Z,2025-09-07T15:18:49Z
CYGK,2025-09-07T20:00:00Z,2025-09-07T16:00:00Z,VFR,20,4,35,250,15,24100,30.05,NA,BKN  ft,CYGK 072000Z 25015KT 15SM BKN064 20/04 A3005 RMK CU5 SLP178 DENSITY ALT 800FT,2025-09-07T20:25:52Z,2025-09-07T16:25:52Z
CYGK,2025-09-07T21:00:00Z,2025-09-07T17:00:00Z,VFR,19,6,43,250,11,24100,30.05,NA,BKN  ft,CYGK 072100Z 25011KT 15SM BKN057 19/06 A3005 RMK CU5 SLP179 DENSITY ALT 800FT,2025-09-07T21:21:33Z,2025-09-07T17:21:33Z
CYHU,2025-09-05T21:00:00Z,2025-09-05T17:00:00Z,VFR,24,13,50,180,14,14500,29.72,NA,CLR  ft,CYHU 052100Z AUTO 18014G22KT 9SM CLR 24/13 A2972 RMK SLP065 DENSITY ALT 1400FT,2025-09-05T22:02:54Z,2025-09-05T18:02:54Z
CYHU,2025-09-05T22:00:00Z,2025-09-05T18:00:00Z,VFR,24,14,54,170,11,14500,29.71,NA,FEW  ft,CYHU 052200Z AUTO 17011G16KT 9SM FEW076 24/14 A2971 RMK SLP062 DENSITY ALT 1400FT,2025-09-05T22:18:46Z,2025-09-05T18:18:46Z
CYHU,2025-09-05T23:00:00Z,2025-09-05T19:00:00Z,VFR,22,15,65,170,8,14500,29.7,NA,SCT  ft; BKN  ft,CYHU 052300Z AUTO 17008KT 9SM SCT100 BKN120 22/15 A2970 RMK SLP061 DENSITY ALT 1200FT,2025-09-05T23:20:08Z,2025-09-05T19:20:08Z
CYHU,2025-09-06T01:00:00Z,2025-09-05T21:00:00Z,VFR,21,14,64,180,10,14500,29.71,NA,FEW  ft,CYHU 060100Z AUTO 18010KT 9SM FEW076 21/14 A2971 RMK SLP064 DENSITY ALT 1100FT,2025-09-06T01:42:36Z,2025-09-05T21:42:36Z
CYHU,2025-09-06T02:00:00Z,2025-09-05T22:00:00Z,VFR,21,15,69,180,11,14500,29.72,NA,FEW  ft; SCT  ft; SCT  ft,CYHU 060200Z AUTO 18011G20KT 9SM FEW071 SCT098 SCT120 21/15 A2972 RMK SLP066 DENSITY ALT 1100FT,2025-09-06T02:56:37Z,2025-09-05T22:56:37Z
CYHU,2025-09-06T03:00:00Z,2025-09-05T23:00:00Z,VFR,21,15,69,220,19,14500,29.74,NA,FEW  ft; SCT  ft; BKN  ft; OVC  ft,CYHU 060300Z AUTO 22019G30KT 170V240 9SM -RA FEW055 SCT077 BKN100 OVC130 21/15 A2974 RMK SLP073 DENSITY ALT 1100FT,2025-09-06T03:30:47Z,2025-09-05T23:30:47Z
CYHU,2025-09-06T04:07:00Z,2025-09-06T00:07:00Z,VFR,18,16,88,220,8,14500,29.78,NA,FEW  ft; SCT  ft; OVC  ft,CYHU 060407Z AUTO 22008G16KT 9SM -RA FEW060 SCT080 OVC100 18/16 A2978 RMK SLP087 DENSITY ALT 700FT,2025-09-06T04:25:47Z,2025-09-06T00:25:47Z
CYHU,2025-09-06T04:25:00Z,2025-09-06T00:25:00Z,VFR,18,15,83,250,14,14500,29.79,NA,FEW  ft; BKN  ft; OVC  ft,CYHU 060425Z AUTO 25014G19KT 9SM FEW081 BKN100 OVC120 18/15 A2979 RMK SLP091 DENSITY ALT 700FT,2025-09-06T04:41:57Z,2025-09-06T00:41:57Z
CYHU,2025-09-06T05:00:00Z,2025-09-06T01:00:00Z,VFR,18,14,78,270,7,14500,29.81,NA,FEW  ft,CYHU 060500Z AUTO 27007KT 9SM FEW086 18/14 A2981 RMK SLP097 DENSITY ALT 600FT,2025-09-06T05:19:57Z,2025-09-06T01:19:57Z
CYHU,2025-09-06T06:00:00Z,2025-09-06T02:00:00Z,VFR,17,11,68,270,10,14500,29.83,NA,CLR  ft,CYHU 060600Z AUTO 27010G15KT 9SM CLR 17/11 A2983 RMK SLP105 DENSITY ALT 500FT,2025-09-06T06:29:50Z,2025-09-06T02:29:50Z
CYHU,2025-09-06T07:00:00Z,2025-09-06T03:00:00Z,VFR,15,12,82,230,10,14500,29.86,NA,FEW  ft,CYHU 060700Z AUTO 23010KT 9SM FEW050 15/12 A2986 RMK SLP113 DENSITY ALT 300FT,2025-09-06T07:18:43Z,2025-09-06T03:18:43Z
CYHU,2025-09-06T08:00:00Z,2025-09-06T04:00:00Z,VFR,14,11,82,250,7,14500,29.88,NA,CLR  ft,CYHU 060800Z AUTO 25007KT 9SM CLR 14/11 A2988 RMK SLP121,2025-09-06T08:25:13Z,2025-09-06T04:25:13Z
CYHU,2025-09-06T09:00:00Z,2025-09-06T05:00:00Z,VFR,14,12,88,220,7,14500,29.9,NA,CLR  ft,CYHU 060900Z AUTO 22007KT 9SM CLR 14/12 A2990 RMK SLP127,2025-09-06T09:19:48Z,2025-09-06T05:19:48Z
CYHU,2025-09-06T10:00:00Z,2025-09-06T06:00:00Z,VFR,13,11,88,200,3,14500,29.92,NA,FEW  ft,CYHU 061000Z AUTO 20003KT 190V260 9SM FEW210 13/11 A2992 RMK SLP134,2025-09-06T10:20:31Z,2025-09-06T06:20:31Z
CYHU,2025-09-06T11:00:00Z,2025-09-06T07:00:00Z,VFR,13,11,88,170,3,14500,29.91,NA,FEW  ft; BKN  ft; BKN  ft; BKN  ft,CYHU 061100Z AUTO 17003KT 9SM FEW160 BKN180 BKN200 BKN220 13/11 A2991 RMK SLP132,2025-09-06T11:16:02Z,2025-09-06T07:16:02Z
CYHU,2025-09-06T12:07:00Z,2025-09-06T08:07:00Z,VFR,14,12,88,190,5,14500,29.94,NA,BKN  ft; OVC  ft,CYHU 061207Z AUTO 19005KT 9SM -RA BKN110 OVC130 14/12 A2994 RMK SLP142,2025-09-06T12:40:02Z,2025-09-06T08:40:02Z
CYHU,2025-09-06T13:00:00Z,2025-09-06T09:00:00Z,VFR,14,12,88,190,7,14500,29.96,NA,BKN  ft; OVC  ft,CYHU 061300Z AUTO 19007KT 9SM -RA BKN100 OVC120 14/12 A2996 RMK SLP147,2025-09-06T13:22:41Z,2025-09-06T09:22:41Z
CYHU,2025-09-06T14:00:00Z,2025-09-06T10:00:00Z,VFR,14,12,88,190,10,14500,29.95,NA,OVC  ft,CYHU 061400Z AUTO 19010KT 9SM -RA OVC100 14/12 A2995 RMK SLP144,2025-09-06T14:18:40Z,2025-09-06T10:18:40Z
CYHU,2025-09-06T14:24:00Z,2025-09-06T10:24:00Z,VFR,15,12,82,190,8,14500,29.95,NA,BKN  ft,CYHU 061424Z AUTO 19008KT 9SM BKN110 15/12 A2995 RMK SLP144,2025-09-06T14:38:53Z,2025-09-06T10:38:53Z
CYHU,2025-09-06T15:00:00Z,2025-09-06T11:00:00Z,VFR,15,11,77,210,8,14500,29.95,NA,FEW  ft; SCT  ft,CYHU 061500Z AUTO 21008KT 9SM FEW100 SCT120 15/11 A2995 RMK SLP143,2025-09-06T15:19:25Z,2025-09-06T11:19:25Z
CYHU,2025-09-06T16:00:00Z,2025-09-06T12:00:00Z,VFR,15,11,77,210,8,14500,29.97,NA,BKN  ft; OVC  ft,CYHU 061600Z AUTO 21008KT 9SM BKN043 OVC110 15/11 A2997 RMK SLP151,2025-09-06T16:24:54Z,2025-09-06T12:24:54Z
CYHU,2025-09-06T16:30:00Z,2025-09-06T12:30:00Z,VFR,15,12,82,220,11,14500,29.96,NA,OVC  ft,CYHU 061630Z AUTO 22011KT 9SM -RA OVC043 15/12 A2996 RMK SLP149,2025-09-06T16:42:32Z,2025-09-06T12:42:32Z
CYHU,2025-09-06T17:00:00Z,2025-09-06T13:00:00Z,VFR,15,12,82,210,10,14500,29.97,NA,SCT  ft; BKN  ft; OVC  ft,CYHU 061700Z AUTO 21010G15KT 9SM -RA SCT047 BKN076 OVC093 15/12 A2997 RMK SLP150,2025-09-06T17:24:33Z,2025-09-06T13:24:33Z
CYHU,2025-09-06T18:20:00Z,2025-09-06T14:20:00Z,MVFR,15,14,94,180,7,14500,29.96,NA,FEW  ft; BKN  ft; BKN  ft; OVC  ft,CYHU 061820Z AUTO 18007KT 9SM -RA FEW014 BKN022 BKN030 OVC060 15/14 A2996 RMK PCPN 0.5MM PAST HR SLP146,2025-09-06T18:32:26Z,2025-09-06T14:32:26Z
CYHU,2025-09-06T18:35:00Z,2025-09-06T14:35:00Z,MVFR,15,14,94,170,8,14500,29.96,NA,SCT  ft; BKN  ft; BKN  ft; OVC  ft,CYHU 061835Z AUTO 17008KT 9SM -RA SCT013 BKN024 BKN032 OVC055 15/14 A2996 RMK PCPN 0.8MM PAST HR SLP146,2025-09-06T18:45:16Z,2025-09-06T14:45:16Z
CYHU,2025-09-06T19:00:00Z,2025-09-06T15:00:00Z,VFR,15,14,94,190,6,14500,29.95,NA,FEW  ft; SCT  ft; BKN  ft; OVC  ft,CYHU 061900Z AUTO 19006KT 9SM -RA FEW011 SCT023 BKN039 OVC098 15/14 A2995 RMK PCPN 1.5MM PAST HR SLP144,2025-09-06T19:18:15Z,2025-09-06T15:18:15Z
CYHU,2025-09-06T20:00:00Z,2025-09-06T16:00:00Z,VFR,15,12,82,210,7,14500,29.93,NA,OVC  ft,CYHU 062000Z AUTO 21007KT 9SM OVC110 15/12 A2993 RMK SLP136,2025-09-06T20:25:16Z,2025-09-06T16:25:16Z
CYHU,2025-09-06T21:04:00Z,2025-09-06T17:04:00Z,MVFR,15,13,88,230,5,14500,29.93,NA,BKN  ft; BKN  ft; BKN  ft,CYHU 062104Z AUTO 23005KT 160V240 9SM BKN018 BKN025 BKN030 15/13 A2993 RMK SLP136,2025-09-06T21:21:21Z,2025-09-06T17:21:21Z
CYHU,2025-09-06T21:20:00Z,2025-09-06T17:20:00Z,MVFR,16,14,88,180,6,14500,29.92,NA,FEW  ft; SCT  ft; BKN  ft; BKN  ft,CYHU 062120Z AUTO 18006KT 9SM FEW016 SCT021 BKN029 BKN180 16/14 A2992 RMK SLP134 DENSITY ALT 300FT,2025-09-06T21:41:56Z,2025-09-06T17:41:56Z
CYHU,2025-09-06T22:00:00Z,2025-09-06T18:00:00Z,VFR,15,13,88,170,6,14500,29.94,NA,SCT  ft; SCT  ft; BKN  ft; BKN  ft,CYHU 062200Z AUTO 17006KT 9SM SCT023 SCT029 BKN034 BKN041 15/13 A2994 RMK SLP141,2025-09-06T22:23:58Z,2025-09-06T18:23:58Z
CYHU,2025-09-06T23:09:00Z,2025-09-06T19:09:00Z,MVFR,15,14,94,150,5,14500,29.94,NA,BKN  ft,CYHU 062309Z AUTO 15005KT 9SM BKN021 15/14 A2994 RMK SLP142,2025-09-06T23:22:38Z,2025-09-06T19:22:38Z
CYHU,2025-09-06T23:23:00Z,2025-09-06T19:23:00Z,VFR,14,13,94,150,4,14500,29.94,NA,SCT  ft,CYHU 062323Z AUTO 15004KT 9SM SCT021 14/13 A2994 RMK SLP140,2025-09-06T23:41:55Z,2025-09-06T19:41:55Z
CYHU,2025-09-07T01:00:00Z,2025-09-06T21:00:00Z,VFR,13,13,100,170,5,14500,29.96,NA,CLR  ft,CYHU 070100Z AUTO 17005KT 9SM CLR 13/13 A2996 RMK SLP150,2025-09-07T02:04:16Z,2025-09-06T22:04:16Z
CYHU,2025-09-07T02:00:00Z,2025-09-06T22:00:00Z,VFR,13,13,100,180,6,14500,29.97,NA,CLR  ft,CYHU 070200Z AUTO 18006KT 9SM CLR 13/13 A2997 RMK SLP152,2025-09-07T03:07:55Z,2025-09-06T23:07:55Z
CYHU,2025-09-07T03:00:00Z,2025-09-06T23:00:00Z,VFR,12,12,100,190,3,14500,29.97,NA,CLR  ft,CYHU 070300Z AUTO 19003KT 9SM CLR 12/12 A2997 RMK SLP152,2025-09-07T03:38:09Z,2025-09-06T23:38:09Z
CYHU,2025-09-07T04:00:00Z,2025-09-07T00:00:00Z,VFR,12,11,94,200,4,14500,29.98,NA,CLR  ft,CYHU 070400Z AUTO 20004KT 9SM CLR 12/11 A2998 RMK SLP154,2025-09-07T04:29:49Z,2025-09-07T00:29:49Z
CYHU,2025-09-07T05:00:00Z,2025-09-07T01:00:00Z,VFR,11,11,100,160,5,14500,29.98,NA,CLR  ft,CYHU 070500Z AUTO 16005KT 9SM CLR 11/11 A2998 RMK SLP154,2025-09-07T05:25:35Z,2025-09-07T01:25:35Z
CYHU,2025-09-07T06:00:00Z,2025-09-07T02:00:00Z,VFR,11,10,94,160,5,14500,29.97,NA,CLR  ft,CYHU 070600Z AUTO 16005KT 9SM CLR 11/10 A2997 RMK SLP152,2025-09-07T06:34:56Z,2025-09-07T02:34:56Z
CYHU,2025-09-07T07:00:00Z,2025-09-07T03:00:00Z,VFR,10,9,94,150,4,14500,29.96,NA,CLR  ft,CYHU 070700Z AUTO 15004KT 9SM CLR 10/09 A2996 RMK SLP147,2025-09-07T07:22:56Z,2025-09-07T03:22:56Z
CYHU,2025-09-07T08:00:00Z,2025-09-07T04:00:00Z,VFR,10,10,100,170,4,14500,29.95,NA,CLR  ft,CYHU 070800Z AUTO 17004KT 9SM CLR 10/10 A2995 RMK SLP144,2025-09-07T08:29:58Z,2025-09-07T04:29:58Z
CYHU,2025-09-07T09:00:00Z,2025-09-07T05:00:00Z,VFR,11,10,94,160,3,14500,29.95,NA,OVC  ft,CYHU 070900Z AUTO 16003KT 9SM OVC096 11/10 A2995 RMK SLP144,2025-09-07T09:23:42Z,2025-09-07T05:23:42Z
CYHU,2025-09-07T10:00:00Z,2025-09-07T06:00:00Z,VFR,11,10,94,180,5,14500,29.96,NA,BKN  ft,CYHU 071000Z AUTO 18005KT 9SM BKN096 11/10 A2996 RMK SLP147,2025-09-07T10:26:13Z,2025-09-07T06:26:13Z
CYHU,2025-09-07T11:00:00Z,2025-09-07T07:00:00Z,VFR,11,10,94,160,4,14500,29.96,NA,OVC  ft,CYHU 071100Z AUTO 16004KT 9SM OVC086 11/10 A2996 RMK SLP150,2025-09-07T11:19:25Z,2025-09-07T07:19:25Z
CYHU,2025-09-07T12:00:00Z,2025-09-07T08:00:00Z,VFR,13,11,88,180,5,14500,29.97,NA,FEW  ft; BKN  ft,CYHU 071200Z AUTO 18005KT 9SM FEW060 BKN077 13/11 A2997 RMK SLP151,2025-09-07T12:48:17Z,2025-09-07T08:48:17Z
CYHU,2025-09-07T13:00:00Z,2025-09-07T09:00:00Z,VFR,15,11,77,220,8,14500,29.97,NA,OVC  ft,CYHU 071300Z AUTO 22008KT 9SM OVC110 15/11 A2997 RMK SLP153,2025-09-07T13:26:46Z,2025-09-07T09:26:46Z
CYHU,2025-09-07T14:00:00Z,2025-09-07T10:00:00Z,VFR,16,11,72,220,8,14500,29.97,NA,OVC  ft,CYHU 071400Z AUTO 22008KT 9SM OVC110 16/11 A2997 RMK SLP150,2025-09-07T14:23:05Z,2025-09-07T10:23:05Z
CYHU,2025-09-07T15:00:00Z,2025-09-07T11:00:00Z,VFR,18,12,68,200,11,14500,29.97,NA,BKN  ft,CYHU 071500Z AUTO 20011KT 180V240 9SM BKN110 18/12 A2997 RMK SLP150 DENSITY ALT 500FT,2025-09-07T15:23:38Z,2025-09-07T11:23:38Z
CYHU,2025-09-07T16:00:00Z,2025-09-07T12:00:00Z,VFR,19,11,60,200,11,14500,29.96,NA,SCT  ft,CYHU 071600Z AUTO 20011G16KT 9SM SCT120 19/11 A2996 RMK SLP146 DENSITY ALT 600FT,2025-09-07T16:29:11Z,2025-09-07T12:29:11Z
CYHU,2025-09-07T17:00:00Z,2025-09-07T13:00:00Z,VFR,20,12,60,240,15,14500,29.95,NA,BKN  ft; BKN  ft,CYHU 071700Z AUTO 24015G22KT 9SM BKN110 BKN130 20/12 A2995 RMK SLP143 DENSITY ALT 700FT,2025-09-07T17:21:33Z,2025-09-07T13:21:33Z
CYHU,2025-09-07T18:00:00Z,2025-09-07T14:00:00Z,VFR,18,11,64,230,11,14500,29.95,NA,SCT  ft; BKN  ft; BKN  ft; OVC  ft,CYHU 071800Z AUTO 23011G19KT 9SM SCT060 BKN076 BKN095 OVC130 18/11 A2995 RMK SLP143 DENSITY ALT 500FT,2025-09-07T18:32:54Z,2025-09-07T14:32:54Z
CYHU,2025-09-07T19:00:00Z,2025-09-07T15:00:00Z,VFR,18,11,64,220,14,14500,29.94,NA,BKN  ft; OVC  ft,CYHU 071900Z AUTO 22014G23KT 9SM BKN100 OVC120 18/11 A2994 RMK SLP143 DENSITY ALT 400FT,2025-09-07T19:18:51Z,2025-09-07T15:18:51Z
CYHU,2025-09-07T20:00:00Z,2025-09-07T16:00:00Z,VFR,19,11,60,260,12,14500,29.94,NA,FEW  ft; BKN  ft,CYHU 072000Z AUTO 26012G22KT 210V280 9SM FEW038 BKN120 19/11 A2994 RMK SLP141 DENSITY ALT 500FT,2025-09-07T20:25:53Z,2025-09-07T16:25:53Z
CYHU,2025-09-07T21:00:00Z,2025-09-07T17:00:00Z,VFR,17,11,68,220,13,14500,29.96,NA,FEW  ft; OVC  ft,CYHU 072100Z AUTO 22013G21KT 9SM FEW071 OVC091 17/11 A2996 RMK SLP147 DENSITY ALT 300FT,2025-09-07T21:21:35Z,2025-09-07T17:21:35Z
CYHZ,2025-09-05T21:00:00Z,2025-09-05T17:00:00Z,IFR,20,19,94,170,7,6400,30.07,NA,BKN  ft; BKN  ft,CYHZ 052100Z 17007KT 130V190 4SM -DZ BR BKN006 BKN024 20/19 A3007 RMK ST6SC1 VIS NW-N 10SM SLP183 DENSITY ALT 1000FT,2025-09-05T22:02:55Z,2025-09-05T18:02:55Z
CYHZ,2025-09-05T22:12:00Z,2025-09-05T18:12:00Z,IFR,19,19,100,170,8,9999,30.06,NA,SCT  ft; BKN  ft,CYHZ 052212Z 17008KT 10SM SCT003 BKN005 19/19 A3006 RMK SF3ST4 VIS E-S 3 SLP181 DENSITY ALT 1000FT,2025-09-05T22:18:46Z,2025-09-05T18:18:46Z
CYHZ,2025-09-05T22:16:00Z,2025-09-05T18:16:00Z,LIFR,19,19,100,160,9,9999,30.06,NA,BKN  ft; BKN  ft,CYHZ 052216Z 16009KT 10SM -DZ BKN004 BKN050 19/19 A3006 RMK ST7SC1 SC TR SLP181 DENSITY ALT 1000FT,2025-09-05T22:40:52Z,2025-09-05T18:40:52Z
CYHZ,2025-09-05T22:39:00Z,2025-09-05T18:39:00Z,LIFR,19,19,100,170,9,4800,30.06,NA,BKN  ft; OVC  ft,CYHZ 052239Z 17009KT 3SM -DZ BR BKN003 OVC050 19/19 A3006 RMK ST7SC1 VIS NW-N 10 SLP181 DENSITY ALT 1000FT,2025-09-05T23:03:12Z,2025-09-05T19:03:12Z
CYHZ,2025-09-05T23:00:00Z,2025-09-05T19:00:00Z,LIFR,19,19,100,180,6,6400,30.06,NA,BKN  ft; BKN  ft; BKN  ft,CYHZ 052300Z 18006KT 4SM -DZ BR BKN004 BKN009 BKN050 19/19 A3006 RMK ST6ST1SC1 SC TR SLP182 DENSITY ALT 1000FT,2025-09-05T23:20:09Z,2025-09-05T19:20:09Z
CYHZ,2025-09-06T01:00:00Z,2025-09-05T21:00:00Z,LIFR,19,19,100,180,10,600,30.08,NA,OVC  ft,CYHZ 060100Z 18010KT 3/8SM R14/P6000FT/D R23/P6000FT/D DZ FG OVC002 19/19 A3008 RMK FG4ST4 SLP189 DENSITY ALT 900FT,2025-09-06T01:42:37Z,2025-09-05T21:42:37Z
CYHZ,2025-09-06T02:00:00Z,2025-09-05T22:00:00Z,LIFR,19,19,100,180,8,600,30.09,NA,OVC  ft,CYHZ 060200Z 18008KT 3/8SM R14/P6000FT/N R23/P6000FT/U -DZ FG OVC002 19/19 A3009 RMK FG5ST3 SLP190 DENSITY ALT 900FT,2025-09-06T02:56:37Z,2025-09-05T22:56:37Z
CYHZ,2025-09-06T03:24:00Z,2025-09-05T23:24:00Z,LIFR,19,19,100,180,10,1000,30.08,NA,BKN  ft; OVC  ft,CYHZ 060324Z 18010KT 5/8SM R14/P6000FT/N R23/P6000FT/U -DZ BR BKN004 OVC013 19/19 A3008 RMK ST6SC2 SLP189 DENSITY ALT 900FT,2025-09-06T03:30:48Z,2025-09-05T23:30:48Z
CYHZ,2025-09-06T04:00:00Z,2025-09-06T00:00:00Z,IFR,19,19,100,190,10,6400,30.09,NA,BKN  ft; OVC  ft,CYHZ 060400Z 19010G15KT 4SM BR BKN005 OVC011 19/19 A3009 RMK ST7SC1 VIS NW.NE 10 SLP191 DENSITY ALT 900FT,2025-09-06T04:25:48Z,2025-09-06T00:25:48Z
CYHZ,2025-09-06T05:00:00Z,2025-09-06T01:00:00Z,IFR,19,19,100,190,11,12900,30.08,NA,OVC  ft; OVC  ft,CYHZ 060500Z 19011KT 8SM OVC005 OVC011 19/19 A3008 RMK ST7SC1 SLP187 DENSITY ALT 900FT,2025-09-06T05:19:58Z,2025-09-06T01:19:58Z
CYHZ,2025-09-06T06:00:00Z,2025-09-06T02:00:00Z,VFR,19,19,100,200,10,24100,30.07,NA,SCT  ft,CYHZ 060600Z 20010G17KT 15SM SCT006 19/19 A3007 RMK SF3 SLP186 DENSITY ALT 900FT,2025-09-06T06:29:51Z,2025-09-06T02:29:51Z
CYHZ,2025-09-06T07:00:00Z,2025-09-06T03:00:00Z,VFR,18,18,100,190,9,24100,30.06,NA,FEW  ft; FEW  ft; BKN  ft,CYHZ 060700Z 19009G15KT 15SM FEW005 FEW065 BKN350 18/18 A3006 RMK SF1SC1CI4 SLP182 DENSITY ALT 800FT,2025-09-06T07:18:43Z,2025-09-06T03:18:43Z
CYHZ,2025-09-06T08:00:00Z,2025-09-06T04:00:00Z,VFR,17,17,100,190,8,24100,30.07,NA,FEW  ft; FEW  ft; BKN  ft,CYHZ 060800Z 19008KT 15SM FEW007 FEW054 BKN330 17/17 A3007 RMK SF1SC1CI3 SLP184 DENSITY ALT 700FT,2025-09-06T08:25:13Z,2025-09-06T04:25:13Z
CYHZ,2025-09-06T08:27:00Z,2025-09-06T04:27:00Z,IFR,18,18,100,190,12,24100,30.07,NA,BKN  ft,CYHZ 060827Z 19012G18KT 15SM BKN007 18/18 A3007 RMK ST6 SLP186 DENSITY ALT 800FT,2025-09-06T08:41:58Z,2025-09-06T04:41:58Z
CYHZ,2025-09-06T09:06:00Z,2025-09-06T05:06:00Z,LIFR,18,18,100,200,10,6400,30.08,NA,BKN  ft; OVC  ft,CYHZ 060906Z 20010KT 4SM -DZ BR BKN004 OVC012 18/18 A3008 RMK ST7SC1 SLP189 DENSITY ALT 800FT,2025-09-06T09:19:48Z,2025-09-06T05:19:48Z
CYHZ,2025-09-06T09:21:00Z,2025-09-06T05:21:00Z,IFR,18,18,100,210,11,9999,30.09,NA,BKN  ft; OVC  ft,CYHZ 060921Z 21011KT 10SM BKN006 OVC012 18/18 A3009 RMK SF5SC3 SLP190 DENSITY ALT 800FT,2025-09-06T09:38:42Z,2025-09-06T05:38:42Z
CYHZ,2025-09-06T10:00:00Z,2025-09-06T06:00:00Z,MVFR,18,18,100,210,12,19300,30.09,NA,SCT  ft; BKN  ft; BKN  ft,CYHZ 061000Z 21012KT 12SM SCT008 BKN014 BKN330 18/18 A3009 RMK SF3SC3CI1 SLP190 DENSITY ALT 800FT,2025-09-06T10:20:32Z,2025-09-06T06:20:32Z
CYHZ,2025-09-06T11:00:00Z,2025-09-06T07:00:00Z,IFR,19,18,94,200,11,19300,30.09,NA,BKN  ft,CYHZ 061100Z 20011KT 12SM BKN009 19/18 A3009 RMK SC7 SLP191 DENSITY ALT 900FT,2025-09-06T11:16:02Z,2025-09-06T07:16:02Z
CYHZ,2025-09-06T12:00:00Z,2025-09-06T08:00:00Z,IFR,20,19,94,200,14,24100,30.09,NA,BKN  ft,CYHZ 061200Z 20014G21KT 15SM BKN009 20/19 A3009 RMK SF7 SLP191 DENSITY ALT 1000FT,2025-09-06T12:40:03Z,2025-09-06T08:40:03Z
CYHZ,2025-09-06T13:00:00Z,2025-09-06T09:00:00Z,IFR,20,19,94,210,14,24100,30.11,NA,BKN  ft,CYHZ 061300Z 21014KT 15SM BKN009 20/19 A3011 RMK SF7 SLP197 DENSITY ALT 1000FT,2025-09-06T13:22:42Z,2025-09-06T09:22:42Z
CYHZ,2025-09-06T14:00:00Z,2025-09-06T10:00:00Z,IFR,21,19,88,210,14,24100,30.1,NA,BKN  ft,CYHZ 061400Z 21014G20KT 15SM BKN009 21/19 A3010 RMK SC7 SLP196 DENSITY ALT 1100FT,2025-09-06T14:18:41Z,2025-09-06T10:18:41Z
CYHZ,2025-09-06T15:00:00Z,2025-09-06T11:00:00Z,MVFR,23,19,78,200,14,24100,30.09,NA,BKN  ft,CYHZ 061500Z 20014KT 15SM BKN014 23/19 A3009 RMK SF5 SLP193 DENSITY ALT 1400FT,2025-09-06T15:19:25Z,2025-09-06T11:19:25Z
CYHZ,2025-09-06T16:00:00Z,2025-09-06T12:00:00Z,VFR,24,19,74,200,15,24100,30.09,NA,FEW  ft; BKN  ft,CYHZ 061600Z 20015G21KT 15SM FEW014 BKN230 24/19 A3009 RMK CU1CS5 SLP191 DENSITY ALT 1400FT,2025-09-06T16:24:54Z,2025-09-06T12:24:54Z
CYHZ,2025-09-06T17:00:00Z,2025-09-06T13:00:00Z,VFR,25,20,74,200,12,24100,30.08,NA,FEW  ft; BKN  ft,CYHZ 061700Z 20012G20KT 15SM FEW019 BKN250 25/20 A3008 RMK CU1CS5 CU TR SLP186 DENSITY ALT 1600FT,2025-09-06T17:24:34Z,2025-09-06T13:24:34Z
CYHZ,2025-09-06T18:00:00Z,2025-09-06T14:00:00Z,VFR,25,20,74,200,10,24100,30.06,NA,FEW  ft; BKN  ft,CYHZ 061800Z 20010G17KT 15SM FEW028 BKN240 25/20 A3006 RMK CU1CS5 CU TR SLP181 DENSITY ALT 1600FT,2025-09-06T18:32:27Z,2025-09-06T14:32:27Z
CYHZ,2025-09-06T19:00:00Z,2025-09-06T15:00:00Z,VFR,26,20,70,200,12,24100,30.06,NA,FEW  ft; BKN  ft,CYHZ 061900Z 20012G18KT 15SM FEW032 BKN250 26/20 A3006 RMK CU1CS6 CU TR SLP179 DENSITY ALT 1800FT,2025-09-06T19:18:16Z,2025-09-06T15:18:16Z
CYHZ,2025-09-06T20:00:00Z,2025-09-06T16:00:00Z,VFR,26,18,61,200,13,24100,30.06,NA,FEW  ft; BKN  ft,CYHZ 062000Z 20013G19KT 15SM FEW032 BKN250 26/18 A3006 RMK CU1CS5 CU TR CI ASOCTD SLP179 DENSITY ALT 1800FT,2025-09-06T20:25:17Z,2025-09-06T16:25:17Z
CYHZ,2025-09-06T21:00:00Z,2025-09-06T17:00:00Z,VFR,25,17,61,210,14,24100,30.04,NA,FEW  ft; BKN  ft,CYHZ 062100Z 21014G20KT 15SM FEW032 BKN250 25/17 A3004 RMK CU1CI7 CU TR SLP173 DENSITY ALT 1700FT,2025-09-06T21:21:21Z,2025-09-06T17:21:21Z
CYHZ,2025-09-06T22:17:00Z,2025-09-06T18:17:00Z,VFR,23,19,78,210,14,24100,30.03,NA,FEW  ft; FEW  ft; BKN  ft; OVC  ft,CYHZ 062217Z 21014G24KT 15SM FEW009 FEW020 BKN320 OVC360 23/19 A3003 RMK SF1SC1CI5CI3 SF TR SC TR SLP170 DENSITY ALT 1400FT,2025-09-06T22:23:59Z,2025-09-06T18:23:59Z
CYHZ,2025-09-06T23:00:00Z,2025-09-06T19:00:00Z,MVFR,21,20,94,200,14,24100,30.05,NA,FEW  ft; BKN  ft; BKN  ft; OVC  ft,CYHZ 062300Z 20014G23KT 15SM FEW009 BKN011 BKN320 OVC360 21/20 A3005 RMK SF1SC5CI1CI1 SLP179 DENSITY ALT 1200FT,2025-09-06T23:22:39Z,2025-09-06T19:22:39Z
CYHZ,2025-09-06T23:21:00Z,2025-09-06T19:21:00Z,IFR,21,20,94,210,16,24100,30.07,NA,BKN  ft; OVC  ft,CYHZ 062321Z 21016G23KT 15SM BKN009 OVC320 21/20 A3007 RMK SC7CI1 SLP184 DENSITY ALT 1200FT,2025-09-06T23:41:55Z,2025-09-06T19:41:55Z
CYHZ,2025-09-07T01:30:00Z,2025-09-06T21:30:00Z,VFR,20,19,94,200,11,24100,30.05,NA,FEW  ft; SCT  ft; BKN  ft; OVC  ft,CYHZ 070130Z 20011G17KT 15SM FEW009 SCT038 BKN320 OVC360 20/19 A3005 RMK SC1SC3CI2CI2 SLP177 DENSITY ALT 1100FT,2025-09-07T02:04:16Z,2025-09-06T22:04:16Z
CYHZ,2025-09-07T02:00:00Z,2025-09-06T22:00:00Z,VFR,20,19,94,190,10,24100,30.05,NA,FEW  ft; BKN  ft; BKN  ft; OVC  ft,CYHZ 070200Z 19010KT 15SM FEW009 BKN039 BKN320 OVC350 20/19 A3005 RMK SF2SC4CI1CI1 SLP176 DENSITY ALT 1100FT,2025-09-07T03:07:56Z,2025-09-06T23:07:56Z
CYHZ,2025-09-07T03:00:00Z,2025-09-06T23:00:00Z,VFR,20,19,94,170,7,24100,30.04,NA,FEW  ft; FEW  ft; SCT  ft; OVC  ft,CYHZ 070300Z 17007KT 15SM FEW008 FEW043 SCT110 OVC300 20/19 A3004 RMK SF1SC1AC3CI4 SF TR SLP175 DENSITY ALT 1100FT,2025-09-07T03:38:10Z,2025-09-06T23:38:10Z
CYHZ,2025-09-07T03:37:00Z,2025-09-06T23:37:00Z,IFR,20,19,94,170,7,24100,30.02,NA,BKN  ft; OVC  ft,CYHZ 070337Z 17007KT 15SM BKN005 OVC027 20/19 A3002 RMK ST7SC1 SLP168 DENSITY ALT 1100FT,2025-09-07T03:50:42Z,2025-09-06T23:50:42Z
CYHZ,2025-09-07T04:00:00Z,2025-09-07T00:00:00Z,LIFR,20,20,100,170,8,19300,30.01,NA,OVC  ft,CYHZ 070400Z 17008KT 12SM OVC004 20/20 A3001 RMK ST8 SLP164 DENSITY ALT 1100FT,2025-09-07T04:29:50Z,2025-09-07T00:29:50Z
CYHZ,2025-09-07T04:29:00Z,2025-09-07T00:29:00Z,LIFR,21,20,94,180,10,19300,30,NA,OVC  ft,CYHZ 070429Z 18010KT 12SM -DZ OVC004 21/20 A3000 RMK ST8 SLP162 DENSITY ALT 1200FT,2025-09-07T04:44:27Z,2025-09-07T00:44:27Z
CYHZ,2025-09-07T05:00:00Z,2025-09-07T01:00:00Z,LIFR,20,20,100,190,7,9999,30,NA,OVC  ft,CYHZ 070500Z 19007KT 10SM -DZ OVC004 20/20 A3000 RMK ST8 SLP162 DENSITY ALT 1200FT,2025-09-07T05:25:36Z,2025-09-07T01:25:36Z
CYHZ,2025-09-07T05:20:00Z,2025-09-07T01:20:00Z,IFR,21,20,94,200,11,9999,30,NA,OVC  ft,CYHZ 070520Z 20011KT 10SM -DZ OVC005 21/20 A3000 RMK ST8 SLP162 DENSITY ALT 1200FT,2025-09-07T05:42:23Z,2025-09-07T01:42:23Z
CYHZ,2025-09-07T06:16:00Z,2025-09-07T02:16:00Z,LIFR,21,20,94,200,9,4000,29.99,NA,OVC  ft,CYHZ 070616Z 20009KT 2 1/2SM -DZ BR OVC003 21/20 A2999 RMK ST8 SLP155 DENSITY ALT 1200FT,2025-09-07T06:34:56Z,2025-09-07T02:34:56Z
CYHZ,2025-09-07T07:00:00Z,2025-09-07T03:00:00Z,LIFR,21,21,100,200,8,4000,29.97,NA,OVC  ft,CYHZ 070700Z 20008KT 2 1/2SM -DZ BR OVC004 21/21 A2997 RMK ST8 SLP151 DENSITY ALT 1200FT,2025-09-07T07:22:57Z,2025-09-07T03:22:57Z
CYHZ,2025-09-07T08:00:00Z,2025-09-07T04:00:00Z,MVFR,20,20,100,200,9,9999,29.98,NA,FEW  ft; SCT  ft; BKN  ft,CYHZ 070800Z 20009KT 10SM FEW003 SCT013 BKN024 20/20 A2998 RMK SF2SC1SC3 SLP152 DENSITY ALT 1200FT,2025-09-07T08:29:58Z,2025-09-07T04:29:58Z
CYHZ,2025-09-07T09:00:00Z,2025-09-07T05:00:00Z,MVFR,20,20,100,190,6,9999,29.98,NA,SCT  ft; BKN  ft,CYHZ 070900Z 19006KT 10SM SCT004 BKN023 20/20 A2998 RMK SF4SC2 SLP154 DENSITY ALT 1100FT,2025-09-07T09:23:43Z,2025-09-07T05:23:43Z
CYHZ,2025-09-07T09:24:00Z,2025-09-07T05:24:00Z,IFR,20,19,94,180,6,9999,29.99,NA,BKN  ft; BKN  ft,CYHZ 070924Z 18006KT 10SM BKN005 BKN025 20/19 A2999 RMK SF6SC1 SLP157 DENSITY ALT 1100FT,2025-09-07T09:41:34Z,2025-09-07T05:41:34Z
CYHZ,2025-09-07T10:00:00Z,2025-09-07T06:00:00Z,LIFR,20,20,100,170,7,12900,29.99,NA,BKN  ft; BKN  ft,CYHZ 071000Z 17007KT 8SM BKN003 BKN110 20/20 A2999 RMK SF6AC1 SLP157 DENSITY ALT 1100FT,2025-09-07T10:26:13Z,2025-09-07T06:26:13Z
CYHZ,2025-09-07T11:00:00Z,2025-09-07T07:00:00Z,LIFR,20,20,100,180,6,14500,30,NA,BKN  ft; OVC  ft,CYHZ 071100Z 18006KT 9SM BKN003 OVC110 20/20 A3000 RMK SC6AC2 SLP160 DENSITY ALT 1100FT,2025-09-07T11:19:26Z,2025-09-07T07:19:26Z
CYHZ,2025-09-07T12:00:00Z,2025-09-07T08:00:00Z,LIFR,20,20,100,220,9,24100,30.01,NA,BKN  ft; OVC  ft,CYHZ 071200Z 22009KT 15SM BKN004 OVC110 20/20 A3001 RMK SC7AC1 SLP163 DENSITY ALT 1100FT,2025-09-07T12:48:18Z,2025-09-07T08:48:18Z
CYHZ,2025-09-07T13:00:00Z,2025-09-07T09:00:00Z,MVFR,21,20,94,200,5,24100,30.01,NA,BKN  ft; OVC  ft,CYHZ 071300Z 20005KT 15SM BKN010 OVC110 21/20 A3001 RMK SC6AC2 CU ASOCTD SLP164 DENSITY ALT 1200FT,2025-09-07T13:26:47Z,2025-09-07T09:26:47Z
CYHZ,2025-09-07T14:00:00Z,2025-09-07T10:00:00Z,MVFR,23,20,83,210,11,24100,30.01,NA,BKN  ft; BKN  ft; BKN  ft,CYHZ 071400Z 21011KT 15SM BKN015 BKN110 BKN250 23/20 A3001 RMK CU5AC1CI1 SC ASOCTD SLP163 DENSITY ALT 1500FT,2025-09-07T14:23:06Z,2025-09-07T10:23:06Z
CYHZ,2025-09-07T15:00:00Z,2025-09-07T11:00:00Z,MVFR,23,20,83,200,10,24100,30,NA,BKN  ft; BKN  ft,CYHZ 071500Z 20010G17KT 15SM BKN014 BKN100 23/20 A3000 RMK SC5AC2 CU ASOCTD SLP161 DENSITY ALT 1500FT,2025-09-07T15:23:39Z,2025-09-07T11:23:39Z
CYHZ,2025-09-07T16:00:00Z,2025-09-07T12:00:00Z,MVFR,23,20,83,210,11,24100,30.01,NA,BKN  ft; BKN  ft,CYHZ 071600Z 21011KT 15SM BKN013 BKN110 23/20 A3001 RMK SC6AC1 CU ASOCTD SLP163 DENSITY ALT 1500FT,2025-09-07T16:29:12Z,2025-09-07T12:29:12Z
CYHZ,2025-09-07T17:00:00Z,2025-09-07T13:00:00Z,MVFR,23,20,83,220,13,24100,30.01,NA,BKN  ft; BKN  ft; BKN  ft,CYHZ 071700Z 22013G19KT 15SM BKN014 BKN022 BKN250 23/20 A3001 RMK SC5CU2CI1 CI TR SLP164 DENSITY ALT 1500FT,2025-09-07T17:21:33Z,2025-09-07T13:21:33Z
CYHZ,2025-09-07T18:00:00Z,2025-09-07T14:00:00Z,MVFR,22,20,88,210,11,24100,30.01,NA,SCT  ft; BKN  ft; BKN  ft,CYHZ 071800Z 21011G20KT 15SM SCT014 BKN024 BKN250 22/20 A3001 RMK SC4CU2CI1 SLP164 DENSITY ALT 1400FT,2025-09-07T18:32:55Z,2025-09-07T14:32:55Z
CYHZ,2025-09-07T19:05:00Z,2025-09-07T15:05:00Z,MVFR,22,20,88,190,10,9999,29.99,NA,SCT  ft; BKN  ft; BKN  ft; OVC  ft,CYHZ 071905Z 19010G15KT 10SM -SHRA SCT012 BKN030 BKN140 OVC250 22/20 A2999 RMK SC3CU2AC1CI2 SLP156 DENSITY ALT 1400FT,2025-09-07T19:18:52Z,2025-09-07T15:18:52Z
CYHZ,2025-09-07T19:30:00Z,2025-09-07T15:30:00Z,VFR,22,20,88,210,8,9999,29.98,NA,FEW  ft; SCT  ft; BKN  ft; OVC  ft,CYHZ 071930Z 21008KT 10SM -SHRA FEW010 SCT030 BKN140 OVC250 22/20 A2998 RMK SC2CU2AC2CI2 SF ASOCTD SLP153 DENSITY ALT 1300FT,2025-09-07T19:41:51Z,2025-09-07T15:41:51Z
CYHZ,2025-09-07T20:05:00Z,2025-09-07T16:05:00Z,LIFR,21,20,94,160,7,NA,29.98,NA,OVX  ft,CYHZ 072005Z 16007KT 3/4SM R14/4000VP6000FT/U R23/2600VP6000FT/N -RA VV013 21/20 A2998 RMK RA8 SLP154 DENSITY ALT 1200FT,2025-09-07T20:25:54Z,2025-09-07T16:25:54Z
CYHZ,2025-09-07T20:20:00Z,2025-09-07T16:20:00Z,IFR,21,20,94,190,10,NA,29.98,NA,OVX  ft; FEW  ft,CYHZ 072020Z CCB 19010KT 1SM R14/6000FT/N R23/6000FT/N -RA FEW006 VV013 21/20 A2998 RMK SC3RA7 CVCTV CLD EMBD SLP153 DENSITY ALT 1200FT,2025-09-07T20:42:10Z,2025-09-07T16:42:10Z
CYHZ,2025-09-07T21:13:00Z,2025-09-07T17:13:00Z,IFR,20,20,100,180,8,4800,29.96,NA,BKN  ft; BKN  ft,CYHZ 072113Z 18008KT 3SM -RA BR BKN005 BKN013 20/20 A2996 RMK ST5SC1 CVCTV CLD EMBD SLP148 DENSITY ALT 1200FT,2025-09-07T21:21:35Z,2025-09-07T17:21:35Z
CYLW,2025-09-05T21:29:00Z,2025-09-05T17:29:00Z,VFR,26,9,34,160,3,11300,29.85,NA,CLR  ft,CYLW 052129Z AUTO 16003KT 140V210 7SM CLR 26/09 A2985 RMK SLP106 DENSITY ALT 3200FT,2025-09-05T22:02:53Z,2025-09-05T18:02:53Z
CYLW,2025-09-05T22:00:00Z,2025-09-05T18:00:00Z,VFR,27,9,32,170,4,11300,29.84,NA,CLR  ft,CYLW 052200Z AUTO 17004KT 140V210 7SM CLR 27/09 A2984 RMK SLP102 DENSITY ALT 3300FT,2025-09-05T22:18:45Z,2025-09-05T18:18:45Z
CYLW,2025-09-05T23:00:00Z,2025-09-05T19:00:00Z,VFR,28,9,30,160,3,11300,29.82,NA,CLR  ft,CYLW 052300Z AUTO 16003KT 7SM CLR 28/09 A2982 RMK SLP097 DENSITY ALT 3300FT,2025-09-05T23:20:07Z,2025-09-05T19:20:07Z
CYLW,2025-09-06T01:24:00Z,2025-09-05T21:24:00Z,VFR,25,12,44,160,3,11300,29.8,NA,CLR  ft,CYLW 060124Z AUTO 16003KT 7SM CLR 25/12 A2980 RMK SLP090 DENSITY ALT 3100FT,2025-09-06T01:42:35Z,2025-09-05T21:42:35Z
CYLW,2025-09-06T02:00:00Z,2025-09-05T22:00:00Z,VFR,23,13,53,0,0,9700,29.8,NA,CLR  ft,CYLW 060200Z AUTO 00000KT 6SM HZ CLR 23/13 A2980 RMK SLP092 DENSITY ALT 2800FT,2025-09-06T02:56:35Z,2025-09-05T22:56:35Z
CYLW,2025-09-06T03:00:00Z,2025-09-05T23:00:00Z,VFR,20,12,60,80,3,11300,29.8,NA,OVC  ft,CYLW 060300Z AUTO 08003KT 7SM OVC140 20/12 A2980 RMK SLP094 DENSITY ALT 2500FT,2025-09-06T03:30:46Z,2025-09-05T23:30:46Z
CYLW,2025-09-06T04:00:00Z,2025-09-06T00:00:00Z,VFR,18,11,64,40,4,11300,29.81,NA,OVC  ft,CYLW 060400Z AUTO 04004KT 7SM OVC140 18/11 A2981 RMK SLP095 DENSITY ALT 2200FT,2025-09-06T04:25:45Z,2025-09-06T00:25:45Z
CYLW,2025-09-06T05:00:00Z,2025-09-06T01:00:00Z,VFR,16,11,72,360,3,12900,29.81,NA,BKN  ft,CYLW 060500Z AUTO 36003KT 8SM BKN140 16/11 A2981 RMK SLP096 DENSITY ALT 2000FT,2025-09-06T05:19:56Z,2025-09-06T01:19:56Z
CYLW,2025-09-06T06:00:00Z,2025-09-06T02:00:00Z,VFR,16,10,68,0,0,11300,29.83,NA,BKN  ft,CYLW 060600Z AUTO 00000KT 7SM BKN140 16/10 A2983 RMK SLP100 DENSITY ALT 2000FT,2025-09-06T06:29:49Z,2025-09-06T02:29:49Z
CYLW,2025-09-06T07:00:00Z,2025-09-06T03:00:00Z,VFR,14,10,77,50,3,11300,29.84,NA,OVC  ft,CYLW 060700Z AUTO 05003KT 7SM OVC140 14/10 A2984 RMK SLP105 DENSITY ALT 1800FT,2025-09-06T07:18:41Z,2025-09-06T03:18:41Z
CYLW,2025-09-06T08:00:00Z,2025-09-06T04:00:00Z,VFR,13,10,82,0,0,12900,29.86,NA,FEW  ft,CYLW 060800Z AUTO 00000KT 8SM FEW140 13/10 A2986 RMK SLP110,2025-09-06T08:25:12Z,2025-09-06T04:25:12Z
CYLW,2025-09-06T09:00:00Z,2025-09-06T05:00:00Z,VFR,13,9,77,40,3,12900,29.86,NA,CLR  ft,CYLW 060900Z AUTO 04003KT 8SM CLR 13/09 A2986 RMK SLP110,2025-09-06T09:19:46Z,2025-09-06T05:19:46Z
CYLW,2025-09-06T10:00:00Z,2025-09-06T06:00:00Z,VFR,12,9,82,50,3,12900,29.87,NA,CLR  ft,CYLW 061000Z AUTO 05003KT 330V060 8SM CLR 12/09 A2987 RMK SLP112,2025-09-06T10:20:31Z,2025-09-06T06:20:31Z
CYLW,2025-09-06T11:00:00Z,2025-09-06T07:00:00Z,VFR,13,9,77,30,2,12900,29.88,NA,CLR  ft,CYLW 061100Z AUTO 03002KT 8SM CLR 13/09 A2988 RMK SLP114,2025-09-06T11:16:01Z,2025-09-06T07:16:01Z
CYLW,2025-09-06T12:00:00Z,2025-09-06T08:00:00Z,VFR,12,9,82,40,3,14500,29.88,NA,CLR  ft,CYLW 061200Z AUTO 04003KT 9SM CLR 12/09 A2988 RMK SLP118,2025-09-06T12:40:01Z,2025-09-06T08:40:01Z
CYLW,2025-09-06T13:00:00Z,2025-09-06T09:00:00Z,VFR,11,8,82,20,3,12900,29.89,NA,CLR  ft,CYLW 061300Z AUTO 02003KT 8SM CLR 11/08 A2989 RMK SLP121,2025-09-06T13:22:40Z,2025-09-06T09:22:40Z
CYLW,2025-09-06T14:00:00Z,2025-09-06T10:00:00Z,VFR,10,8,88,0,0,12900,29.9,NA,CLR  ft,CYLW 061400Z AUTO 00000KT 8SM CLR 10/08 A2990 RMK SLP128,2025-09-06T14:18:39Z,2025-09-06T10:18:39Z
CYLW,2025-09-06T15:00:00Z,2025-09-06T11:00:00Z,VFR,13,10,82,50,2,12900,29.92,NA,CLR  ft,CYLW 061500Z AUTO 05002KT 8SM CLR 13/10 A2992 RMK SLP132,2025-09-06T15:19:24Z,2025-09-06T11:19:24Z
CYLW,2025-09-06T16:00:00Z,2025-09-06T12:00:00Z,VFR,17,11,68,0,0,12900,29.92,NA,CLR  ft,CYLW 061600Z AUTO 00000KT 8SM CLR 17/11 A2992 RMK SLP133 DENSITY ALT 2100FT,2025-09-06T16:24:53Z,2025-09-06T12:24:53Z
CYLW,2025-09-06T16:33:00Z,2025-09-06T12:33:00Z,MVFR,19,12,64,0,0,8000,29.92,NA,CLR  ft,CYLW 061633Z AUTO 00000KT 5SM HZ CLR 19/12 A2992 RMK SLP131 DENSITY ALT 2300FT,2025-09-06T16:42:30Z,2025-09-06T12:42:30Z
CYLW,2025-09-06T16:43:00Z,2025-09-06T12:43:00Z,VFR,20,12,60,20,3,9700,29.92,NA,CLR  ft,CYLW 061643Z AUTO 02003KT 330V040 6SM HZ CLR 20/12 A2992 RMK SLP131 DENSITY ALT 2300FT,2025-09-06T16:59:46Z,2025-09-06T12:59:46Z
CYLW,2025-09-06T17:22:00Z,2025-09-06T13:22:00Z,MVFR,21,11,53,360,4,8000,29.92,NA,CLR  ft,CYLW 061722Z AUTO 36004KT 320V070 5SM HZ CLR 21/11 A2992 RMK SLP130 DENSITY ALT 2500FT,2025-09-06T17:24:32Z,2025-09-06T13:24:32Z
CYLW,2025-09-06T17:32:00Z,2025-09-06T13:32:00Z,VFR,21,12,57,350,5,12900,29.92,NA,CLR  ft,CYLW 061732Z AUTO 35005KT 330V030 8SM CLR 21/12 A2992 RMK SLP130 DENSITY ALT 2500FT,2025-09-06T17:41:54Z,2025-09-06T13:41:54Z
CYLW,2025-09-06T18:00:00Z,2025-09-06T14:00:00Z,VFR,22,11,50,340,4,12900,29.91,NA,CLR  ft,CYLW 061800Z AUTO 34004KT 310V080 8SM CLR 22/11 A2991 RMK SLP127 DENSITY ALT 2600FT,2025-09-06T18:32:25Z,2025-09-06T14:32:25Z
CYLW,2025-09-06T19:00:00Z,2025-09-06T15:00:00Z,VFR,24,11,44,320,11,12900,29.9,NA,CLR  ft,CYLW 061900Z AUTO 32011G16KT 8SM CLR 24/11 A2990 RMK SLP124 DENSITY ALT 2800FT,2025-09-06T19:18:14Z,2025-09-06T15:18:14Z
CYLW,2025-09-06T20:00:00Z,2025-09-06T16:00:00Z,VFR,25,11,42,340,4,9700,29.89,NA,CLR  ft,CYLW 062000Z AUTO 34004KT 6SM HZ CLR 25/11 A2989 RMK SLP120 DENSITY ALT 2900FT,2025-09-06T20:25:15Z,2025-09-06T16:25:15Z
CYLW,2025-09-06T20:35:00Z,2025-09-06T16:35:00Z,VFR,25,11,42,0,0,14500,29.88,NA,CLR  ft,CYLW 062035Z AUTO 00000KT 9SM CLR 25/11 A2988 RMK SLP116 DENSITY ALT 3000FT,2025-09-06T20:41:47Z,2025-09-06T16:41:47Z
CYLW,2025-09-06T21:17:00Z,2025-09-06T17:17:00Z,VFR,26,11,39,360,3,14500,29.87,NA,CLR  ft,CYLW 062117Z AUTO 36003KT 310V030 9SM CLR 26/11 A2987 RMK SLP111 DENSITY ALT 3200FT,2025-09-06T21:21:20Z,2025-09-06T17:21:20Z
CYLW,2025-09-06T22:00:00Z,2025-09-06T18:00:00Z,VFR,27,11,37,340,3,12900,29.86,NA,CLR  ft,CYLW 062200Z AUTO 34003KT 260V050 8SM CLR 27/11 A2986 RMK SLP109 DENSITY ALT 3200FT,2025-09-06T22:23:57Z,2025-09-06T18:23:57Z
CYLW,2025-09-06T23:00:00Z,2025-09-06T19:00:00Z,VFR,27,11,37,350,4,12900,29.85,NA,CLR  ft,CYLW 062300Z AUTO 35004KT 320V050 8SM CLR 27/11 A2985 RMK SLP105 DENSITY ALT 3200FT,2025-09-06T23:22:37Z,2025-09-06T19:22:37Z
CYLW,2025-09-07T01:00:00Z,2025-09-06T21:00:00Z,VFR,25,15,54,200,3,9700,29.84,NA,CLR  ft,CYLW 070100Z AUTO 20003KT 170V280 6SM HZ CLR 25/15 A2984 RMK SLP105 DENSITY ALT 3000FT,2025-09-07T02:04:15Z,2025-09-06T22:04:15Z
CYLW,2025-09-07T02:00:00Z,2025-09-06T22:00:00Z,VFR,22,14,61,80,3,11300,29.84,NA,CLR  ft,CYLW 070200Z AUTO 08003KT 7SM CLR 22/14 A2984 RMK SLP106 DENSITY ALT 2700FT,2025-09-07T03:07:54Z,2025-09-06T23:07:54Z
CYLW,2025-09-07T03:00:00Z,2025-09-06T23:00:00Z,VFR,19,14,73,0,2,9700,29.85,NA,CLR  ft,CYLW 070300Z AUTO VRB02KT 6SM HZ CLR 19/14 A2985 RMK SLP111 DENSITY ALT 2400FT,2025-09-07T03:38:08Z,2025-09-06T23:38:08Z
CYLW,2025-09-07T04:00:00Z,2025-09-07T00:00:00Z,VFR,17,12,73,30,2,9700,29.87,NA,CLR  ft,CYLW 070400Z AUTO 03002KT 6SM HZ CLR 17/12 A2987 RMK SLP114 DENSITY ALT 2100FT,2025-09-07T04:29:49Z,2025-09-07T00:29:49Z
CYLW,2025-09-07T05:00:00Z,2025-09-07T01:00:00Z,VFR,16,11,72,0,2,9700,29.87,NA,CLR  ft,CYLW 070500Z AUTO VRB02KT 6SM HZ CLR 16/11 A2987 RMK SLP116 DENSITY ALT 1900FT,2025-09-07T05:25:34Z,2025-09-07T01:25:34Z
CYLW,2025-09-07T06:00:00Z,2025-09-07T02:00:00Z,VFR,15,11,77,50,3,9700,29.88,NA,CLR  ft,CYLW 070600Z AUTO 05003KT 6SM HZ CLR 15/11 A2988 RMK SLP118 DENSITY ALT 1800FT,2025-09-07T06:34:55Z,2025-09-07T02:34:55Z
CYLW,2025-09-07T07:00:00Z,2025-09-07T03:00:00Z,VFR,14,11,82,0,0,9700,29.89,NA,CLR  ft,CYLW 070700Z AUTO 00000KT 6SM HZ CLR 14/11 A2989 RMK SLP121 DENSITY ALT 1700FT,2025-09-07T07:22:55Z,2025-09-07T03:22:55Z
CYLW,2025-09-07T08:00:00Z,2025-09-07T04:00:00Z,VFR,14,10,77,40,3,9700,29.9,NA,CLR  ft,CYLW 070800Z AUTO 04003KT 6SM HZ CLR 14/10 A2990 RMK SLP124 DENSITY ALT 1700FT,2025-09-07T08:29:57Z,2025-09-07T04:29:57Z
CYLW,2025-09-07T09:00:00Z,2025-09-07T05:00:00Z,VFR,13,10,82,0,2,9700,29.91,NA,CLR  ft,CYLW 070900Z AUTO VRB02KT 6SM BR CLR 13/10 A2991 RMK SLP125,2025-09-07T09:23:41Z,2025-09-07T05:23:41Z
CYLW,2025-09-07T10:00:00Z,2025-09-07T06:00:00Z,VFR,14,11,82,40,2,9700,29.9,NA,CLR  ft,CYLW 071000Z AUTO 04002KT 6SM HZ CLR 14/11 A2990 RMK SLP124 DENSITY ALT 1700FT,2025-09-07T10:26:11Z,2025-09-07T06:26:11Z
CYLW,2025-09-07T11:00:00Z,2025-09-07T07:00:00Z,VFR,15,11,77,0,2,9700,29.91,NA,BKN  ft,CYLW 071100Z AUTO VRB02KT 6SM HZ BKN140 15/11 A2991 RMK SLP126 DENSITY ALT 1800FT,2025-09-07T11:19:24Z,2025-09-07T07:19:24Z
CYLW,2025-09-07T12:00:00Z,2025-09-07T08:00:00Z,VFR,14,11,82,0,0,9700,29.92,NA,BKN  ft,CYLW 071200Z AUTO 00000KT 6SM HZ BKN140 14/11 A2992 RMK SLP131 DENSITY ALT 1700FT,2025-09-07T12:48:16Z,2025-09-07T08:48:16Z
CYLW,2025-09-07T13:00:00Z,2025-09-07T09:00:00Z,VFR,13,10,82,50,3,9700,29.94,NA,SCT  ft,CYLW 071300Z AUTO 05003KT 6SM HZ SCT240 13/10 A2994 RMK SLP139,2025-09-07T13:26:45Z,2025-09-07T09:26:45Z
CYLW,2025-09-07T14:00:00Z,2025-09-07T10:00:00Z,VFR,14,11,82,0,0,9700,29.95,NA,SCT  ft; BKN  ft,CYLW 071400Z AUTO 00000KT 6SM HZ SCT110 BKN240 14/11 A2995 RMK SLP143,2025-09-07T14:23:05Z,2025-09-07T10:23:05Z
CYLW,2025-09-07T15:00:00Z,2025-09-07T11:00:00Z,VFR,16,12,77,60,4,9700,29.97,NA,CLR  ft,CYLW 071500Z AUTO 06004KT 6SM HZ CLR 16/12 A2997 RMK SLP149 DENSITY ALT 1800FT,2025-09-07T15:23:37Z,2025-09-07T11:23:37Z
CYLW,2025-09-07T16:00:00Z,2025-09-07T12:00:00Z,VFR,18,13,73,50,3,9700,29.97,NA,SCT  ft,CYLW 071600Z AUTO 05003KT 340V060 6SM HZ SCT110 18/13 A2997 RMK SLP150 DENSITY ALT 2100FT,2025-09-07T16:29:10Z,2025-09-07T12:29:10Z
CYLW,2025-09-07T17:04:00Z,2025-09-07T13:04:00Z,VFR,21,13,60,0,0,9700,29.96,NA,SCT  ft,CYLW 071704Z AUTO 00000KT 6SM HZ SCT110 21/13 A2996 RMK SLP146 DENSITY ALT 2400FT,2025-09-07T17:21:32Z,2025-09-07T13:21:32Z
CYLW,2025-09-07T18:00:00Z,2025-09-07T14:00:00Z,VFR,23,13,53,330,12,9700,29.95,NA,BKN  ft,CYLW 071800Z AUTO 33012KT 320V050 6SM HZ BKN160 23/13 A2995 RMK SLP141 DENSITY ALT 2700FT,2025-09-07T18:32:53Z,2025-09-07T14:32:53Z
CYLW,2025-09-07T19:00:00Z,2025-09-07T15:00:00Z,VFR,22,13,57,220,6,9700,29.95,NA,SCT  ft,CYLW 071900Z AUTO 22006KT 6SM HZ SCT120 22/13 A2995 RMK SLP143 DENSITY ALT 2600FT,2025-09-07T19:18:50Z,2025-09-07T15:18:50Z
CYLW,2025-09-07T20:00:00Z,2025-09-07T16:00:00Z,VFR,22,13,57,200,4,9700,29.95,NA,BKN  ft,CYLW 072000Z AUTO 20004KT 6SM HZ BKN120 22/13 A2995 RMK SLP143 DENSITY ALT 2600FT,2025-09-07T20:25:52Z,2025-09-07T16:25:52Z
CYLW,2025-09-07T21:00:00Z,2025-09-07T17:00:00Z,VFR,23,12,50,0,2,9700,29.93,NA,BKN  ft; OVC  ft,CYLW 072100Z AUTO VRB02KT 6SM HZ BKN130 OVC150 23/12 A2993 RMK SLP136 DENSITY ALT 2700FT,2025-09-07T21:21:34Z,2025-09-07T17:21:34Z
CYMM,2025-09-05T21:00:00Z,2025-09-05T17:00:00Z,VFR,19,7,46,90,6,14500,30.03,NA,CLR  ft,CYMM 052100Z AUTO 09006KT 010V120 9SM CLR 19/07 A3003 RMK SLP184 DENSITY ALT 1900FT,2025-09-05T22:02:54Z,2025-09-05T18:02:54Z
CYMM,2025-09-05T22:00:00Z,2025-09-05T18:00:00Z,VFR,20,7,43,40,7,14500,30.02,NA,CLR  ft,CYMM 052200Z AUTO 04007KT 9SM CLR 20/07 A3002 RMK SLP179 DENSITY ALT 2000FT,2025-09-05T22:18:45Z,2025-09-05T18:18:45Z
CYMM,2025-09-05T23:00:00Z,2025-09-05T19:00:00Z,VFR,20,7,43,50,8,14500,29.99,NA,CLR  ft,CYMM 052300Z AUTO 05008KT 9SM CLR 20/07 A2999 RMK SLP172 DENSITY ALT 2000FT,2025-09-05T23:20:08Z,2025-09-05T19:20:08Z
CYMM,2025-09-06T01:00:00Z,2025-09-05T21:00:00Z,VFR,18,7,49,90,7,14500,29.99,NA,CLR  ft,CYMM 060100Z AUTO 09007KT 9SM CLR 18/07 A2999 RMK SLP171 DENSITY ALT 1800FT,2025-09-06T01:42:36Z,2025-09-05T21:42:36Z
CYMM,2025-09-06T02:04:00Z,2025-09-05T22:04:00Z,VFR,15,7,59,110,7,11300,29.99,NA,CLR  ft,CYMM 060204Z AUTO 11007KT 7SM CLR 15/07 A2999 RMK SLP170 DENSITY ALT 1500FT,2025-09-06T02:56:36Z,2025-09-05T22:56:36Z
CYMM,2025-09-06T03:00:00Z,2025-09-05T23:00:00Z,VFR,14,6,59,110,7,14500,29.98,NA,CLR  ft,CYMM 060300Z AUTO 11007KT 9SM CLR 14/06 A2998 RMK SLP168,2025-09-06T03:30:47Z,2025-09-05T23:30:47Z
CYMM,2025-09-06T04:00:00Z,2025-09-06T00:00:00Z,VFR,12,6,67,120,8,14500,29.99,NA,CLR  ft,CYMM 060400Z AUTO 12008KT 9SM CLR 12/06 A2999 RMK SLP168,2025-09-06T04:25:46Z,2025-09-06T00:25:46Z
CYMM,2025-09-06T05:00:00Z,2025-09-06T01:00:00Z,VFR,11,5,67,140,7,14500,29.99,NA,CLR  ft,CYMM 060500Z AUTO 14007KT 9SM CLR 11/05 A2999 RMK SLP167,2025-09-06T05:19:57Z,2025-09-06T01:19:57Z
CYMM,2025-09-06T06:00:00Z,2025-09-06T02:00:00Z,VFR,10,5,71,130,8,14500,29.99,NA,CLR  ft,CYMM 060600Z AUTO 13008KT 9SM CLR 10/05 A2999 RMK SLP166,2025-09-06T06:29:50Z,2025-09-06T02:29:50Z
CYMM,2025-09-06T07:00:00Z,2025-09-06T03:00:00Z,VFR,9,5,76,110,8,14500,29.99,NA,CLR  ft,CYMM 060700Z AUTO 11008KT 9SM CLR 09/05 A2999 RMK SLP167,2025-09-06T07:18:42Z,2025-09-06T03:18:42Z
CYMM,2025-09-06T08:00:00Z,2025-09-06T04:00:00Z,VFR,8,5,82,110,6,14500,29.99,NA,CLR  ft,CYMM 060800Z AUTO 11006KT 9SM CLR 08/05 A2999 RMK SLP167,2025-09-06T08:25:12Z,2025-09-06T04:25:12Z
CYMM,2025-09-06T09:00:00Z,2025-09-06T05:00:00Z,VFR,8,4,76,120,6,14500,29.99,NA,CLR  ft,CYMM 060900Z AUTO 12006KT 9SM CLR 08/04 A2999 RMK SLP167,2025-09-06T09:19:47Z,2025-09-06T05:19:47Z
CYMM,2025-09-06T10:00:00Z,2025-09-06T06:00:00Z,VFR,6,4,87,100,5,14500,29.99,NA,CLR  ft,CYMM 061000Z AUTO 10005KT 9SM CLR 06/04 A2999 RMK SLP166,2025-09-06T10:20:31Z,2025-09-06T06:20:31Z
CYMM,2025-09-06T11:00:00Z,2025-09-06T07:00:00Z,VFR,6,4,87,120,6,9700,29.99,NA,CLR  ft,CYMM 061100Z AUTO 12006KT 6SM BR CLR 06/04 A2999 RMK SLP166,2025-09-06T11:16:01Z,2025-09-06T07:16:01Z
CYMM,2025-09-06T11:17:00Z,2025-09-06T07:17:00Z,MVFR,5,3,87,110,5,8000,29.99,NA,CLR  ft,CYMM 061117Z AUTO 11005KT 5SM BR CLR 05/03 A2999 RMK SLP167,2025-09-06T11:38:59Z,2025-09-06T07:38:59Z
CYMM,2025-09-06T12:00:00Z,2025-09-06T08:00:00Z,MVFR,6,4,87,110,8,6400,29.98,NA,CLR  ft,CYMM 061200Z AUTO 11008KT 4SM BR CLR 06/04 A2998 RMK SLP165,2025-09-06T12:40:01Z,2025-09-06T08:40:01Z
CYMM,2025-09-06T13:00:00Z,2025-09-06T09:00:00Z,MVFR,6,4,87,100,6,4800,29.98,NA,CLR  ft,CYMM 061300Z AUTO 10006KT 3SM BR CLR 06/04 A2998 RMK SLP165,2025-09-06T13:22:41Z,2025-09-06T09:22:41Z
CYMM,2025-09-06T14:00:00Z,2025-09-06T10:00:00Z,MVFR,7,4,81,110,8,4800,29.97,NA,CLR  ft,CYMM 061400Z AUTO 11008KT 3SM HZ CLR 07/04 A2997 RMK SLP164,2025-09-06T14:18:39Z,2025-09-06T10:18:39Z
CYMM,2025-09-06T15:00:00Z,2025-09-06T11:00:00Z,MVFR,10,6,76,90,5,6400,29.97,NA,CLR  ft,CYMM 061500Z AUTO 09005KT 4SM HZ CLR 10/06 A2997 RMK SLP162,2025-09-06T15:19:24Z,2025-09-06T11:19:24Z
CYMM,2025-09-06T15:29:00Z,2025-09-06T11:29:00Z,VFR,11,6,72,110,7,9700,29.97,NA,CLR  ft,CYMM 061529Z AUTO 11007KT 6SM HZ CLR 11/06 A2997 RMK SLP160,2025-09-06T15:38:47Z,2025-09-06T11:38:47Z
CYMM,2025-09-06T16:00:00Z,2025-09-06T12:00:00Z,VFR,14,7,63,110,7,11300,29.96,NA,CLR  ft,CYMM 061600Z AUTO 11007KT 7SM CLR 14/07 A2996 RMK SLP159,2025-09-06T16:24:53Z,2025-09-06T12:24:53Z
CYMM,2025-09-06T17:00:00Z,2025-09-06T13:00:00Z,VFR,16,8,59,80,5,12900,29.95,NA,CLR  ft,CYMM 061700Z AUTO 08005KT 050V110 8SM CLR 16/08 A2995 RMK SLP156 DENSITY ALT 1600FT,2025-09-06T17:24:33Z,2025-09-06T13:24:33Z
CYMM,2025-09-06T18:00:00Z,2025-09-06T14:00:00Z,VFR,20,7,43,100,9,14500,29.95,NA,CLR  ft,CYMM 061800Z AUTO 10009KT 060V140 9SM CLR 20/07 A2995 RMK SLP151 DENSITY ALT 2100FT,2025-09-06T18:32:26Z,2025-09-06T14:32:26Z
CYMM,2025-09-06T19:00:00Z,2025-09-06T15:00:00Z,VFR,22,6,36,130,10,14500,29.93,NA,CLR  ft,CYMM 061900Z AUTO 13010KT 9SM CLR 22/06 A2993 RMK SLP144 DENSITY ALT 2300FT,2025-09-06T19:18:15Z,2025-09-06T15:18:15Z
CYMM,2025-09-06T20:00:00Z,2025-09-06T16:00:00Z,VFR,23,6,33,120,8,14500,29.91,NA,CLR  ft,CYMM 062000Z AUTO 12008KT 090V150 9SM CLR 23/06 A2991 RMK SLP138 DENSITY ALT 2500FT,2025-09-06T20:25:16Z,2025-09-06T16:25:16Z
CYMM,2025-09-06T21:00:00Z,2025-09-06T17:00:00Z,VFR,24,7,34,130,11,14500,29.89,NA,CLR  ft,CYMM 062100Z AUTO 13011KT 9SM CLR 24/07 A2989 RMK SLP130 DENSITY ALT 2700FT,2025-09-06T21:21:20Z,2025-09-06T17:21:20Z
CYMM,2025-09-06T22:00:00Z,2025-09-06T18:00:00Z,VFR,25,8,34,120,12,14500,29.87,NA,CLR  ft,CYMM 062200Z AUTO 12012KT 9SM CLR 25/08 A2987 RMK SLP124 DENSITY ALT 2700FT,2025-09-06T22:23:58Z,2025-09-06T18:23:58Z
CYMM,2025-09-06T23:00:00Z,2025-09-06T19:00:00Z,VFR,26,6,28,200,6,14500,29.86,NA,CLR  ft,CYMM 062300Z AUTO 20006KT 180V240 9SM CLR 26/06 A2986 RMK SLP121 DENSITY ALT 2800FT,2025-09-06T23:22:37Z,2025-09-06T19:22:37Z
CYMM,2025-09-07T01:00:00Z,2025-09-06T21:00:00Z,VFR,23,8,38,210,3,14500,29.84,NA,CLR  ft,CYMM 070100Z AUTO 21003KT 9SM CLR 23/08 A2984 RMK ICE MISG SLP117 DENSITY ALT 2600FT,2025-09-07T02:04:15Z,2025-09-06T22:04:15Z
CYMM,2025-09-07T02:00:00Z,2025-09-06T22:00:00Z,VFR,20,8,46,200,6,14500,29.84,NA,CLR  ft,CYMM 070200Z AUTO 20006KT 9SM CLR 20/08 A2984 RMK SLP115 DENSITY ALT 2300FT,2025-09-07T03:07:55Z,2025-09-06T23:07:55Z
CYMM,2025-09-07T03:00:00Z,2025-09-06T23:00:00Z,VFR,18,7,49,200,6,14500,29.84,NA,CLR  ft,CYMM 070300Z AUTO 20006KT 9SM CLR 18/07 A2984 RMK SLP116 DENSITY ALT 1900FT,2025-09-07T03:38:08Z,2025-09-06T23:38:08Z
CYMM,2025-09-07T04:00:00Z,2025-09-07T00:00:00Z,VFR,16,6,52,190,6,14500,29.84,NA,FEW  ft,CYMM 070400Z AUTO 19006KT 9SM FEW170 16/06 A2984 RMK SLP116 DENSITY ALT 1700FT,2025-09-07T04:29:49Z,2025-09-07T00:29:49Z
CYMM,2025-09-07T05:00:00Z,2025-09-07T01:00:00Z,VFR,14,6,59,180,6,14500,29.84,NA,CLR  ft,CYMM 070500Z AUTO 18006KT 9SM CLR 14/06 A2984 RMK SLP115 DENSITY ALT 1500FT,2025-09-07T05:25:34Z,2025-09-07T01:25:34Z
CYMM,2025-09-07T06:00:00Z,2025-09-07T02:00:00Z,VFR,13,6,63,0,0,14500,29.84,NA,CLR  ft,CYMM 070600Z AUTO 00000KT 9SM CLR 13/06 A2984 RMK SLP114,2025-09-07T06:34:55Z,2025-09-07T02:34:55Z
CYMM,2025-09-07T07:00:00Z,2025-09-07T03:00:00Z,VFR,12,6,67,0,0,14500,29.84,NA,CLR  ft,CYMM 070700Z AUTO 00000KT 9SM CLR 12/06 A2984 RMK SLP112,2025-09-07T07:22:56Z,2025-09-07T03:22:56Z
CYMM,2025-09-07T08:00:00Z,2025-09-07T04:00:00Z,VFR,10,6,76,90,3,14500,29.83,NA,CLR  ft,CYMM 070800Z AUTO 09003KT 9SM CLR 10/06 A2983 RMK SLP110,2025-09-07T08:29:57Z,2025-09-07T04:29:57Z
CYMM,2025-09-07T09:00:00Z,2025-09-07T05:00:00Z,VFR,9,5,76,70,2,14500,29.83,NA,CLR  ft,CYMM 070900Z AUTO 07002KT 9SM CLR 09/05 A2983 RMK SLP110,2025-09-07T09:23:42Z,2025-09-07T05:23:42Z
CYMM,2025-09-07T10:00:00Z,2025-09-07T06:00:00Z,VFR,6,4,87,140,4,14500,29.82,NA,CLR  ft,CYMM 071000Z AUTO 14004KT 130V200 9SM CLR 06/04 A2982 RMK SLP107,2025-09-07T10:26:12Z,2025-09-07T06:26:12Z
CYMM,2025-09-07T11:00:00Z,2025-09-07T07:00:00Z,VFR,6,4,87,150,4,14500,29.82,NA,CLR  ft,CYMM 071100Z AUTO 15004KT 9SM CLR 06/04 A2982 RMK SLP109,2025-09-07T11:19:25Z,2025-09-07T07:19:25Z
CYMM,2025-09-07T12:00:00Z,2025-09-07T08:00:00Z,VFR,5,3,87,200,3,14500,29.82,NA,CLR  ft,CYMM 071200Z AUTO 20003KT 9SM CLR 05/03 A2982 RMK SLP109,2025-09-07T12:48:17Z,2025-09-07T08:48:17Z
CYMM,2025-09-07T13:00:00Z,2025-09-07T09:00:00Z,VFR,5,3,87,140,4,14500,29.82,NA,CLR  ft,CYMM 071300Z AUTO 14004KT 9SM CLR 05/03 A2982 RMK SLP110,2025-09-07T13:26:45Z,2025-09-07T09:26:45Z
CYMM,2025-09-07T14:00:00Z,2025-09-07T10:00:00Z,VFR,8,5,82,0,0,14500,29.83,NA,CLR  ft,CYMM 071400Z AUTO 00000KT 9SM CLR 08/05 A2983 RMK SLP112,2025-09-07T14:23:05Z,2025-09-07T10:23:05Z
CYMM,2025-09-07T15:00:00Z,2025-09-07T11:00:00Z,VFR,11,8,82,0,0,14500,29.83,NA,FEW  ft,CYMM 071500Z AUTO 00000KT 9SM FEW170 11/08 A2983 RMK SLP110,2025-09-07T15:23:38Z,2025-09-07T11:23:38Z
CYMM,2025-09-07T16:00:00Z,2025-09-07T12:00:00Z,VFR,13,8,72,0,2,14500,29.83,NA,BKN  ft; BKN  ft,CYMM 071600Z AUTO VRB02KT 9SM BKN150 BKN170 13/08 A2983 RMK SLP112,2025-09-07T16:29:10Z,2025-09-07T12:29:10Z
CYMM,2025-09-07T17:00:00Z,2025-09-07T13:00:00Z,VFR,14,9,72,230,5,14500,29.84,NA,CLR  ft,CYMM 071700Z AUTO 23005KT 9SM CLR 14/09 A2984 RMK SLP114 DENSITY ALT 1500FT,2025-09-07T17:21:32Z,2025-09-07T13:21:32Z
CYMM,2025-09-07T18:00:00Z,2025-09-07T14:00:00Z,VFR,15,10,72,250,5,14500,29.84,NA,BKN  ft,CYMM 071800Z AUTO 25005KT 9SM BKN180 15/10 A2984 RMK SLP114 DENSITY ALT 1700FT,2025-09-07T18:32:53Z,2025-09-07T14:32:53Z
CYMM,2025-09-07T19:00:00Z,2025-09-07T15:00:00Z,VFR,18,11,64,260,5,14500,29.84,NA,CLR  ft,CYMM 071900Z AUTO 26005KT 240V300 9SM CLR 18/11 A2984 RMK SLP113 DENSITY ALT 2000FT,2025-09-07T19:18:51Z,2025-09-07T15:18:51Z
CYMM,2025-09-07T20:00:00Z,2025-09-07T16:00:00Z,VFR,20,10,53,0,2,14500,29.84,NA,BKN  ft,CYMM 072000Z AUTO VRB02KT 9SM BKN150 20/10 A2984 RMK SLP114 DENSITY ALT 2200FT,2025-09-07T20:25:53Z,2025-09-07T16:25:53Z
CYMM,2025-09-07T21:00:00Z,2025-09-07T17:00:00Z,VFR,21,12,57,320,4,14500,29.83,NA,BKN  ft,CYMM 072100Z AUTO 32004KT 210V360 9SM BKN160 21/12 A2983 RMK SLP112 DENSITY ALT 2400FT,2025-09-07T21:21:34Z,2025-09-07T17:21:34Z
CYMO,2025-09-05T18:15:00Z,2025-09-05T14:15:00Z,MVFR,12,11,94,120,9,9700,29.32,NA,SCT  ft; BKN  ft; BKN  ft; OVC  ft,CYMO 051815Z AUTO 12009KT 6SM -RA BR SCT014 BKN024 BKN034 OVC044 12/11 A2932 RMK PCPN 0.8MM PAST HR SLP932 DENSITY ALT 400FT,2025-09-05T18:23:20Z,2025-09-05T14:23:20Z
CYMO,2025-09-05T18:34:00Z,2025-09-05T14:34:00Z,MVFR,12,11,94,100,10,11300,29.31,NA,FEW  ft; SCT  ft; BKN  ft; OVC  ft,CYMO 051834Z AUTO 10010G16KT 7SM -RA FEW009 SCT015 BKN027 OVC050 12/11 A2931 RMK PCPN 1.2MM PAST HR SLP928 DENSITY ALT 400FT,2025-09-05T18:37:17Z,2025-09-05T14:37:17Z
CYMO,2025-09-05T18:35:00Z,2025-09-05T14:35:00Z,MVFR,12,11,94,100,11,11300,29.31,NA,FEW  ft; SCT  ft; BKN  ft; OVC  ft,CYMO 051835Z AUTO 10011G16KT 7SM -RA FEW009 SCT015 BKN027 OVC050 12/11 A2931 RMK PCPN 1.2MM PAST HR SLP928 DENSITY ALT 400FT,2025-09-05T18:48:17Z,2025-09-05T14:48:17Z
CYMO,2025-09-05T19:01:00Z,2025-09-05T15:01:00Z,MVFR,12,11,94,90,12,14500,29.29,NA,SCT  ft; BKN  ft; BKN  ft; OVC  ft,CYMO 051901Z AUTO 09012G18KT 9SM -RA SCT011 BKN019 BKN030 OVC055 12/11 A2929 RMK SLP920 DENSITY ALT 500FT,2025-09-05T19:20:59Z,2025-09-05T15:20:59Z
CYMO,2025-09-05T19:50:00Z,2025-09-05T15:50:00Z,MVFR,12,11,94,110,12,14500,29.26,NA,FEW  ft; SCT  ft; BKN  ft; OVC  ft,CYMO 051950Z AUTO 11012G17KT 9SM -RA FEW012 SCT018 BKN022 OVC039 12/11 A2926 RMK PCPN 0.5MM PAST HR SLP910 DENSITY ALT 500FT,2025-09-05T19:57:00Z,2025-09-05T15:57:00Z
CYMO,2025-09-05T20:20:00Z,2025-09-05T16:20:00Z,MVFR,11,10,94,110,10,14500,29.25,NA,BKN  ft; OVC  ft,CYMO 052020Z AUTO 11010G15KT 9SM -RA BKN014 OVC023 11/10 A2925 RMK SLP906 DENSITY ALT 400FT,2025-09-05T20:29:27Z,2025-09-05T16:29:27Z
CYMO,2025-09-05T20:33:00Z,2025-09-05T16:33:00Z,MVFR,12,11,94,110,13,14500,29.24,NA,BKN  ft; BKN  ft; OVC  ft,CYMO 052033Z AUTO 11013G22KT 9SM BKN012 BKN018 OVC030 12/11 A2924 RMK SLP904 DENSITY ALT 400FT,2025-09-05T20:39:13Z,2025-09-05T16:39:13Z
CYMO,2025-09-05T20:53:00Z,2025-09-05T16:53:00Z,MVFR,12,11,94,110,12,14500,29.23,NA,FEW  ft; SCT  ft; BKN  ft; OVC  ft,CYMO 052053Z AUTO 11012G17KT 9SM FEW008 SCT012 BKN017 OVC034 12/11 A2923 RMK SLP901 DENSITY ALT 500FT,2025-09-05T21:01:42Z,2025-09-05T17:01:42Z
CYMO,2025-09-05T21:00:00Z,2025-09-05T17:00:00Z,MVFR,12,11,94,120,12,14500,29.23,NA,SCT  ft; OVC  ft,CYMO 052100Z AUTO 12012G18KT 090V150 9SM SCT010 OVC016 12/11 A2923 RMK SLP900 DENSITY ALT 500FT,2025-09-05T21:14:25Z,2025-09-05T17:14:25Z
CYMO,2025-09-05T21:24:00Z,2025-09-05T17:24:00Z,MVFR,12,11,94,140,11,14500,29.23,NA,SCT  ft; BKN  ft; BKN  ft; OVC  ft,CYMO 052124Z AUTO 14011G17KT 9SM SCT009 BKN012 BKN018 OVC035 12/11 A2923 RMK SLP899 DENSITY ALT 500FT,2025-09-05T21:31:33Z,2025-09-05T17:31:33Z
CYMO,2025-09-05T21:55:00Z,2025-09-05T17:55:00Z,VFR,12,11,94,120,7,14500,29.22,NA,FEW  ft; SCT  ft; OVC  ft,CYMO 052155Z AUTO 12007KT 9SM FEW009 SCT015 OVC033 12/11 A2922 RMK SLP896 DENSITY ALT 500FT,2025-09-05T22:02:52Z,2025-09-05T18:02:52Z
CYMO,2025-09-05T22:00:00Z,2025-09-05T18:00:00Z,VFR,12,11,94,110,10,14500,29.21,NA,FEW  ft; OVC  ft,CYMO 052200Z AUTO 11010KT 9SM FEW009 OVC037 12/11 A2921 RMK SLP895 DENSITY ALT 500FT,2025-09-05T22:18:44Z,2025-09-05T18:18:44Z
CYMO,2025-09-05T23:00:00Z,2025-09-05T19:00:00Z,VFR,13,11,88,140,7,14500,29.21,NA,BKN  ft; OVC  ft,CYMO 052300Z AUTO 14007KT 9SM BKN046 OVC100 13/11 A2921 RMK SLP893 DENSITY ALT 600FT,2025-09-05T23:20:06Z,2025-09-05T19:20:06Z
CYMO,2025-09-05T23:36:00Z,2025-09-05T19:36:00Z,MVFR,11,9,88,260,14,14500,29.22,NA,SCT  ft; BKN  ft; OVC  ft,CYMO 052336Z AUTO 26014G21KT 140V270 9SM -RA SCT009 BKN023 OVC048 11/09 A2922 RMK PRESRR SLP898 DENSITY ALT 400FT,2025-09-05T23:39:26Z,2025-09-05T19:39:26Z
CYMO,2025-09-06T01:32:00Z,2025-09-05T21:32:00Z,MVFR,8,7,93,250,13,14500,29.32,NA,BKN  ft; OVC  ft,CYMO 060132Z AUTO 25013G21KT 9SM -RA BKN013 OVC055 08/07 A2932 RMK SLP932,2025-09-06T01:42:34Z,2025-09-05T21:42:34Z
CYMO,2025-09-06T02:52:00Z,2025-09-05T22:52:00Z,MVFR,7,7,100,230,10,14500,29.34,NA,BKN  ft; BKN  ft; OVC  ft,CYMO 060252Z AUTO 23010G17KT 9SM BKN010 BKN022 OVC044 07/07 A2934 RMK SLP939,2025-09-06T02:56:34Z,2025-09-05T22:56:34Z
CYMO,2025-09-06T03:23:00Z,2025-09-05T23:23:00Z,IFR,7,7,100,230,12,14500,29.35,NA,BKN  ft; OVC  ft,CYMO 060323Z AUTO 23012G18KT 9SM -RA BKN008 OVC016 07/07 A2935 RMK SLP941,2025-09-06T03:30:45Z,2025-09-05T23:30:45Z
CYMO,2025-09-06T04:17:00Z,2025-09-06T00:17:00Z,MVFR,8,7,93,230,13,14500,29.36,NA,BKN  ft; OVC  ft,CYMO 060417Z AUTO 23013G19KT 9SM BKN012 OVC018 08/07 A2936 RMK SLP943,2025-09-06T04:25:44Z,2025-09-06T00:25:44Z
CYMO,2025-09-06T04:35:00Z,2025-09-06T00:35:00Z,IFR,8,7,93,240,11,14500,29.36,NA,BKN  ft; OVC  ft,CYMO 060435Z AUTO 24011G20KT 9SM BKN009 OVC014 08/07 A2936 RMK SLP944,2025-09-06T04:41:54Z,2025-09-06T00:41:54Z
CYMO,2025-09-06T05:15:00Z,2025-09-06T01:15:00Z,VFR,7,7,100,230,11,14500,29.37,NA,SCT  ft; BKN  ft; BKN  ft; BKN  ft,CYMO 060515Z AUTO 23011G16KT 9SM SCT009 BKN170 BKN190 BKN210 07/07 A2937 RMK SLP947,2025-09-06T05:19:54Z,2025-09-06T01:19:54Z
CYMO,2025-09-06T06:04:00Z,2025-09-06T02:04:00Z,IFR,7,6,93,230,11,14500,29.38,NA,BKN  ft,CYMO 060604Z AUTO 23011G18KT 9SM BKN009 07/06 A2938 RMK SLP951,2025-09-06T06:29:48Z,2025-09-06T02:29:48Z
CYMO,2025-09-06T06:43:00Z,2025-09-06T02:43:00Z,MVFR,7,6,93,230,12,14500,29.39,NA,BKN  ft,CYMO 060643Z AUTO 23012G18KT 9SM BKN011 07/06 A2939 RMK SLP955,2025-09-06T06:46:47Z,2025-09-06T02:46:47Z
CYMO,2025-09-06T07:00:00Z,2025-09-06T03:00:00Z,MVFR,7,6,93,230,14,14500,29.39,NA,BKN  ft,CYMO 060700Z AUTO 23014KT 9SM BKN011 07/06 A2939 RMK SLP956,2025-09-06T07:18:40Z,2025-09-06T03:18:40Z
CYMO,2025-09-06T08:00:00Z,2025-09-06T04:00:00Z,MVFR,7,6,93,230,11,14500,29.41,NA,BKN  ft; OVC  ft,CYMO 060800Z AUTO 23011G19KT 9SM BKN013 OVC019 07/06 A2941 RMK SLP962,2025-09-06T08:25:11Z,2025-09-06T04:25:11Z
CYMO,2025-09-06T09:04:00Z,2025-09-06T05:04:00Z,IFR,7,6,93,230,14,8000,29.43,NA,BKN  ft; OVC  ft,CYMO 060904Z AUTO 23014KT 5SM BR BKN009 OVC013 07/06 A2943 RMK SLP968,2025-09-06T09:19:45Z,2025-09-06T05:19:45Z
CYMO,2025-09-06T09:17:00Z,2025-09-06T05:17:00Z,IFR,7,6,93,230,12,9700,29.43,NA,BKN  ft; OVC  ft,CYMO 060917Z AUTO 23012G20KT 6SM BR BKN009 OVC012 07/06 A2943 RMK SLP970,2025-09-06T09:38:39Z,2025-09-06T05:38:39Z
CYMO,2025-09-06T10:07:00Z,2025-09-06T06:07:00Z,MVFR,7,6,93,230,13,14500,29.45,NA,BKN  ft; OVC  ft,CYMO 061007Z AUTO 23013G21KT 9SM BKN011 OVC014 07/06 A2945 RMK SLP975,2025-09-06T10:20:30Z,2025-09-06T06:20:30Z
CYMO,2025-09-06T10:35:00Z,2025-09-06T06:35:00Z,MVFR,7,6,93,230,14,14500,29.46,NA,SCT  ft; BKN  ft; OVC  ft,CYMO 061035Z AUTO 23014G20KT 9SM SCT009 BKN014 OVC027 07/06 A2946 RMK SLP978,2025-09-06T10:39:44Z,2025-09-06T06:39:44Z
CYMO,2025-09-06T11:00:00Z,2025-09-06T07:00:00Z,MVFR,7,6,93,230,16,14500,29.47,NA,BKN  ft; BKN  ft; OVC  ft,CYMO 061100Z AUTO 23016G24KT 9SM -RA BKN013 BKN020 OVC028 07/06 A2947 RMK SLP981,2025-09-06T11:15:59Z,2025-09-06T07:15:59Z
CYMO,2025-09-06T12:01:00Z,2025-09-06T08:01:00Z,MVFR,7,6,93,240,13,14500,29.5,NA,SCT  ft; BKN  ft; BKN  ft; OVC  ft,CYMO 061201Z AUTO 24013G20KT 9SM -RA SCT012 BKN017 BKN035 OVC043 07/06 A2950 RMK SLP991,2025-09-06T12:39:59Z,2025-09-06T08:39:59Z
CYMO,2025-09-06T13:00:00Z,2025-09-06T09:00:00Z,MVFR,7,7,100,250,13,9700,29.53,NA,BKN  ft; OVC  ft,CYMO 061300Z AUTO 25013G24KT 6SM -RA BR BKN012 OVC018 07/07 A2953 RMK PCPN 1.2MM PAST HR SLP002,2025-09-06T13:22:39Z,2025-09-06T09:22:39Z
CYMO,2025-09-06T13:22:00Z,2025-09-06T09:22:00Z,MVFR,7,7,100,240,16,8000,29.54,NA,OVC  ft,CYMO 061322Z AUTO 24016G21KT 5SM -RA BR OVC012 07/07 A2954 RMK SLP007,2025-09-06T13:38:40Z,2025-09-06T09:38:40Z
CYMO,2025-09-06T14:15:00Z,2025-09-06T10:15:00Z,IFR,7,7,100,250,13,3200,29.58,NA,BKN  ft; OVC  ft,CYMO 061415Z AUTO 25013G20KT 2SM -RA BR BKN009 OVC013 07/07 A2958 RMK PRESRR SLP020,2025-09-06T14:18:38Z,2025-09-06T10:18:38Z
CYMO,2025-09-06T14:34:00Z,2025-09-06T10:34:00Z,IFR,8,7,93,250,12,2800,29.59,NA,SCT  ft; OVC  ft,CYMO 061434Z AUTO 25012G19KT 1 3/4SM -RA BR SCT009 OVC015 08/07 A2959 RMK SLP023,2025-09-06T14:38:51Z,2025-09-06T10:38:51Z
CYMO,2025-09-06T15:14:00Z,2025-09-06T11:14:00Z,IFR,8,7,93,250,12,4000,29.62,NA,BKN  ft; OVC  ft,CYMO 061514Z AUTO 25012G19KT 2 1/2SM BR BKN009 OVC014 08/07 A2962 RMK SLP031,2025-09-06T15:19:23Z,2025-09-06T11:19:23Z
CYMO,2025-09-06T15:27:00Z,2025-09-06T11:27:00Z,IFR,8,7,93,250,12,4800,29.62,NA,OVC  ft,CYMO 061527Z AUTO 25012G22KT 3SM BR OVC009 08/07 A2962 RMK SLP032,2025-09-06T15:38:45Z,2025-09-06T11:38:45Z
CYMO,2025-09-06T16:20:00Z,2025-09-06T12:20:00Z,MVFR,8,8,100,250,10,9700,29.66,NA,BKN  ft; OVC  ft,CYMO 061620Z AUTO 25010G15KT 6SM BR BKN010 OVC013 08/08 A2966 RMK SLP045,2025-09-06T16:24:52Z,2025-09-06T12:24:52Z
CYMO,2025-09-06T16:30:00Z,2025-09-06T12:30:00Z,MVFR,8,8,100,250,10,6400,29.66,NA,OVC  ft,CYMO 061630Z AUTO 25010G15KT 4SM BR OVC010 08/08 A2966 RMK SLP047,2025-09-06T16:42:29Z,2025-09-06T12:42:29Z
CYMO,2025-09-06T16:46:00Z,2025-09-06T12:46:00Z,MVFR,8,8,100,250,13,9700,29.67,NA,OVC  ft,CYMO 061646Z AUTO 25013G18KT 6SM BR OVC010 08/08 A2967 RMK SLP050,2025-09-06T16:59:45Z,2025-09-06T12:59:45Z
CYMO,2025-09-06T17:00:00Z,2025-09-06T13:00:00Z,MVFR,8,8,100,260,14,14500,29.68,NA,OVC  ft,CYMO 061700Z AUTO 26014G19KT 9SM OVC010 08/08 A2968 RMK SLP052,2025-09-06T17:24:31Z,2025-09-06T13:24:31Z
CYMO,2025-09-06T18:00:00Z,2025-09-06T14:00:00Z,MVFR,9,8,94,260,12,14500,29.7,NA,OVC  ft,CYMO 061800Z AUTO 26012G20KT 9SM OVC012 09/08 A2970 RMK SLP061,2025-09-06T18:32:24Z,2025-09-06T14:32:24Z
CYMO,2025-09-06T19:09:00Z,2025-09-06T15:09:00Z,MVFR,10,9,94,260,7,14500,29.72,NA,FEW  ft; BKN  ft; OVC  ft,CYMO 061909Z AUTO 26007KT 9SM FEW014 BKN019 OVC025 10/09 A2972 RMK SLP068,2025-09-06T19:18:13Z,2025-09-06T15:18:13Z
CYMO,2025-09-06T19:23:00Z,2025-09-06T15:23:00Z,MVFR,10,9,94,250,7,14500,29.73,NA,SCT  ft; OVC  ft,CYMO 061923Z AUTO 25007G15KT 9SM SCT019 OVC027 10/09 A2973 RMK SLP070,2025-09-06T19:41:23Z,2025-09-06T15:41:23Z
CYMO,2025-09-06T20:00:00Z,2025-09-06T16:00:00Z,VFR,11,9,88,260,10,14500,29.74,NA,FEW  ft; SCT  ft; OVC  ft,CYMO 062000Z AUTO 26010KT 9SM FEW017 SCT025 OVC037 11/09 A2974 RMK SLP072,2025-09-06T20:25:14Z,2025-09-06T16:25:14Z
CYMO,2025-09-06T21:00:00Z,2025-09-06T17:00:00Z,VFR,12,9,82,260,6,14500,29.75,NA,FEW  ft; BKN  ft; OVC  ft,CYMO 062100Z AUTO 26006KT 240V300 9SM FEW020 BKN047 OVC091 12/09 A2975 RMK SLP078,2025-09-06T21:21:19Z,2025-09-06T17:21:19Z
CYMO,2025-09-06T22:00:00Z,2025-09-06T18:00:00Z,VFR,11,9,88,290,2,14500,29.77,NA,OVC  ft,CYMO 062200Z AUTO 29002KT 9SM OVC091 11/09 A2977 RMK SLP084,2025-09-06T22:23:56Z,2025-09-06T18:23:56Z
CYMO,2025-09-06T23:00:00Z,2025-09-06T19:00:00Z,VFR,12,9,82,180,2,14500,29.78,NA,BKN  ft,CYMO 062300Z AUTO 18002KT 9SM BKN091 12/09 A2978 RMK SLP087,2025-09-06T23:22:35Z,2025-09-06T19:22:35Z
CYMO,2025-09-07T01:00:00Z,2025-09-06T21:00:00Z,VFR,9,6,82,250,6,14500,29.81,NA,SCT  ft,CYMO 070100Z AUTO 25006KT 9SM SCT055 09/06 A2981 RMK SLP096,2025-09-07T02:04:14Z,2025-09-06T22:04:14Z
CYMO,2025-09-07T02:00:00Z,2025-09-06T22:00:00Z,VFR,7,5,87,230,6,14500,29.81,NA,CLR  ft,CYMO 070200Z AUTO 23006KT 9SM CLR 07/05 A2981 RMK SLP096,2025-09-07T03:07:53Z,2025-09-06T23:07:53Z
CYMO,2025-09-07T03:00:00Z,2025-09-06T23:00:00Z,VFR,6,5,93,250,6,14500,29.81,NA,BKN  ft,CYMO 070300Z AUTO 25006KT 9SM BKN091 06/05 A2981 RMK SLP098,2025-09-07T03:38:07Z,2025-09-06T23:38:07Z
CYMO,2025-09-07T04:00:00Z,2025-09-07T00:00:00Z,VFR,5,4,93,260,5,14500,29.82,NA,BKN  ft,CYMO 070400Z AUTO 26005KT 9SM BKN096 05/04 A2982 RMK SLP099,2025-09-07T04:29:48Z,2025-09-07T00:29:48Z
CYMO,2025-09-07T05:00:00Z,2025-09-07T01:00:00Z,VFR,7,6,93,230,6,14500,29.82,NA,OVC  ft,CYMO 070500Z AUTO 23006KT 9SM OVC050 07/06 A2982 RMK SLP101,2025-09-07T05:25:32Z,2025-09-07T01:25:32Z
CYMO,2025-09-07T06:00:00Z,2025-09-07T02:00:00Z,VFR,7,6,93,240,6,14500,29.82,NA,OVC  ft,CYMO 070600Z AUTO 24006KT 9SM OVC050 07/06 A2982 RMK SLP101,2025-09-07T06:34:53Z,2025-09-07T02:34:53Z
CYMO,2025-09-07T07:00:00Z,2025-09-07T03:00:00Z,VFR,7,6,93,250,6,14500,29.83,NA,OVC  ft,CYMO 070700Z AUTO 25006KT 9SM OVC100 07/06 A2983 RMK SLP103,2025-09-07T07:22:54Z,2025-09-07T03:22:54Z
CYMO,2025-09-07T08:00:00Z,2025-09-07T04:00:00Z,VFR,7,6,93,250,6,14500,29.83,NA,OVC  ft,CYMO 070800Z AUTO 25006KT 9SM OVC096 07/06 A2983 RMK SLP103,2025-09-07T08:29:56Z,2025-09-07T04:29:56Z
CYMO,2025-09-07T09:00:00Z,2025-09-07T05:00:00Z,VFR,7,6,93,240,5,14500,29.84,NA,FEW  ft; OVC  ft,CYMO 070900Z AUTO 24005KT 9SM FEW050 OVC096 07/06 A2984 RMK SLP107,2025-09-07T09:23:40Z,2025-09-07T05:23:40Z
CYMO,2025-09-07T10:00:00Z,2025-09-07T06:00:00Z,VFR,7,6,93,250,5,14500,29.84,NA,BKN  ft; OVC  ft,CYMO 071000Z AUTO 25005KT 9SM BKN076 OVC097 07/06 A2984 RMK SLP108,2025-09-07T10:26:10Z,2025-09-07T06:26:10Z
CYMO,2025-09-07T11:00:00Z,2025-09-07T07:00:00Z,VFR,6,6,100,250,4,14500,29.85,NA,FEW  ft; OVC  ft,CYMO 071100Z AUTO 25004KT 9SM FEW076 OVC093 06/06 A2985 RMK SLP111,2025-09-07T11:19:23Z,2025-09-07T07:19:23Z
CYMO,2025-09-07T12:00:00Z,2025-09-07T08:00:00Z,VFR,7,6,93,260,5,14500,29.86,NA,OVC  ft,CYMO 071200Z AUTO 26005KT 9SM OVC055 07/06 A2986 RMK SLP113,2025-09-07T12:48:15Z,2025-09-07T08:48:15Z
CYMO,2025-09-07T13:07:00Z,2025-09-07T09:07:00Z,MVFR,8,7,93,280,6,14500,29.86,NA,BKN  ft; OVC  ft,CYMO 071307Z AUTO 28006KT 9SM BKN010 OVC096 08/07 A2986 RMK SLP115,2025-09-07T13:26:44Z,2025-09-07T09:26:44Z
CYMO,2025-09-07T13:27:00Z,2025-09-07T09:27:00Z,IFR,8,7,93,290,5,14500,29.87,NA,OVC  ft,CYMO 071327Z AUTO 29005KT 9SM OVC008 08/07 A2987 RMK SLP116,2025-09-07T13:42:00Z,2025-09-07T09:42:00Z
CYMO,2025-09-07T14:04:00Z,2025-09-07T10:04:00Z,IFR,9,7,87,310,7,14500,29.87,NA,OVC  ft,CYMO 071404Z AUTO 31007KT 270V330 9SM -RA OVC008 09/07 A2987 RMK SLP118,2025-09-07T14:23:04Z,2025-09-07T10:23:04Z
CYMO,2025-09-07T14:26:00Z,2025-09-07T10:26:00Z,MVFR,9,8,94,300,6,14500,29.88,NA,OVC  ft,CYMO 071426Z AUTO 30006KT 9SM OVC010 09/08 A2988 RMK SLP119,2025-09-07T14:41:55Z,2025-09-07T10:41:55Z
CYMO,2025-09-07T15:00:00Z,2025-09-07T11:00:00Z,MVFR,9,7,87,320,7,14500,29.88,NA,SCT  ft; BKN  ft; BKN  ft; OVC  ft,CYMO 071500Z AUTO 32007KT 9SM -RA SCT012 BKN018 BKN027 OVC032 09/07 A2988 RMK SLP121,2025-09-07T15:23:36Z,2025-09-07T11:23:36Z
CYMO,2025-09-07T16:12:00Z,2025-09-07T12:12:00Z,VFR,9,7,87,300,6,14500,29.9,NA,FEW  ft; SCT  ft; BKN  ft; OVC  ft,CYMO 071612Z AUTO 30006KT 9SM FEW019 SCT046 BKN055 OVC084 09/07 A2990 RMK SLP126,2025-09-07T16:29:08Z,2025-09-07T12:29:08Z
CYMO,2025-09-07T17:13:00Z,2025-09-07T13:13:00Z,MVFR,10,7,82,290,4,14500,29.89,NA,SCT  ft; BKN  ft; BKN  ft; OVC  ft,CYMO 071713Z AUTO 29004KT 270V330 9SM SCT018 BKN023 BKN039 OVC049 10/07 A2989 RMK SLP125,2025-09-07T17:21:31Z,2025-09-07T13:21:31Z
CYMO,2025-09-07T17:26:00Z,2025-09-07T13:26:00Z,VFR,10,6,76,290,7,14500,29.89,NA,FEW  ft; SCT  ft; BKN  ft; OVC  ft,CYMO 071726Z AUTO 29007KT 9SM FEW018 SCT025 BKN037 OVC049 10/06 A2989 RMK SLP125,2025-09-07T17:41:26Z,2025-09-07T13:41:26Z
CYMO,2025-09-07T18:00:00Z,2025-09-07T14:00:00Z,VFR,11,6,72,280,8,14500,29.89,NA,FEW  ft; SCT  ft; OVC  ft,CYMO 071800Z AUTO 28008KT 9SM FEW027 SCT039 OVC049 11/06 A2989 RMK SLP124,2025-09-07T18:32:51Z,2025-09-07T14:32:51Z
CYMO,2025-09-07T18:42:00Z,2025-09-07T14:42:00Z,VFR,11,6,72,310,10,14500,29.89,NA,FEW  ft; BKN  ft; BKN  ft,CYMO 071842Z AUTO 31010KT 9SM FEW034 BKN044 BKN055 11/06 A2989 RMK SLP124,2025-09-07T18:45:31Z,2025-09-07T14:45:31Z
CYMO,2025-09-07T19:04:00Z,2025-09-07T15:04:00Z,VFR,11,6,72,270,12,14500,29.89,NA,FEW  ft; BKN  ft; BKN  ft,CYMO 071904Z AUTO 27012KT 9SM FEW025 BKN044 BKN055 11/06 A2989 RMK SLP124,2025-09-07T19:18:49Z,2025-09-07T15:18:49Z
CYMO,2025-09-07T20:12:00Z,2025-09-07T16:12:00Z,VFR,10,4,67,300,9,14500,29.89,NA,SCT  ft; OVC  ft,CYMO 072012Z AUTO 30009G19KT 9SM -RA SCT047 OVC060 10/04 A2989 RMK SLP124,2025-09-07T20:25:51Z,2025-09-07T16:25:51Z
CYMO,2025-09-07T20:24:00Z,2025-09-07T16:24:00Z,VFR,11,5,67,290,8,14500,29.89,NA,FEW  ft; BKN  ft,CYMO 072024Z AUTO 29008KT 9SM FEW042 BKN060 11/05 A2989 RMK SLP124,2025-09-07T20:42:07Z,2025-09-07T16:42:07Z
CYMO,2025-09-07T21:00:00Z,2025-09-07T17:00:00Z,VFR,11,4,62,290,9,14500,29.9,NA,SCT  ft; BKN  ft,CYMO 072100Z AUTO 29009G15KT 9SM SCT055 BKN073 11/04 A2990 RMK SLP127,2025-09-07T21:21:33Z,2025-09-07T17:21:33Z
CYOW,2025-09-05T18:00:00Z,2025-09-05T14:00:00Z,VFR,23,11,47,180,16,24100,29.71,NA,FEW  ft; BKN  ft,CYOW 051800Z 18016G24KT 150V210 15SM FEW040 BKN140 23/11 A2971 RMK CU1AC4 SLP065 DENSITY ALT 1700FT,2025-09-05T18:23:21Z,2025-09-05T14:23:21Z
CYOW,2025-09-05T19:00:00Z,2025-09-05T15:00:00Z,VFR,23,10,44,190,16,24100,29.68,NA,FEW  ft; BKN  ft,CYOW 051900Z 19016G25KT 150V210 15SM FEW045 BKN110 23/10 A2968 RMK CU2AC4 SLP054 DENSITY ALT 1700FT,2025-09-05T19:20:59Z,2025-09-05T15:20:59Z
CYOW,2025-09-05T20:00:00Z,2025-09-05T16:00:00Z,VFR,22,9,44,210,22,24100,29.69,NA,SCT  ft; BKN  ft,CYOW 052000Z 21022G33KT 15SM SCT055 BKN090 22/09 A2969 RMK CU3AC3 SLP055 DENSITY ALT 1600FT,2025-09-05T20:29:27Z,2025-09-05T16:29:27Z
CYOW,2025-09-05T21:00:00Z,2025-09-05T17:00:00Z,VFR,22,12,53,200,14,24100,29.69,NA,BKN  ft; BKN  ft,CYOW 052100Z 20014G25KT 15SM BKN062 BKN090 22/12 A2969 RMK SC5AC1 CU ASOCT SLP056 DENSITY ALT 1600FT,2025-09-05T21:14:26Z,2025-09-05T17:14:26Z
CYOW,2025-09-05T22:00:00Z,2025-09-05T18:00:00Z,VFR,22,12,53,200,15,24100,29.67,NA,FEW  ft; FEW  ft,CYOW 052200Z 20015G24KT 15SM FEW060 FEW250 22/12 A2967 RMK CU1CI1 CU TR SLP051 DENSITY ALT 1700FT,2025-09-05T22:18:44Z,2025-09-05T18:18:44Z
CYOW,2025-09-05T23:00:00Z,2025-09-05T19:00:00Z,VFR,21,12,57,190,11,24100,29.67,NA,SCT  ft; SCT  ft,CYOW 052300Z 19011G17KT 15SM SCT040TCU SCT250 21/12 A2967 RMK TCU4CI1 CI TR TCU W QUAD SLP051 DENSITY ALT 1500FT,2025-09-05T23:20:06Z,2025-09-05T19:20:06Z
CYOW,2025-09-06T01:17:00Z,2025-09-05T21:17:00Z,VFR,16,13,83,230,11,24100,29.73,NA,FEW  ft; SCT  ft; SCT  ft,CYOW 060117Z 23011KT 15SM FEW057 SCT072 SCT100 16/13 A2973 RMK SC2AC1AC1 SLP071 DENSITY ALT 900FT,2025-09-06T01:42:35Z,2025-09-05T21:42:35Z
CYOW,2025-09-06T02:00:00Z,2025-09-05T22:00:00Z,VFR,16,12,77,280,12,24100,29.77,NA,FEW  ft; FEW  ft,CYOW 060200Z 28012G20KT 15SM FEW055 FEW070 16/12 A2977 RMK SC1AC1 SC TR SLP084 DENSITY ALT 800FT,2025-09-06T02:56:34Z,2025-09-05T22:56:34Z
CYOW,2025-09-06T03:00:00Z,2025-09-05T23:00:00Z,VFR,15,11,77,260,12,24100,29.8,NA,SCT  ft,CYOW 060300Z 26012G18KT 15SM SCT056 15/11 A2980 RMK SC4 SLP094 DENSITY ALT 600FT,2025-09-06T03:30:46Z,2025-09-05T23:30:46Z
CYOW,2025-09-06T04:00:00Z,2025-09-06T00:00:00Z,VFR,13,10,82,260,7,24100,29.82,NA,FEW  ft,CYOW 060400Z 26007KT 15SM FEW100 13/10 A2982 RMK AC1 AC TR SLP099,2025-09-06T04:25:45Z,2025-09-06T00:25:45Z
CYOW,2025-09-06T05:00:00Z,2025-09-06T01:00:00Z,VFR,13,10,82,230,5,24100,29.84,NA,SCT  ft; BKN  ft,CYOW 060500Z 23005KT 15SM SCT064 BKN077 13/10 A2984 RMK SC4AC1 SLP108,2025-09-06T05:19:55Z,2025-09-06T01:19:55Z
CYOW,2025-09-06T06:00:00Z,2025-09-06T02:00:00Z,VFR,12,10,88,220,3,24100,29.86,NA,SCT  ft; BKN  ft,CYOW 060600Z 22003KT 15SM SCT063 BKN069 12/10 A2986 RMK SC4AC1 SLP115,2025-09-06T06:29:49Z,2025-09-06T02:29:49Z
CYOW,2025-09-06T07:00:00Z,2025-09-06T03:00:00Z,VFR,11,9,88,190,2,24100,29.87,NA,BKN  ft,CYOW 060700Z 19002KT 15SM BKN080 11/09 A2987 RMK AC5 SLP117,2025-09-06T07:18:41Z,2025-09-06T03:18:41Z
CYOW,2025-09-06T08:00:00Z,2025-09-06T04:00:00Z,VFR,11,10,94,190,3,24100,29.88,NA,FEW  ft,CYOW 060800Z 19003KT 15SM FEW070 11/10 A2988 RMK AC2 SLP121,2025-09-06T08:25:11Z,2025-09-06T04:25:11Z
CYOW,2025-09-06T09:00:00Z,2025-09-06T05:00:00Z,VFR,10,9,94,190,5,24100,29.9,NA,FEW  ft,CYOW 060900Z 19005KT 15SM FEW100 10/09 A2990 RMK AC1 SLP127,2025-09-06T09:19:46Z,2025-09-06T05:19:46Z
CYOW,2025-09-06T10:00:00Z,2025-09-06T06:00:00Z,VFR,10,9,94,170,5,24100,29.89,NA,SCT  ft; BKN  ft; BKN  ft,CYOW 061000Z 17005KT 15SM SCT190 BKN210 BKN230 10/09 A2989 RMK AC4CC1CI1 SLP124,2025-09-06T10:20:30Z,2025-09-06T06:20:30Z
CYOW,2025-09-06T11:00:00Z,2025-09-06T07:00:00Z,VFR,10,9,94,190,3,24100,29.89,NA,FEW  ft; OVC  ft,CYOW 061100Z 19003KT 15SM FEW100 OVC180 10/09 A2989 RMK AC1AC7 SLP126,2025-09-06T11:16:00Z,2025-09-06T07:16:00Z
CYOW,2025-09-06T12:00:00Z,2025-09-06T08:00:00Z,VFR,12,10,88,200,5,24100,29.92,NA,FEW  ft; OVC  ft,CYOW 061200Z 20005KT 15SM FEW100 OVC150 12/10 A2992 RMK AC1AC7 SLP136,2025-09-06T12:40:00Z,2025-09-06T08:40:00Z
CYOW,2025-09-06T13:00:00Z,2025-09-06T09:00:00Z,VFR,12,9,82,210,7,24100,29.93,NA,FEW  ft; OVC  ft,CYOW 061300Z 21007KT 15SM FEW080 OVC120 12/09 A2993 RMK AC1AC7 SLP140,2025-09-06T13:22:39Z,2025-09-06T09:22:39Z
CYOW,2025-09-06T14:00:00Z,2025-09-06T10:00:00Z,VFR,13,9,77,240,7,24100,29.94,NA,FEW  ft; OVC  ft,CYOW 061400Z 24007KT 15SM FEW080 OVC120 13/09 A2994 RMK AC1AC7 SLP141,2025-09-06T14:18:38Z,2025-09-06T10:18:38Z
CYOW,2025-09-06T15:00:00Z,2025-09-06T11:00:00Z,VFR,13,9,77,220,5,24100,29.93,NA,OVC  ft,CYOW 061500Z 22005KT 15SM -RA OVC083 13/09 A2993 RMK AC8 SLP140,2025-09-06T15:19:23Z,2025-09-06T11:19:23Z
CYOW,2025-09-06T16:00:00Z,2025-09-06T12:00:00Z,VFR,14,10,77,190,7,24100,29.93,NA,FEW  ft; BKN  ft,CYOW 061600Z 19007KT 15SM FEW070 BKN100 14/10 A2993 RMK AC1AC5 SLP139,2025-09-06T16:24:52Z,2025-09-06T12:24:52Z
CYOW,2025-09-06T17:00:00Z,2025-09-06T13:00:00Z,VFR,16,9,63,200,11,24100,29.93,NA,FEW  ft; SCT  ft; BKN  ft; BKN  ft,CYOW 061700Z 20011KT 190V250 15SM FEW030 SCT170 BKN210 BKN250 16/09 A2993 RMK CU1AC2CC2CI1 CI TR SLP138 DENSITY ALT 600FT,2025-09-06T17:24:32Z,2025-09-06T13:24:32Z
CYOW,2025-09-06T18:00:00Z,2025-09-06T14:00:00Z,VFR,18,8,52,220,12,24100,29.92,NA,SCT  ft; SCT  ft,CYOW 061800Z 22012G18KT 15SM SCT040 SCT210 18/08 A2992 RMK CU3CC1 SLP133 DENSITY ALT 800FT,2025-09-06T18:32:25Z,2025-09-06T14:32:25Z
CYOW,2025-09-06T19:00:00Z,2025-09-06T15:00:00Z,VFR,19,8,49,230,10,24100,29.91,NA,SCT  ft; BKN  ft,CYOW 061900Z 23010G15KT 190V250 15SM SCT047 BKN250 19/08 A2991 RMK CU3CI3 SLP131 DENSITY ALT 900FT,2025-09-06T19:18:14Z,2025-09-06T15:18:14Z
CYOW,2025-09-06T20:00:00Z,2025-09-06T16:00:00Z,VFR,19,8,49,230,9,24100,29.89,NA,SCT  ft; SCT  ft,CYOW 062000Z 23009KT 15SM SCT053 SCT250 19/08 A2989 RMK CU3CI1 SLP126 DENSITY ALT 1000FT,2025-09-06T20:25:15Z,2025-09-06T16:25:15Z
CYOW,2025-09-06T21:00:00Z,2025-09-06T17:00:00Z,VFR,20,7,43,250,9,24100,29.9,NA,SCT  ft; BKN  ft,CYOW 062100Z 25009G15KT 180V280 15SM SCT060 BKN250 20/07 A2990 RMK CU4CI1 SLP127 DENSITY ALT 1200FT,2025-09-06T21:21:19Z,2025-09-06T17:21:19Z
CYOW,2025-09-06T22:00:00Z,2025-09-06T18:00:00Z,VFR,19,7,46,230,8,24100,29.9,NA,BKN  ft; BKN  ft,CYOW 062200Z 23008KT 15SM BKN073 BKN250 19/07 A2990 RMK CU5CI1 SLP127 DENSITY ALT 1000FT,2025-09-06T22:23:57Z,2025-09-06T18:23:57Z
CYOW,2025-09-06T23:00:00Z,2025-09-06T19:00:00Z,VFR,18,8,52,340,6,24100,29.9,NA,SCT  ft; BKN  ft,CYOW 062300Z 34006KT 290V360 15SM SCT060 BKN082 18/08 A2990 RMK SC4AC2 SLP128 DENSITY ALT 900FT,2025-09-06T23:22:36Z,2025-09-06T19:22:36Z
CYOW,2025-09-07T01:00:00Z,2025-09-06T21:00:00Z,VFR,16,8,59,320,5,24100,29.95,NA,BKN  ft; BKN  ft,CYOW 070100Z 32005KT 15SM BKN060 BKN080 16/08 A2995 RMK SC5AC2 SLP145 DENSITY ALT 600FT,2025-09-07T02:04:14Z,2025-09-06T22:04:14Z
CYOW,2025-09-07T02:00:00Z,2025-09-06T22:00:00Z,VFR,15,9,68,250,5,24100,29.96,NA,BKN  ft,CYOW 070200Z 25005KT 15SM BKN085 15/09 A2996 RMK AC6 SLP150,2025-09-07T03:07:54Z,2025-09-06T23:07:54Z
CYOW,2025-09-07T03:00:00Z,2025-09-06T23:00:00Z,VFR,15,9,68,230,4,24100,29.97,NA,FEW  ft; BKN  ft; BKN  ft,CYOW 070300Z 23004KT 220V290 15SM FEW063 BKN070 BKN085 15/09 A2997 RMK SC2AC3AC1 SLP153,2025-09-07T03:38:07Z,2025-09-06T23:38:07Z
CYOW,2025-09-07T03:44:00Z,2025-09-06T23:44:00Z,VFR,14,9,72,220,4,24100,29.97,NA,BKN  ft,CYOW 070344Z 22004KT 15SM -RA BKN075 14/09 A2997 RMK AC6 SLP152,2025-09-07T03:50:40Z,2025-09-06T23:50:40Z
CYOW,2025-09-07T04:00:00Z,2025-09-07T00:00:00Z,VFR,14,10,77,160,4,24100,29.97,NA,BKN  ft,CYOW 070400Z 16004KT 150V220 15SM BKN067 14/10 A2997 RMK AC6 SLP151,2025-09-07T04:29:48Z,2025-09-07T00:29:48Z
CYOW,2025-09-07T05:00:00Z,2025-09-07T01:00:00Z,VFR,14,10,77,170,3,24100,29.97,NA,FEW  ft; BKN  ft,CYOW 070500Z 17003KT 15SM FEW064 BKN085 14/10 A2997 RMK SC1AC5 SLP151,2025-09-07T05:25:33Z,2025-09-07T01:25:33Z
CYOW,2025-09-07T06:00:00Z,2025-09-07T02:00:00Z,VFR,13,10,82,210,4,24100,29.96,NA,BKN  ft,CYOW 070600Z CCA 21004KT 15SM BKN074 13/10 A2996 RMK AC5 SLP150,2025-09-07T06:34:54Z,2025-09-07T02:34:54Z
CYOW,2025-09-07T07:00:00Z,2025-09-07T03:00:00Z,VFR,13,10,82,210,3,24100,29.95,NA,BKN  ft,CYOW 070700Z 21003KT 15SM BKN079 13/10 A2995 RMK AC6 SLP144,2025-09-07T07:22:55Z,2025-09-07T03:22:55Z
CYOW,2025-09-07T08:00:00Z,2025-09-07T04:00:00Z,VFR,12,10,88,180,3,24100,29.94,NA,BKN  ft,CYOW 070800Z 18003KT 15SM BKN089 12/10 A2994 RMK AC6 SLP143,2025-09-07T08:29:57Z,2025-09-07T04:29:57Z
CYOW,2025-09-07T09:00:00Z,2025-09-07T05:00:00Z,VFR,12,11,94,170,4,24100,29.94,NA,BKN  ft,CYOW 070900Z 17004KT 15SM BKN094 12/11 A2994 RMK AC5 SLP142,2025-09-07T09:23:41Z,2025-09-07T05:23:41Z
CYOW,2025-09-07T10:00:00Z,2025-09-07T06:00:00Z,VFR,11,10,94,170,3,24100,29.94,NA,FEW  ft; BKN  ft; BKN  ft,CYOW 071000Z 17003KT 15SM FEW060 BKN080 BKN100 11/10 A2994 RMK SC2AC3AC2 SLP141,2025-09-07T10:26:11Z,2025-09-07T06:26:11Z
CYOW,2025-09-07T11:00:00Z,2025-09-07T07:00:00Z,VFR,12,11,94,160,5,24100,29.95,NA,BKN  ft,CYOW 071100Z 16005KT 15SM BKN062 12/11 A2995 RMK SC7 SLP145,2025-09-07T11:19:24Z,2025-09-07T07:19:24Z
CYOW,2025-09-07T12:00:00Z,2025-09-07T08:00:00Z,VFR,13,12,94,190,6,24100,29.95,NA,BKN  ft; BKN  ft,CYOW 071200Z 19006KT 15SM BKN050 BKN110 13/12 A2995 RMK SC5AC2 SLP147,2025-09-07T12:48:16Z,2025-09-07T08:48:16Z
CYOW,2025-09-07T13:00:00Z,2025-09-07T09:00:00Z,VFR,14,11,82,210,8,24100,29.95,NA,FEW  ft; BKN  ft,CYOW 071300Z 21008KT 15SM FEW012 BKN110 14/11 A2995 RMK CU1AC5 SLP146,2025-09-07T13:26:44Z,2025-09-07T09:26:44Z
CYOW,2025-09-07T14:00:00Z,2025-09-07T10:00:00Z,MVFR,16,11,72,230,11,24100,29.96,NA,BKN  ft; BKN  ft,CYOW 071400Z 23011KT 15SM BKN022 BKN140 16/11 A2996 RMK CU5AC1 SLP148 DENSITY ALT 600FT,2025-09-07T14:23:04Z,2025-09-07T10:23:04Z
CYOW,2025-09-07T15:00:00Z,2025-09-07T11:00:00Z,VFR,17,9,59,250,10,24100,29.97,NA,BKN  ft; BKN  ft,CYOW 071500Z 25010G17KT 15SM BKN036 BKN080 17/09 A2997 RMK CU5AC2 TCU ASOCTD SLP152 DENSITY ALT 600FT,2025-09-07T15:23:37Z,2025-09-07T11:23:37Z
CYOW,2025-09-07T16:00:00Z,2025-09-07T12:00:00Z,VFR,16,9,63,260,10,24100,29.98,NA,BKN  ft; BKN  ft,CYOW 071600Z 26010G15KT 15SM -SHRA BKN035TCU BKN068 16/09 A2998 RMK TCU5AC2 SLP155 DENSITY ALT 600FT,2025-09-07T16:29:09Z,2025-09-07T12:29:09Z
CYOW,2025-09-07T16:32:00Z,2025-09-07T12:32:00Z,VFR,17,9,59,280,12,24100,29.98,NA,BKN  ft; BKN  ft,CYOW 071632Z 28012KT 15SM BKN036TCU BKN068 17/09 A2998 RMK TCU5AC1 SH ALQDS SLP157 DENSITY ALT 700FT,2025-09-07T16:44:41Z,2025-09-07T12:44:41Z
CYOW,2025-09-07T17:00:00Z,2025-09-07T13:00:00Z,VFR,15,9,68,260,12,24100,29.99,NA,SCT  ft; BKN  ft,CYOW 071700Z 26012KT 15SM SCT030TCU BKN083 15/09 A2999 RMK TCU3AC2 SH NE SLP158,2025-09-07T17:21:31Z,2025-09-07T13:21:31Z
CYOW,2025-09-07T18:00:00Z,2025-09-07T14:00:00Z,VFR,16,9,63,300,12,24100,29.98,NA,BKN  ft,CYOW 071800Z 30012G18KT 15SM BKN036 16/09 A2998 RMK CU5 TCU ASOCTD SLP156 DENSITY ALT 600FT,2025-09-07T18:32:52Z,2025-09-07T14:32:52Z
CYOW,2025-09-07T19:00:00Z,2025-09-07T15:00:00Z,VFR,19,6,43,270,15,24100,29.98,NA,BKN  ft,CYOW 071900Z 27015G20KT 220V320 15SM BKN050 19/06 A2998 RMK CU5 SLP156 DENSITY ALT 900FT,2025-09-07T19:18:49Z,2025-09-07T15:18:49Z
CYOW,2025-09-07T20:00:00Z,2025-09-07T16:00:00Z,VFR,19,5,40,270,11,24100,29.99,NA,SCT  ft,CYOW 072000Z 27011G17KT 15SM SCT058 19/05 A2999 RMK CU4 SLP160 DENSITY ALT 900FT,2025-09-07T20:25:52Z,2025-09-07T16:25:52Z
CYOW,2025-09-07T21:00:00Z,2025-09-07T17:00:00Z,VFR,18,5,43,310,16,24100,30,NA,SCT  ft,CYOW 072100Z 31016KT 15SM SCT060 18/05 A3000 RMK CU4 SLP164 DENSITY ALT 800FT,2025-09-07T21:21:33Z,2025-09-07T17:21:33Z
CYPL,2025-09-05T18:00:00Z,2025-09-05T14:00:00Z,MVFR,4,3,93,300,11,14500,29.39,NA,OVC  ft,CYPL 051800Z AUTO 30011G18KT 270V330 9SM OVC013 04/03 A2939 RMK SLP971,2025-09-05T18:23:20Z,2025-09-05T14:23:20Z
CYPL,2025-09-05T18:49:00Z,2025-09-05T14:49:00Z,MVFR,5,4,93,300,10,6400,29.41,NA,OVC  ft,CYPL 051849Z AUTO 30010G21KT 270V340 4SM BR OVC013 05/04 A2941 RMK SLP975,2025-09-05T19:01:59Z,2025-09-05T15:01:59Z
CYPL,2025-09-05T19:15:00Z,2025-09-05T15:15:00Z,MVFR,5,4,93,300,11,8000,29.42,NA,BKN  ft; OVC  ft,CYPL 051915Z AUTO 30011G20KT 270V340 5SM BR BKN011 OVC016 05/04 A2942 RMK SLP979,2025-09-05T19:20:59Z,2025-09-05T15:20:59Z
CYPL,2025-09-05T19:26:00Z,2025-09-05T15:26:00Z,MVFR,5,5,100,300,9,4800,29.42,NA,SCT  ft; OVC  ft,CYPL 051926Z AUTO 30009G19KT 260V330 3SM -RA BR SCT009 OVC016 05/05 A2942 RMK SLP980,2025-09-05T19:31:28Z,2025-09-05T15:31:28Z
CYPL,2025-09-05T19:31:00Z,2025-09-05T15:31:00Z,MVFR,5,5,100,310,9,6400,29.43,NA,SCT  ft; OVC  ft,CYPL 051931Z AUTO 31009G19KT 270V330 4SM -RA BR SCT009 OVC016 05/05 A2943 RMK SLP981,2025-09-05T19:41:03Z,2025-09-05T15:41:03Z
CYPL,2025-09-05T20:04:00Z,2025-09-05T16:04:00Z,MVFR,5,5,100,320,9,14500,29.43,NA,BKN  ft; OVC  ft,CYPL 052004Z AUTO 32009G21KT 270V010 9SM BKN015 OVC021 05/05 A2943 RMK SLP984,2025-09-05T20:09:17Z,2025-09-05T16:09:17Z
CYPL,2025-09-05T20:24:00Z,2025-09-05T16:24:00Z,MVFR,5,4,93,310,8,14500,29.45,NA,OVC  ft,CYPL 052024Z AUTO 31008G17KT 260V020 9SM -RA OVC013 05/04 A2945 RMK SLP988,2025-09-05T20:29:27Z,2025-09-05T16:29:27Z
CYPL,2025-09-05T20:41:00Z,2025-09-05T16:41:00Z,MVFR,5,4,93,330,6,14500,29.45,NA,BKN  ft; BKN  ft; OVC  ft,CYPL 052041Z AUTO 33006G20KT 200V350 9SM BKN013 BKN028 OVC060 05/04 A2945 RMK SLP990,2025-09-05T20:45:37Z,2025-09-05T16:45:37Z
CYPL,2025-09-05T21:08:00Z,2025-09-05T17:08:00Z,MVFR,6,5,93,320,10,11300,29.46,NA,SCT  ft; BKN  ft; OVC  ft,CYPL 052108Z AUTO 32010G21KT 260V360 7SM -RA SCT013 BKN019 OVC055 06/05 A2946 RMK SLP993,2025-09-05T21:14:25Z,2025-09-05T17:14:25Z
CYPL,2025-09-05T21:19:00Z,2025-09-05T17:19:00Z,VFR,6,5,93,300,9,14500,29.47,NA,SCT  ft; BKN  ft; BKN  ft; OVC  ft,CYPL 052119Z AUTO 30009G20KT 270V350 9SM SCT017 BKN048 BKN066 OVC079 06/05 A2947 RMK SLP994,2025-09-05T21:23:23Z,2025-09-05T17:23:23Z
CYPL,2025-09-05T21:23:00Z,2025-09-05T17:23:00Z,MVFR,6,5,93,310,9,14500,29.47,NA,BKN  ft; BKN  ft; BKN  ft; OVC  ft,CYPL 052123Z AUTO 31009G20KT 260V350 9SM BKN017 BKN050 BKN066 OVC079 06/05 A2947 RMK SLP995,2025-09-05T21:31:33Z,2025-09-05T17:31:33Z
CYPL,2025-09-05T22:14:00Z,2025-09-05T18:14:00Z,MVFR,6,5,93,320,9,12900,29.49,NA,FEW  ft; SCT  ft; BKN  ft; OVC  ft,CYPL 052214Z AUTO 32009G21KT 270V010 8SM FEW015 SCT022 BKN028 OVC055 06/05 A2949 RMK SLP002,2025-09-05T22:18:44Z,2025-09-05T18:18:44Z
CYPL,2025-09-05T23:09:00Z,2025-09-05T19:09:00Z,MVFR,6,5,93,320,9,14500,29.51,NA,SCT  ft; BKN  ft; BKN  ft; OVC  ft,CYPL 052309Z AUTO 32009G19KT 290V030 9SM -RA SCT024 BKN029 BKN037 OVC060 06/05 A2951 RMK SLP010,2025-09-05T23:20:06Z,2025-09-05T19:20:06Z
CYPL,2025-09-05T23:29:00Z,2025-09-05T19:29:00Z,MVFR,6,5,93,330,9,14500,29.52,NA,BKN  ft; BKN  ft; OVC  ft,CYPL 052329Z AUTO 33009G17KT 270V040 9SM -RA BKN022 BKN028 OVC034 06/05 A2952 RMK SLP014,2025-09-05T23:39:26Z,2025-09-05T19:39:26Z
CYPL,2025-09-06T01:35:00Z,2025-09-05T21:35:00Z,MVFR,5,5,100,310,8,8000,29.59,NA,BKN  ft; OVC  ft,CYPL 060135Z AUTO 31008G25KT 270V360 5SM -RA BR BKN016 OVC027 05/05 A2959 RMK SLP036,2025-09-06T01:42:34Z,2025-09-05T21:42:34Z
CYPL,2025-09-06T02:36:00Z,2025-09-05T22:36:00Z,MVFR,5,4,93,320,12,14500,29.61,NA,FEW  ft; BKN  ft; OVC  ft,CYPL 060236Z AUTO 32012G32KT 270V010 9SM FEW009 BKN015 OVC020 05/04 A2961 RMK SLP043,2025-09-06T02:56:34Z,2025-09-05T22:56:34Z
CYPL,2025-09-06T03:00:00Z,2025-09-05T23:00:00Z,MVFR,5,4,93,320,10,14500,29.61,NA,OVC  ft,CYPL 060300Z AUTO 32010G22KT 280V040 9SM OVC017 05/04 A2961 RMK SLP045,2025-09-06T03:30:45Z,2025-09-05T23:30:45Z
CYPL,2025-09-06T04:00:00Z,2025-09-06T00:00:00Z,MVFR,5,4,93,320,10,14500,29.63,NA,OVC  ft,CYPL 060400Z AUTO 32010G21KT 290V010 9SM OVC017 05/04 A2963 RMK SLP051,2025-09-06T04:25:44Z,2025-09-06T00:25:44Z
CYPL,2025-09-06T05:00:00Z,2025-09-06T01:00:00Z,MVFR,5,3,87,310,9,14500,29.65,NA,OVC  ft,CYPL 060500Z AUTO 31009G21KT 280V360 9SM OVC015 05/03 A2965 RMK SLP057,2025-09-06T05:19:54Z,2025-09-06T01:19:54Z
CYPL,2025-09-06T06:00:00Z,2025-09-06T02:00:00Z,MVFR,5,3,87,320,10,14500,29.66,NA,OVC  ft,CYPL 060600Z AUTO 32010G19KT 290V360 9SM OVC015 05/03 A2966 RMK SLP062,2025-09-06T06:29:48Z,2025-09-06T02:29:48Z
CYPL,2025-09-06T07:08:00Z,2025-09-06T03:08:00Z,MVFR,5,3,87,320,9,14500,29.67,NA,SCT  ft; BKN  ft; OVC  ft,CYPL 060708Z AUTO 32009G15KT 280V010 9SM -RA SCT017 BKN024 OVC034 05/03 A2967 RMK SLP066,2025-09-06T07:18:40Z,2025-09-06T03:18:40Z
CYPL,2025-09-06T08:00:00Z,2025-09-06T04:00:00Z,MVFR,5,3,87,290,11,14500,29.69,NA,BKN  ft; OVC  ft,CYPL 060800Z AUTO 29011G17KT 9SM BKN015 OVC022 05/03 A2969 RMK SLP070,2025-09-06T08:25:11Z,2025-09-06T04:25:11Z
CYPL,2025-09-06T08:23:00Z,2025-09-06T04:23:00Z,MVFR,5,3,87,290,12,14500,29.69,NA,SCT  ft; BKN  ft; OVC  ft,CYPL 060823Z AUTO 29012G19KT 9SM -RA SCT015 BKN021 OVC027 05/03 A2969 RMK SLP073,2025-09-06T08:41:56Z,2025-09-06T04:41:56Z
CYPL,2025-09-06T09:00:00Z,2025-09-06T05:00:00Z,MVFR,5,4,93,300,9,14500,29.7,NA,FEW  ft; BKN  ft; OVC  ft,CYPL 060900Z AUTO 30009G16KT 9SM -RA FEW010 BKN016 OVC020 05/04 A2970 RMK SLP076,2025-09-06T09:19:45Z,2025-09-06T05:19:45Z
CYPL,2025-09-06T09:31:00Z,2025-09-06T05:31:00Z,MVFR,4,4,100,300,9,8000,29.71,NA,BKN  ft; OVC  ft,CYPL 060931Z AUTO 30009G15KT 270V350 5SM -RA BR BKN014 OVC021 04/04 A2971 RMK SLP079,2025-09-06T09:38:39Z,2025-09-06T05:38:39Z
CYPL,2025-09-06T10:17:00Z,2025-09-06T06:17:00Z,MVFR,4,4,100,300,8,9700,29.72,NA,SCT  ft; BKN  ft; BKN  ft; BKN  ft,CYPL 061017Z AUTO 30008G15KT 250V350 6SM -RA BR SCT007 BKN028 BKN045 BKN050 04/04 A2972 RMK SLP082,2025-09-06T10:20:30Z,2025-09-06T06:20:30Z
CYPL,2025-09-06T10:35:00Z,2025-09-06T06:35:00Z,MVFR,5,4,93,310,8,14500,29.72,NA,FEW  ft; SCT  ft; BKN  ft; BKN  ft,CYPL 061035Z AUTO 31008G16KT 280V340 9SM -RA FEW007 SCT018 BKN024 BKN047 05/04 A2972 RMK SLP083,2025-09-06T10:39:45Z,2025-09-06T06:39:45Z
CYPL,2025-09-06T11:00:00Z,2025-09-06T07:00:00Z,MVFR,4,3,93,310,9,14500,29.73,NA,BKN  ft; OVC  ft,CYPL 061100Z AUTO 31009G24KT 260V360 9SM -RA BKN014 OVC023 04/03 A2973 RMK SLP085,2025-09-06T11:16:00Z,2025-09-06T07:16:00Z
CYPL,2025-09-06T11:24:00Z,2025-09-06T07:24:00Z,VFR,4,3,93,310,9,14500,29.74,NA,SCT  ft; BKN  ft; BKN  ft; OVC  ft,CYPL 061124Z AUTO 31009G21KT 270V360 9SM -RA SCT014 BKN038 BKN048 OVC088 04/03 A2974 RMK SLP088,2025-09-06T11:38:57Z,2025-09-06T07:38:57Z
CYPL,2025-09-06T12:10:00Z,2025-09-06T08:10:00Z,MVFR,4,3,93,310,9,14500,29.75,NA,BKN  ft; OVC  ft,CYPL 061210Z AUTO 31009G17KT 9SM BKN017 OVC028 04/03 A2975 RMK SLP093,2025-09-06T12:39:59Z,2025-09-06T08:39:59Z
CYPL,2025-09-06T13:00:00Z,2025-09-06T09:00:00Z,MVFR,5,3,87,320,9,14500,29.77,NA,OVC  ft,CYPL 061300Z AUTO 32009G18KT 280V340 9SM OVC013 05/03 A2977 RMK SLP098,2025-09-06T13:22:39Z,2025-09-06T09:22:39Z
CYPL,2025-09-06T13:25:00Z,2025-09-06T09:25:00Z,MVFR,4,3,93,320,10,14500,29.78,NA,BKN  ft; OVC  ft,CYPL 061325Z AUTO 32010G19KT 280V360 9SM -RA BKN013 OVC030 04/03 A2978 RMK SLP101,2025-09-06T13:38:40Z,2025-09-06T09:38:40Z
CYPL,2025-09-06T14:00:00Z,2025-09-06T10:00:00Z,MVFR,5,3,87,310,8,14500,29.78,NA,OVC  ft,CYPL 061400Z AUTO 31008G18KT 270V350 9SM OVC017 05/03 A2978 RMK SLP104,2025-09-06T14:18:38Z,2025-09-06T10:18:38Z
CYPL,2025-09-06T15:00:00Z,2025-09-06T11:00:00Z,MVFR,6,4,87,310,10,14500,29.8,NA,OVC  ft,CYPL 061500Z AUTO 31010G17KT 260V350 9SM OVC015 06/04 A2980 RMK SLP109,2025-09-06T15:19:23Z,2025-09-06T11:19:23Z
CYPL,2025-09-06T16:00:00Z,2025-09-06T12:00:00Z,MVFR,6,4,87,320,9,14500,29.82,NA,FEW  ft; BKN  ft; BKN  ft; OVC  ft,CYPL 061600Z AUTO 32009G15KT 270V020 9SM FEW010 BKN017 BKN022 OVC029 06/04 A2982 RMK SLP114,2025-09-06T16:24:52Z,2025-09-06T12:24:52Z
CYPL,2025-09-06T17:00:00Z,2025-09-06T13:00:00Z,MVFR,7,4,81,300,7,14500,29.83,NA,BKN  ft; OVC  ft,CYPL 061700Z AUTO 30007G16KT 270V360 9SM BKN018 OVC025 07/04 A2983 RMK SLP120,2025-09-06T17:24:31Z,2025-09-06T13:24:31Z
CYPL,2025-09-06T17:25:00Z,2025-09-06T13:25:00Z,MVFR,7,4,81,310,10,14500,29.84,NA,SCT  ft; BKN  ft; OVC  ft,CYPL 061725Z AUTO 31010G20KT 280V350 9SM SCT021 BKN028 OVC032 07/04 A2984 RMK SLP119,2025-09-06T17:41:52Z,2025-09-06T13:41:52Z
CYPL,2025-09-06T18:25:00Z,2025-09-06T14:25:00Z,MVFR,7,4,81,340,8,14500,29.86,NA,FEW  ft; BKN  ft; BKN  ft; OVC  ft,CYPL 061825Z AUTO 34008G17KT 290V020 9SM -RA FEW018 BKN024 BKN033 OVC040 07/04 A2986 RMK SLP126,2025-09-06T18:32:24Z,2025-09-06T14:32:24Z
CYPL,2025-09-06T18:36:00Z,2025-09-06T14:36:00Z,VFR,7,5,87,320,6,14500,29.86,NA,SCT  ft; BKN  ft; OVC  ft,CYPL 061836Z AUTO 32006G18KT 270V020 9SM -RA SCT024 BKN037 OVC046 07/05 A2986 RMK SLP127,2025-09-06T18:45:14Z,2025-09-06T14:45:14Z
CYPL,2025-09-06T19:13:00Z,2025-09-06T15:13:00Z,MVFR,7,5,87,310,8,14500,29.87,NA,SCT  ft; BKN  ft; BKN  ft; OVC  ft,CYPL 061913Z AUTO 31008G17KT 260V030 9SM -RA SCT015 BKN019 BKN027 OVC034 07/05 A2987 RMK SLP130,2025-09-06T19:18:13Z,2025-09-06T15:18:13Z
CYPL,2025-09-06T19:28:00Z,2025-09-06T15:28:00Z,MVFR,7,5,87,310,7,14500,29.87,NA,SCT  ft; SCT  ft; BKN  ft; OVC  ft,CYPL 061928Z AUTO 31007G16KT 270V360 9SM -RA SCT017 SCT025 BKN030 OVC066 07/05 A2987 RMK SLP132,2025-09-06T19:41:23Z,2025-09-06T15:41:23Z
CYPL,2025-09-06T20:05:00Z,2025-09-06T16:05:00Z,MVFR,7,5,87,330,9,14500,29.88,NA,SCT  ft; BKN  ft; BKN  ft; OVC  ft,CYPL 062005Z AUTO 33009G16KT 290V010 9SM -RA SCT016 BKN021 BKN027 OVC034 07/05 A2988 RMK SLP136,2025-09-06T20:25:14Z,2025-09-06T16:25:14Z
CYPL,2025-09-06T20:36:00Z,2025-09-06T16:36:00Z,MVFR,7,5,87,310,8,14500,29.89,NA,SCT  ft; BKN  ft; OVC  ft,CYPL 062036Z AUTO 31008G16KT 280V010 9SM SCT013 BKN020 OVC066 07/05 A2989 RMK SLP139,2025-09-06T20:41:46Z,2025-09-06T16:41:46Z
CYPL,2025-09-06T21:12:00Z,2025-09-06T17:12:00Z,MVFR,6,5,93,320,8,14500,29.91,NA,SCT  ft; BKN  ft; BKN  ft; OVC  ft,CYPL 062112Z AUTO 32008G19KT 280V040 9SM SCT014 BKN027 BKN040 OVC068 06/05 A2991 RMK SLP144,2025-09-06T21:21:19Z,2025-09-06T17:21:19Z
CYPL,2025-09-06T22:07:00Z,2025-09-06T18:07:00Z,MVFR,6,5,93,330,7,14500,29.93,NA,SCT  ft; BKN  ft; BKN  ft; OVC  ft,CYPL 062207Z AUTO 33007G17KT 290V010 9SM -RA SCT013 BKN018 BKN026 OVC066 06/05 A2993 RMK SLP150,2025-09-06T22:23:56Z,2025-09-06T18:23:56Z
CYPL,2025-09-06T22:36:00Z,2025-09-06T18:36:00Z,MVFR,6,5,93,320,10,8000,29.93,NA,SCT  ft; BKN  ft; BKN  ft; OVC  ft,CYPL 062236Z AUTO 32010G16KT 280V010 5SM -RA BR SCT015 BKN019 BKN025 OVC029 06/05 A2993 RMK SLP153,2025-09-06T22:41:56Z,2025-09-06T18:41:56Z
CYPL,2025-09-06T23:18:00Z,2025-09-06T19:18:00Z,VFR,6,5,93,340,7,14500,29.95,NA,SCT  ft; SCT  ft; BKN  ft; OVC  ft,CYPL 062318Z AUTO 34007G17KT 290V020 9SM SCT021 SCT036 BKN060 OVC079 06/05 A2995 RMK SLP158,2025-09-06T23:22:35Z,2025-09-06T19:22:35Z
CYPL,2025-09-07T01:47:00Z,2025-09-06T21:47:00Z,MVFR,6,6,100,320,5,14500,29.98,NA,BKN  ft; OVC  ft,CYPL 070147Z AUTO 32005KT 290V350 9SM BKN014 OVC020 06/06 A2998 RMK SLP169,2025-09-07T02:04:14Z,2025-09-06T22:04:14Z
CYPL,2025-09-07T02:39:00Z,2025-09-06T22:39:00Z,MVFR,6,6,100,320,8,14500,29.99,NA,FEW  ft; BKN  ft; OVC  ft,CYPL 070239Z AUTO 32008G16KT 280V350 9SM FEW008 BKN012 OVC020 06/06 A2999 RMK SLP173,2025-09-07T03:07:53Z,2025-09-06T23:07:53Z
CYPL,2025-09-07T03:00:00Z,2025-09-06T23:00:00Z,MVFR,7,6,93,330,8,14500,29.99,NA,OVC  ft,CYPL 070300Z AUTO 33008G19KT 280V360 9SM OVC014 07/06 A2999 RMK SLP174,2025-09-07T03:38:07Z,2025-09-06T23:38:07Z
CYPL,2025-09-07T04:00:00Z,2025-09-07T00:00:00Z,MVFR,7,5,87,340,7,14500,30.01,NA,BKN  ft; OVC  ft,CYPL 070400Z AUTO 34007G18KT 300V030 9SM BKN016 OVC022 07/05 A3001 RMK SLP179,2025-09-07T04:29:48Z,2025-09-07T00:29:48Z
CYPL,2025-09-07T04:39:00Z,2025-09-07T00:39:00Z,VFR,6,5,93,330,5,14500,30.02,NA,SCT  ft; BKN  ft; OVC  ft,CYPL 070439Z AUTO 33005KT 290V030 9SM SCT023 BKN036 OVC060 06/05 A3002 RMK SLP182,2025-09-07T04:44:23Z,2025-09-07T00:44:23Z
CYPL,2025-09-07T05:00:00Z,2025-09-07T01:00:00Z,VFR,6,5,93,320,5,14500,30.02,NA,BKN  ft; BKN  ft,CYPL 070500Z AUTO 32005KT 280V020 9SM BKN034 BKN043 06/05 A3002 RMK SLP183,2025-09-07T05:25:32Z,2025-09-07T01:25:32Z
CYPL,2025-09-07T06:29:00Z,2025-09-07T02:29:00Z,MVFR,6,5,93,340,6,8000,30.04,NA,SCT  ft; BKN  ft; OVC  ft,CYPL 070629Z AUTO 34006KT 280V010 5SM -RA BR SCT008 BKN012 OVC023 06/05 A3004 RMK SLP190,2025-09-07T06:34:53Z,2025-09-07T02:34:53Z
CYPL,2025-09-07T06:42:00Z,2025-09-07T02:42:00Z,IFR,6,5,93,330,6,4800,30.04,NA,BKN  ft; OVC  ft,CYPL 070642Z AUTO 33006KT 300V030 3SM -RA BR BKN006 OVC023 06/05 A3004 RMK SLP190,2025-09-07T06:47:31Z,2025-09-07T02:47:31Z
CYPL,2025-09-07T07:19:00Z,2025-09-07T03:19:00Z,MVFR,5,5,100,320,5,14500,30.05,NA,SCT  ft; BKN  ft; OVC  ft,CYPL 070719Z AUTO 32005KT 290V020 9SM SCT016 BKN029 OVC044 05/05 A3005 RMK SLP193,2025-09-07T07:22:54Z,2025-09-07T03:22:54Z
CYPL,2025-09-07T08:00:00Z,2025-09-07T04:00:00Z,VFR,5,4,93,300,6,14500,30.05,NA,OVC  ft,CYPL 070800Z AUTO 30006KT 9SM OVC038 05/04 A3005 RMK SLP192,2025-09-07T08:29:56Z,2025-09-07T04:29:56Z
CYPL,2025-09-07T09:00:00Z,2025-09-07T05:00:00Z,VFR,5,4,93,290,10,14500,30.05,NA,OVC  ft,CYPL 070900Z AUTO 29010G15KT 9SM OVC036 05/04 A3005 RMK SLP193,2025-09-07T09:23:40Z,2025-09-07T05:23:40Z
CYPL,2025-09-07T10:00:00Z,2025-09-07T06:00:00Z,VFR,5,4,93,300,8,14500,30.05,NA,OVC  ft,CYPL 071000Z AUTO 30008KT 9SM OVC032 05/04 A3005 RMK SLP195,2025-09-07T10:26:10Z,2025-09-07T06:26:10Z
CYPL,2025-09-07T11:00:00Z,2025-09-07T07:00:00Z,VFR,5,3,87,280,7,14500,30.05,NA,OVC  ft,CYPL 071100Z AUTO 28007KT 260V340 9SM OVC034 05/03 A3005 RMK SLP195,2025-09-07T11:19:23Z,2025-09-07T07:19:23Z
CYPL,2025-09-07T12:00:00Z,2025-09-07T08:00:00Z,VFR,5,3,87,280,7,14500,30.06,NA,OVC  ft,CYPL 071200Z AUTO 28007KT 240V310 9SM OVC036 05/03 A3006 RMK SLP197,2025-09-07T12:48:15Z,2025-09-07T08:48:15Z
CYPL,2025-09-07T13:00:00Z,2025-09-07T09:00:00Z,VFR,6,4,87,280,8,14500,30.07,NA,SCT  ft; OVC  ft,CYPL 071300Z AUTO 28008G15KT 9SM SCT028 OVC038 06/04 A3007 RMK SLP199,2025-09-07T13:26:44Z,2025-09-07T09:26:44Z
CYPL,2025-09-07T14:00:00Z,2025-09-07T10:00:00Z,VFR,6,5,93,270,11,14500,30.06,NA,OVC  ft,CYPL 071400Z AUTO 27011G18KT 9SM OVC038 06/05 A3006 RMK SLP197,2025-09-07T14:23:04Z,2025-09-07T10:23:04Z
CYPL,2025-09-07T15:00:00Z,2025-09-07T11:00:00Z,VFR,7,4,81,290,11,14500,30.07,NA,OVC  ft,CYPL 071500Z AUTO 29011G19KT 9SM OVC038 07/04 A3007 RMK SLP198,2025-09-07T15:23:36Z,2025-09-07T11:23:36Z
CYPL,2025-09-07T16:00:00Z,2025-09-07T12:00:00Z,VFR,7,3,76,300,6,14500,30.07,NA,OVC  ft,CYPL 071600Z AUTO 30006G16KT 270V030 9SM OVC037 07/03 A3007 RMK SLP199,2025-09-07T16:29:08Z,2025-09-07T12:29:08Z
CYPL,2025-09-07T17:00:00Z,2025-09-07T13:00:00Z,VFR,8,4,76,290,9,14500,30.07,NA,FEW  ft; OVC  ft,CYPL 071700Z AUTO 29009G17KT 250V340 9SM FEW025 OVC041 08/04 A3007 RMK SLP198,2025-09-07T17:21:31Z,2025-09-07T13:21:31Z
CYPL,2025-09-07T18:00:00Z,2025-09-07T14:00:00Z,MVFR,9,3,66,300,8,14500,30.07,NA,BKN  ft; BKN  ft; OVC  ft,CYPL 071800Z AUTO 30008G18KT 9SM BKN030 BKN038 OVC044 09/03 A3007 RMK SLP198,2025-09-07T18:32:52Z,2025-09-07T14:32:52Z
CYPL,2025-09-07T19:00:00Z,2025-09-07T15:00:00Z,VFR,9,2,62,290,9,14500,30.06,NA,BKN  ft; OVC  ft,CYPL 071900Z AUTO 29009G18KT 270V360 9SM BKN036 OVC046 09/02 A3006 RMK SLP195,2025-09-07T19:18:49Z,2025-09-07T15:18:49Z
CYPL,2025-09-07T20:00:00Z,2025-09-07T16:00:00Z,VFR,10,3,62,290,9,14500,30.06,NA,OVC  ft,CYPL 072000Z AUTO 29009KT 260V330 9SM OVC040 10/03 A3006 RMK SLP195,2025-09-07T20:25:51Z,2025-09-07T16:25:51Z
CYPL,2025-09-07T21:00:00Z,2025-09-07T17:00:00Z,VFR,10,4,67,290,7,14500,30.05,NA,OVC  ft,CYPL 072100Z AUTO 29007KT 250V330 9SM OVC049 10/04 A3005 RMK SLP192,2025-09-07T21:21:33Z,2025-09-07T17:21:33Z
CYQA,2025-09-05T18:17:00Z,2025-09-05T14:17:00Z,VFR,18,12,68,220,9,14500,29.6,NA,BKN  ft; BKN  ft; BKN  ft; OVC  ft,CYQA 051817Z AUTO 22009G16KT 200V260 9SM BKN035 BKN045 BKN055 OVC110 18/12 A2960 RMK LTNG DIST NW SLP024 DENSITY ALT 1900FT,2025-09-05T18:23:21Z,2025-09-05T14:23:21Z
CYQA,2025-09-05T18:28:00Z,2025-09-05T14:28:00Z,VFR,18,12,68,210,9,14500,29.6,NA,SCT  ft; BKN  ft; BKN  ft; OVC  ft,CYQA 051828Z AUTO 21009KT 9SM -RA SCT035 BKN042 BKN055 OVC075 18/12 A2960 RMK LTNG DIST NE W NW SLP024 DENSITY ALT 1900FT,2025-09-05T18:32:26Z,2025-09-05T14:32:26Z
CYQA,2025-09-05T18:42:00Z,2025-09-05T14:42:00Z,VFR,20,12,60,220,16,14500,29.6,NA,SCT  ft; BKN  ft; BKN  ft; OVC  ft,CYQA 051842Z AUTO 22016G27KT 180V250 9SM SCT040 BKN050 BKN066 OVC080 20/12 A2960 RMK LTNG DIST NE SLP023 DENSITY ALT 2200FT,2025-09-05T18:48:18Z,2025-09-05T14:48:18Z
CYQA,2025-09-05T19:00:00Z,2025-09-05T15:00:00Z,VFR,19,12,64,200,13,14500,29.59,NA,SCT  ft; SCT  ft; BKN  ft; OVC  ft,CYQA 051900Z AUTO 20013G19KT 9SM SCT044 SCT055 BKN067 OVC093 19/12 A2959 RMK SLP023 DENSITY ALT 2100FT,2025-09-05T19:21:00Z,2025-09-05T15:21:00Z
CYQA,2025-09-05T20:00:00Z,2025-09-05T16:00:00Z,VFR,21,10,50,220,11,14500,29.59,NA,FEW  ft; SCT  ft,CYQA 052000Z AUTO 22011G27KT 200V280 9SM FEW055 SCT099 21/10 A2959 RMK SLP023 DENSITY ALT 2300FT,2025-09-05T20:29:27Z,2025-09-05T16:29:27Z
CYQA,2025-09-05T20:36:00Z,2025-09-05T16:36:00Z,VFR,19,10,56,270,22,14500,29.62,NA,FEW  ft; SCT  ft; BKN  ft; BKN  ft,CYQA 052036Z AUTO 27022G36KT 210V300 9SM FEW033 SCT060 BKN075 BKN089 19/10 A2962 RMK LTNG DIST W PRESRR SLP033 DENSITY ALT 2000FT,2025-09-05T20:39:14Z,2025-09-05T16:39:14Z
CYQA,2025-09-05T20:42:00Z,2025-09-05T16:42:00Z,VFR,15,11,77,300,17,9700,29.64,NA,FEW  ft; SCT  ft; BKN  ft; BKN  ft,CYQA 052042Z AUTO 30017G36KT 210V330 6SM +RA FEW031 SCT045 BKN060 BKN077 15/11 A2964 RMK PRESRR PCPN 1.0MM PAST HR SLP040 DENSITY ALT 1600FT,2025-09-05T20:45:38Z,2025-09-05T16:45:38Z
CYQA,2025-09-05T20:48:00Z,2025-09-05T16:48:00Z,VFR,15,12,82,290,13,9700,29.65,NA,FEW  ft; BKN  ft; BKN  ft; OVC  ft,CYQA 052048Z AUTO 29013G35KT 260V330 6SM -RA FEW033 BKN050 BKN066 OVC077 15/12 A2965 RMK PRESRR PCPN 1.2MM PAST HR SLP043 DENSITY ALT 1500FT,2025-09-05T20:51:32Z,2025-09-05T16:51:32Z
CYQA,2025-09-05T21:00:00Z,2025-09-05T17:00:00Z,VFR,14,12,88,290,11,14500,29.65,NA,FEW  ft; BKN  ft; BKN  ft; OVC  ft,CYQA 052100Z AUTO 29011G22KT 230V320 9SM FEW033 BKN049 BKN060 OVC094 14/12 A2965 RMK PCPN 1.2MM PAST HR SLP047 DENSITY ALT 1400FT,2025-09-05T21:14:26Z,2025-09-05T17:14:26Z
CYQA,2025-09-05T21:18:00Z,2025-09-05T17:18:00Z,MVFR,14,12,88,310,13,11300,29.66,NA,SCT  ft; BKN  ft; BKN  ft; OVC  ft,CYQA 052118Z AUTO 31013G24KT 260V340 7SM RA SCT014 BKN020 BKN050 OVC091 14/12 A2966 RMK SLP050 DENSITY ALT 1300FT,2025-09-05T21:23:24Z,2025-09-05T17:23:24Z
CYQA,2025-09-05T21:32:00Z,2025-09-05T17:32:00Z,VFR,14,13,94,300,10,14500,29.68,NA,SCT  ft; BKN  ft; BKN  ft; OVC  ft,CYQA 052132Z AUTO 30010G19KT 260V350 9SM SCT016 BKN047 BKN076 OVC097 14/13 A2968 RMK SLP053 DENSITY ALT 1400FT,2025-09-05T21:41:39Z,2025-09-05T17:41:39Z
CYQA,2025-09-05T22:00:00Z,2025-09-05T18:00:00Z,VFR,14,12,88,280,6,14500,29.69,NA,FEW  ft; BKN  ft; BKN  ft; OVC  ft,CYQA 052200Z AUTO 28006G15KT 250V330 9SM FEW019 BKN048 BKN060 OVC075 14/12 A2969 RMK SLP060 DENSITY ALT 1400FT,2025-09-05T22:18:45Z,2025-09-05T18:18:45Z
CYQA,2025-09-05T23:00:00Z,2025-09-05T19:00:00Z,VFR,14,10,77,250,6,14500,29.71,NA,FEW  ft; SCT  ft; BKN  ft; OVC  ft,CYQA 052300Z AUTO 25006G15KT 230V310 9SM FEW034 SCT041 BKN050 OVC066 14/10 A2971 RMK SLP067 DENSITY ALT 1300FT,2025-09-05T23:20:07Z,2025-09-05T19:20:07Z
CYQA,2025-09-06T01:00:00Z,2025-09-05T21:00:00Z,VFR,12,10,88,300,4,14500,29.78,NA,FEW  ft; BKN  ft; BKN  ft; BKN  ft,CYQA 060100Z AUTO 30004KT 250V320 9SM FEW028 BKN038 BKN047 BKN060 12/10 A2978 RMK SLP089,2025-09-06T01:42:35Z,2025-09-05T21:42:35Z
CYQA,2025-09-06T02:27:00Z,2025-09-05T22:27:00Z,VFR,12,9,82,250,5,14500,29.8,NA,FEW  ft; SCT  ft; BKN  ft,CYQA 060227Z AUTO 25005KT 9SM FEW036 SCT049 BKN060 12/09 A2980 RMK SLP097,2025-09-06T02:56:35Z,2025-09-05T22:56:35Z
CYQA,2025-09-06T03:00:00Z,2025-09-05T23:00:00Z,VFR,12,9,82,250,5,14500,29.8,NA,SCT  ft; SCT  ft,CYQA 060300Z AUTO 25005KT 9SM SCT050 SCT060 12/09 A2980 RMK SLP096,2025-09-06T03:30:46Z,2025-09-05T23:30:46Z
CYQA,2025-09-06T04:00:00Z,2025-09-06T00:00:00Z,VFR,12,9,82,260,5,14500,29.82,NA,SCT  ft; OVC  ft,CYQA 060400Z AUTO 26005KT 9SM -RA SCT033 OVC041 12/09 A2982 RMK SLP104,2025-09-06T04:25:45Z,2025-09-06T00:25:45Z
CYQA,2025-09-06T05:00:00Z,2025-09-06T01:00:00Z,VFR,11,9,88,260,6,14500,29.83,NA,OVC  ft,CYQA 060500Z AUTO 26006KT 220V280 9SM OVC040 11/09 A2983 RMK SLP107,2025-09-06T05:19:55Z,2025-09-06T01:19:55Z
CYQA,2025-09-06T05:27:00Z,2025-09-06T01:27:00Z,VFR,12,8,77,250,8,14500,29.84,NA,BKN  ft; OVC  ft,CYQA 060527Z AUTO 25008G17KT 9SM BKN040 OVC050 12/08 A2984 RMK SLP110,2025-09-06T05:40:04Z,2025-09-06T01:40:04Z
CYQA,2025-09-06T06:00:00Z,2025-09-06T02:00:00Z,VFR,12,8,77,250,4,14500,29.83,NA,OVC  ft,CYQA 060600Z AUTO 25004KT 9SM OVC055 12/08 A2983 RMK SLP105,2025-09-06T06:29:49Z,2025-09-06T02:29:49Z
CYQA,2025-09-06T07:00:00Z,2025-09-06T03:00:00Z,VFR,12,7,72,230,5,14500,29.82,NA,BKN  ft,CYQA 060700Z AUTO 23005KT 9SM BKN050 12/07 A2982 RMK SLP102,2025-09-06T07:18:41Z,2025-09-06T03:18:41Z
CYQA,2025-09-06T08:00:00Z,2025-09-06T04:00:00Z,VFR,11,6,72,230,4,14500,29.83,NA,BKN  ft; BKN  ft,CYQA 060800Z AUTO 23004KT 190V250 9SM BKN055 BKN240 11/06 A2983 RMK SLP104,2025-09-06T08:25:12Z,2025-09-06T04:25:12Z
CYQA,2025-09-06T09:00:00Z,2025-09-06T05:00:00Z,VFR,10,7,82,190,5,14500,29.83,NA,BKN  ft; OVC  ft,CYQA 060900Z AUTO 19005KT 9SM BKN050 OVC200 10/07 A2983 RMK SLP106,2025-09-06T09:19:46Z,2025-09-06T05:19:46Z
CYQA,2025-09-06T10:00:00Z,2025-09-06T06:00:00Z,VFR,10,7,82,200,6,14500,29.83,NA,OVC  ft,CYQA 061000Z AUTO 20006KT 9SM OVC048 10/07 A2983 RMK SLP108,2025-09-06T10:20:30Z,2025-09-06T06:20:30Z
CYQA,2025-09-06T11:00:00Z,2025-09-06T07:00:00Z,VFR,11,7,77,210,5,14500,29.86,NA,OVC  ft,CYQA 061100Z AUTO 21005KT 9SM OVC048 11/07 A2986 RMK SLP116,2025-09-06T11:16:00Z,2025-09-06T07:16:00Z
CYQA,2025-09-06T12:00:00Z,2025-09-06T08:00:00Z,VFR,11,7,77,200,9,14500,29.88,NA,BKN  ft; OVC  ft,CYQA 061200Z AUTO 20009G16KT 9SM BKN044 OVC055 11/07 A2988 RMK SLP124,2025-09-06T12:40:00Z,2025-09-06T08:40:00Z
CYQA,2025-09-06T13:00:00Z,2025-09-06T09:00:00Z,VFR,12,7,72,220,9,14500,29.89,NA,OVC  ft,CYQA 061300Z AUTO 22009G16KT 9SM OVC060 12/07 A2989 RMK SLP128,2025-09-06T13:22:40Z,2025-09-06T09:22:40Z
CYQA,2025-09-06T14:00:00Z,2025-09-06T10:00:00Z,VFR,13,7,67,210,11,14500,29.89,NA,OVC  ft,CYQA 061400Z AUTO 21011G17KT 9SM OVC060 13/07 A2989 RMK SLP129,2025-09-06T14:18:39Z,2025-09-06T10:18:39Z
CYQA,2025-09-06T15:00:00Z,2025-09-06T11:00:00Z,VFR,14,8,67,230,14,14500,29.89,NA,OVC  ft,CYQA 061500Z AUTO 23014G22KT 200V270 9SM OVC081 14/08 A2989 RMK SLP128,2025-09-06T15:19:24Z,2025-09-06T11:19:24Z
CYQA,2025-09-06T16:00:00Z,2025-09-06T12:00:00Z,VFR,15,8,63,240,12,14500,29.91,NA,SCT  ft; BKN  ft; BKN  ft; OVC  ft,CYQA 061600Z AUTO 24012G19KT 9SM SCT031 BKN044 BKN055 OVC076 15/08 A2991 RMK SLP133,2025-09-06T16:24:53Z,2025-09-06T12:24:53Z
CYQA,2025-09-06T16:27:00Z,2025-09-06T12:27:00Z,VFR,13,9,77,250,14,14500,29.92,NA,SCT  ft; BKN  ft; BKN  ft; OVC  ft,CYQA 061627Z AUTO 25014G21KT 220V300 9SM -RA SCT029 BKN033 BKN041 OVC049 13/09 A2992 RMK SLP137,2025-09-06T16:42:30Z,2025-09-06T12:42:30Z
CYQA,2025-09-06T16:42:00Z,2025-09-06T12:42:00Z,VFR,14,9,72,240,9,14500,29.92,NA,FEW  ft; SCT  ft; OVC  ft,CYQA 061642Z AUTO 24009G17KT 210V270 9SM FEW029 SCT041 OVC050 14/09 A2992 RMK SLP136,2025-09-06T16:59:46Z,2025-09-06T12:59:46Z
CYQA,2025-09-06T17:00:00Z,2025-09-06T13:00:00Z,VFR,14,9,72,250,13,14500,29.91,NA,OVC  ft,CYQA 061700Z AUTO 25013G19KT 190V280 9SM OVC050 14/09 A2991 RMK SLP135,2025-09-06T17:24:32Z,2025-09-06T13:24:32Z
CYQA,2025-09-06T18:00:00Z,2025-09-06T14:00:00Z,VFR,15,7,59,250,9,14500,29.92,NA,FEW  ft; OVC  ft,CYQA 061800Z AUTO 25009G19KT 230V290 9SM FEW055 OVC071 15/07 A2992 RMK SLP136 DENSITY ALT 1200FT,2025-09-06T18:32:25Z,2025-09-06T14:32:25Z
CYQA,2025-09-06T19:00:00Z,2025-09-06T15:00:00Z,VFR,15,8,63,270,9,14500,29.92,NA,FEW  ft; BKN  ft; OVC  ft,CYQA 061900Z AUTO 27009G25KT 240V310 9SM FEW032 BKN049 OVC060 15/08 A2992 RMK SLP138 DENSITY ALT 1200FT,2025-09-06T19:18:14Z,2025-09-06T15:18:14Z
CYQA,2025-09-06T20:00:00Z,2025-09-06T16:00:00Z,VFR,15,7,59,280,13,14500,29.93,NA,BKN  ft; OVC  ft,CYQA 062000Z AUTO 28013G20KT 250V320 9SM BKN060 OVC077 15/07 A2993 RMK SLP140 DENSITY ALT 1200FT,2025-09-06T20:25:15Z,2025-09-06T16:25:15Z
CYQA,2025-09-06T21:00:00Z,2025-09-06T17:00:00Z,VFR,15,8,63,260,6,14500,29.93,NA,FEW  ft; OVC  ft,CYQA 062100Z AUTO 26006G17KT 240V320 9SM FEW030 OVC066 15/08 A2993 RMK SLP142,2025-09-06T21:21:19Z,2025-09-06T17:21:19Z
CYQA,2025-09-06T22:00:00Z,2025-09-06T18:00:00Z,VFR,14,7,63,290,7,14500,29.93,NA,FEW  ft; OVC  ft,CYQA 062200Z AUTO 29007G16KT 240V310 9SM FEW034 OVC071 14/07 A2993 RMK SLP142,2025-09-06T22:23:57Z,2025-09-06T18:23:57Z
CYQA,2025-09-06T23:00:00Z,2025-09-06T19:00:00Z,VFR,14,8,67,260,3,14500,29.93,NA,OVC  ft,CYQA 062300Z AUTO 26003KT 230V300 9SM OVC071 14/08 A2993 RMK SLP139,2025-09-06T23:22:37Z,2025-09-06T19:22:37Z
CYQA,2025-09-07T01:00:00Z,2025-09-06T21:00:00Z,VFR,11,11,100,170,2,14500,29.95,NA,BKN  ft; OVC  ft,CYQA 070100Z AUTO 17002KT 9SM BKN040 OVC050 11/11 A2995 RMK SLP148,2025-09-07T02:04:15Z,2025-09-06T22:04:15Z
CYQA,2025-09-07T03:03:00Z,2025-09-06T23:03:00Z,VFR,11,10,94,190,5,14500,29.95,NA,FEW  ft; BKN  ft; BKN  ft; OVC  ft,CYQA 070303Z AUTO 19005KT 9SM FEW046 BKN055 BKN068 OVC089 11/10 A2995 RMK SLP148,2025-09-07T03:07:54Z,2025-09-06T23:07:54Z
CYQA,2025-09-07T04:00:00Z,2025-09-07T00:00:00Z,VFR,11,10,94,190,4,14500,29.95,NA,OVC  ft,CYQA 070400Z AUTO 19004KT 9SM OVC049 11/10 A2995 RMK SLP147,2025-09-07T04:29:48Z,2025-09-07T00:29:48Z
CYQA,2025-09-07T04:32:00Z,2025-09-07T00:32:00Z,MVFR,11,10,94,0,2,14500,29.95,NA,BKN  ft; BKN  ft; OVC  ft,CYQA 070432Z AUTO VRB02KT 9SM -RA BKN020 BKN049 OVC066 11/10 A2995 RMK SLP150,2025-09-07T04:44:24Z,2025-09-07T00:44:24Z
CYQA,2025-09-07T05:19:00Z,2025-09-07T01:19:00Z,IFR,11,10,94,220,6,3600,29.95,NA,SCT  ft; SCT  ft; BKN  ft; OVC  ft,CYQA 070519Z AUTO 22006KT 2 1/4SM RA BR SCT007 SCT012 BKN021 OVC041 11/10 A2995 RMK PCPN 0.5MM PAST HR SLP149,2025-09-07T05:25:33Z,2025-09-07T01:25:33Z
CYQA,2025-09-07T05:36:00Z,2025-09-07T01:36:00Z,IFR,11,10,94,230,5,9700,29.95,NA,BKN  ft; BKN  ft; BKN  ft; OVC  ft,CYQA 070536Z AUTO 23005KT 6SM -RA BR BKN005 BKN009 BKN021 OVC039 11/10 A2995 RMK PCPN 0.5MM PAST HR SLP149,2025-09-07T05:42:20Z,2025-09-07T01:42:20Z
CYQA,2025-09-07T06:00:00Z,2025-09-07T02:00:00Z,MVFR,11,10,94,250,4,14500,29.94,NA,SCT  ft; BKN  ft; BKN  ft; OVC  ft,CYQA 070600Z AUTO 25004KT 9SM -RA SCT005 BKN013 BKN024 OVC066 11/10 A2994 RMK PCPN 0.5MM PAST HR SLP145,2025-09-07T06:34:54Z,2025-09-07T02:34:54Z
CYQA,2025-09-07T07:11:00Z,2025-09-07T03:11:00Z,VFR,11,10,94,0,2,14500,29.94,NA,FEW  ft; SCT  ft; BKN  ft; OVC  ft,CYQA 070711Z AUTO VRB02KT 9SM FEW014 SCT022 BKN045 OVC050 11/10 A2994 RMK SLP145,2025-09-07T07:22:55Z,2025-09-07T03:22:55Z
CYQA,2025-09-07T08:23:00Z,2025-09-07T04:23:00Z,VFR,10,10,100,240,5,9700,29.94,NA,FEW  ft; SCT  ft; BKN  ft; OVC  ft,CYQA 070823Z AUTO 24005KT 6SM -RA BR FEW023 SCT039 BKN047 OVC055 10/10 A2994 RMK SLP147,2025-09-07T08:29:57Z,2025-09-07T04:29:57Z
CYQA,2025-09-07T09:12:00Z,2025-09-07T05:12:00Z,VFR,10,10,100,260,5,14500,29.94,NA,FEW  ft; SCT  ft; BKN  ft; OVC  ft,CYQA 070912Z AUTO 26005KT 9SM FEW012 SCT037 BKN055 OVC090 10/10 A2994 RMK SLP147,2025-09-07T09:23:41Z,2025-09-07T05:23:41Z
CYQA,2025-09-07T10:00:00Z,2025-09-07T06:00:00Z,VFR,10,9,94,300,4,14500,29.95,NA,FEW  ft; SCT  ft; BKN  ft; OVC  ft,CYQA 071000Z AUTO 30004KT 9SM FEW024 SCT071 BKN088 OVC150 10/09 A2995 RMK SLP149,2025-09-07T10:26:11Z,2025-09-07T06:26:11Z
CYQA,2025-09-07T11:00:00Z,2025-09-07T07:00:00Z,VFR,9,8,94,300,3,14500,29.97,NA,FEW  ft,CYQA 071100Z AUTO 30003KT 270V330 9SM FEW096 09/08 A2997 RMK SLP157,2025-09-07T11:19:24Z,2025-09-07T07:19:24Z
CYQA,2025-09-07T12:00:00Z,2025-09-07T08:00:00Z,VFR,10,8,88,310,8,14500,30,NA,CLR  ft,CYQA 071200Z AUTO 31008KT 9SM CLR 10/08 A3000 RMK SLP165,2025-09-07T12:48:16Z,2025-09-07T08:48:16Z
CYQA,2025-09-07T13:00:00Z,2025-09-07T09:00:00Z,VFR,11,7,77,310,11,14500,30.03,NA,CLR  ft,CYQA 071300Z AUTO 31011KT 9SM CLR 11/07 A3003 RMK SLP174,2025-09-07T13:26:45Z,2025-09-07T09:26:45Z
CYQA,2025-09-07T14:00:00Z,2025-09-07T10:00:00Z,VFR,13,7,67,310,12,14500,30.03,NA,FEW  ft,CYQA 071400Z AUTO 31012G18KT 9SM FEW026 13/07 A3003 RMK SLP177,2025-09-07T14:23:04Z,2025-09-07T10:23:04Z
CYQA,2025-09-07T15:00:00Z,2025-09-07T11:00:00Z,VFR,14,7,63,330,12,14500,30.04,NA,FEW  ft; SCT  ft,CYQA 071500Z AUTO 33012G18KT 280V350 9SM FEW028 SCT055 14/07 A3004 RMK SLP180,2025-09-07T15:23:37Z,2025-09-07T11:23:37Z
CYQA,2025-09-07T16:00:00Z,2025-09-07T12:00:00Z,VFR,15,7,59,270,9,14500,30.05,NA,FEW  ft; SCT  ft; BKN  ft,CYQA 071600Z AUTO 27009G22KT 240V360 9SM FEW035 SCT048 BKN055 15/07 A3005 RMK SLP180,2025-09-07T16:29:09Z,2025-09-07T12:29:09Z
CYQA,2025-09-07T17:07:00Z,2025-09-07T13:07:00Z,VFR,13,8,72,280,10,14500,30.06,NA,SCT  ft; OVC  ft,CYQA 071707Z AUTO 28010G17KT 250V320 9SM SCT040 OVC050 13/08 A3006 RMK SLP187,2025-09-07T17:21:32Z,2025-09-07T13:21:32Z
CYQA,2025-09-07T18:00:00Z,2025-09-07T14:00:00Z,VFR,15,6,55,270,10,14500,30.06,NA,BKN  ft; BKN  ft,CYQA 071800Z AUTO 27010G17KT 230V310 9SM BKN091 BKN110 15/06 A3006 RMK SLP186,2025-09-07T18:32:53Z,2025-09-07T14:32:53Z
CYQA,2025-09-07T19:01:00Z,2025-09-07T15:01:00Z,VFR,15,9,68,310,5,14500,30.05,NA,SCT  ft; BKN  ft; BKN  ft; BKN  ft,CYQA 071901Z AUTO 31005KT 9SM SCT033 BKN044 BKN055 BKN073 15/09 A3005 RMK SLP182,2025-09-07T19:18:50Z,2025-09-07T15:18:50Z
CYQA,2025-09-07T20:00:00Z,2025-09-07T16:00:00Z,VFR,14,6,59,290,11,14500,30.06,NA,SCT  ft; BKN  ft,CYQA 072000Z AUTO 29011G24KT 250V320 9SM SCT042 BKN060 14/06 A3006 RMK SLP184,2025-09-07T20:25:52Z,2025-09-07T16:25:52Z
CYQA,2025-09-07T21:05:00Z,2025-09-07T17:05:00Z,VFR,15,9,68,250,8,14500,30.06,NA,FEW  ft; BKN  ft; BKN  ft,CYQA 072105Z AUTO 25008G15KT 230V310 9SM FEW036 BKN055 BKN072 15/09 A3006 RMK SLP186,2025-09-07T21:21:34Z,2025-09-07T17:21:34Z
CYQB,2025-09-05T21:00:00Z,2025-09-05T17:00:00Z,VFR,23,11,47,0,0,48300,29.76,NA,FEW  ft; SCT  ft,CYQB 052100Z 00000KT 30SM FEW056 SCT100 23/11 A2976 RMK CU2AC1 SLP079 DENSITY ALT 1400FT,2025-09-05T22:02:54Z,2025-09-05T18:02:54Z
CYQB,2025-09-05T22:00:00Z,2025-09-05T18:00:00Z,VFR,22,14,61,0,0,48300,29.74,NA,FEW  ft; FEW  ft; SCT  ft,CYQB 052200Z 00000KT 30SM FEW057 FEW160 SCT240 22/14 A2974 RMK CU1AC1CS3 AC TR DIST TCU TOP SE SLP072 DENSITY ALT 1400FT,2025-09-05T22:18:46Z,2025-09-05T18:18:46Z
CYQB,2025-09-05T23:00:00Z,2025-09-05T19:00:00Z,VFR,20,14,69,350,3,48300,29.73,NA,BKN  ft; BKN  ft; BKN  ft,CYQB 052300Z 35003KT 30SM BKN065 BKN087 BKN250 20/14 A2973 RMK SC5AC1CS1 AC TR SLP071 DENSITY ALT 1200FT,2025-09-05T23:20:08Z,2025-09-05T19:20:08Z
CYQB,2025-09-06T01:00:00Z,2025-09-05T21:00:00Z,VFR,16,15,94,0,0,24100,29.74,NA,FEW  ft; FEW  ft; SCT  ft,CYQB 060100Z 00000KT 15SM FEW055 FEW100 SCT120 16/15 A2974 RMK SC1AC2AC2 SC TR SLP074 DENSITY ALT 700FT,2025-09-06T01:42:36Z,2025-09-05T21:42:36Z
CYQB,2025-09-06T02:00:00Z,2025-09-05T22:00:00Z,VFR,16,14,88,0,0,24100,29.73,NA,BKN  ft; BKN  ft,CYQB 060200Z 00000KT 15SM BKN067 BKN120 16/14 A2973 RMK AC5AC2 SLP072 DENSITY ALT 600FT,2025-09-06T02:56:37Z,2025-09-05T22:56:37Z
CYQB,2025-09-06T03:00:00Z,2025-09-05T23:00:00Z,VFR,16,14,88,340,3,24100,29.74,NA,FEW  ft; SCT  ft,CYQB 060300Z 34003KT 15SM FEW070 SCT100 16/14 A2974 RMK AC1AC3 AC TR SLP073 DENSITY ALT 700FT,2025-09-06T03:30:47Z,2025-09-05T23:30:47Z
CYQB,2025-09-06T04:00:00Z,2025-09-06T00:00:00Z,VFR,18,15,83,230,13,9999,29.73,NA,FEW  ft; SCT  ft; SCT  ft,CYQB 060400Z 23013G20KT 10SM FEW030 SCT060 SCT120 18/15 A2973 RMK SC1SC3AC1 AC TR PRESFR SLP071 DENSITY ALT 900FT,2025-09-06T04:25:47Z,2025-09-06T00:25:47Z
CYQB,2025-09-06T05:00:00Z,2025-09-06T01:00:00Z,VFR,17,15,88,240,8,24100,29.77,NA,FEW  ft; BKN  ft,CYQB 060500Z 24008KT 240V300 15SM -SHRA FEW036 BKN090 17/15 A2977 RMK SC2AC5 CVCTV CLD EMBD SLP083 DENSITY ALT 700FT,2025-09-06T05:19:57Z,2025-09-06T01:19:57Z
CYQB,2025-09-06T06:00:00Z,2025-09-06T02:00:00Z,VFR,17,14,83,230,7,24100,29.79,NA,SCT  ft; BKN  ft; OVC  ft,CYQB 060600Z 23007KT 15SM -SHRA SCT042 BKN071 OVC100 17/14 A2979 RMK SC3AC4AC2 CVCTV CLD EMBD SLP091 DENSITY ALT 700FT,2025-09-06T06:29:50Z,2025-09-06T02:29:50Z
CYQB,2025-09-06T06:37:00Z,2025-09-06T02:37:00Z,VFR,15,14,94,220,5,24100,29.8,NA,SCT  ft; OVC  ft,CYQB 060637Z 22005KT 15SM SCT045 OVC120 15/14 A2980 RMK SC3AC5 SLP093 DENSITY ALT 500FT,2025-09-06T06:46:49Z,2025-09-06T02:46:49Z
CYQB,2025-09-06T07:00:00Z,2025-09-06T03:00:00Z,VFR,15,13,88,240,6,24100,29.8,NA,SCT  ft,CYQB 060700Z 24006KT 15SM SCT051 15/13 A2980 RMK SC4 SLP095 DENSITY ALT 500FT,2025-09-06T07:18:43Z,2025-09-06T03:18:43Z
CYQB,2025-09-06T08:00:00Z,2025-09-06T04:00:00Z,VFR,13,12,94,260,4,24100,29.83,NA,FEW  ft; SCT  ft,CYQB 060800Z 26004KT 15SM FEW056 SCT120 13/12 A2983 RMK SC1AC3 SC TR SLP105,2025-09-06T08:25:13Z,2025-09-06T04:25:13Z
CYQB,2025-09-06T09:00:00Z,2025-09-06T05:00:00Z,VFR,12,11,94,240,7,24100,29.86,NA,FEW  ft; SCT  ft,CYQB 060900Z 24007KT 15SM FEW057 SCT120 12/11 A2986 RMK SC1AC3 SLP113,2025-09-06T09:19:48Z,2025-09-06T05:19:48Z
CYQB,2025-09-06T10:00:00Z,2025-09-06T06:00:00Z,VFR,12,10,88,240,8,48300,29.88,NA,FEW  ft; FEW  ft; SCT  ft,CYQB 061000Z 24008KT 30SM FEW020 FEW057 SCT120 12/10 A2988 RMK SC1SC1AC2 SC TR SLP120,2025-09-06T10:20:32Z,2025-09-06T06:20:32Z
CYQB,2025-09-06T11:00:00Z,2025-09-06T07:00:00Z,VFR,11,10,94,250,6,48300,29.9,NA,FEW  ft; FEW  ft; SCT  ft; BKN  ft,CYQB 061100Z 25006KT 30SM FEW030 FEW060 SCT120 BKN210 11/10 A2990 RMK SC1SC1AC2CI3 SC TR SLP130,2025-09-06T11:16:02Z,2025-09-06T07:16:02Z
CYQB,2025-09-06T12:00:00Z,2025-09-06T08:00:00Z,VFR,13,12,94,250,7,48300,29.91,NA,FEW  ft; FEW  ft; BKN  ft; BKN  ft,CYQB 061200Z 25007KT 30SM FEW060 FEW120 BKN200 BKN230 13/12 A2991 RMK SC1AC1CS3CI1 CI TR SLP132,2025-09-06T12:40:02Z,2025-09-06T08:40:02Z
CYQB,2025-09-06T13:00:00Z,2025-09-06T09:00:00Z,VFR,15,12,82,230,9,48300,29.93,NA,FEW  ft; FEW  ft; BKN  ft,CYQB 061300Z 23009G15KT 30SM FEW030 FEW120 BKN220 15/12 A2993 RMK SC1AC2CS5 SC TR SLP138,2025-09-06T13:22:41Z,2025-09-06T09:22:41Z
CYQB,2025-09-06T14:00:00Z,2025-09-06T10:00:00Z,VFR,15,12,82,260,9,48300,29.94,NA,FEW  ft; SCT  ft; BKN  ft; OVC  ft,CYQB 061400Z 26009KT 30SM FEW019 SCT110 BKN160 OVC230 15/12 A2994 RMK SC1AC4AC1CI3 SC TR SLP141,2025-09-06T14:18:40Z,2025-09-06T10:18:40Z
CYQB,2025-09-06T15:00:00Z,2025-09-06T11:00:00Z,VFR,16,10,68,240,7,48300,29.95,NA,FEW  ft; FEW  ft; BKN  ft; OVC  ft,CYQB 061500Z 24007KT 30SM FEW020 FEW051 BKN120 OVC230 16/10 A2995 RMK SC1SC2AC3CI3 SC TR SLP144,2025-09-06T15:19:25Z,2025-09-06T11:19:25Z
CYQB,2025-09-06T16:00:00Z,2025-09-06T12:00:00Z,VFR,16,10,68,240,8,48300,29.95,NA,FEW  ft; BKN  ft; OVC  ft,CYQB 061600Z 24008KT 30SM FEW020 BKN042 OVC100 16/10 A2995 RMK SC1SC6AC2 SC TR SLP144,2025-09-06T16:24:54Z,2025-09-06T12:24:54Z
CYQB,2025-09-06T17:00:00Z,2025-09-06T13:00:00Z,VFR,16,10,68,240,10,48300,29.96,NA,FEW  ft; BKN  ft; OVC  ft,CYQB 061700Z 24010KT 30SM FEW031 BKN040 OVC090 16/10 A2996 RMK SC1SC6AC2 SC TR VIRGA SLP149,2025-09-06T17:24:33Z,2025-09-06T13:24:33Z
CYQB,2025-09-06T18:00:00Z,2025-09-06T14:00:00Z,VFR,14,12,88,220,6,9700,29.97,NA,FEW  ft; BKN  ft; OVC  ft,CYQB 061800Z 22006KT 6SM -SHRA BR FEW022 BKN049 OVC069 14/12 A2997 RMK SC1SC6AC1 CVCTV CLD EMBD SLP151,2025-09-06T18:32:27Z,2025-09-06T14:32:27Z
CYQB,2025-09-06T19:00:00Z,2025-09-06T15:00:00Z,VFR,14,13,94,210,9,12900,29.95,NA,FEW  ft; BKN  ft; OVC  ft,CYQB 061900Z 21009KT 8SM -SHRA FEW023 BKN054 OVC067 14/13 A2995 RMK SC1SC7AC1 SC TR CVCTV CLD EMBD SLP146,2025-09-06T19:18:15Z,2025-09-06T15:18:15Z
CYQB,2025-09-06T20:00:00Z,2025-09-06T16:00:00Z,VFR,14,12,88,240,9,24100,29.95,NA,FEW  ft; BKN  ft; OVC  ft,CYQB 062000Z 24009KT 15SM -SHRA FEW015 BKN076 OVC097 14/12 A2995 RMK SC2AC5AC1 CVCTV CLD EMBD SLP146,2025-09-06T20:25:16Z,2025-09-06T16:25:16Z
CYQB,2025-09-06T20:30:00Z,2025-09-06T16:30:00Z,VFR,13,12,94,240,9,9999,29.93,NA,FEW  ft; FEW  ft; BKN  ft; OVC  ft,CYQB 062030Z 24009KT 10SM SHRA FEW014 FEW026 BKN048 OVC072 13/12 A2993 RMK SF1SC1SC4AC2 VIS LWR E CVCTV CLD EMBD SLP140,2025-09-06T20:41:48Z,2025-09-06T16:41:48Z
CYQB,2025-09-06T21:00:00Z,2025-09-06T17:00:00Z,VFR,14,12,88,210,8,40200,29.93,NA,FEW  ft; SCT  ft; OVC  ft,CYQB 062100Z 21008KT 25SM -SHRA FEW012 SCT025 OVC120 14/12 A2993 RMK SC1SC3AC4 CVCTV CLD EMBD SLP138,2025-09-06T21:21:21Z,2025-09-06T17:21:21Z
CYQB,2025-09-06T21:31:00Z,2025-09-06T17:31:00Z,VFR,13,12,94,220,9,40200,29.93,NA,FEW  ft; SCT  ft; OVC  ft,CYQB 062131Z 22009KT 25SM FEW012 SCT038 OVC120 13/12 A2993 RMK SF1SC2AC5 SLP140,2025-09-06T21:41:56Z,2025-09-06T17:41:56Z
CYQB,2025-09-06T22:00:00Z,2025-09-06T18:00:00Z,VFR,14,12,88,220,8,40200,29.93,NA,FEW  ft; BKN  ft; BKN  ft,CYQB 062200Z 22008KT 25SM FEW015 BKN120 BKN160 14/12 A2993 RMK SC1AC4AC2 SLP139,2025-09-06T22:23:58Z,2025-09-06T18:23:58Z
CYQB,2025-09-06T23:00:00Z,2025-09-06T19:00:00Z,MVFR,13,12,94,250,3,40200,29.95,NA,BKN  ft; BKN  ft; BKN  ft; BKN  ft,CYQB 062300Z 25003KT 25SM BKN017 BKN035 BKN170 BKN230 13/12 A2995 RMK SC5SC1AC2CI1 SC TR CI TR SLP144,2025-09-06T23:22:38Z,2025-09-06T19:22:38Z
CYQB,2025-09-07T01:00:00Z,2025-09-06T21:00:00Z,MVFR,11,11,100,0,0,24100,29.95,NA,SCT  ft; OVC  ft,CYQB 070100Z 00000KT 15SM SCT011 OVC029 11/11 A2995 RMK SF3SC5 SLP147,2025-09-07T02:04:16Z,2025-09-06T22:04:16Z
CYQB,2025-09-07T02:00:00Z,2025-09-06T22:00:00Z,MVFR,12,11,94,0,0,24100,29.97,NA,FEW  ft; OVC  ft,CYQB 070200Z 00000KT 15SM FEW011 OVC030 12/11 A2997 RMK SF3SC5 SLP151,2025-09-07T03:07:56Z,2025-09-06T23:07:56Z
CYQB,2025-09-07T03:00:00Z,2025-09-06T23:00:00Z,MVFR,11,11,100,0,0,24100,29.98,NA,FEW  ft; OVC  ft,CYQB 070300Z 00000KT 15SM FEW010 OVC024 11/11 A2998 RMK SF2SC6 SLP154,2025-09-07T03:38:09Z,2025-09-06T23:38:09Z
CYQB,2025-09-07T04:00:00Z,2025-09-07T00:00:00Z,MVFR,12,11,94,0,2,24100,29.98,NA,FEW  ft; OVC  ft,CYQB 070400Z VRB02KT 15SM FEW010 OVC016 12/11 A2998 RMK SF2SC6 SLP155,2025-09-07T04:29:50Z,2025-09-07T00:29:50Z
CYQB,2025-09-07T05:00:00Z,2025-09-07T01:00:00Z,MVFR,13,12,94,210,3,24100,29.99,NA,FEW  ft; OVC  ft,CYQB 070500Z 21003KT 15SM FEW010 OVC018 13/12 A2999 RMK SF2SC6 SLP158,2025-09-07T05:25:35Z,2025-09-07T01:25:35Z
CYQB,2025-09-07T06:00:00Z,2025-09-07T02:00:00Z,IFR,12,12,100,0,0,24100,29.99,NA,OVC  ft,CYQB 070600Z 00000KT 15SM OVC007 12/12 A2999 RMK ST8 SLP158,2025-09-07T06:34:56Z,2025-09-07T02:34:56Z
CYQB,2025-09-07T07:00:00Z,2025-09-07T03:00:00Z,IFR,12,12,100,0,0,24100,29.97,NA,OVC  ft,CYQB 070700Z 00000KT 15SM OVC009 12/12 A2997 RMK ST8 SLP151,2025-09-07T07:22:56Z,2025-09-07T03:22:56Z
CYQB,2025-09-07T08:00:00Z,2025-09-07T04:00:00Z,MVFR,13,12,94,170,2,24100,29.96,NA,OVC  ft,CYQB 070800Z 17002KT 15SM OVC010 13/12 A2996 RMK ST8 SLP149,2025-09-07T08:29:58Z,2025-09-07T04:29:58Z
CYQB,2025-09-07T09:17:00Z,2025-09-07T05:17:00Z,IFR,13,12,94,0,2,24100,29.97,NA,OVC  ft,CYQB 070917Z VRB02KT 15SM OVC008 13/12 A2997 RMK ST8 SLP151,2025-09-07T09:23:42Z,2025-09-07T05:23:42Z
CYQB,2025-09-07T10:00:00Z,2025-09-07T06:00:00Z,MVFR,13,12,94,170,3,24100,29.97,NA,FEW  ft; OVC  ft,CYQB 071000Z 17003KT 15SM FEW007 OVC010 13/12 A2997 RMK SF1ST7 SLP151,2025-09-07T10:26:13Z,2025-09-07T06:26:13Z
CYQB,2025-09-07T11:00:00Z,2025-09-07T07:00:00Z,IFR,13,12,94,160,4,48300,29.98,NA,FEW  ft; OVC  ft,CYQB 071100Z 16004KT 30SM FEW006 OVC009 13/12 A2998 RMK SF1ST7 SLP154,2025-09-07T11:19:25Z,2025-09-07T07:19:25Z
CYQB,2025-09-07T11:28:00Z,2025-09-07T07:28:00Z,MVFR,13,12,94,180,3,48300,29.98,NA,FEW  ft; BKN  ft,CYQB 071128Z 18003KT 30SM FEW006 BKN015 13/12 A2998 RMK SF2ST5 SLP156,2025-09-07T11:41:30Z,2025-09-07T07:41:30Z
CYQB,2025-09-07T12:00:00Z,2025-09-07T08:00:00Z,MVFR,13,11,88,170,3,48300,29.98,NA,FEW  ft; FEW  ft; BKN  ft; BKN  ft,CYQB 071200Z 17003KT 30SM FEW004 FEW007 BKN017 BKN025 13/11 A2998 RMK SF1SF1ST5SC1 SF TR SLP157,2025-09-07T12:48:17Z,2025-09-07T08:48:17Z
CYQB,2025-09-07T13:00:00Z,2025-09-07T09:00:00Z,MVFR,13,11,88,160,5,48300,29.99,NA,FEW  ft; BKN  ft; BKN  ft,CYQB 071300Z 16005KT 30SM FEW007 BKN015 BKN025 13/11 A2999 RMK SF1ST5SC1 SLP158,2025-09-07T13:26:46Z,2025-09-07T09:26:46Z
CYQB,2025-09-07T14:00:00Z,2025-09-07T10:00:00Z,MVFR,14,11,82,190,4,48300,29.98,NA,FEW  ft; SCT  ft; BKN  ft,CYQB 071400Z 19004KT 30SM FEW007 SCT015 BKN025 14/11 A2998 RMK SF1ST3SC3 SLP155,2025-09-07T14:23:06Z,2025-09-07T10:23:06Z
CYQB,2025-09-07T15:00:00Z,2025-09-07T11:00:00Z,MVFR,15,12,82,230,4,48300,29.98,NA,BKN  ft; OVC  ft,CYQB 071500Z 23004KT 30SM BKN013 OVC025 15/12 A2998 RMK SC6SC2 SLP156,2025-09-07T15:23:38Z,2025-09-07T11:23:38Z
CYQB,2025-09-07T16:00:00Z,2025-09-07T12:00:00Z,MVFR,16,13,83,190,4,48300,29.96,NA,BKN  ft; BKN  ft; OVC  ft,CYQB 071600Z 19004KT 30SM BKN015 BKN025 OVC070 16/13 A2996 RMK SC5SC2AC1 SH DIST E SLP149,2025-09-07T16:29:11Z,2025-09-07T12:29:11Z
CYQB,2025-09-07T17:00:00Z,2025-09-07T13:00:00Z,MVFR,17,13,77,180,10,48300,29.93,NA,BKN  ft; BKN  ft; OVC  ft,CYQB 071700Z 18010KT 110V260 30SM BKN018 BKN040 OVC100 17/13 A2993 RMK SC5SC1AC2 TCU ASOCTD SH DIST S SLP138 DENSITY ALT 500FT,2025-09-07T17:21:33Z,2025-09-07T13:21:33Z
CYQB,2025-09-07T18:23:00Z,2025-09-07T14:23:00Z,VFR,17,11,68,240,10,32200,29.91,NA,SCT  ft; BKN  ft; BKN  ft,CYQB 071823Z 24010G19KT 20SM -SHRA SCT020 BKN047TCU BKN080 17/11 A2991 RMK SC3TCU2AC2 SLP133 DENSITY ALT 600FT,2025-09-07T18:32:54Z,2025-09-07T14:32:54Z
CYQB,2025-09-07T18:31:00Z,2025-09-07T14:31:00Z,MVFR,16,12,77,270,8,24100,29.91,NA,SCT  ft; BKN  ft; BKN  ft,CYQB 071831Z 27008KT 230V290 15SM SHRA SCT020 BKN030TCU BKN080 16/12 A2991 RMK SC3TCU3AC1 SLP132,2025-09-07T18:45:33Z,2025-09-07T14:45:33Z
CYQB,2025-09-07T19:00:00Z,2025-09-07T15:00:00Z,VFR,17,13,77,250,9,48300,29.91,NA,SCT  ft; SCT  ft; BKN  ft; BKN  ft,CYQB 071900Z 25009KT 30SM SCT030 SCT050TCU BKN100 BKN210 17/13 A2991 RMK SC3TCU1AC2CI1 SLP131 DENSITY ALT 600FT,2025-09-07T19:18:52Z,2025-09-07T15:18:52Z
CYQB,2025-09-07T20:00:00Z,2025-09-07T16:00:00Z,VFR,19,11,60,220,16,48300,29.89,NA,FEW  ft; BKN  ft; BKN  ft,CYQB 072000Z 22016KT 30SM FEW028 BKN040TCU BKN110 19/11 A2989 RMK SC2TCU3AC1 SLP123 DENSITY ALT 900FT,2025-09-07T20:25:53Z,2025-09-07T16:25:53Z
CYQB,2025-09-07T21:15:00Z,2025-09-07T17:15:00Z,VFR,13,11,88,280,11,24100,29.92,NA,FEW  ft; BKN  ft,CYQB 072115Z 28011G21KT 15SM +SHRA FEW015 BKN047TCU 13/11 A2992 RMK SC1TCU6 VSI N 2 PRESRR SLP134,2025-09-07T21:21:35Z,2025-09-07T17:21:35Z
CYQF,2025-09-05T21:00:00Z,2025-09-05T17:00:00Z,VFR,21,4,33,160,8,14500,30.04,NA,CLR  ft,CYQF 052100Z AUTO 16008G17KT 9SM CLR 21/04 A3004 RMK SLP188 DENSITY ALT 4300FT,2025-09-05T22:02:54Z,2025-09-05T18:02:54Z
CYQF,2025-09-05T22:00:00Z,2025-09-05T18:00:00Z,VFR,22,3,29,140,10,14500,30.02,NA,CLR  ft,CYQF 052200Z AUTO 14010G18KT 9SM CLR 22/03 A3002 RMK SLP181 DENSITY ALT 4300FT,2025-09-05T22:18:45Z,2025-09-05T18:18:45Z
CYQF,2025-09-05T23:00:00Z,2025-09-05T19:00:00Z,VFR,22,3,29,150,11,14500,30,NA,CLR  ft,CYQF 052300Z AUTO 15011G17KT 9SM CLR 22/03 A3000 RMK SLP175 DENSITY ALT 4400FT,2025-09-05T23:20:08Z,2025-09-05T19:20:08Z
CYQF,2025-09-06T01:00:00Z,2025-09-05T21:00:00Z,VFR,21,4,33,150,7,14500,29.99,NA,CLR  ft,CYQF 060100Z AUTO 15007G15KT 9SM CLR 21/04 A2999 RMK SLP171 DENSITY ALT 4300FT,2025-09-06T01:42:36Z,2025-09-05T21:42:36Z
CYQF,2025-09-06T02:51:00Z,2025-09-05T22:51:00Z,VFR,13,3,51,150,6,9700,29.98,NA,CLR  ft,CYQF 060251Z AUTO 15006KT 6SM HZ CLR 13/03 A2998 RMK SLP166 DENSITY ALT 3400FT,2025-09-06T02:56:36Z,2025-09-05T22:56:36Z
CYQF,2025-09-06T03:27:00Z,2025-09-05T23:27:00Z,VFR,11,3,58,150,6,9700,29.98,NA,CLR  ft,CYQF 060327Z AUTO 15006KT 6SM HZ CLR 11/03 A2998 RMK SLP170 DENSITY ALT 3200FT,2025-09-06T03:30:47Z,2025-09-05T23:30:47Z
CYQF,2025-09-06T04:04:00Z,2025-09-06T00:04:00Z,VFR,10,3,62,230,2,9700,29.98,NA,CLR  ft,CYQF 060404Z AUTO 23002KT 6SM HZ CLR 10/03 A2998 RMK SLP173,2025-09-06T04:25:46Z,2025-09-06T00:25:46Z
CYQF,2025-09-06T05:15:00Z,2025-09-06T01:15:00Z,VFR,8,2,66,170,6,9700,29.98,NA,CLR  ft,CYQF 060515Z AUTO 17006KT 6SM HZ CLR 08/02 A2998 RMK SLP178,2025-09-06T05:19:57Z,2025-09-06T01:19:57Z
CYQF,2025-09-06T06:00:00Z,2025-09-06T02:00:00Z,VFR,8,2,66,180,5,14500,29.99,NA,CLR  ft,CYQF 060600Z AUTO 18005KT 9SM CLR 08/02 A2999 RMK SLP168,2025-09-06T06:29:50Z,2025-09-06T02:29:50Z
CYQF,2025-09-06T07:00:00Z,2025-09-06T03:00:00Z,VFR,10,2,58,180,9,14500,29.99,NA,CLR  ft,CYQF 060700Z AUTO 18009KT 9SM CLR 10/02 A2999 RMK SLP165,2025-09-06T07:18:42Z,2025-09-06T03:18:42Z
CYQF,2025-09-06T08:00:00Z,2025-09-06T04:00:00Z,VFR,8,1,62,150,5,14500,29.99,NA,CLR  ft,CYQF 060800Z AUTO 15005KT 9SM CLR 08/01 A2999 RMK SLP168,2025-09-06T08:25:12Z,2025-09-06T04:25:12Z
CYQF,2025-09-06T09:00:00Z,2025-09-06T05:00:00Z,VFR,7,1,66,160,4,14500,29.98,NA,CLR  ft,CYQF 060900Z AUTO 16004KT 9SM CLR 07/01 A2998 RMK SLP163,2025-09-06T09:19:47Z,2025-09-06T05:19:47Z
CYQF,2025-09-06T10:00:00Z,2025-09-06T06:00:00Z,VFR,6,1,71,160,3,14500,29.97,NA,CLR  ft,CYQF 061000Z AUTO 16003KT 9SM CLR 06/01 A2997 RMK SLP161,2025-09-06T10:20:31Z,2025-09-06T06:20:31Z
CYQF,2025-09-06T11:00:00Z,2025-09-06T07:00:00Z,VFR,6,0,66,0,0,14500,29.97,NA,CLR  ft,CYQF 061100Z AUTO 00000KT 9SM CLR 06/00 A2997 RMK ICE MISG SLP160,2025-09-06T11:16:01Z,2025-09-06T07:16:01Z
CYQF,2025-09-06T12:00:00Z,2025-09-06T08:00:00Z,VFR,5,0,70,150,4,14500,29.97,NA,CLR  ft,CYQF 061200Z AUTO 15004KT 9SM CLR 05/00 A2997 RMK SLP160,2025-09-06T12:40:01Z,2025-09-06T08:40:01Z
CYQF,2025-09-06T13:00:00Z,2025-09-06T09:00:00Z,VFR,4,0,75,190,3,14500,29.97,NA,CLR  ft,CYQF 061300Z AUTO 19003KT 9SM CLR 04/00 A2997 RMK SLP163,2025-09-06T13:22:41Z,2025-09-06T09:22:41Z
CYQF,2025-09-06T14:00:00Z,2025-09-06T10:00:00Z,VFR,6,1,71,200,3,14500,29.98,NA,CLR  ft,CYQF 061400Z AUTO 20003KT 9SM CLR 06/01 A2998 RMK SLP169,2025-09-06T14:18:39Z,2025-09-06T10:18:39Z
CYQF,2025-09-06T15:00:00Z,2025-09-06T11:00:00Z,VFR,9,2,62,170,4,14500,29.98,NA,CLR  ft,CYQF 061500Z AUTO 17004KT 9SM CLR 09/02 A2998 RMK SLP170,2025-09-06T15:19:24Z,2025-09-06T11:19:24Z
CYQF,2025-09-06T16:00:00Z,2025-09-06T12:00:00Z,VFR,13,3,51,160,6,14500,29.98,NA,CLR  ft,CYQF 061600Z AUTO 16006KT 150V220 9SM CLR 13/03 A2998 RMK SLP169 DENSITY ALT 3400FT,2025-09-06T16:24:53Z,2025-09-06T12:24:53Z
CYQF,2025-09-06T17:00:00Z,2025-09-06T13:00:00Z,VFR,16,5,48,0,5,14500,29.98,NA,CLR  ft,CYQF 061700Z AUTO VRB05KT 9SM CLR 16/05 A2998 RMK SLP166 DENSITY ALT 3700FT,2025-09-06T17:24:33Z,2025-09-06T13:24:33Z
CYQF,2025-09-06T18:00:00Z,2025-09-06T14:00:00Z,VFR,20,7,43,180,5,14500,29.97,NA,CLR  ft,CYQF 061800Z AUTO 18005KT 140V210 9SM CLR 20/07 A2997 RMK SLP161 DENSITY ALT 4200FT,2025-09-06T18:32:26Z,2025-09-06T14:32:26Z
CYQF,2025-09-06T19:00:00Z,2025-09-06T15:00:00Z,VFR,23,8,38,160,7,14500,29.97,NA,CLR  ft,CYQF 061900Z AUTO 16007KT 100V200 9SM CLR 23/08 A2997 RMK SLP153 DENSITY ALT 4500FT,2025-09-06T19:18:15Z,2025-09-06T15:18:15Z
CYQF,2025-09-06T20:00:00Z,2025-09-06T16:00:00Z,VFR,23,6,33,160,4,14500,29.96,NA,CLR  ft,CYQF 062000Z AUTO 16004KT 110V190 9SM CLR 23/06 A2996 RMK SLP154 DENSITY ALT 4600FT,2025-09-06T20:25:16Z,2025-09-06T16:25:16Z
CYQF,2025-09-06T21:00:00Z,2025-09-06T17:00:00Z,VFR,25,6,30,170,4,12900,29.96,NA,CLR  ft,CYQF 062100Z AUTO 17004KT 110V200 8SM CLR 25/06 A2996 RMK SLP151 DENSITY ALT 4800FT,2025-09-06T21:21:20Z,2025-09-06T17:21:20Z
CYQF,2025-09-06T22:00:00Z,2025-09-06T18:00:00Z,VFR,26,5,26,140,6,14500,29.95,NA,CLR  ft,CYQF 062200Z AUTO 14006KT 100V230 9SM CLR 26/05 A2995 RMK SLP148 DENSITY ALT 4900FT,2025-09-06T22:23:58Z,2025-09-06T18:23:58Z
CYQF,2025-09-06T23:00:00Z,2025-09-06T19:00:00Z,VFR,26,6,28,240,6,14500,29.94,NA,CLR  ft,CYQF 062300Z AUTO 24006KT 120V270 9SM CLR 26/06 A2994 RMK SLP146 DENSITY ALT 5000FT,2025-09-06T23:22:38Z,2025-09-06T19:22:38Z
CYQF,2025-09-07T01:00:00Z,2025-09-06T21:00:00Z,VFR,25,6,30,0,0,11300,29.93,NA,CLR  ft,CYQF 070100Z AUTO 00000KT 7SM CLR 25/06 A2993 RMK SLP147 DENSITY ALT 4800FT,2025-09-07T02:04:15Z,2025-09-06T22:04:15Z
CYQF,2025-09-07T02:00:00Z,2025-09-06T22:00:00Z,VFR,20,9,49,0,0,14500,29.93,NA,CLR  ft,CYQF 070200Z AUTO 00000KT 9SM CLR 20/09 A2993 RMK SLP149 DENSITY ALT 4200FT,2025-09-07T03:07:55Z,2025-09-06T23:07:55Z
CYQF,2025-09-07T03:00:00Z,2025-09-06T23:00:00Z,VFR,18,6,46,0,0,14500,29.94,NA,CLR  ft,CYQF 070300Z AUTO 00000KT 9SM CLR 18/06 A2994 RMK SLP152 DENSITY ALT 4000FT,2025-09-07T03:38:09Z,2025-09-06T23:38:09Z
CYQF,2025-09-07T04:26:00Z,2025-09-07T00:26:00Z,IFR,13,7,67,150,4,3600,29.95,NA,CLR  ft,CYQF 070426Z AUTO 15004KT 2 1/4SM HZ CLR 13/07 A2995 RMK SLP154 DENSITY ALT 3500FT,2025-09-07T04:29:49Z,2025-09-07T00:29:49Z
CYQF,2025-09-07T04:30:00Z,2025-09-07T00:30:00Z,MVFR,14,7,63,140,4,4800,29.95,NA,CLR  ft,CYQF 070430Z AUTO 14004KT 3SM HZ CLR 14/07 A2995 RMK SLP153 DENSITY ALT 3500FT,2025-09-07T04:44:25Z,2025-09-07T00:44:25Z
CYQF,2025-09-07T05:12:00Z,2025-09-07T01:12:00Z,VFR,12,6,67,160,3,9700,29.95,NA,CLR  ft,CYQF 070512Z AUTO 16003KT 6SM HZ CLR 12/06 A2995 RMK SLP155 DENSITY ALT 3400FT,2025-09-07T05:25:34Z,2025-09-07T01:25:34Z
CYQF,2025-09-07T06:00:00Z,2025-09-07T02:00:00Z,VFR,11,5,67,0,2,11300,29.94,NA,CLR  ft,CYQF 070600Z AUTO VRB02KT 7SM CLR 11/05 A2994 RMK SLP148 DENSITY ALT 3200FT,2025-09-07T06:34:55Z,2025-09-07T02:34:55Z
CYQF,2025-09-07T07:00:00Z,2025-09-07T03:00:00Z,VFR,11,5,67,160,2,12900,29.94,NA,CLR  ft,CYQF 070700Z AUTO 16002KT 8SM CLR 11/05 A2994 RMK SLP143 DENSITY ALT 3200FT,2025-09-07T07:22:56Z,2025-09-07T03:22:56Z
CYQF,2025-09-07T08:00:00Z,2025-09-07T04:00:00Z,VFR,9,5,76,200,3,12900,29.93,NA,CLR  ft,CYQF 070800Z AUTO 20003KT 8SM CLR 09/05 A2993 RMK SLP142,2025-09-07T08:29:57Z,2025-09-07T04:29:57Z
CYQF,2025-09-07T09:00:00Z,2025-09-07T05:00:00Z,VFR,8,6,87,230,3,12900,29.93,NA,SCT  ft; BKN  ft,CYQF 070900Z AUTO 23003KT 8SM SCT220 BKN240 08/06 A2993 RMK SLP139,2025-09-07T09:23:42Z,2025-09-07T05:23:42Z
CYQF,2025-09-07T10:00:00Z,2025-09-07T06:00:00Z,VFR,8,5,82,180,4,12900,29.92,NA,BKN  ft; BKN  ft,CYQF 071000Z AUTO 18004KT 8SM BKN220 BKN240 08/05 A2992 RMK SLP136,2025-09-07T10:26:12Z,2025-09-07T06:26:12Z
CYQF,2025-09-07T11:00:00Z,2025-09-07T07:00:00Z,VFR,7,6,93,0,0,12900,29.92,NA,FEW  ft,CYQF 071100Z AUTO 00000KT 8SM FEW220 07/06 A2992 RMK SLP137,2025-09-07T11:19:25Z,2025-09-07T07:19:25Z
CYQF,2025-09-07T12:00:00Z,2025-09-07T08:00:00Z,VFR,6,5,93,0,0,9700,29.92,NA,CLR  ft,CYQF 071200Z AUTO 00000KT 6SM BR CLR 06/05 A2992 RMK SLP138,2025-09-07T12:48:17Z,2025-09-07T08:48:17Z
CYQF,2025-09-07T13:00:00Z,2025-09-07T09:00:00Z,MVFR,6,5,93,180,3,6400,29.92,NA,FEW  ft; SCT  ft,CYQF 071300Z AUTO 18003KT 4SM BR FEW220 SCT240 06/05 A2992 RMK SLP139,2025-09-07T13:26:45Z,2025-09-07T09:26:45Z
CYQF,2025-09-07T14:00:00Z,2025-09-07T10:00:00Z,MVFR,7,7,100,210,5,6400,29.92,NA,FEW  ft,CYQF 071400Z AUTO 21005KT 4SM BR FEW200 07/07 A2992 RMK SLP145,2025-09-07T14:23:05Z,2025-09-07T10:23:05Z
CYQF,2025-09-07T14:35:00Z,2025-09-07T10:35:00Z,VFR,9,8,94,230,5,9700,29.92,NA,CLR  ft,CYQF 071435Z AUTO 23005KT 6SM BR CLR 09/08 A2992 RMK SLP155,2025-09-07T14:41:57Z,2025-09-07T10:41:57Z
CYQF,2025-09-07T15:00:00Z,2025-09-07T11:00:00Z,VFR,10,9,94,270,4,9700,29.93,NA,CLR  ft,CYQF 071500Z AUTO 27004KT 230V300 6SM BR CLR 10/09 A2993 RMK SLP146,2025-09-07T15:23:38Z,2025-09-07T11:23:38Z
CYQF,2025-09-07T16:00:00Z,2025-09-07T12:00:00Z,VFR,14,10,77,0,2,12900,29.92,NA,CLR  ft,CYQF 071600Z AUTO VRB02KT 8SM CLR 14/10 A2992 RMK SLP143 DENSITY ALT 3600FT,2025-09-07T16:29:11Z,2025-09-07T12:29:11Z
CYQF,2025-09-07T17:00:00Z,2025-09-07T13:00:00Z,VFR,17,10,64,0,2,14500,29.92,NA,CLR  ft,CYQF 071700Z AUTO VRB02KT 9SM CLR 17/10 A2992 RMK SLP141 DENSITY ALT 4000FT,2025-09-07T17:21:32Z,2025-09-07T13:21:32Z
CYQF,2025-09-07T18:00:00Z,2025-09-07T14:00:00Z,VFR,21,10,50,20,4,14500,29.93,NA,FEW  ft,CYQF 071800Z AUTO 02004KT 330V050 9SM FEW240 21/10 A2993 RMK SLP142 DENSITY ALT 4300FT,2025-09-07T18:32:53Z,2025-09-07T14:32:53Z
CYQF,2025-09-07T19:00:00Z,2025-09-07T15:00:00Z,VFR,23,10,44,80,3,14500,29.92,NA,CLR  ft,CYQF 071900Z AUTO 08003KT 340V100 9SM CLR 23/10 A2992 RMK SLP137 DENSITY ALT 4600FT,2025-09-07T19:18:51Z,2025-09-07T15:18:51Z
CYQF,2025-09-07T20:00:00Z,2025-09-07T16:00:00Z,VFR,25,10,39,50,6,14500,29.91,NA,CLR  ft,CYQF 072000Z AUTO 05006KT 020V160 9SM CLR 25/10 A2991 RMK SLP134 DENSITY ALT 4900FT,2025-09-07T20:25:53Z,2025-09-07T16:25:53Z
CYQF,2025-09-07T21:00:00Z,2025-09-07T17:00:00Z,VFR,25,10,39,50,3,14500,29.91,NA,CLR  ft,CYQF 072100Z AUTO 05003KT 350V070 9SM CLR 25/10 A2991 RMK SLP132 DENSITY ALT 4900FT,2025-09-07T21:21:34Z,2025-09-07T17:21:34Z
CYQG,2025-09-05T18:00:00Z,2025-09-05T14:00:00Z,VFR,23,9,41,250,23,14500,29.71,NA,SCT  ft,CYQG 051800Z AUTO 25023G36KT 9SM SCT055 23/09 A2971 RMK SLP063 DENSITY ALT 1900FT,2025-09-05T18:23:21Z,2025-09-05T14:23:21Z
CYQG,2025-09-05T19:00:00Z,2025-09-05T15:00:00Z,VFR,22,8,41,260,17,14500,29.72,NA,BKN  ft,CYQG 051900Z AUTO 26017G33KT 9SM BKN066 22/08 A2972 RMK SLP067 DENSITY ALT 1800FT,2025-09-05T19:21:00Z,2025-09-05T15:21:00Z
CYQG,2025-09-05T20:00:00Z,2025-09-05T16:00:00Z,VFR,22,8,41,260,19,14500,29.75,NA,BKN  ft; BKN  ft,CYQG 052000Z AUTO 26019G31KT 9SM BKN066 BKN080 22/08 A2975 RMK SLP077 DENSITY ALT 1800FT,2025-09-05T20:29:27Z,2025-09-05T16:29:27Z
CYQG,2025-09-05T21:00:00Z,2025-09-05T17:00:00Z,VFR,22,7,38,270,23,14500,29.77,NA,SCT  ft,CYQG 052100Z AUTO 27023G30KT 9SM SCT071 22/07 A2977 RMK SLP083 DENSITY ALT 1800FT,2025-09-05T21:14:26Z,2025-09-05T17:14:26Z
CYQG,2025-09-05T22:00:00Z,2025-09-05T18:00:00Z,VFR,21,7,40,260,15,14500,29.81,NA,SCT  ft; SCT  ft,CYQG 052200Z AUTO 26015G23KT 9SM SCT071 SCT085 21/07 A2981 RMK SLP095 DENSITY ALT 1600FT,2025-09-05T22:18:44Z,2025-09-05T18:18:44Z
CYQG,2025-09-05T23:00:00Z,2025-09-05T19:00:00Z,VFR,20,7,43,280,13,14500,29.83,NA,BKN  ft,CYQG 052300Z AUTO 28013G18KT 9SM BKN066 20/07 A2983 RMK SLP104 DENSITY ALT 1400FT,2025-09-05T23:20:07Z,2025-09-05T19:20:07Z
CYQG,2025-09-06T01:00:00Z,2025-09-05T21:00:00Z,VFR,17,7,52,290,11,14500,29.88,NA,CLR  ft,CYQG 060100Z AUTO 29011KT 9SM CLR 17/07 A2988 RMK SLP121 DENSITY ALT 1100FT,2025-09-06T01:42:35Z,2025-09-05T21:42:35Z
CYQG,2025-09-06T02:00:00Z,2025-09-05T22:00:00Z,VFR,17,8,56,300,8,14500,29.91,NA,SCT  ft,CYQG 060200Z AUTO 30008G16KT 9SM SCT060 17/08 A2991 RMK SLP130 DENSITY ALT 1000FT,2025-09-06T02:56:35Z,2025-09-05T22:56:35Z
CYQG,2025-09-06T03:00:00Z,2025-09-05T23:00:00Z,VFR,16,8,59,290,8,14500,29.94,NA,FEW  ft; BKN  ft,CYQG 060300Z AUTO 29008KT 9SM FEW055 BKN070 16/08 A2994 RMK SLP138 DENSITY ALT 900FT,2025-09-06T03:30:46Z,2025-09-05T23:30:46Z
CYQG,2025-09-06T04:00:00Z,2025-09-06T00:00:00Z,VFR,15,8,63,310,7,14500,29.94,NA,FEW  ft; BKN  ft,CYQG 060400Z AUTO 31007KT 9SM FEW066 BKN240 15/08 A2994 RMK SLP141,2025-09-06T04:25:45Z,2025-09-06T00:25:45Z
CYQG,2025-09-06T05:00:00Z,2025-09-06T01:00:00Z,VFR,14,8,67,280,2,14500,29.94,NA,SCT  ft,CYQG 060500Z AUTO 28002KT 9SM SCT060 14/08 A2994 RMK SLP140,2025-09-06T05:19:55Z,2025-09-06T01:19:55Z
CYQG,2025-09-06T06:00:00Z,2025-09-06T02:00:00Z,VFR,13,8,72,250,3,14500,29.94,NA,BKN  ft,CYQG 060600Z AUTO 25003KT 9SM BKN240 13/08 A2994 RMK SLP140,2025-09-06T06:29:49Z,2025-09-06T02:29:49Z
CYQG,2025-09-06T07:00:00Z,2025-09-06T03:00:00Z,VFR,13,9,77,290,3,14500,29.94,NA,BKN  ft; OVC  ft,CYQG 060700Z AUTO 29003KT 9SM BKN170 OVC230 13/09 A2994 RMK SLP138,2025-09-06T07:18:41Z,2025-09-06T03:18:41Z
CYQG,2025-09-06T08:00:00Z,2025-09-06T04:00:00Z,VFR,11,10,94,170,5,14500,29.94,NA,OVC  ft,CYQG 060800Z AUTO 17005KT 9SM OVC160 11/10 A2994 RMK SLP140,2025-09-06T08:25:11Z,2025-09-06T04:25:11Z
CYQG,2025-09-06T09:00:00Z,2025-09-06T05:00:00Z,VFR,12,10,88,190,5,14500,29.94,NA,OVC  ft,CYQG 060900Z AUTO 19005KT 9SM OVC150 12/10 A2994 RMK SLP139,2025-09-06T09:19:46Z,2025-09-06T05:19:46Z
CYQG,2025-09-06T10:00:00Z,2025-09-06T06:00:00Z,VFR,12,11,94,220,3,14500,29.96,NA,BKN  ft; OVC  ft,CYQG 061000Z AUTO 22003KT 9SM BKN055 OVC150 12/11 A2996 RMK SLP146,2025-09-06T10:20:30Z,2025-09-06T06:20:30Z
CYQG,2025-09-06T11:00:00Z,2025-09-06T07:00:00Z,VFR,13,11,88,270,4,14500,29.96,NA,OVC  ft,CYQG 061100Z AUTO 27004KT 9SM OVC060 13/11 A2996 RMK SLP148,2025-09-06T11:16:00Z,2025-09-06T07:16:00Z
CYQG,2025-09-06T12:00:00Z,2025-09-06T08:00:00Z,VFR,14,11,82,280,6,14500,29.98,NA,OVC  ft,CYQG 061200Z AUTO 28006KT 9SM OVC066 14/11 A2998 RMK SLP153,2025-09-06T12:40:00Z,2025-09-06T08:40:00Z
CYQG,2025-09-06T13:00:00Z,2025-09-06T09:00:00Z,VFR,15,10,72,250,6,14500,29.99,NA,BKN  ft,CYQG 061300Z AUTO 25006KT 9SM BKN055 15/10 A2999 RMK SLP156,2025-09-06T13:22:40Z,2025-09-06T09:22:40Z
CYQG,2025-09-06T14:00:00Z,2025-09-06T10:00:00Z,VFR,17,7,52,260,10,14500,29.99,NA,CLR  ft,CYQG 061400Z AUTO 26010G15KT 230V290 9SM CLR 17/07 A2999 RMK SLP156 DENSITY ALT 1000FT,2025-09-06T14:18:38Z,2025-09-06T10:18:38Z
CYQG,2025-09-06T15:00:00Z,2025-09-06T11:00:00Z,VFR,17,6,49,270,17,14500,30,NA,FEW  ft; BKN  ft,CYQG 061500Z AUTO 27017G24KT 210V280 9SM FEW047 BKN066 17/06 A3000 RMK SLP159 DENSITY ALT 1000FT,2025-09-06T15:19:23Z,2025-09-06T11:19:23Z
CYQG,2025-09-06T16:00:00Z,2025-09-06T12:00:00Z,VFR,17,6,49,260,11,14500,30,NA,BKN  ft,CYQG 061600Z AUTO 26011G19KT 9SM BKN055 17/06 A3000 RMK SLP160 DENSITY ALT 900FT,2025-09-06T16:24:52Z,2025-09-06T12:24:52Z
CYQG,2025-09-06T17:00:00Z,2025-09-06T13:00:00Z,VFR,19,7,46,300,12,14500,29.99,NA,OVC  ft,CYQG 061700Z AUTO 30012G19KT 9SM OVC060 19/07 A2999 RMK SLP158 DENSITY ALT 1200FT,2025-09-06T17:24:32Z,2025-09-06T13:24:32Z
CYQG,2025-09-06T18:00:00Z,2025-09-06T14:00:00Z,VFR,18,7,49,260,13,14500,30,NA,OVC  ft,CYQG 061800Z AUTO 26013G19KT 9SM OVC066 18/07 A3000 RMK SLP160 DENSITY ALT 1100FT,2025-09-06T18:32:25Z,2025-09-06T14:32:25Z
CYQG,2025-09-06T19:00:00Z,2025-09-06T15:00:00Z,VFR,19,5,40,290,13,14500,30,NA,BKN  ft,CYQG 061900Z AUTO 29013G19KT 240V300 9SM BKN071 19/05 A3000 RMK SLP159 DENSITY ALT 1100FT,2025-09-06T19:18:14Z,2025-09-06T15:18:14Z
CYQG,2025-09-06T20:00:00Z,2025-09-06T16:00:00Z,VFR,18,6,46,280,10,14500,30,NA,OVC  ft,CYQG 062000Z AUTO 28010G19KT 9SM OVC086 18/06 A3000 RMK SLP161 DENSITY ALT 1100FT,2025-09-06T20:25:15Z,2025-09-06T16:25:15Z
CYQG,2025-09-06T21:00:00Z,2025-09-06T17:00:00Z,VFR,18,6,46,310,12,14500,30,NA,BKN  ft,CYQG 062100Z AUTO 31012G20KT 9SM BKN091 18/06 A3000 RMK SLP161 DENSITY ALT 1100FT,2025-09-06T21:21:19Z,2025-09-06T17:21:19Z
CYQG,2025-09-06T22:00:00Z,2025-09-06T18:00:00Z,VFR,18,7,49,260,11,14500,30,NA,OVC  ft,CYQG 062200Z AUTO 26011KT 9SM OVC091 18/07 A3000 RMK SLP161 DENSITY ALT 1100FT,2025-09-06T22:23:57Z,2025-09-06T18:23:57Z
CYQG,2025-09-06T23:00:00Z,2025-09-06T19:00:00Z,VFR,17,7,52,300,5,14500,30,NA,FEW  ft; OVC  ft,CYQG 062300Z AUTO 30005KT 250V320 9SM FEW060 OVC087 17/07 A3000 RMK SLP161 DENSITY ALT 1000FT,2025-09-06T23:22:36Z,2025-09-06T19:22:36Z
CYQG,2025-09-07T01:00:00Z,2025-09-06T21:00:00Z,VFR,16,8,59,330,9,14500,30.03,NA,BKN  ft; OVC  ft,CYQG 070100Z AUTO 33009KT 9SM BKN060 OVC078 16/08 A3003 RMK SLP171,2025-09-07T02:04:14Z,2025-09-06T22:04:14Z
CYQG,2025-09-07T02:00:00Z,2025-09-06T22:00:00Z,VFR,15,7,59,300,10,14500,30.05,NA,FEW  ft,CYQG 070200Z AUTO 30010G15KT 9SM FEW086 15/07 A3005 RMK SLP178,2025-09-07T03:07:54Z,2025-09-06T23:07:54Z
CYQG,2025-09-07T03:00:00Z,2025-09-06T23:00:00Z,VFR,14,7,63,320,6,14500,30.06,NA,OVC  ft,CYQG 070300Z AUTO 32006KT 9SM OVC081 14/07 A3006 RMK SLP181,2025-09-07T03:38:07Z,2025-09-06T23:38:07Z
CYQG,2025-09-07T04:00:00Z,2025-09-07T00:00:00Z,VFR,13,7,67,290,4,14500,30.06,NA,BKN  ft,CYQG 070400Z AUTO 29004KT 9SM BKN081 13/07 A3006 RMK SLP183,2025-09-07T04:29:48Z,2025-09-07T00:29:48Z
CYQG,2025-09-07T05:00:00Z,2025-09-07T01:00:00Z,VFR,12,7,72,290,2,14500,30.07,NA,CLR  ft,CYQG 070500Z AUTO 29002KT 9SM CLR 12/07 A3007 RMK SLP185,2025-09-07T05:25:33Z,2025-09-07T01:25:33Z
CYQG,2025-09-07T06:00:00Z,2025-09-07T02:00:00Z,VFR,10,7,82,230,3,14500,30.07,NA,FEW  ft,CYQG 070600Z AUTO 23003KT 9SM FEW081 10/07 A3007 RMK SLP187,2025-09-07T06:34:54Z,2025-09-07T02:34:54Z
CYQG,2025-09-07T07:00:00Z,2025-09-07T03:00:00Z,VFR,8,7,93,0,0,14500,30.07,NA,BKN  ft,CYQG 070700Z AUTO 00000KT 9SM BKN091 08/07 A3007 RMK SLP187,2025-09-07T07:22:55Z,2025-09-07T03:22:55Z
CYQG,2025-09-07T08:00:00Z,2025-09-07T04:00:00Z,VFR,9,7,87,290,2,14500,30.07,NA,FEW  ft,CYQG 070800Z AUTO 29002KT 9SM FEW076 09/07 A3007 RMK SLP186,2025-09-07T08:29:57Z,2025-09-07T04:29:57Z
CYQG,2025-09-07T09:00:00Z,2025-09-07T05:00:00Z,VFR,8,7,93,280,5,14500,30.09,NA,CLR  ft,CYQG 070900Z AUTO 28005KT 9SM CLR 08/07 A3009 RMK SLP191,2025-09-07T09:23:41Z,2025-09-07T05:23:41Z
CYQG,2025-09-07T10:00:00Z,2025-09-07T06:00:00Z,VFR,9,7,87,290,5,14500,30.1,NA,CLR  ft,CYQG 071000Z AUTO 29005KT 9SM CLR 09/07 A3010 RMK SLP195,2025-09-07T10:26:11Z,2025-09-07T06:26:11Z
CYQG,2025-09-07T11:00:00Z,2025-09-07T07:00:00Z,VFR,8,7,93,280,4,14500,30.11,NA,CLR  ft,CYQG 071100Z AUTO 28004KT 9SM CLR 08/07 A3011 RMK SLP200,2025-09-07T11:19:24Z,2025-09-07T07:19:24Z
CYQG,2025-09-07T12:00:00Z,2025-09-07T08:00:00Z,VFR,8,8,100,240,3,14500,30.13,NA,CLR  ft,CYQG 071200Z AUTO 24003KT 9SM CLR 08/08 A3013 RMK SLP207,2025-09-07T12:48:16Z,2025-09-07T08:48:16Z
CYQG,2025-09-07T13:00:00Z,2025-09-07T09:00:00Z,VFR,13,9,77,270,4,14500,30.14,NA,CLR  ft,CYQG 071300Z AUTO 27004KT 220V310 9SM CLR 13/09 A3014 RMK SLP210,2025-09-07T13:26:45Z,2025-09-07T09:26:45Z
CYQG,2025-09-07T14:00:00Z,2025-09-07T10:00:00Z,VFR,15,7,59,250,4,14500,30.15,NA,CLR  ft,CYQG 071400Z AUTO 25004KT 220V290 9SM CLR 15/07 A3015 RMK SLP213,2025-09-07T14:23:04Z,2025-09-07T10:23:04Z
CYQG,2025-09-07T15:00:00Z,2025-09-07T11:00:00Z,VFR,17,5,45,300,6,14500,30.16,NA,CLR  ft,CYQG 071500Z AUTO 30006KT 250V320 9SM CLR 17/05 A3016 RMK SLP217,2025-09-07T15:23:37Z,2025-09-07T11:23:37Z
CYQG,2025-09-07T16:00:00Z,2025-09-07T12:00:00Z,VFR,18,4,40,290,5,14500,30.17,NA,CLR  ft,CYQG 071600Z AUTO 29005KT 250V340 9SM CLR 18/04 A3017 RMK SLP219,2025-09-07T16:29:09Z,2025-09-07T12:29:09Z
CYQG,2025-09-07T17:00:00Z,2025-09-07T13:00:00Z,VFR,19,4,37,290,11,14500,30.17,NA,CLR  ft,CYQG 071700Z AUTO 29011G23KT 200V320 9SM CLR 19/04 A3017 RMK SLP219 DENSITY ALT 1000FT,2025-09-07T17:21:31Z,2025-09-07T13:21:31Z
CYQG,2025-09-07T18:00:00Z,2025-09-07T14:00:00Z,VFR,18,3,37,280,8,14500,30.17,NA,SCT  ft,CYQG 071800Z AUTO 28008G16KT 250V330 9SM SCT071 18/03 A3017 RMK SLP218 DENSITY ALT 900FT,2025-09-07T18:32:52Z,2025-09-07T14:32:52Z
CYQG,2025-09-07T19:00:00Z,2025-09-07T15:00:00Z,VFR,18,4,40,300,7,14500,30.16,NA,BKN  ft,CYQG 071900Z AUTO 30007KT 9SM BKN081 18/04 A3016 RMK SLP216 DENSITY ALT 900FT,2025-09-07T19:18:50Z,2025-09-07T15:18:50Z
CYQG,2025-09-07T20:00:00Z,2025-09-07T16:00:00Z,VFR,19,6,43,210,11,14500,30.15,NA,BKN  ft; BKN  ft,CYQG 072000Z AUTO 21011G16KT 9SM BKN066 BKN090 19/06 A3015 RMK SLP214 DENSITY ALT 1000FT,2025-09-07T20:25:52Z,2025-09-07T16:25:52Z
CYQG,2025-09-07T21:00:00Z,2025-09-07T17:00:00Z,VFR,19,7,46,210,6,14500,30.15,NA,BKN  ft; BKN  ft,CYQG 072100Z AUTO 21006G16KT 180V240 9SM BKN071 BKN088 19/07 A3015 RMK SLP215 DENSITY ALT 1000FT,2025-09-07T21:21:34Z,2025-09-07T17:21:34Z
CYQM,2025-09-05T21:00:00Z,2025-09-05T17:00:00Z,VFR,27,12,39,200,14,24100,29.95,NA,FEW  ft; FEW  ft,CYQM 052100Z 20014G20KT 15SM FEW056 FEW120 27/12 A2995 RMK CU1AC1 CU TR SLP145 DENSITY ALT 1600FT,2025-09-05T22:02:55Z,2025-09-05T18:02:55Z
CYQM,2025-09-05T22:00:00Z,2025-09-05T18:00:00Z,VFR,25,12,44,200,9,24100,29.96,NA,FEW  ft; BKN  ft; BKN  ft,CYQM 052200Z 20009KT 15SM FEW052TCU BKN074 BKN260 25/12 A2996 RMK TCU1AC7CI1 TCU TR CI TR TCU CLD SE-SW SLP149 DENSITY ALT 1500FT,2025-09-05T22:18:47Z,2025-09-05T18:18:47Z
CYQM,2025-09-05T23:00:00Z,2025-09-05T19:00:00Z,VFR,23,16,65,170,9,24100,29.98,NA,FEW  ft; BKN  ft; BKN  ft,CYQM 052300Z 17009KT 15SM FEW030TCU BKN080 BKN260 23/16 A2998 RMK TCU1AC7CI1 TCU TR CI TR TCU CLD SE-S ACC NW SLP153 DENSITY ALT 1200FT,2025-09-05T23:20:09Z,2025-09-05T19:20:09Z
CYQM,2025-09-06T01:00:00Z,2025-09-05T21:00:00Z,VFR,20,15,73,150,7,24100,29.99,NA,FEW  ft; SCT  ft; SCT  ft; SCT  ft,CYQM 060100Z 15007KT 15SM FEW032 SCT062 SCT082 SCT260 20/15 A2999 RMK SC1SC2AC1CI1 AC TR CI TR CU ASOCTD SLP158 DENSITY ALT 800FT,2025-09-06T01:42:37Z,2025-09-05T21:42:37Z
CYQM,2025-09-06T02:00:00Z,2025-09-05T22:00:00Z,VFR,18,15,83,140,7,24100,30,NA,FEW  ft; FEW  ft; FEW  ft,CYQM 060200Z 14007KT 15SM FEW032 FEW082 FEW260 18/15 A3000 RMK SC1AC1CI1 SC TR CI TR CU ASOCTD SLP160 DENSITY ALT 600FT,2025-09-06T02:56:37Z,2025-09-05T22:56:37Z
CYQM,2025-09-06T03:00:00Z,2025-09-05T23:00:00Z,VFR,17,15,88,160,8,24100,29.98,NA,FEW  ft; FEW  ft; FEW  ft,CYQM 060300Z 16008KT 15SM FEW032 FEW082 FEW260 17/15 A2998 RMK SC1AC1CI1 SC TR AC TR CI TR CU ASOCTD SLP156 DENSITY ALT 500FT,2025-09-06T03:30:48Z,2025-09-05T23:30:48Z
CYQM,2025-09-06T04:00:00Z,2025-09-06T00:00:00Z,VFR,18,16,88,170,10,24100,29.99,NA,BKN  ft; BKN  ft; BKN  ft,CYQM 060400Z CCA 17010KT 15SM BKN048 BKN072 BKN260 18/16 A2999 RMK SC5AC1CI1 AC TR CI TR SLP159 DENSITY ALT 600FT,2025-09-06T04:25:48Z,2025-09-06T00:25:48Z
CYQM,2025-09-06T05:00:00Z,2025-09-06T01:00:00Z,VFR,17,16,94,150,10,24100,29.98,NA,FEW  ft; FEW  ft; FEW  ft; SCT  ft,CYQM 060500Z 15010G15KT 15SM FEW045 FEW060 FEW082 SCT260 17/16 A2998 RMK SC2SC1AC1CI2 SC TR AC TR SLP155 DENSITY ALT 500FT,2025-09-06T05:19:58Z,2025-09-06T01:19:58Z
CYQM,2025-09-06T06:00:00Z,2025-09-06T02:00:00Z,VFR,17,16,94,170,10,24100,29.97,NA,FEW  ft; FEW  ft; FEW  ft; SCT  ft,CYQM 060600Z 17010KT 15SM FEW022 FEW036 FEW082 SCT260 17/16 A2997 RMK SC2SC1AC1CI2 SC TR AC TR SLP152 DENSITY ALT 500FT,2025-09-06T06:29:51Z,2025-09-06T02:29:51Z
CYQM,2025-09-06T06:36:00Z,2025-09-06T02:36:00Z,MVFR,17,16,94,160,5,24100,29.97,NA,BKN  ft; BKN  ft; BKN  ft; BKN  ft,CYQM 060636Z 16005KT 15SM BKN022 BKN032 BKN082 BKN260 17/16 A2997 RMK SC5SC1AC1CI1 SC TR AC TR CI TR SLP152 DENSITY ALT 500FT,2025-09-06T06:46:49Z,2025-09-06T02:46:49Z
CYQM,2025-09-06T07:00:00Z,2025-09-06T03:00:00Z,MVFR,17,16,94,150,8,24100,29.96,NA,BKN  ft; BKN  ft; BKN  ft; BKN  ft,CYQM 060700Z 15008KT 15SM BKN025 BKN032 BKN082 BKN260 17/16 A2996 RMK SC6SC1AC1CI1 SC TR AC TR SLP149 DENSITY ALT 500FT,2025-09-06T07:18:43Z,2025-09-06T03:18:43Z
CYQM,2025-09-06T08:00:00Z,2025-09-06T04:00:00Z,MVFR,17,16,94,160,10,24100,29.96,NA,BKN  ft; BKN  ft; BKN  ft,CYQM 060800Z 16010KT 15SM BKN025 BKN082 BKN260 17/16 A2996 RMK SC7AC1CI1 AC TR CI TR SLP148 DENSITY ALT 600FT,2025-09-06T08:25:13Z,2025-09-06T04:25:13Z
CYQM,2025-09-06T08:26:00Z,2025-09-06T04:26:00Z,MVFR,18,16,88,170,9,19300,29.97,NA,BKN  ft; BKN  ft,CYQM 060826Z 17009KT 12SM BKN015 BKN260 18/16 A2997 RMK SC7CI1 CI TR SLP151 DENSITY ALT 600FT,2025-09-06T08:41:59Z,2025-09-06T04:41:59Z
CYQM,2025-09-06T09:00:00Z,2025-09-06T05:00:00Z,MVFR,19,17,88,190,5,19300,29.98,NA,BKN  ft; BKN  ft,CYQM 060900Z 19005KT 12SM BKN013 BKN260 19/17 A2998 RMK SC7CI1 CI TR SLP154 DENSITY ALT 700FT,2025-09-06T09:19:49Z,2025-09-06T05:19:49Z
CYQM,2025-09-06T10:00:00Z,2025-09-06T06:00:00Z,MVFR,19,17,88,200,5,24100,29.99,NA,FEW  ft; BKN  ft; OVC  ft,CYQM 061000Z 20005KT 15SM FEW007 BKN011 OVC240 19/17 A2999 RMK CF1SC7CI1 CF TR SLP157 DENSITY ALT 700FT,2025-09-06T10:20:32Z,2025-09-06T06:20:32Z
CYQM,2025-09-06T11:00:00Z,2025-09-06T07:00:00Z,MVFR,19,17,88,200,7,24100,29.99,NA,FEW  ft; OVC  ft,CYQM 061100Z 20007KT 15SM FEW007 OVC011 19/17 A2999 RMK CF1SC8 CF TR SLP159 DENSITY ALT 800FT,2025-09-06T11:16:03Z,2025-09-06T07:16:03Z
CYQM,2025-09-06T12:00:00Z,2025-09-06T08:00:00Z,MVFR,21,17,78,180,8,24100,29.99,NA,BKN  ft; BKN  ft; BKN  ft,CYQM 061200Z 18008KT 15SM BKN015 BKN150 BKN220 21/17 A2999 RMK CU6AC1CI1 CI TR SLP157 DENSITY ALT 900FT,2025-09-06T12:40:03Z,2025-09-06T08:40:03Z
CYQM,2025-09-06T13:00:00Z,2025-09-06T09:00:00Z,MVFR,23,17,69,200,13,24100,30,NA,BKN  ft; BKN  ft,CYQM 061300Z 20013G18KT 15SM BKN020 BKN250 23/17 A3000 RMK CU6CI1 SLP160 DENSITY ALT 1100FT,2025-09-06T13:22:42Z,2025-09-06T09:22:42Z
CYQM,2025-09-06T14:00:00Z,2025-09-06T10:00:00Z,MVFR,23,17,69,220,15,24100,30.01,NA,BKN  ft; BKN  ft,CYQM 061400Z 22015G20KT 15SM BKN020 BKN250 23/17 A3001 RMK CU6CI1 CONTRAILS SLP163 DENSITY ALT 1200FT,2025-09-06T14:18:41Z,2025-09-06T10:18:41Z
CYQM,2025-09-06T15:00:00Z,2025-09-06T11:00:00Z,VFR,25,18,65,190,15,24100,30.01,NA,SCT  ft; SCT  ft,CYQM 061500Z 19015KT 15SM SCT025 SCT250 25/18 A3001 RMK CU3CI1 SLP163 DENSITY ALT 1300FT,2025-09-06T15:19:25Z,2025-09-06T11:19:25Z
CYQM,2025-09-06T16:00:00Z,2025-09-06T12:00:00Z,MVFR,26,18,61,200,16,24100,29.99,NA,BKN  ft,CYQM 061600Z 20016G21KT 15SM BKN030 26/18 A2999 RMK SC6 CU ASOCTD SLP158 DENSITY ALT 1500FT,2025-09-06T16:24:54Z,2025-09-06T12:24:54Z
CYQM,2025-09-06T17:00:00Z,2025-09-06T13:00:00Z,MVFR,25,18,65,200,15,24100,29.98,NA,BKN  ft; BKN  ft,CYQM 061700Z 20015G23KT 15SM BKN030 BKN250 25/18 A2998 RMK SC7CI1 CI TR CU ASOCTD SLP154 DENSITY ALT 1400FT,2025-09-06T17:24:34Z,2025-09-06T13:24:34Z
CYQM,2025-09-06T18:00:00Z,2025-09-06T14:00:00Z,VFR,26,19,65,200,16,24100,29.96,NA,SCT  ft; SCT  ft,CYQM 061800Z 20016G27KT 15SM SCT030 SCT220 26/19 A2996 RMK SC3CS1 CU ASOCTD SLP149 DENSITY ALT 1500FT,2025-09-06T18:32:27Z,2025-09-06T14:32:27Z
CYQM,2025-09-06T19:00:00Z,2025-09-06T15:00:00Z,VFR,28,19,58,200,13,24100,29.95,NA,SCT  ft; BKN  ft,CYQM 061900Z 20013G20KT 15SM SCT030 BKN220 28/19 A2995 RMK CU3CS3 SLP142 DENSITY ALT 1700FT,2025-09-06T19:18:16Z,2025-09-06T15:18:16Z
CYQM,2025-09-06T20:00:00Z,2025-09-06T16:00:00Z,VFR,28,19,58,220,18,24100,29.93,NA,FEW  ft; BKN  ft; BKN  ft,CYQM 062000Z 22018G24KT 15SM FEW035 BKN220 BKN240 28/19 A2993 RMK CU2CI3CI1 SLP137 DENSITY ALT 1800FT,2025-09-06T20:25:17Z,2025-09-06T16:25:17Z
CYQM,2025-09-06T21:00:00Z,2025-09-06T17:00:00Z,VFR,26,18,61,210,19,24100,29.93,NA,FEW  ft; SCT  ft; BKN  ft,CYQM 062100Z 21019G28KT 15SM FEW030 SCT220 BKN240 26/18 A2993 RMK SC1CS3CI1 CU ASOCTD SLP135 DENSITY ALT 1600FT,2025-09-06T21:21:21Z,2025-09-06T17:21:21Z
CYQM,2025-09-06T22:00:00Z,2025-09-06T18:00:00Z,VFR,25,15,54,210,16,24100,29.92,NA,SCT  ft; BKN  ft,CYQM 062200Z 21016G21KT 15SM SCT230 BKN250 25/15 A2992 RMK CS3CI3 SLP134 DENSITY ALT 1500FT,2025-09-06T22:23:59Z,2025-09-06T18:23:59Z
CYQM,2025-09-06T23:00:00Z,2025-09-06T19:00:00Z,VFR,24,17,65,220,13,24100,29.94,NA,BKN  ft,CYQM 062300Z 22013G21KT 15SM BKN250 24/17 A2994 RMK CI6 SLP140 DENSITY ALT 1400FT,2025-09-06T23:22:39Z,2025-09-06T19:22:39Z
CYQM,2025-09-07T01:00:00Z,2025-09-06T21:00:00Z,VFR,23,18,74,210,10,24100,29.93,NA,FEW  ft; BKN  ft,CYQM 070100Z 21010G16KT 15SM FEW035 BKN250 23/18 A2993 RMK SC1CI6 SC TR SLP136 DENSITY ALT 1200FT,2025-09-07T02:04:17Z,2025-09-06T22:04:17Z
CYQM,2025-09-07T02:00:00Z,2025-09-06T22:00:00Z,VFR,23,18,74,200,12,24100,29.94,NA,FEW  ft; SCT  ft; BKN  ft,CYQM 070200Z 20012G18KT 15SM FEW030 SCT042 BKN250 23/18 A2994 RMK SC2SC2CI3 SLP139 DENSITY ALT 1200FT,2025-09-07T03:07:56Z,2025-09-06T23:07:56Z
CYQM,2025-09-07T03:00:00Z,2025-09-06T23:00:00Z,VFR,23,18,74,210,12,24100,29.92,NA,SCT  ft; BKN  ft; BKN  ft; BKN  ft,CYQM 070300Z 21012G21KT 15SM SCT029 BKN043 BKN150 BKN190 23/18 A2992 RMK SC3SC3AC1AC1 AC TR SLP134 DENSITY ALT 1200FT,2025-09-07T03:38:10Z,2025-09-06T23:38:10Z
CYQM,2025-09-07T04:00:00Z,2025-09-07T00:00:00Z,VFR,22,18,78,210,11,24100,29.91,NA,FEW  ft; BKN  ft; BKN  ft; BKN  ft,CYQM 070400Z 21011G18KT 15SM FEW025 BKN110 BKN150 BKN200 22/18 A2991 RMK SC1AC4AC2CI1 CI TR SLP129 DENSITY ALT 1200FT,2025-09-07T04:29:50Z,2025-09-07T00:29:50Z
CYQM,2025-09-07T05:00:00Z,2025-09-07T01:00:00Z,VFR,22,18,78,210,12,24100,29.9,NA,FEW  ft; SCT  ft; BKN  ft; BKN  ft,CYQM 070500Z 21012KT 15SM FEW021 SCT042 BKN095 BKN130 22/18 A2990 RMK SC2SC1AC4AC1 AC TR SLP126 DENSITY ALT 1200FT,2025-09-07T05:25:36Z,2025-09-07T01:25:36Z
CYQM,2025-09-07T05:36:00Z,2025-09-07T01:36:00Z,MVFR,21,19,88,260,11,19300,29.91,NA,BKN  ft; BKN  ft; BKN  ft,CYQM 070536Z 26011G18KT 12SM -RA BKN024 BKN044 BKN086 21/19 A2991 RMK SC5SC1AC1 SLP129 DENSITY ALT 1000FT,2025-09-07T05:42:23Z,2025-09-07T01:42:23Z
CYQM,2025-09-07T06:00:00Z,2025-09-07T02:00:00Z,MVFR,17,17,100,310,10,19300,29.92,NA,FEW  ft; BKN  ft; BKN  ft,CYQM 070600Z CCA 31010KT 12SM -RA FEW005 BKN016 BKN025 17/17 A2992 RMK ST1SC4SC2 SLP134 DENSITY ALT 600FT,2025-09-07T06:34:56Z,2025-09-07T02:34:56Z
CYQM,2025-09-07T07:00:00Z,2025-09-07T03:00:00Z,MVFR,17,16,94,340,6,24100,29.93,NA,FEW  ft; OVC  ft,CYQM 070700Z 34006KT 15SM FEW004 OVC017 17/16 A2993 RMK ST2SC6 SLP135 DENSITY ALT 500FT,2025-09-07T07:22:57Z,2025-09-07T03:22:57Z
CYQM,2025-09-07T08:00:00Z,2025-09-07T04:00:00Z,LIFR,16,15,94,350,6,19300,29.95,NA,BKN  ft; OVC  ft,CYQM 070800Z 35006KT 12SM -RA BKN004 OVC012 16/15 A2995 RMK ST6SC2 SLP144,2025-09-07T08:29:58Z,2025-09-07T04:29:58Z
CYQM,2025-09-07T09:00:00Z,2025-09-07T05:00:00Z,LIFR,15,15,100,10,4,19300,29.96,NA,BKN  ft; OVC  ft,CYQM 070900Z 01004KT 12SM -RA BKN004 OVC012 15/15 A2996 RMK ST5ST3 SLP148,2025-09-07T09:23:43Z,2025-09-07T05:23:43Z
CYQM,2025-09-07T09:28:00Z,2025-09-07T05:28:00Z,LIFR,15,15,100,20,5,4000,29.96,NA,BKN  ft; OVC  ft,CYQM 070928Z 02005KT 2 1/2SM -SHRA BR BKN003 OVC012 15/15 A2996 RMK ST5SC3 CVCTV CLD EMBD SLP147,2025-09-07T09:41:34Z,2025-09-07T05:41:34Z
CYQM,2025-09-07T10:00:00Z,2025-09-07T06:00:00Z,LIFR,15,15,100,30,3,4000,29.97,NA,BKN  ft; OVC  ft,CYQM 071000Z 03003KT 2 1/2SM -SHRA BR BKN003 OVC012 15/15 A2997 RMK ST7SC1 CVCTV CLD EMBD SLP152,2025-09-07T10:26:13Z,2025-09-07T06:26:13Z
CYQM,2025-09-07T10:30:00Z,2025-09-07T06:30:00Z,LIFR,16,15,94,20,4,4800,29.98,NA,BKN  ft; OVC  ft,CYQM 071030Z 02004KT 3SM BR BKN003 OVC012 16/15 A2998 RMK ST7SC1 SLP154,2025-09-07T10:42:06Z,2025-09-07T06:42:06Z
CYQM,2025-09-07T11:00:00Z,2025-09-07T07:00:00Z,LIFR,16,15,94,30,4,4000,29.98,NA,OVC  ft,CYQM 071100Z 03004KT 2 1/2SM BR OVC003 16/15 A2998 RMK SF8 SLP156,2025-09-07T11:19:26Z,2025-09-07T07:19:26Z
CYQM,2025-09-07T12:32:00Z,2025-09-07T08:32:00Z,LIFR,16,16,100,50,2,4000,29.99,NA,BKN  ft; OVC  ft,CYQM 071232Z 05002KT 2 1/2SM -SHRA BR BKN003 OVC012 16/16 A2999 RMK SF7SC1 CVCTV CLD EMBD SLP158,2025-09-07T12:48:18Z,2025-09-07T08:48:18Z
CYQM,2025-09-07T13:00:00Z,2025-09-07T09:00:00Z,LIFR,16,16,100,40,3,8000,29.99,NA,BKN  ft; OVC  ft,CYQM 071300Z 04003KT 030V100 5SM -RA BR BKN004 OVC015 16/16 A2999 RMK SF7SC1 SLP159,2025-09-07T13:26:47Z,2025-09-07T09:26:47Z
CYQM,2025-09-07T13:31:00Z,2025-09-07T09:31:00Z,IFR,16,16,100,70,2,8000,30,NA,BKN  ft; OVC  ft,CYQM 071331Z 07002KT 5SM -RA BR BKN005 OVC015 16/16 A3000 RMK SF7SC1 SLP161,2025-09-07T13:42:03Z,2025-09-07T09:42:03Z
CYQM,2025-09-07T14:00:00Z,2025-09-07T10:00:00Z,IFR,17,16,94,120,3,4800,30,NA,BKN  ft; OVC  ft,CYQM 071400Z 12003KT 3SM -RA BR BKN005 OVC015 17/16 A3000 RMK SF7SC1 SLP162,2025-09-07T14:23:06Z,2025-09-07T10:23:06Z
CYQM,2025-09-07T15:01:00Z,2025-09-07T11:01:00Z,LIFR,16,16,100,120,4,3200,30,NA,BKN  ft; OVC  ft,CYQM 071501Z 12004KT 2SM RA BR BKN004 OVC015 16/16 A3000 RMK SF7SC1 SLP161,2025-09-07T15:23:39Z,2025-09-07T11:23:39Z
CYQM,2025-09-07T16:00:00Z,2025-09-07T12:00:00Z,LIFR,17,16,94,120,3,6400,29.99,NA,BKN  ft; BKN  ft; OVC  ft,CYQM 071600Z 12003KT 4SM -RA BR BKN004 BKN008 OVC020 17/16 A2999 RMK SF7SF1SC1 SF TR SLP157 DENSITY ALT 500FT,2025-09-07T16:29:12Z,2025-09-07T12:29:12Z
CYQM,2025-09-07T17:00:00Z,2025-09-07T13:00:00Z,LIFR,16,16,100,240,8,4000,30,NA,BKN  ft; OVC  ft,CYQM 071700Z 24008KT 2 1/2SM -RADZ BR BKN003 OVC020 16/16 A3000 RMK ST7SC1 SLP160,2025-09-07T17:21:33Z,2025-09-07T13:21:33Z
CYQM,2025-09-07T17:21:00Z,2025-09-07T13:21:00Z,MVFR,16,16,100,250,7,8000,29.99,NA,SCT  ft; BKN  ft; OVC  ft,CYQM 071721Z CCA 25007KT 5SM -RA BR SCT004 BKN015 OVC050 16/16 A2999 RMK SF4SC3NS1 SLP158,2025-09-07T17:41:29Z,2025-09-07T13:41:29Z
CYQM,2025-09-07T18:00:00Z,2025-09-07T14:00:00Z,LIFR,16,16,100,270,4,4800,29.98,NA,BKN  ft; OVC  ft,CYQM 071800Z 27004KT 3SM -RA BR BKN004 OVC015 16/16 A2998 RMK SF5SC3 SLP154,2025-09-07T18:32:55Z,2025-09-07T14:32:55Z
CYQM,2025-09-07T18:38:00Z,2025-09-07T14:38:00Z,LIFR,16,16,100,250,5,9700,29.97,NA,BKN  ft; BKN  ft; OVC  ft,CYQM 071838Z 25005KT 6SM -RA BR BKN004 BKN025 OVC050 16/16 A2997 RMK SF7SC1NS1 SC TR SLP151,2025-09-07T18:45:34Z,2025-09-07T14:45:34Z
CYQM,2025-09-07T19:00:00Z,2025-09-07T15:00:00Z,IFR,16,15,94,230,3,12900,29.97,NA,BKN  ft; OVC  ft,CYQM 071900Z 23003KT 8SM -RA BKN005 OVC020 16/15 A2997 RMK SF7SC1 SLP151,2025-09-07T19:18:52Z,2025-09-07T15:18:52Z
CYQM,2025-09-07T20:00:00Z,2025-09-07T16:00:00Z,MVFR,15,14,94,280,6,4800,29.96,NA,FEW  ft; BKN  ft; OVC  ft,CYQM 072000Z 28006KT 3SM -RA BR FEW005 BKN012 OVC050 15/14 A2996 RMK CF1SC7NS1 CF TR SLP150,2025-09-07T20:25:54Z,2025-09-07T16:25:54Z
CYQM,2025-09-07T21:00:00Z,2025-09-07T17:00:00Z,MVFR,14,14,100,270,2,9999,29.95,NA,FEW  ft; BKN  ft; BKN  ft; OVC  ft,CYQM 072100Z 27002KT 10SM -RA FEW005 BKN020 BKN035 OVC050 14/14 A2995 RMK CF1SC4SC2NS1 SLP146,2025-09-07T21:21:35Z,2025-09-07T17:21:35Z
CYQQ,2025-09-05T21:00:00Z,2025-09-05T17:00:00Z,VFR,22,16,69,40,5,24100,29.84,NA,BKN  ft; BKN  ft,CYQQ 052100Z 04005KT 15SM BKN060 BKN250 22/16 A2984 RMK FU6CI1 DENSITY ALT 1219FT CIG PDMTLY TRANSPARENT HZ SLP103,2025-09-05T22:02:54Z,2025-09-05T18:02:54Z
CYQQ,2025-09-05T22:00:00Z,2025-09-05T18:00:00Z,VFR,22,15,65,50,5,32200,29.82,NA,SCT  ft; SCT  ft,CYQQ 052200Z 05005KT 20SM SCT060 SCT250 22/15 A2982 RMK FU4CI1 DENSITY ALT 1250FT SLP098,2025-09-05T22:18:45Z,2025-09-05T18:18:45Z
CYQQ,2025-09-05T23:00:00Z,2025-09-05T19:00:00Z,VFR,22,15,65,70,5,32200,29.81,NA,SCT  ft; SCT  ft,CYQQ 052300Z 07005KT 20SM SCT060 SCT250 22/15 A2981 RMK FU4CI1 DENSITY ALT 1314FT SLP094,2025-09-05T23:20:07Z,2025-09-05T19:20:07Z
CYQQ,2025-09-06T01:00:00Z,2025-09-05T21:00:00Z,VFR,22,16,69,80,3,24100,29.8,NA,SCT  ft; BKN  ft,CYQQ 060100Z 08003KT 15SM SCT080 BKN240 22/16 A2980 RMK FU3CI2 DENSITY ALT 1299FT CIG PDMTLY TRANSPARENT CC ASOCTD SLP091,2025-09-06T01:42:36Z,2025-09-05T21:42:36Z
CYQQ,2025-09-06T02:00:00Z,2025-09-05T22:00:00Z,VFR,20,16,78,100,3,19300,29.8,NA,SCT  ft; BKN  ft,CYQQ 060200Z 10003KT 12SM SCT080 BKN240 20/16 A2980 RMK FU4CI3 DENSITY ALT 1106FT CIG PDMTLY TRANSPARENT CC ASOCTD SLP093,2025-09-06T02:56:36Z,2025-09-05T22:56:36Z
CYQQ,2025-09-06T03:00:00Z,2025-09-05T23:00:00Z,VFR,20,15,73,180,2,19300,29.8,NA,SCT  ft; BKN  ft; BKN  ft,CYQQ 060300Z 18002KT 12SM SCT060 BKN190 BKN240 20/15 A2980 RMK FU3AC2CI1 DENSITY ALT 1048FT CIG PDMTLY TRANSPARENT SLP091,2025-09-06T03:30:46Z,2025-09-05T23:30:46Z
CYQQ,2025-09-06T04:00:00Z,2025-09-06T00:00:00Z,VFR,19,15,78,330,2,24100,29.82,NA,SCT  ft; BKN  ft; BKN  ft,CYQQ 060400Z 33002KT 15SM SCT060 BKN190 BKN230 19/15 A2982 RMK FU3AC2CI2 DENSITY ALT 935FT CIG PDMTLY TRANSPARENT SLP096,2025-09-06T04:25:46Z,2025-09-06T00:25:46Z
CYQQ,2025-09-06T05:00:00Z,2025-09-06T01:00:00Z,VFR,19,15,78,0,0,24100,29.82,NA,FEW  ft; BKN  ft; BKN  ft,CYQQ 060500Z 00000KT 15SM FEW050 BKN180 BKN220 19/15 A2982 RMK FU2AC3CI2 DENSITY ALT 861FT SLP099,2025-09-06T05:19:56Z,2025-09-06T01:19:56Z
CYQQ,2025-09-06T06:00:00Z,2025-09-06T02:00:00Z,VFR,18,15,83,280,3,32200,29.84,NA,SCT  ft,CYQQ 060600Z CCA 28003KT 20SM SCT180 18/15 A2984 RMK AC4 DENSITY ALT 716FT SLP104,2025-09-06T06:29:50Z,2025-09-06T02:29:50Z
CYQQ,2025-09-06T07:00:00Z,2025-09-06T03:00:00Z,VFR,18,15,83,320,2,32200,29.85,NA,SCT  ft,CYQQ 060700Z 32002KT 20SM SCT210 18/15 A2985 RMK CC4 DENSITY ALT 708FT SLP108,2025-09-06T07:18:42Z,2025-09-06T03:18:42Z
CYQQ,2025-09-06T08:00:00Z,2025-09-06T04:00:00Z,VFR,17,15,88,320,3,32200,29.86,NA,BKN  ft,CYQQ 060800Z 32003KT 20SM BKN210 17/15 A2986 RMK CC5 DENSITY ALT 673FT SLP110,2025-09-06T08:25:12Z,2025-09-06T04:25:12Z
CYQQ,2025-09-06T09:00:00Z,2025-09-06T05:00:00Z,VFR,18,15,83,330,5,32200,29.86,NA,BKN  ft,CYQQ 060900Z 33005KT 20SM BKN160 18/15 A2986 RMK AC5 DENSITY ALT 717FT SLP110,2025-09-06T09:19:47Z,2025-09-06T05:19:47Z
CYQQ,2025-09-06T10:00:00Z,2025-09-06T06:00:00Z,VFR,18,14,78,310,5,24100,29.86,NA,OVC  ft,CYQQ 061000Z 31005KT 15SM OVC140 18/14 A2986 RMK AC8 DENSITY ALT 749FT SLP112,2025-09-06T10:20:31Z,2025-09-06T06:20:31Z
CYQQ,2025-09-06T11:00:00Z,2025-09-06T07:00:00Z,VFR,18,14,78,0,0,32200,29.86,NA,SCT  ft; BKN  ft,CYQQ 061100Z 00000KT 20SM SCT140 BKN190 18/14 A2986 RMK AC4AC3 DENSITY ALT 726FT SLP112,2025-09-06T11:16:01Z,2025-09-06T07:16:01Z
CYQQ,2025-09-06T12:00:00Z,2025-09-06T08:00:00Z,VFR,17,14,83,340,3,32200,29.86,NA,SCT  ft,CYQQ 061200Z 34003KT 20SM SCT150 17/14 A2986 RMK AC4 DENSITY ALT 556FT SLP111,2025-09-06T12:40:01Z,2025-09-06T08:40:01Z
CYQQ,2025-09-06T13:00:00Z,2025-09-06T09:00:00Z,VFR,16,14,88,310,2,32200,29.87,NA,SCT  ft; BKN  ft,CYQQ 061300Z 31002KT 20SM SCT150 BKN250 16/14 A2987 RMK AC4CI2 DENSITY ALT 459FT SLP114,2025-09-06T13:22:40Z,2025-09-06T09:22:40Z
CYQQ,2025-09-06T14:00:00Z,2025-09-06T10:00:00Z,VFR,16,14,88,310,3,19300,29.87,NA,FEW  ft; FEW  ft,CYQQ 061400Z 31003KT 12SM FEW180 FEW250 16/14 A2987 RMK AC1CI2 DENSITY ALT 434FT HZ SLP117,2025-09-06T14:18:39Z,2025-09-06T10:18:39Z
CYQQ,2025-09-06T15:00:00Z,2025-09-06T11:00:00Z,VFR,17,14,83,290,3,19300,29.89,NA,SCT  ft,CYQQ 061500Z 29003KT 12SM SCT250 17/14 A2989 RMK CI3 DENSITY ALT 524FT CONTRAILS HZ SLP121,2025-09-06T15:19:24Z,2025-09-06T11:19:24Z
CYQQ,2025-09-06T16:00:00Z,2025-09-06T12:00:00Z,VFR,19,14,73,280,2,19300,29.89,NA,BKN  ft,CYQQ 061600Z 28002KT 12SM BKN250 19/14 A2989 RMK CI6 DENSITY ALT 797FT HZ SLP123,2025-09-06T16:24:53Z,2025-09-06T12:24:53Z
CYQQ,2025-09-06T17:00:00Z,2025-09-06T13:00:00Z,VFR,20,15,73,20,6,19300,29.9,NA,SCT  ft,CYQQ 061700Z 02006KT 12SM SCT250 20/15 A2990 RMK CI4 DENSITY ALT 881FT CONTRAILS HZ SLP125,2025-09-06T17:24:33Z,2025-09-06T13:24:33Z
CYQQ,2025-09-06T18:00:00Z,2025-09-06T14:00:00Z,VFR,21,15,69,10,6,24100,29.9,NA,SCT  ft,CYQQ 061800Z 01006KT 15SM SCT250 21/15 A2990 RMK CI3 DENSITY ALT 1044FT HZ SLP127,2025-09-06T18:32:26Z,2025-09-06T14:32:26Z
CYQQ,2025-09-06T19:00:00Z,2025-09-06T15:00:00Z,VFR,21,15,69,60,7,19300,29.91,NA,FEW  ft,CYQQ 061900Z 06007KT 12SM FEW250 21/15 A2991 RMK CI2 DENSITY ALT 1045FT FU SLP129,2025-09-06T19:18:14Z,2025-09-06T15:18:14Z
CYQQ,2025-09-06T20:00:00Z,2025-09-06T16:00:00Z,VFR,22,16,69,60,5,19300,29.9,NA,FEW  ft,CYQQ 062000Z 06005KT 12SM FEW250 22/16 A2990 RMK CI2 DENSITY ALT 1185FT FU SLP125,2025-09-06T20:25:16Z,2025-09-06T16:25:16Z
CYQQ,2025-09-06T21:00:00Z,2025-09-06T17:00:00Z,VFR,23,16,65,90,7,19300,29.9,NA,FEW  ft,CYQQ 062100Z 09007KT 12SM FEW250 23/16 A2990 RMK CI2 DENSITY ALT 1333FT CONTRAILS FU SLP123,2025-09-06T21:21:20Z,2025-09-06T17:21:20Z
CYQQ,2025-09-06T22:00:00Z,2025-09-06T18:00:00Z,VFR,23,17,69,140,9,19300,29.9,NA,FEW  ft; SCT  ft,CYQQ 062200Z 14009KT 12SM FEW040 SCT250 23/17 A2990 RMK FU1CI2 DENSITY ALT 1318FT SLP123,2025-09-06T22:23:58Z,2025-09-06T18:23:58Z
CYQQ,2025-09-06T23:00:00Z,2025-09-06T19:00:00Z,VFR,22,17,73,150,8,19300,29.89,NA,FEW  ft; BKN  ft,CYQQ 062300Z 15008KT 12SM FEW040 BKN240 22/17 A2989 RMK FU2CI4 DENSITY ALT 1250FT CIG PDMTLY TRANSPARENT SLP120,2025-09-06T23:22:37Z,2025-09-06T19:22:37Z
CYQQ,2025-09-07T01:00:00Z,2025-09-06T21:00:00Z,VFR,21,16,73,140,7,9999,29.89,NA,FEW  ft; FEW  ft; SCT  ft; BKN  ft,CYQQ 070100Z 14007KT 10SM FEW040 FEW060 SCT200 BKN240 21/16 A2989 RMK FU2CU1CI1CI4 DENSITY ALT 1111FT CIG PDMTLY TRANSPARENT CC ASOCTD SLP122,2025-09-07T02:04:15Z,2025-09-06T22:04:15Z
CYQQ,2025-09-07T02:00:00Z,2025-09-06T22:00:00Z,VFR,20,16,78,160,6,19300,29.89,NA,FEW  ft; FEW  ft; SCT  ft; BKN  ft,CYQQ 070200Z 16006KT 12SM FEW040 FEW060 SCT170 BKN240 20/16 A2989 RMK FU2SC1AC2CI3 DENSITY ALT 1007FT CIG PDMTLY TRANSPARENT SLP123,2025-09-07T03:07:55Z,2025-09-06T23:07:55Z
CYQQ,2025-09-07T03:00:00Z,2025-09-06T23:00:00Z,VFR,20,16,78,100,7,19300,29.9,NA,FEW  ft; BKN  ft; BKN  ft,CYQQ 070300Z 10007KT 12SM FEW040 BKN190 BKN210 20/16 A2990 RMK FU1AC4CI2 DENSITY ALT 952FT SLP124,2025-09-07T03:38:08Z,2025-09-06T23:38:08Z
CYQQ,2025-09-07T04:00:00Z,2025-09-07T00:00:00Z,VFR,20,16,78,0,0,19300,29.9,NA,FEW  ft; SCT  ft; BKN  ft,CYQQ 070400Z 00000KT 12SM FEW040 SCT160 BKN200 20/16 A2990 RMK FU1AC2CI4 DENSITY ALT 926FT SLP126,2025-09-07T04:29:49Z,2025-09-07T00:29:49Z
CYQQ,2025-09-07T05:00:00Z,2025-09-07T01:00:00Z,VFR,20,16,78,0,0,19300,29.92,NA,BKN  ft; BKN  ft,CYQQ 070500Z 00000KT 12SM BKN150 BKN180 20/16 A2992 RMK AC5AC2 DENSITY ALT 889FT SLP132,2025-09-07T05:25:34Z,2025-09-07T01:25:34Z
CYQQ,2025-09-07T06:00:00Z,2025-09-07T02:00:00Z,VFR,19,16,83,0,0,32200,29.93,NA,BKN  ft; OVC  ft,CYQQ 070600Z 00000KT 20SM BKN170 OVC190 19/16 A2993 RMK AC6AC2 DENSITY ALT 832FT SLP134,2025-09-07T06:34:55Z,2025-09-07T02:34:55Z
CYQQ,2025-09-07T07:00:00Z,2025-09-07T03:00:00Z,VFR,18,16,88,320,4,24100,29.94,NA,OVC  ft,CYQQ 070700Z 32004KT 15SM OVC160 18/16 A2994 RMK AC8 DENSITY ALT 714FT SLP139,2025-09-07T07:22:55Z,2025-09-07T03:22:55Z
CYQQ,2025-09-07T08:00:00Z,2025-09-07T04:00:00Z,VFR,18,16,88,30,2,24100,29.95,NA,OVC  ft,CYQQ 070800Z 03002KT 15SM -SHRA OVC120 18/16 A2995 RMK AC8 DENSITY ALT 692FT SLP143,2025-09-07T08:29:57Z,2025-09-07T04:29:57Z
CYQQ,2025-09-07T09:00:00Z,2025-09-07T05:00:00Z,VFR,18,16,88,340,2,24100,29.96,NA,OVC  ft,CYQQ 070900Z 34002KT 15SM -SHRA OVC120 18/16 A2996 RMK AC8 DENSITY ALT 674FT SLP145,2025-09-07T09:23:42Z,2025-09-07T05:23:42Z
CYQQ,2025-09-07T10:00:00Z,2025-09-07T06:00:00Z,VFR,18,17,94,100,4,24100,29.96,NA,OVC  ft,CYQQ 071000Z 10004KT 15SM OVC110 18/17 A2996 RMK AC8 DENSITY ALT 656FT LTNG DTCTRS REP STRIKES 30 NM NW SLP145,2025-09-07T10:26:12Z,2025-09-07T06:26:12Z
CYQQ,2025-09-07T10:36:00Z,2025-09-07T06:36:00Z,VFR,18,17,94,200,4,24100,29.97,NA,OVC  ft,CYQQ 071036Z 20004KT 15SM -SHRA OVC110 18/17 A2997 RMK AC8 DENSITY ALT 643FT SLP149,2025-09-07T10:42:04Z,2025-09-07T06:42:04Z
CYQQ,2025-09-07T11:00:00Z,2025-09-07T07:00:00Z,VFR,18,17,94,140,4,24100,29.97,NA,OVC  ft,CYQQ 071100Z 14004KT 15SM OVC120 18/17 A2997 RMK AC8 DENSITY ALT 643FT LTNG 30NM W MOV NW SLP150,2025-09-07T11:19:24Z,2025-09-07T07:19:24Z
CYQQ,2025-09-07T12:00:00Z,2025-09-07T08:00:00Z,VFR,18,16,88,140,10,32200,29.99,NA,FEW  ft; OVC  ft,CYQQ 071200Z 14010KT 20SM FEW018 OVC140 18/16 A2999 RMK SC1AC8 DENSITY ALT 560FT SLP156,2025-09-07T12:48:17Z,2025-09-07T08:48:17Z
CYQQ,2025-09-07T13:00:00Z,2025-09-07T09:00:00Z,VFR,17,15,88,150,9,32200,30,NA,FEW  ft; FEW  ft; OVC  ft,CYQQ 071300Z 15009KT 20SM FEW020 FEW120 OVC140 17/15 A3000 RMK SC1AC1AC6 DENSITY ALT 456FT SLP159,2025-09-07T13:26:45Z,2025-09-07T09:26:45Z
CYQQ,2025-09-07T13:34:00Z,2025-09-07T09:34:00Z,MVFR,17,15,88,150,7,32200,30,NA,BKN  ft; OVC  ft,CYQQ 071334Z 15007KT 20SM BKN012 OVC120 17/15 A3000 RMK SC5AC3 DENSITY ALT 454FT SLP161,2025-09-07T13:42:01Z,2025-09-07T09:42:01Z
CYQQ,2025-09-07T14:00:00Z,2025-09-07T10:00:00Z,VFR,17,15,88,140,7,32200,30.01,NA,FEW  ft; BKN  ft; BKN  ft,CYQQ 071400Z 14007KT 20SM FEW014 BKN034 BKN130 17/15 A3001 RMK SF1SC5AC2 DENSITY ALT 430FT SLP162,2025-09-07T14:23:05Z,2025-09-07T10:23:05Z
CYQQ,2025-09-07T15:00:00Z,2025-09-07T11:00:00Z,VFR,17,15,88,150,7,24100,30.01,NA,FEW  ft; BKN  ft; BKN  ft,CYQQ 071500Z 15007KT 15SM FEW035 BKN070 BKN130 17/15 A3001 RMK SC1AC4AC2 DENSITY ALT 482FT SLP162,2025-09-07T15:23:38Z,2025-09-07T11:23:38Z
CYQQ,2025-09-07T16:00:00Z,2025-09-07T12:00:00Z,VFR,18,15,83,150,6,24100,30.01,NA,FEW  ft; FEW  ft; SCT  ft,CYQQ 071600Z CCA 15006KT 15SM FEW035 FEW070 SCT130 18/15 A3001 RMK SC1AC1AC2 DENSITY ALT 602FT SLP164,2025-09-07T16:29:10Z,2025-09-07T12:29:10Z
CYQQ,2025-09-07T17:00:00Z,2025-09-07T13:00:00Z,MVFR,19,16,83,140,6,9999,30.03,NA,SCT  ft; BKN  ft,CYQQ 071700Z 14006KT 10SM SCT012 BKN030 19/16 A3003 RMK SF4SC2 DENSITY ALT 689FT SLP169,2025-09-07T17:21:32Z,2025-09-07T13:21:32Z
CYQQ,2025-09-07T18:00:00Z,2025-09-07T14:00:00Z,VFR,20,15,73,170,4,9999,30.03,NA,FEW  ft; BKN  ft; BKN  ft,CYQQ 071800Z 17004KT 10SM FEW012 BKN037 BKN120 20/15 A3003 RMK SF1SC4AC1 DENSITY ALT 743FT SLP171,2025-09-07T18:32:53Z,2025-09-07T14:32:53Z
CYQQ,2025-09-07T19:00:00Z,2025-09-07T15:00:00Z,VFR,21,15,69,80,7,9999,30.04,NA,FEW  ft; FEW  ft; BKN  ft,CYQQ 071900Z 08007KT 10SM FEW012 FEW035 BKN120 21/15 A3004 RMK SF1SC2AC3 DENSITY ALT 856FT SLP174,2025-09-07T19:18:51Z,2025-09-07T15:18:51Z
CYQQ,2025-09-07T20:00:00Z,2025-09-07T16:00:00Z,VFR,21,15,69,100,9,24100,30.05,NA,FEW  ft; SCT  ft,CYQQ 072000Z 10009KT 15SM FEW030 SCT130 21/15 A3005 RMK SC1AC2 DENSITY ALT 854FT SLP175,2025-09-07T20:25:53Z,2025-09-07T16:25:53Z
CYQQ,2025-09-07T21:00:00Z,2025-09-07T17:00:00Z,VFR,21,15,69,100,9,32200,30.06,NA,FEW  ft; SCT  ft,CYQQ 072100Z 10009KT 20SM FEW030 SCT130 21/15 A3006 RMK SC1AC3 DENSITY ALT 873FT SLP178,2025-09-07T21:21:34Z,2025-09-07T17:21:34Z
CYQR,2025-09-05T21:00:00Z,2025-09-05T17:00:00Z,VFR,14,4,51,340,12,24100,30.08,NA,FEW  ft,CYQR 052100Z 34012G21KT 15SM FEW040 14/04 A3008 RMK CU2 SLP206 DENSITY ALT 2100FT,2025-09-05T22:02:54Z,2025-09-05T18:02:54Z
CYQR,2025-09-05T22:00:00Z,2025-09-05T18:00:00Z,VFR,14,3,48,330,10,24100,30.08,NA,FEW  ft,CYQR 052200Z 33010G15KT 290V360 15SM FEW042 14/03 A3008 RMK CF2 SLP203 DENSITY ALT 2100FT,2025-09-05T22:18:46Z,2025-09-05T18:18:46Z
CYQR,2025-09-05T23:00:00Z,2025-09-05T19:00:00Z,VFR,15,3,45,330,13,24100,30.07,NA,FEW  ft,CYQR 052300Z 33013KT 15SM FEW043 15/03 A3007 RMK CU1 SLP201 DENSITY ALT 2200FT,2025-09-05T23:20:08Z,2025-09-05T19:20:08Z
CYQR,2025-09-06T01:00:00Z,2025-09-05T21:00:00Z,VFR,12,4,58,10,9,24100,30.08,NA,FEW  ft,CYQR 060100Z 01009G16KT 15SM FEW040 12/04 A3008 RMK SC1 SC TR SLP205,2025-09-06T01:42:36Z,2025-09-05T21:42:36Z
CYQR,2025-09-06T02:00:00Z,2025-09-05T22:00:00Z,VFR,10,3,62,30,8,24100,30.08,NA,FEW  ft; FEW  ft,CYQR 060200Z 03008KT 15SM FEW040 FEW100 10/03 A3008 RMK SC1AC1 SC TR AC TR SLP207,2025-09-06T02:56:36Z,2025-09-05T22:56:36Z
CYQR,2025-09-06T03:00:00Z,2025-09-05T23:00:00Z,VFR,8,3,71,30,5,24100,30.09,NA,SKC  ft,CYQR 060300Z 03005KT 15SM SKC 08/03 A3009 RMK SLP209,2025-09-06T03:30:47Z,2025-09-05T23:30:47Z
CYQR,2025-09-06T04:00:00Z,2025-09-06T00:00:00Z,VFR,7,3,76,30,2,24100,30.09,NA,SKC  ft,CYQR 060400Z 03002KT 15SM SKC 07/03 A3009 RMK SLP208,2025-09-06T04:25:46Z,2025-09-06T00:25:46Z
CYQR,2025-09-06T05:00:00Z,2025-09-06T01:00:00Z,VFR,4,2,87,360,2,24100,30.09,NA,SKC  ft,CYQR 060500Z 36002KT 15SM SKC 04/02 A3009 RMK SLP212,2025-09-06T05:19:57Z,2025-09-06T01:19:57Z
CYQR,2025-09-06T06:00:00Z,2025-09-06T02:00:00Z,VFR,2,1,93,290,2,24100,30.1,NA,SKC  ft,CYQR 060600Z 29002KT 15SM SKC 02/01 A3010 RMK SLP215,2025-09-06T06:29:50Z,2025-09-06T02:29:50Z
CYQR,2025-09-06T07:00:00Z,2025-09-06T03:00:00Z,VFR,0,0,100,250,7,24100,30.1,NA,FEW  ft,CYQR 060700Z 25007KT 15SM FEW120 00/M00 A3010 RMK AC1 AC TR SLP216,2025-09-06T07:18:42Z,2025-09-06T03:18:42Z
CYQR,2025-09-06T08:00:00Z,2025-09-06T04:00:00Z,VFR,2,0,87,320,2,24100,30.11,NA,FEW  ft,CYQR 060800Z 32002KT 15SM FEW120 02/00 A3011 RMK AC1 AC TR SLP217,2025-09-06T08:25:12Z,2025-09-06T04:25:12Z
CYQR,2025-09-06T09:00:00Z,2025-09-06T05:00:00Z,VFR,3,1,87,0,0,24100,30.11,NA,SKC  ft,CYQR 060900Z 00000KT 15SM SKC 03/01 A3011 RMK SLP216,2025-09-06T09:19:47Z,2025-09-06T05:19:47Z
CYQR,2025-09-06T10:00:00Z,2025-09-06T06:00:00Z,VFR,-1,-1,100,250,4,24100,30.11,NA,SKC  ft,CYQR 061000Z 25004KT 15SM SKC M01/M01 A3011 RMK SLP219,2025-09-06T10:20:31Z,2025-09-06T06:20:31Z
CYQR,2025-09-06T11:00:00Z,2025-09-06T07:00:00Z,VFR,1,0,93,0,0,24100,30.12,NA,SKC  ft,CYQR 061100Z 00000KT 15SM SKC 01/M00 A3012 RMK SLP220,2025-09-06T11:16:01Z,2025-09-06T07:16:01Z
CYQR,2025-09-06T12:00:00Z,2025-09-06T08:00:00Z,VFR,1,-1,87,60,4,24100,30.12,NA,FEW  ft,CYQR 061200Z 06004KT 15SM FEW120 01/M01 A3012 RMK AC1 AC TR SLP220,2025-09-06T12:40:01Z,2025-09-06T08:40:01Z
CYQR,2025-09-06T13:00:00Z,2025-09-06T09:00:00Z,VFR,2,1,93,60,5,24100,30.13,NA,FEW  ft,CYQR 061300Z 06005KT 15SM FEW250 02/01 A3013 RMK CI1 SLP225,2025-09-06T13:22:41Z,2025-09-06T09:22:41Z
CYQR,2025-09-06T14:00:00Z,2025-09-06T10:00:00Z,VFR,4,2,87,0,0,24100,30.14,NA,FEW  ft,CYQR 061400Z 00000KT 15SM FEW250 04/02 A3014 RMK CI1 SLP230,2025-09-06T14:18:40Z,2025-09-06T10:18:40Z
CYQR,2025-09-06T15:00:00Z,2025-09-06T11:00:00Z,VFR,9,3,66,0,2,24100,30.15,NA,FEW  ft,CYQR 061500Z VRB02KT 15SM FEW250 09/03 A3015 RMK CI1 CI TR SLP229,2025-09-06T15:19:24Z,2025-09-06T11:19:24Z
CYQR,2025-09-06T16:00:00Z,2025-09-06T12:00:00Z,VFR,12,3,54,0,0,24100,30.15,NA,FEW  ft,CYQR 061600Z 00000KT 15SM FEW250 12/03 A3015 RMK CI1 CI TR SLP230,2025-09-06T16:24:53Z,2025-09-06T12:24:53Z
CYQR,2025-09-06T17:00:00Z,2025-09-06T13:00:00Z,VFR,13,3,51,80,4,24100,30.15,NA,FEW  ft; FEW  ft,CYQR 061700Z 08004KT 040V170 15SM FEW040 FEW250 13/03 A3015 RMK CF1CI1 CF TR CI TR SLP230,2025-09-06T17:24:33Z,2025-09-06T13:24:33Z
CYQR,2025-09-06T18:00:00Z,2025-09-06T14:00:00Z,VFR,15,2,42,90,5,24100,30.15,NA,FEW  ft; FEW  ft,CYQR 061800Z 09005KT 040V140 15SM FEW048 FEW250 15/02 A3015 RMK CF1CI1 CF TR CI TR SLP230 DENSITY ALT 2100FT,2025-09-06T18:32:26Z,2025-09-06T14:32:26Z
CYQR,2025-09-06T19:00:00Z,2025-09-06T15:00:00Z,VFR,15,2,42,170,3,24100,30.14,NA,FEW  ft; FEW  ft,CYQR 061900Z 17003KT 100V240 15SM FEW055 FEW250 15/02 A3014 RMK CF1CI1 CF TR CI TR SLP228 DENSITY ALT 2200FT,2025-09-06T19:18:15Z,2025-09-06T15:18:15Z
CYQR,2025-09-06T20:00:00Z,2025-09-06T16:00:00Z,VFR,17,1,34,0,3,24100,30.13,NA,FEW  ft; FEW  ft,CYQR 062000Z VRB03KT 15SM FEW060 FEW250 17/01 A3013 RMK CF1CI1 CF TR CI TR SLP223 DENSITY ALT 2300FT,2025-09-06T20:25:16Z,2025-09-06T16:25:16Z
CYQR,2025-09-06T21:00:00Z,2025-09-06T17:00:00Z,VFR,17,0,32,110,6,24100,30.12,NA,FEW  ft,CYQR 062100Z 11006KT 070V160 15SM FEW250 17/00 A3012 RMK CI1 CI TR SLP218 DENSITY ALT 2400FT,2025-09-06T21:21:20Z,2025-09-06T17:21:20Z
CYQR,2025-09-06T22:00:00Z,2025-09-06T18:00:00Z,VFR,18,1,32,0,5,24100,30.11,NA,FEW  ft,CYQR 062200Z VRB05KT 15SM FEW250 18/01 A3011 RMK CI1 CI TR SLP215 DENSITY ALT 2600FT,2025-09-06T22:23:58Z,2025-09-06T18:23:58Z
CYQR,2025-09-06T23:00:00Z,2025-09-06T19:00:00Z,VFR,19,1,30,120,5,24100,30.1,NA,FEW  ft,CYQR 062300Z 12005KT 15SM FEW250 19/01 A3010 RMK CI1 CI TR SLP212 DENSITY ALT 2600FT,2025-09-06T23:22:38Z,2025-09-06T19:22:38Z
CYQR,2025-09-07T01:00:00Z,2025-09-06T21:00:00Z,VFR,15,1,39,130,8,24100,30.1,NA,FEW  ft,CYQR 070100Z 13008KT 15SM FEW250 15/01 A3010 RMK CI1 CI TR SLP212 DENSITY ALT 2200FT,2025-09-07T02:04:16Z,2025-09-06T22:04:16Z
CYQR,2025-09-07T02:00:00Z,2025-09-06T22:00:00Z,VFR,12,2,51,120,8,24100,30.1,NA,FEW  ft,CYQR 070200Z 12008KT 15SM FEW250 12/02 A3010 RMK CI1 CI TR SLP213,2025-09-07T03:07:55Z,2025-09-06T23:07:55Z
CYQR,2025-09-07T03:00:00Z,2025-09-06T23:00:00Z,VFR,12,2,51,110,9,24100,30.11,NA,FEW  ft,CYQR 070300Z 11009KT 15SM FEW250 12/02 A3011 RMK CI1 CI TR SLP212,2025-09-07T03:38:09Z,2025-09-06T23:38:09Z
CYQR,2025-09-07T04:00:00Z,2025-09-07T00:00:00Z,VFR,10,2,58,120,10,24100,30.11,NA,SKC  ft,CYQR 070400Z 12010KT 15SM SKC 10/02 A3011 RMK SLP213,2025-09-07T04:29:49Z,2025-09-07T00:29:49Z
CYQR,2025-09-07T05:00:00Z,2025-09-07T01:00:00Z,VFR,9,2,62,130,12,24100,30.12,NA,SKC  ft,CYQR 070500Z 13012G17KT 15SM SKC 09/02 A3012 RMK SLP216,2025-09-07T05:25:35Z,2025-09-07T01:25:35Z
CYQR,2025-09-07T06:00:00Z,2025-09-07T02:00:00Z,VFR,7,2,71,120,11,24100,30.12,NA,SKC  ft,CYQR 070600Z 12011KT 15SM SKC 07/02 A3012 RMK SLP216,2025-09-07T06:34:55Z,2025-09-07T02:34:55Z
CYQR,2025-09-07T07:00:00Z,2025-09-07T03:00:00Z,VFR,6,2,76,130,11,24100,30.11,NA,SKC  ft,CYQR 070700Z 13011G17KT 15SM SKC 06/02 A3011 RMK SLP214,2025-09-07T07:22:56Z,2025-09-07T03:22:56Z
CYQR,2025-09-07T08:00:00Z,2025-09-07T04:00:00Z,VFR,6,2,76,130,13,24100,30.1,NA,SKC  ft,CYQR 070800Z 13013KT 15SM SKC 06/02 A3010 RMK SLP209,2025-09-07T08:29:58Z,2025-09-07T04:29:58Z
CYQR,2025-09-07T09:00:00Z,2025-09-07T05:00:00Z,VFR,5,2,81,130,12,24100,30.09,NA,SKC  ft,CYQR 070900Z 13012G18KT 15SM SKC 05/02 A3009 RMK SLP204,2025-09-07T09:23:42Z,2025-09-07T05:23:42Z
CYQR,2025-09-07T10:00:00Z,2025-09-07T06:00:00Z,VFR,5,2,81,130,13,24100,30.08,NA,SKC  ft,CYQR 071000Z 13013KT 15SM SKC 05/02 A3008 RMK SLP200,2025-09-07T10:26:12Z,2025-09-07T06:26:12Z
CYQR,2025-09-07T11:00:00Z,2025-09-07T07:00:00Z,VFR,5,2,81,130,12,24100,30.07,NA,SKC  ft,CYQR 071100Z 13012G17KT 15SM SKC 05/02 A3007 RMK SLP197,2025-09-07T11:19:25Z,2025-09-07T07:19:25Z
CYQR,2025-09-07T12:00:00Z,2025-09-07T08:00:00Z,VFR,4,2,87,120,11,24100,30.06,NA,FEW  ft,CYQR 071200Z 12011KT 15SM FEW250 04/02 A3006 RMK CI1 SLP194,2025-09-07T12:48:17Z,2025-09-07T08:48:17Z
CYQR,2025-09-07T13:00:00Z,2025-09-07T09:00:00Z,VFR,4,2,87,120,11,24100,30.05,NA,FEW  ft,CYQR 071300Z 12011KT 15SM FEW250 04/02 A3005 RMK CI2 SLP193,2025-09-07T13:26:46Z,2025-09-07T09:26:46Z
CYQR,2025-09-07T14:00:00Z,2025-09-07T10:00:00Z,VFR,6,3,81,130,11,24100,30.04,NA,SCT  ft,CYQR 071400Z 13011KT 15SM SCT250 06/03 A3004 RMK CI3 SLP190,2025-09-07T14:23:05Z,2025-09-07T10:23:05Z
CYQR,2025-09-07T15:00:00Z,2025-09-07T11:00:00Z,VFR,9,3,66,120,10,24100,30.02,NA,BKN  ft,CYQR 071500Z 12010KT 15SM BKN250 09/03 A3002 RMK CI5 SLP183,2025-09-07T15:23:38Z,2025-09-07T11:23:38Z
CYQR,2025-09-07T16:00:00Z,2025-09-07T12:00:00Z,VFR,14,5,55,130,7,24100,30.01,NA,BKN  ft,CYQR 071600Z 13007KT 15SM BKN250 14/05 A3001 RMK CI5 SLP176 DENSITY ALT 2200FT,2025-09-07T16:29:11Z,2025-09-07T12:29:11Z
CYQR,2025-09-07T17:00:00Z,2025-09-07T13:00:00Z,VFR,19,5,40,150,10,24100,29.99,NA,BKN  ft,CYQR 071700Z 15010KT 15SM BKN250 19/05 A2999 RMK CI7 SLP169 DENSITY ALT 2700FT,2025-09-07T17:21:32Z,2025-09-07T13:21:32Z
CYQR,2025-09-07T18:00:00Z,2025-09-07T14:00:00Z,VFR,23,4,29,160,11,24100,29.97,NA,BKN  ft,CYQR 071800Z 16011KT 15SM BKN250 23/04 A2997 RMK CI7 SLP160 DENSITY ALT 3200FT,2025-09-07T18:32:54Z,2025-09-07T14:32:54Z
CYQR,2025-09-07T19:00:00Z,2025-09-07T15:00:00Z,VFR,25,1,21,190,8,24100,29.95,NA,BKN  ft,CYQR 071900Z 19008G18KT 150V220 15SM BKN250 25/01 A2995 RMK CI6 SLP150 DENSITY ALT 3500FT,2025-09-07T19:18:51Z,2025-09-07T15:18:51Z
CYQR,2025-09-07T20:00:00Z,2025-09-07T16:00:00Z,VFR,26,0,18,210,11,24100,29.93,NA,BKN  ft,CYQR 072000Z 21011G18KT 150V220 15SM BKN250 26/M00 A2993 RMK CI6 SLP143 DENSITY ALT 3700FT,2025-09-07T20:25:53Z,2025-09-07T16:25:53Z
CYQR,2025-09-07T21:00:00Z,2025-09-07T17:00:00Z,VFR,27,0,17,220,8,24100,29.91,NA,FEW  ft; BKN  ft,CYQR 072100Z 22008G16KT 170V250 15SM FEW130 BKN250 27/00 A2991 RMK AC1CI7 AC TR SLP137 DENSITY ALT 3800FT,2025-09-07T21:21:35Z,2025-09-07T17:21:35Z
CYQT,2025-09-05T18:00:00Z,2025-09-05T14:00:00Z,VFR,10,4,67,280,13,32200,29.48,NA,SCT  ft; BKN  ft; OVC  ft,CYQT 051800Z 28013G24KT 20SM -RA SCT036 BKN046 OVC085 10/04 A2948 RMK SC3SC3AC2 -RA INTMT SLP990,2025-09-05T18:23:20Z,2025-09-05T14:23:20Z
CYQT,2025-09-05T18:42:00Z,2025-09-05T14:42:00Z,VFR,11,3,58,290,20,32200,29.48,NA,BKN  ft; OVC  ft,CYQT 051842Z 29020G30KT 20SM BKN040 OVC090 11/03 A2948 RMK SC6AC2 SLP991 DENSITY ALT 900FT,2025-09-05T18:48:17Z,2025-09-05T14:48:17Z
CYQT,2025-09-05T19:11:00Z,2025-09-05T15:11:00Z,VFR,11,4,62,290,17,32200,29.49,NA,BKN  ft; BKN  ft; OVC  ft,CYQT 051911Z 29017G26KT 20SM -SHRA BKN036 BKN100 OVC260 11/04 A2949 RMK SC6AC1CI1 CVCTV CLD EMBD SLP993 DENSITY ALT 900FT,2025-09-05T19:20:59Z,2025-09-05T15:20:59Z
CYQT,2025-09-05T20:00:00Z,2025-09-05T16:00:00Z,VFR,10,6,76,280,17,32200,29.5,NA,BKN  ft; OVC  ft,CYQT 052000Z 28017G26KT 20SM -SHRA BKN036 OVC050 10/06 A2950 RMK SC6SC2 CVCTV CLD EMBD SLP998,2025-09-05T20:29:27Z,2025-09-05T16:29:27Z
CYQT,2025-09-05T21:00:00Z,2025-09-05T17:00:00Z,VFR,10,6,76,280,14,32200,29.52,NA,BKN  ft; OVC  ft,CYQT 052100Z 28014G24KT 20SM -SHRA BKN045 OVC080 10/06 A2952 RMK SC5AC3 CVCTV CLD EMBD SLP006,2025-09-05T21:14:25Z,2025-09-05T17:14:25Z
CYQT,2025-09-05T22:00:00Z,2025-09-05T18:00:00Z,VFR,11,4,62,290,13,32200,29.54,NA,BKN  ft; BKN  ft,CYQT 052200Z 29013G21KT 20SM -SHRA BKN037 BKN075 11/04 A2954 RMK SC5AC2 CVCTV CLD EMBD SLP013,2025-09-05T22:18:44Z,2025-09-05T18:18:44Z
CYQT,2025-09-05T23:00:00Z,2025-09-05T19:00:00Z,VFR,10,5,71,290,17,32200,29.57,NA,FEW  ft; BKN  ft; BKN  ft,CYQT 052300Z 29017G25KT 20SM FEW037 BKN085 BKN260 10/05 A2957 RMK SC2AC3CI2 SLP023,2025-09-05T23:20:06Z,2025-09-05T19:20:06Z
CYQT,2025-09-06T01:00:00Z,2025-09-05T21:00:00Z,VFR,9,5,76,280,9,24100,29.64,NA,FEW  ft; BKN  ft; OVC  ft,CYQT 060100Z 28009KT 15SM FEW030 BKN085 OVC260 09/05 A2964 RMK SC2AC5CI1 SLP045,2025-09-06T01:42:34Z,2025-09-05T21:42:34Z
CYQT,2025-09-06T02:00:00Z,2025-09-05T22:00:00Z,VFR,8,5,82,260,7,24100,29.66,NA,FEW  ft; BKN  ft; OVC  ft,CYQT 060200Z 26007KT 15SM FEW040 BKN095 OVC260 08/05 A2966 RMK SC2AC5CI1 SLP053,2025-09-06T02:56:34Z,2025-09-05T22:56:34Z
CYQT,2025-09-06T03:00:00Z,2025-09-05T23:00:00Z,VFR,8,5,82,280,8,24100,29.68,NA,FEW  ft; BKN  ft,CYQT 060300Z 28008G19KT 15SM FEW033 BKN090 08/05 A2968 RMK SC1AC4 SLP059,2025-09-06T03:30:45Z,2025-09-05T23:30:45Z
CYQT,2025-09-06T04:00:00Z,2025-09-06T00:00:00Z,VFR,8,5,82,300,8,24100,29.69,NA,FEW  ft; BKN  ft,CYQT 060400Z 30008G17KT 15SM FEW032 BKN190 08/05 A2969 RMK SC2AC4 SLP063,2025-09-06T04:25:44Z,2025-09-06T00:25:44Z
CYQT,2025-09-06T05:00:00Z,2025-09-06T01:00:00Z,VFR,8,5,82,290,6,24100,29.7,NA,SCT  ft; OVC  ft,CYQT 060500Z 29006G20KT 15SM SCT025 OVC180 08/05 A2970 RMK SC3AC5 SLP066,2025-09-06T05:19:54Z,2025-09-06T01:19:54Z
CYQT,2025-09-06T06:00:00Z,2025-09-06T02:00:00Z,VFR,8,4,76,300,10,24100,29.73,NA,SCT  ft; OVC  ft,CYQT 060600Z 30010KT 15SM SCT026 OVC180 08/04 A2973 RMK SC3AC5 SLP075,2025-09-06T06:29:48Z,2025-09-06T02:29:48Z
CYQT,2025-09-06T07:00:00Z,2025-09-06T03:00:00Z,VFR,7,4,81,290,7,24100,29.75,NA,SCT  ft; BKN  ft,CYQT 060700Z 29007KT 15SM SCT035 BKN180 07/04 A2975 RMK SC3AC3 SLP082,2025-09-06T07:18:40Z,2025-09-06T03:18:40Z
CYQT,2025-09-06T08:00:00Z,2025-09-06T04:00:00Z,VFR,6,3,81,280,6,24100,29.76,NA,FEW  ft; SCT  ft,CYQT 060800Z 28006KT 15SM FEW041 SCT180 06/03 A2976 RMK SC1AC3 SLP085,2025-09-06T08:25:11Z,2025-09-06T04:25:11Z
CYQT,2025-09-06T09:00:00Z,2025-09-06T05:00:00Z,VFR,6,3,81,280,8,24100,29.78,NA,BKN  ft,CYQT 060900Z 28008KT 15SM BKN033 06/03 A2978 RMK SC5 SLP093,2025-09-06T09:19:45Z,2025-09-06T05:19:45Z
CYQT,2025-09-06T10:00:00Z,2025-09-06T06:00:00Z,VFR,5,3,87,260,6,24100,29.81,NA,FEW  ft; SCT  ft,CYQT 061000Z 26006KT 15SM FEW031 SCT220 05/03 A2981 RMK SC2CI2 SLP102,2025-09-06T10:20:30Z,2025-09-06T06:20:30Z
CYQT,2025-09-06T11:00:00Z,2025-09-06T07:00:00Z,VFR,4,3,93,260,7,24100,29.82,NA,FEW  ft; FEW  ft; BKN  ft,CYQT 061100Z 26007KT 15SM FEW020 FEW050 BKN220 04/03 A2982 RMK SC1SC1CI4 SLP108,2025-09-06T11:16:00Z,2025-09-06T07:16:00Z
CYQT,2025-09-06T12:00:00Z,2025-09-06T08:00:00Z,VFR,5,3,87,260,6,32200,29.84,NA,FEW  ft; SCT  ft; BKN  ft,CYQT 061200Z 26006KT 20SM FEW020 SCT120 BKN230 05/03 A2984 RMK SC1AC4CI2 SC TR SLP112,2025-09-06T12:40:00Z,2025-09-06T08:40:00Z
CYQT,2025-09-06T13:00:00Z,2025-09-06T09:00:00Z,VFR,7,4,81,260,9,32200,29.85,NA,FEW  ft; BKN  ft; BKN  ft,CYQT 061300Z 26009KT 20SM FEW020 BKN130 BKN230 07/04 A2985 RMK SC1AC5CI1 SC TR SLP116,2025-09-06T13:22:39Z,2025-09-06T09:22:39Z
CYQT,2025-09-06T14:00:00Z,2025-09-06T10:00:00Z,VFR,9,4,71,270,9,32200,29.85,NA,FEW  ft; SCT  ft; BKN  ft,CYQT 061400Z 27009KT 20SM FEW020 SCT140 BKN230 09/04 A2985 RMK SC1AC3CI2 SC TR SLP118,2025-09-06T14:18:38Z,2025-09-06T10:18:38Z
CYQT,2025-09-06T15:00:00Z,2025-09-06T11:00:00Z,VFR,12,3,54,310,11,32200,29.85,NA,FEW  ft; SCT  ft; BKN  ft,CYQT 061500Z 31011G19KT 270V330 20SM FEW020 SCT140 BKN230 12/03 A2985 RMK SC1AC1CI3 SLP116,2025-09-06T15:19:23Z,2025-09-06T11:19:23Z
CYQT,2025-09-06T16:00:00Z,2025-09-06T12:00:00Z,VFR,12,4,58,280,11,32200,29.85,NA,BKN  ft; BKN  ft; BKN  ft,CYQT 061600Z 28011G19KT 260V330 20SM BKN043 BKN140 BKN230 12/04 A2985 RMK SC5AC1CI1 CU ASOCTD SLP116,2025-09-06T16:24:52Z,2025-09-06T12:24:52Z
CYQT,2025-09-06T17:00:00Z,2025-09-06T13:00:00Z,VFR,14,4,51,320,9,32200,29.86,NA,SCT  ft; BKN  ft; BKN  ft,CYQT 061700Z 32009G20KT 20SM SCT045 BKN140 BKN230 14/04 A2986 RMK SC4AC2CI1 SLP120,2025-09-06T17:24:31Z,2025-09-06T13:24:31Z
CYQT,2025-09-06T18:00:00Z,2025-09-06T14:00:00Z,VFR,13,4,55,310,11,32200,29.88,NA,BKN  ft; BKN  ft,CYQT 061800Z 31011G17KT 20SM BKN055 BKN100 13/04 A2988 RMK SC6AC1 SLP124,2025-09-06T18:32:24Z,2025-09-06T14:32:24Z
CYQT,2025-09-06T19:00:00Z,2025-09-06T15:00:00Z,VFR,14,4,51,310,11,32200,29.89,NA,BKN  ft; BKN  ft,CYQT 061900Z 31011G17KT 20SM -SHRA BKN055 BKN070 14/04 A2989 RMK SC5AC2 CVCTV CLD EMBD SLP128,2025-09-06T19:18:13Z,2025-09-06T15:18:13Z
CYQT,2025-09-06T20:00:00Z,2025-09-06T16:00:00Z,VFR,13,6,63,330,12,32200,29.91,NA,SCT  ft; BKN  ft,CYQT 062000Z 33012G20KT 20SM -SHRA SCT043 BKN075 13/06 A2991 RMK CU4AC3 SLP135,2025-09-06T20:25:14Z,2025-09-06T16:25:14Z
CYQT,2025-09-06T21:00:00Z,2025-09-06T17:00:00Z,VFR,13,6,63,270,10,32200,29.91,NA,SCT  ft; BKN  ft; BKN  ft,CYQT 062100Z 27010G18KT 20SM SCT050 BKN080 BKN260 13/06 A2991 RMK SC4AC2CI1 SLP137,2025-09-06T21:21:19Z,2025-09-06T17:21:19Z
CYQT,2025-09-06T22:00:00Z,2025-09-06T18:00:00Z,VFR,13,6,63,290,9,32200,29.92,NA,SCT  ft; BKN  ft; BKN  ft,CYQT 062200Z 29009KT 20SM SCT055 BKN100 BKN200 13/06 A2992 RMK SC3AC2CI2 SLP139,2025-09-06T22:23:56Z,2025-09-06T18:23:56Z
CYQT,2025-09-06T23:15:00Z,2025-09-06T19:15:00Z,VFR,12,5,63,320,12,32200,29.94,NA,BKN  ft; OVC  ft,CYQT 062315Z 32012G19KT 20SM -SHRA BKN046 OVC180 12/05 A2994 RMK SC5AC3 CU ASOCTD SLP148,2025-09-06T23:22:36Z,2025-09-06T19:22:36Z
CYQT,2025-09-07T01:00:00Z,2025-09-06T21:00:00Z,VFR,9,6,82,260,3,24100,29.97,NA,FEW  ft; OVC  ft,CYQT 070100Z 26003KT 15SM FEW065 OVC090 09/06 A2997 RMK SC2AC6 SLP157,2025-09-07T02:04:14Z,2025-09-06T22:04:14Z
CYQT,2025-09-07T02:00:00Z,2025-09-06T22:00:00Z,VFR,8,6,87,250,3,24100,29.98,NA,OVC  ft,CYQT 070200Z 25003KT 15SM OVC100 08/06 A2998 RMK AC8 SLP161,2025-09-07T03:07:53Z,2025-09-06T23:07:53Z
CYQT,2025-09-07T03:24:00Z,2025-09-06T23:24:00Z,VFR,9,5,76,330,7,24100,30.01,NA,SCT  ft; OVC  ft,CYQT 070324Z 33007G18KT 310V030 15SM -SHRA SCT026 OVC042 09/05 A3001 RMK SC3SC5 CVCTV CLD EMBD SLP168,2025-09-07T03:38:07Z,2025-09-06T23:38:07Z
CYQT,2025-09-07T04:00:00Z,2025-09-07T00:00:00Z,VFR,9,6,82,310,5,24100,30.01,NA,FEW  ft; OVC  ft,CYQT 070400Z 31005KT 15SM -SHRA FEW025 OVC047 09/06 A3001 RMK SC2SC6 CVCTV CLD EMBD SLP170,2025-09-07T04:29:48Z,2025-09-07T00:29:48Z
CYQT,2025-09-07T05:00:00Z,2025-09-07T01:00:00Z,VFR,8,6,87,290,5,24100,30.03,NA,FEW  ft; BKN  ft; OVC  ft,CYQT 070500Z 29005KT 15SM FEW045 BKN065 OVC100 08/06 A3003 RMK SC2SC4AC2 SLP176,2025-09-07T05:25:32Z,2025-09-07T01:25:32Z
CYQT,2025-09-07T06:00:00Z,2025-09-07T02:00:00Z,VFR,8,6,87,300,6,24100,30.04,NA,BKN  ft; OVC  ft,CYQT 070600Z 30006KT 15SM BKN035 OVC100 08/06 A3004 RMK SC6AC2 SLP178,2025-09-07T06:34:54Z,2025-09-07T02:34:54Z
CYQT,2025-09-07T07:00:00Z,2025-09-07T03:00:00Z,VFR,8,5,82,310,8,24100,30.04,NA,SCT  ft; OVC  ft,CYQT 070700Z 31008KT 15SM SCT032 OVC095 08/05 A3004 RMK SC3AC5 SLP180,2025-09-07T07:22:54Z,2025-09-07T03:22:54Z
CYQT,2025-09-07T08:00:00Z,2025-09-07T04:00:00Z,VFR,8,5,82,310,8,24100,30.05,NA,FEW  ft; OVC  ft,CYQT 070800Z 31008KT 15SM FEW030 OVC110 08/05 A3005 RMK SC2AC6 SLP185,2025-09-07T08:29:56Z,2025-09-07T04:29:56Z
CYQT,2025-09-07T09:00:00Z,2025-09-07T05:00:00Z,VFR,7,5,87,280,5,24100,30.07,NA,OVC  ft,CYQT 070900Z 28005KT 15SM OVC100 07/05 A3007 RMK AC8 SLP189,2025-09-07T09:23:41Z,2025-09-07T05:23:41Z
CYQT,2025-09-07T10:00:00Z,2025-09-07T06:00:00Z,MVFR,7,6,93,280,6,24100,30.08,NA,BKN  ft; OVC  ft,CYQT 071000Z 28006KT 15SM BKN030 OVC100 07/06 A3008 RMK SC6AC2 SLP195,2025-09-07T10:26:10Z,2025-09-07T06:26:10Z
CYQT,2025-09-07T11:00:00Z,2025-09-07T07:00:00Z,MVFR,7,6,93,270,4,24100,30.1,NA,BKN  ft,CYQT 071100Z 27004KT 15SM BKN027 07/06 A3010 RMK SC7 SLP200,2025-09-07T11:19:23Z,2025-09-07T07:19:23Z
CYQT,2025-09-07T12:00:00Z,2025-09-07T08:00:00Z,MVFR,6,5,93,290,6,32200,30.12,NA,BKN  ft; BKN  ft,CYQT 071200Z 29006KT 20SM BKN028 BKN120 06/05 A3012 RMK SC5AC1 SLP209,2025-09-07T12:48:16Z,2025-09-07T08:48:16Z
CYQT,2025-09-07T13:00:00Z,2025-09-07T09:00:00Z,VFR,8,6,87,280,5,32200,30.14,NA,FEW  ft; SCT  ft; BKN  ft,CYQT 071300Z 28005KT 20SM FEW010 SCT023 BKN050 08/06 A3014 RMK SF1SC3SC2 SF TR SLP214,2025-09-07T13:26:44Z,2025-09-07T09:26:44Z
CYQT,2025-09-07T14:00:00Z,2025-09-07T10:00:00Z,VFR,10,6,76,310,8,32200,30.14,NA,FEW  ft; BKN  ft; BKN  ft,CYQT 071400Z 31008KT 20SM FEW015 BKN048 BKN230 10/06 A3014 RMK SC1SC5CI1 CI TR SLP216,2025-09-07T14:23:04Z,2025-09-07T10:23:04Z
CYQT,2025-09-07T15:00:00Z,2025-09-07T11:00:00Z,VFR,12,4,58,300,11,32200,30.14,NA,SCT  ft; BKN  ft,CYQT 071500Z 30011G18KT 280V350 20SM SCT037 BKN230 12/04 A3014 RMK SC4CI2 SLP216,2025-09-07T15:23:36Z,2025-09-07T11:23:36Z
CYQT,2025-09-07T16:00:00Z,2025-09-07T12:00:00Z,VFR,12,3,54,320,12,32200,30.15,NA,BKN  ft; BKN  ft,CYQT 071600Z 32012G17KT 20SM BKN045 BKN230 12/03 A3015 RMK SC5CI1 SLP216,2025-09-07T16:29:08Z,2025-09-07T12:29:08Z
CYQT,2025-09-07T17:00:00Z,2025-09-07T13:00:00Z,VFR,13,4,55,340,10,32200,30.16,NA,BKN  ft,CYQT 071700Z 34010G18KT 20SM BKN047 13/04 A3016 RMK SC7 SLP219,2025-09-07T17:21:31Z,2025-09-07T13:21:31Z
CYQT,2025-09-07T18:00:00Z,2025-09-07T14:00:00Z,VFR,14,4,51,280,12,32200,30.15,NA,BKN  ft; BKN  ft,CYQT 071800Z 28012KT 260V330 20SM BKN055 BKN260 14/04 A3015 RMK SC6CI1 SLP217,2025-09-07T18:32:52Z,2025-09-07T14:32:52Z
CYQT,2025-09-07T19:00:00Z,2025-09-07T15:00:00Z,VFR,15,5,51,280,8,32200,30.15,NA,BKN  ft,CYQT 071900Z 28008G17KT 20SM BKN047 15/05 A3015 RMK SC7 SLP216,2025-09-07T19:18:49Z,2025-09-07T15:18:49Z
CYQT,2025-09-07T20:00:00Z,2025-09-07T16:00:00Z,VFR,16,5,48,270,10,32200,30.13,NA,BKN  ft; BKN  ft,CYQT 072000Z 27010KT 20SM BKN055 BKN260 16/05 A3013 RMK SC6CI1 SLP210,2025-09-07T20:25:51Z,2025-09-07T16:25:51Z
CYQT,2025-09-07T21:00:00Z,2025-09-07T17:00:00Z,VFR,15,5,51,280,7,32200,30.13,NA,BKN  ft; BKN  ft,CYQT 072100Z 28007G15KT 240V310 20SM BKN060 BKN160 15/05 A3013 RMK SC6AC1 SLP211,2025-09-07T21:21:33Z,2025-09-07T17:21:33Z
CYQY,2025-09-05T21:00:00Z,2025-09-05T17:00:00Z,VFR,21,17,78,180,10,24100,30.11,NA,FEW  ft; BKN  ft; BKN  ft,CYQY 052100Z 18010G16KT 15SM FEW055 BKN080 BKN240 21/17 A3011 RMK SC2AC3CI2 SLP200 DENSITY ALT 800FT,2025-09-05T22:02:55Z,2025-09-05T18:02:55Z
CYQY,2025-09-05T22:00:00Z,2025-09-05T18:00:00Z,VFR,19,16,83,170,7,24100,30.1,NA,FEW  ft; FEW  ft; SCT  ft,CYQY 052200Z 17007KT 15SM FEW055 FEW080 SCT240 19/16 A3010 RMK SC1AC1CI3 AC TR SLP197 DENSITY ALT 600FT,2025-09-05T22:18:47Z,2025-09-05T18:18:47Z
CYQY,2025-09-05T23:00:00Z,2025-09-05T19:00:00Z,VFR,17,17,100,170,8,24100,30.11,NA,FEW  ft; FEW  ft; FEW  ft,CYQY 052300Z 17008KT 15SM FEW055 FEW130 FEW240 17/17 A3011 RMK SC1AC1CI1 SC TR SLP199,2025-09-05T23:20:09Z,2025-09-05T19:20:09Z
CYQY,2025-09-06T01:00:00Z,2025-09-05T21:00:00Z,MVFR,18,18,100,160,4,24100,30.13,NA,SCT  ft; BKN  ft,CYQY 060100Z 16004KT 15SM SCT009 BKN014 18/18 A3013 RMK ST4SC3 SLP204,2025-09-06T01:42:37Z,2025-09-05T21:42:37Z
CYQY,2025-09-06T02:00:00Z,2025-09-05T22:00:00Z,IFR,18,18,100,180,7,24100,30.12,NA,SCT  ft; OVC  ft,CYQY 060200Z 18007KT 15SM SCT004 OVC008 18/18 A3012 RMK ST3ST5 SLP203,2025-09-06T02:56:38Z,2025-09-05T22:56:38Z
CYQY,2025-09-06T03:00:00Z,2025-09-05T23:00:00Z,IFR,18,18,100,180,6,24100,30.12,NA,OVC  ft,CYQY 060300Z 18006KT 15SM OVC007 18/18 A3012 RMK ST8 SLP201 DENSITY ALT 500FT,2025-09-06T03:30:48Z,2025-09-05T23:30:48Z
CYQY,2025-09-06T04:06:00Z,2025-09-06T00:06:00Z,LIFR,18,18,100,180,8,4800,30.11,NA,OVC  ft,CYQY 060406Z 18008KT 3SM -DZ BR OVC004 18/18 A3011 RMK ST8 SLP199 DENSITY ALT 500FT,2025-09-06T04:25:48Z,2025-09-06T00:25:48Z
CYQY,2025-09-06T05:00:00Z,2025-09-06T01:00:00Z,LIFR,18,18,100,180,8,8000,30.11,NA,OVC  ft,CYQY 060500Z 18008KT 5SM -DZ BR OVC004 18/18 A3011 RMK ST8 SLP198 DENSITY ALT 500FT,2025-09-06T05:19:59Z,2025-09-06T01:19:59Z
CYQY,2025-09-06T06:00:00Z,2025-09-06T02:00:00Z,LIFR,19,19,100,180,6,8000,30.1,NA,OVC  ft,CYQY 060600Z 18006KT 5SM -DZ BR OVC003 19/19 A3010 RMK ST8 SLP195 DENSITY ALT 500FT,2025-09-06T06:29:51Z,2025-09-06T02:29:51Z
CYQY,2025-09-06T07:09:00Z,2025-09-06T03:09:00Z,LIFR,19,19,100,180,5,2400,30.09,NA,OVC  ft,CYQY 060709Z 18005KT 1 1/2SM BR OVC002 19/19 A3009 RMK SC8 SLP192 DENSITY ALT 500FT,2025-09-06T07:18:44Z,2025-09-06T03:18:44Z
CYQY,2025-09-06T08:16:00Z,2025-09-06T04:16:00Z,LIFR,19,19,100,210,5,2400,30.1,NA,OVC  ft,CYQY 060816Z 21005KT 1 1/2SM -DZ BR OVC003 19/19 A3010 RMK ST8 SLP194 DENSITY ALT 500FT,2025-09-06T08:25:14Z,2025-09-06T04:25:14Z
CYQY,2025-09-06T09:12:00Z,2025-09-06T05:12:00Z,LIFR,19,19,100,200,6,8000,30.09,NA,OVC  ft,CYQY 060912Z 20006KT 5SM BR OVC004 19/19 A3009 RMK ST8 SLP192 DENSITY ALT 600FT,2025-09-06T09:19:49Z,2025-09-06T05:19:49Z
CYQY,2025-09-06T09:26:00Z,2025-09-06T05:26:00Z,LIFR,19,19,100,180,8,11300,30.09,NA,BKN  ft; OVC  ft,CYQY 060926Z 18008KT 7SM BKN003 OVC014 19/19 A3009 RMK ST6SC2 SLP191 DENSITY ALT 600FT,2025-09-06T09:38:43Z,2025-09-06T05:38:43Z
CYQY,2025-09-06T10:16:00Z,2025-09-06T06:16:00Z,MVFR,19,19,100,200,6,11300,30.09,NA,SCT  ft; BKN  ft; BKN  ft,CYQY 061016Z 20006KT 7SM SCT004 BKN011 BKN017 19/19 A3009 RMK SC3SC2SC2 SLP193 DENSITY ALT 600FT,2025-09-06T10:20:32Z,2025-09-06T06:20:32Z
CYQY,2025-09-06T11:00:00Z,2025-09-06T07:00:00Z,IFR,20,20,100,210,11,11300,30.09,NA,BKN  ft; BKN  ft; OVC  ft,CYQY 061100Z 21011G16KT 7SM BKN007 BKN013 OVC017 20/20 A3009 RMK SC5SC2SC1 SLP191 DENSITY ALT 700FT,2025-09-06T11:16:03Z,2025-09-06T07:16:03Z
CYQY,2025-09-06T11:24:00Z,2025-09-06T07:24:00Z,IFR,20,20,100,210,12,6400,30.09,NA,OVC  ft,CYQY 061124Z 21012G18KT 4SM BR OVC005 20/20 A3009 RMK ST8 SLP192 DENSITY ALT 700FT,2025-09-06T11:39:01Z,2025-09-06T07:39:01Z
CYQY,2025-09-06T12:00:00Z,2025-09-06T08:00:00Z,MVFR,21,21,100,220,8,11300,30.09,NA,SCT  ft; BKN  ft,CYQY 061200Z 22008G18KT 7SM SCT007 BKN014 21/21 A3009 RMK SC4SC3 SLP192 DENSITY ALT 800FT,2025-09-06T12:40:03Z,2025-09-06T08:40:03Z
CYQY,2025-09-06T13:00:00Z,2025-09-06T09:00:00Z,MVFR,22,20,88,210,15,24100,30.08,NA,BKN  ft,CYQY 061300Z 21015G21KT 15SM BKN013 22/20 A3008 RMK SC5 SLP189 DENSITY ALT 1000FT,2025-09-06T13:22:42Z,2025-09-06T09:22:42Z
CYQY,2025-09-06T14:00:00Z,2025-09-06T10:00:00Z,VFR,24,19,74,210,13,24100,30.07,NA,FEW  ft; SCT  ft,CYQY 061400Z 21013G19KT 15SM FEW013 SCT240 24/19 A3007 RMK SC1CI3 SLP185 DENSITY ALT 1200FT,2025-09-06T14:18:41Z,2025-09-06T10:18:41Z
CYQY,2025-09-06T15:00:00Z,2025-09-06T11:00:00Z,VFR,25,18,65,230,10,24100,30.07,NA,FEW  ft; BKN  ft,CYQY 061500Z 23010G19KT 15SM FEW014 BKN240 25/18 A3007 RMK SC1CI4 SLP185 DENSITY ALT 1300FT,2025-09-06T15:19:26Z,2025-09-06T11:19:26Z
CYQY,2025-09-06T16:00:00Z,2025-09-06T12:00:00Z,VFR,26,19,65,230,12,24100,30.07,NA,FEW  ft; BKN  ft,CYQY 061600Z 23012KT 15SM FEW014 BKN240 26/19 A3007 RMK SC1CI4 SLP185 DENSITY ALT 1400FT,2025-09-06T16:24:55Z,2025-09-06T12:24:55Z
CYQY,2025-09-06T17:00:00Z,2025-09-06T13:00:00Z,VFR,27,19,62,230,13,24100,30.06,NA,FEW  ft; BKN  ft,CYQY 061700Z 23013G20KT 15SM FEW033 BKN240 27/19 A3006 RMK CU2CI3 SLP181 DENSITY ALT 1500FT,2025-09-06T17:24:34Z,2025-09-06T13:24:34Z
CYQY,2025-09-06T18:00:00Z,2025-09-06T14:00:00Z,VFR,27,19,62,250,11,24100,30.05,NA,FEW  ft; BKN  ft,CYQY 061800Z 25011G16KT 15SM FEW038 BKN240 27/19 A3005 RMK CU1CI5 SLP179 DENSITY ALT 1600FT,2025-09-06T18:32:27Z,2025-09-06T14:32:27Z
CYQY,2025-09-06T19:00:00Z,2025-09-06T15:00:00Z,VFR,27,18,58,210,13,24100,30.04,NA,FEW  ft; BKN  ft,CYQY 061900Z 21013G19KT 15SM FEW033 BKN240 27/18 A3004 RMK CU1CI5 CU TR SLP175 DENSITY ALT 1500FT,2025-09-06T19:18:16Z,2025-09-06T15:18:16Z
CYQY,2025-09-06T20:00:00Z,2025-09-06T16:00:00Z,VFR,27,19,62,220,8,24100,30.04,NA,BKN  ft,CYQY 062000Z 22008G17KT 15SM BKN230 27/19 A3004 RMK CI6 SLP175 DENSITY ALT 1500FT,2025-09-06T20:25:17Z,2025-09-06T16:25:17Z
CYQY,2025-09-06T21:00:00Z,2025-09-06T17:00:00Z,VFR,25,19,69,210,13,24100,30.04,NA,SCT  ft,CYQY 062100Z 21013KT 15SM SCT230 25/19 A3004 RMK CI7 SLP175 DENSITY ALT 1400FT,2025-09-06T21:21:21Z,2025-09-06T17:21:21Z
CYQY,2025-09-06T22:00:00Z,2025-09-06T18:00:00Z,VFR,22,20,88,190,12,24100,30.05,NA,BKN  ft,CYQY 062200Z 19012KT 15SM BKN230 22/20 A3005 RMK CI6 SLP177 DENSITY ALT 1000FT,2025-09-06T22:23:59Z,2025-09-06T18:23:59Z
CYQY,2025-09-06T23:00:00Z,2025-09-06T19:00:00Z,VFR,21,20,94,210,11,24100,30.05,NA,SCT  ft,CYQY 062300Z 21011G16KT 15SM SCT230 21/20 A3005 RMK CI3 SLP176 DENSITY ALT 800FT,2025-09-06T23:22:39Z,2025-09-06T19:22:39Z
CYQY,2025-09-07T01:00:00Z,2025-09-06T21:00:00Z,VFR,20,19,94,210,13,24100,30.06,NA,SCT  ft,CYQY 070100Z 21013G21KT 15SM SCT230 20/19 A3006 RMK CI3 SLP181 DENSITY ALT 700FT,2025-09-07T02:04:17Z,2025-09-06T22:04:17Z
CYQY,2025-09-07T02:00:00Z,2025-09-06T22:00:00Z,VFR,20,19,94,220,12,24100,30.05,NA,FEW  ft,CYQY 070200Z 22012G18KT 15SM FEW230 20/19 A3005 RMK CI2 SLP178 DENSITY ALT 700FT,2025-09-07T03:07:57Z,2025-09-06T23:07:57Z
CYQY,2025-09-07T03:00:00Z,2025-09-06T23:00:00Z,VFR,21,20,94,230,11,24100,30.05,NA,SCT  ft,CYQY 070300Z 23011G19KT 15SM SCT230 21/20 A3005 RMK CI3 SLP178 DENSITY ALT 800FT,2025-09-07T03:38:10Z,2025-09-06T23:38:10Z
CYQY,2025-09-07T04:00:00Z,2025-09-07T00:00:00Z,VFR,21,20,94,240,10,24100,30.04,NA,SCT  ft; BKN  ft,CYQY 070400Z 24010KT 15SM SCT013 BKN230 21/20 A3004 RMK SC4CI1 SLP173 DENSITY ALT 800FT,2025-09-07T04:29:50Z,2025-09-07T00:29:50Z
CYQY,2025-09-07T04:31:00Z,2025-09-07T00:31:00Z,MVFR,21,20,94,230,9,24100,30.03,NA,BKN  ft,CYQY 070431Z 23009G16KT 15SM BKN011 21/20 A3003 RMK SC6 SLP171 DENSITY ALT 800FT,2025-09-07T04:44:27Z,2025-09-07T00:44:27Z
CYQY,2025-09-07T05:00:00Z,2025-09-07T01:00:00Z,MVFR,20,20,100,240,8,24100,30.03,NA,BKN  ft,CYQY 070500Z 24008KT 15SM BKN011 20/20 A3003 RMK SC6 SLP170 DENSITY ALT 800FT,2025-09-07T05:25:36Z,2025-09-07T01:25:36Z
CYQY,2025-09-07T06:00:00Z,2025-09-07T02:00:00Z,MVFR,20,20,100,220,7,24100,30.01,NA,BKN  ft; BKN  ft,CYQY 070600Z 22007KT 15SM BKN012 BKN120 20/20 A3001 RMK SC5AC2 SLP163 DENSITY ALT 800FT,2025-09-07T06:34:57Z,2025-09-07T02:34:57Z
CYQY,2025-09-07T07:00:00Z,2025-09-07T03:00:00Z,MVFR,20,20,100,230,6,24100,30,NA,BKN  ft; BKN  ft,CYQY 070700Z 23006KT 15SM BKN011 BKN120 20/20 A3000 RMK SC5AC1 SLP162 DENSITY ALT 800FT,2025-09-07T07:22:57Z,2025-09-07T03:22:57Z
CYQY,2025-09-07T08:00:00Z,2025-09-07T04:00:00Z,VFR,19,19,100,200,10,24100,29.99,NA,SCT  ft; OVC  ft,CYQY 070800Z 20010G15KT 15SM -RA SCT025 OVC051 19/19 A2999 RMK SC3SC5 SLP158 DENSITY ALT 700FT,2025-09-07T08:29:59Z,2025-09-07T04:29:59Z
CYQY,2025-09-07T09:00:00Z,2025-09-07T05:00:00Z,VFR,19,19,100,210,7,24100,29.99,NA,BKN  ft,CYQY 070900Z 21007KT 15SM BKN035 19/19 A2999 RMK SC7 SLP159 DENSITY ALT 700FT,2025-09-07T09:23:43Z,2025-09-07T05:23:43Z
CYQY,2025-09-07T10:00:00Z,2025-09-07T06:00:00Z,MVFR,19,19,100,210,8,24100,30,NA,FEW  ft; BKN  ft,CYQY 071000Z 21008KT 15SM FEW005 BKN018 19/19 A3000 RMK ST2SC5 SLP160 DENSITY ALT 700FT,2025-09-07T10:26:14Z,2025-09-07T06:26:14Z
CYQY,2025-09-07T11:00:00Z,2025-09-07T07:00:00Z,LIFR,20,20,100,220,8,8000,29.99,NA,OVC  ft,CYQY 071100Z 22008KT 5SM BR OVC003 20/20 A2999 RMK ST8 SLP157 DENSITY ALT 800FT,2025-09-07T11:19:26Z,2025-09-07T07:19:26Z
CYQY,2025-09-07T11:31:00Z,2025-09-07T07:31:00Z,LIFR,20,20,100,230,8,4800,29.99,NA,OVC  ft,CYQY 071131Z 23008KT 3SM BR OVC003 20/20 A2999 RMK ST8 SLP157 DENSITY ALT 800FT,2025-09-07T11:41:32Z,2025-09-07T07:41:32Z
CYQY,2025-09-07T12:20:00Z,2025-09-07T08:20:00Z,LIFR,21,21,100,230,8,8000,29.98,NA,OVC  ft,CYQY 071220Z 23008KT 5SM BR OVC003 21/21 A2998 RMK ST8 SLP154 DENSITY ALT 900FT,2025-09-07T12:48:18Z,2025-09-07T08:48:18Z
CYQY,2025-09-07T13:00:00Z,2025-09-07T09:00:00Z,IFR,22,21,94,250,14,11300,29.98,NA,OVC  ft,CYQY 071300Z 25014KT 7SM OVC005 22/21 A2998 RMK ST8 SLP154 DENSITY ALT 1000FT,2025-09-07T13:26:47Z,2025-09-07T09:26:47Z
CYQY,2025-09-07T14:00:00Z,2025-09-07T10:00:00Z,VFR,24,21,83,230,10,24100,29.98,NA,SCT  ft; BKN  ft,CYQY 071400Z 23010KT 15SM SCT009 BKN240 24/21 A2998 RMK SC3CI2 SLP153 DENSITY ALT 1300FT,2025-09-07T14:23:06Z,2025-09-07T10:23:06Z
CYQY,2025-09-07T15:00:00Z,2025-09-07T11:00:00Z,VFR,26,20,70,250,14,24100,29.98,NA,FEW  ft; BKN  ft,CYQY 071500Z 25014G21KT 15SM FEW019 BKN240 26/20 A2998 RMK SC2CI3 SLP155 DENSITY ALT 1500FT,2025-09-07T15:23:39Z,2025-09-07T11:23:39Z
CYQY,2025-09-07T16:00:00Z,2025-09-07T12:00:00Z,VFR,27,20,66,250,9,24100,29.97,NA,SCT  ft; BKN  ft,CYQY 071600Z 25009G16KT 15SM SCT024 BKN240 27/20 A2997 RMK SC3CI3 SLP152 DENSITY ALT 1600FT,2025-09-07T16:29:12Z,2025-09-07T12:29:12Z
CYQY,2025-09-07T17:00:00Z,2025-09-07T13:00:00Z,VFR,27,19,62,230,10,24100,29.97,NA,SCT  ft; BKN  ft,CYQY 071700Z 23010KT 210V280 15SM SCT026 BKN240 27/19 A2997 RMK SC3CI4 SLP152 DENSITY ALT 1600FT,2025-09-07T17:21:33Z,2025-09-07T13:21:33Z
CYQY,2025-09-07T18:00:00Z,2025-09-07T14:00:00Z,VFR,27,20,66,250,10,24100,29.97,NA,FEW  ft; SCT  ft; BKN  ft,CYQY 071800Z 25010KT 15SM FEW026 SCT200 BKN240 27/20 A2997 RMK SC2CS2CI3 SLP150 DENSITY ALT 1600FT,2025-09-07T18:32:55Z,2025-09-07T14:32:55Z
CYQY,2025-09-07T19:00:00Z,2025-09-07T15:00:00Z,VFR,28,21,66,210,8,24100,29.97,NA,SCT  ft; BKN  ft,CYQY 071900Z 21008G15KT 15SM SCT041 BKN240 28/21 A2997 RMK SC3CI3 SLP152 DENSITY ALT 1700FT,2025-09-07T19:18:53Z,2025-09-07T15:18:53Z
CYQY,2025-09-07T20:00:00Z,2025-09-07T16:00:00Z,VFR,26,20,70,200,14,24100,29.97,NA,SCT  ft; BKN  ft,CYQY 072000Z 20014G19KT 15SM SCT028 BKN240 26/20 A2997 RMK SC3CI3 SLP152 DENSITY ALT 1500FT,2025-09-07T20:25:54Z,2025-09-07T16:25:54Z
CYQY,2025-09-07T21:00:00Z,2025-09-07T17:00:00Z,VFR,24,19,74,230,11,24100,29.97,NA,FEW  ft; BKN  ft,CYQY 072100Z 23011G18KT 15SM FEW030 BKN230 24/19 A2997 RMK SC1CI6 SLP151 DENSITY ALT 1300FT,2025-09-07T21:21:36Z,2025-09-07T17:21:36Z
CYRB,2025-09-05T21:00:00Z,2025-09-05T17:00:00Z,MVFR,-2,-4,86,150,15,32200,30.12,NA,BKN  ft,CYRB 052100Z 15015KT 20SM -SN BKN010 M02/M04 A3012 RMK ST7 SLP209,2025-09-05T22:02:55Z,2025-09-05T18:02:55Z
CYRB,2025-09-05T22:00:00Z,2025-09-05T18:00:00Z,MVFR,-2,-4,86,150,15,48300,30.12,NA,BKN  ft,CYRB 052200Z 15015KT 30SM -SN BKN010 M02/M04 A3012 RMK ST6 SLP207,2025-09-05T22:18:47Z,2025-09-05T18:18:47Z
CYRB,2025-09-05T23:00:00Z,2025-09-05T19:00:00Z,MVFR,-2,-4,86,130,16,48300,30.11,NA,BKN  ft,CYRB 052300Z 13016G21KT 30SM -SN BKN010 M02/M04 A3011 RMK ST5 SLP206,2025-09-05T23:20:10Z,2025-09-05T19:20:10Z
CYRB,2025-09-06T01:00:00Z,2025-09-05T21:00:00Z,MVFR,-2,-4,86,150,15,48300,30.12,NA,BKN  ft,CYRB 060100Z 15015KT 30SM BKN010 M02/M04 A3012 RMK ST7 SLP209,2025-09-06T01:42:38Z,2025-09-05T21:42:38Z
CYRB,2025-09-06T02:00:00Z,2025-09-05T22:00:00Z,MVFR,-2,-3,93,130,15,48300,30.12,NA,OVC  ft,CYRB 060200Z 13015KT 30SM OVC010 M02/M03 A3012 RMK ST8 SLP207,2025-09-06T02:56:38Z,2025-09-05T22:56:38Z
CYRB,2025-09-06T03:00:00Z,2025-09-05T23:00:00Z,MVFR,-2,-4,86,140,16,48300,30.11,NA,OVC  ft,CYRB 060300Z 14016KT 30SM OVC010 M02/M04 A3011 RMK ST8 SLP206,2025-09-06T03:30:48Z,2025-09-05T23:30:48Z
CYRB,2025-09-06T04:00:00Z,2025-09-06T00:00:00Z,VFR,-3,-4,93,130,15,48300,30.11,NA,SCT  ft,CYRB 060400Z 13015KT 30SM SCT009 M03/M04 A3011 RMK ST3 SLP204,2025-09-06T04:25:49Z,2025-09-06T00:25:49Z
CYRB,2025-09-06T05:00:00Z,2025-09-06T01:00:00Z,VFR,-3,-4,93,130,9,48300,30.12,NA,SCT  ft,CYRB 060500Z 13009KT 30SM SCT011 M03/M04 A3012 RMK ST4 SLP208,2025-09-06T05:19:59Z,2025-09-06T01:19:59Z
CYRB,2025-09-06T06:00:00Z,2025-09-06T02:00:00Z,VFR,-2,-3,93,160,8,48300,30.12,NA,SCT  ft,CYRB 060600Z 16008KT 30SM SCT010 M02/M03 A3012 RMK ST4 SLP207,2025-09-06T06:29:51Z,2025-09-06T02:29:51Z
CYRB,2025-09-06T07:00:00Z,2025-09-06T03:00:00Z,VFR,-1,-2,93,170,10,48300,30.12,NA,SCT  ft,CYRB 060700Z 17010KT 30SM SCT010 M01/M02 A3012 RMK ST4 SLP207,2025-09-06T07:18:44Z,2025-09-06T03:18:44Z
CYRB,2025-09-06T08:00:00Z,2025-09-06T04:00:00Z,VFR,-1,-2,93,180,10,48300,30.11,NA,SCT  ft,CYRB 060800Z 18010KT 30SM SCT010 M01/M02 A3011 RMK ST4 SLP206,2025-09-06T08:25:14Z,2025-09-06T04:25:14Z
CYRB,2025-09-06T08:29:00Z,2025-09-06T04:29:00Z,IFR,-1,-2,93,190,12,48300,30.12,NA,OVC  ft,CYRB 060829Z 19012KT 30SM OVC008 M01/M02 A3012 RMK ST8 SLP209,2025-09-06T08:41:59Z,2025-09-06T04:41:59Z
CYRB,2025-09-06T09:00:00Z,2025-09-06T05:00:00Z,IFR,-2,-3,93,190,12,48300,30.12,NA,OVC  ft,CYRB 060900Z 19012KT 30SM OVC008 M02/M03 A3012 RMK ST8 SLP209,2025-09-06T09:19:50Z,2025-09-06T05:19:50Z
CYRB,2025-09-06T10:00:00Z,2025-09-06T06:00:00Z,IFR,-2,-2,100,170,13,24100,30.12,NA,OVC  ft,CYRB 061000Z 17013KT 15SM OVC006 M02/M02 A3012 RMK ST8 SLP210,2025-09-06T10:20:33Z,2025-09-06T06:20:33Z
CYRB,2025-09-06T11:00:00Z,2025-09-06T07:00:00Z,LIFR,-2,-3,93,170,11,24100,30.12,NA,OVC  ft,CYRB 061100Z 17011KT 15SM OVC003 M02/M03 A3012 RMK ST8 SLP210,2025-09-06T11:16:03Z,2025-09-06T07:16:03Z
CYRB,2025-09-06T12:00:00Z,2025-09-06T08:00:00Z,LIFR,-2,-3,93,170,11,32200,30.12,NA,OVC  ft,CYRB 061200Z 17011KT 20SM OVC003 M02/M03 A3012 RMK ST8 SLP207,2025-09-06T12:40:04Z,2025-09-06T08:40:04Z
CYRB,2025-09-06T13:00:00Z,2025-09-06T09:00:00Z,LIFR,-2,-3,93,160,13,32200,30.11,NA,OVC  ft,CYRB 061300Z 16013KT 20SM OVC003 M02/M03 A3011 RMK ST8 SLP205,2025-09-06T13:22:43Z,2025-09-06T09:22:43Z
CYRB,2025-09-06T14:00:00Z,2025-09-06T10:00:00Z,LIFR,-3,-3,100,170,14,1000,30.1,NA,OVC  ft,CYRB 061400Z 17014KT 5/8SM R35/P6000FT/N BR OVC003 M03/M03 A3010 RMK FG6ST2 VIS CHNGD RPDLY SLP202,2025-09-06T14:18:41Z,2025-09-06T10:18:41Z
CYRB,2025-09-06T15:00:00Z,2025-09-06T11:00:00Z,IFR,-2,-3,93,160,12,9999,30.08,NA,OVC  ft,CYRB 061500Z 16012KT 10SM -SN OVC005 M02/M03 A3008 RMK ST8 SLP196,2025-09-06T15:19:26Z,2025-09-06T11:19:26Z
CYRB,2025-09-06T16:00:00Z,2025-09-06T12:00:00Z,IFR,-2,-3,93,170,13,40200,30.08,NA,BKN  ft,CYRB 061600Z 17013KT 25SM -SN BKN005 M02/M03 A3008 RMK ST7 SLP194,2025-09-06T16:24:55Z,2025-09-06T12:24:55Z
CYRB,2025-09-06T16:26:00Z,2025-09-06T12:26:00Z,IFR,-1,-3,86,160,13,40200,30.07,NA,BKN  ft,CYRB 061626Z 16013KT 25SM BKN006 M01/M03 A3007 RMK ST7 SLP192,2025-09-06T16:42:33Z,2025-09-06T12:42:33Z
CYRB,2025-09-06T16:53:00Z,2025-09-06T12:53:00Z,VFR,-1,-3,86,140,14,40200,30.06,NA,SCT  ft; BKN  ft,CYRB 061653Z 14014KT 25SM SCT010 BKN045 M01/M03 A3006 RMK ST4SC3 SLP189,2025-09-06T16:59:48Z,2025-09-06T12:59:48Z
CYRB,2025-09-06T17:00:00Z,2025-09-06T13:00:00Z,VFR,-1,-3,86,150,13,48300,30.06,NA,SCT  ft; BKN  ft,CYRB 061700Z 15013KT 30SM SCT011 BKN045 M01/M03 A3006 RMK ST4SC3 SLP188,2025-09-06T17:24:34Z,2025-09-06T13:24:34Z
CYRB,2025-09-06T18:00:00Z,2025-09-06T14:00:00Z,VFR,-1,-3,86,150,13,48300,30.06,NA,SCT  ft,CYRB 061800Z 15013KT 30SM SCT011 M01/M03 A3006 RMK ST4 SLP187,2025-09-06T18:32:28Z,2025-09-06T14:32:28Z
CYRB,2025-09-06T19:00:00Z,2025-09-06T15:00:00Z,MVFR,-1,-3,86,160,16,40200,30.05,NA,SCT  ft; BKN  ft,CYRB 061900Z 16016KT 25SM SCT010 BKN015 M01/M03 A3005 RMK ST4ST3 SLP184,2025-09-06T19:18:17Z,2025-09-06T15:18:17Z
CYRB,2025-09-06T20:00:00Z,2025-09-06T16:00:00Z,VFR,0,-3,80,150,17,40200,30.03,NA,SCT  ft,CYRB 062000Z 15017KT 25SM SCT010 M00/M03 A3003 RMK ST4 SLP177,2025-09-06T20:25:18Z,2025-09-06T16:25:18Z
CYRB,2025-09-06T21:00:00Z,2025-09-06T17:00:00Z,VFR,0,-2,87,140,13,48300,30.02,NA,SCT  ft,CYRB 062100Z 14013KT 30SM SCT013 00/M02 A3002 RMK ST4 SLP175,2025-09-06T21:21:22Z,2025-09-06T17:21:22Z
CYRB,2025-09-06T22:00:00Z,2025-09-06T18:00:00Z,MVFR,0,-2,87,140,13,48300,30.02,NA,BKN  ft,CYRB 062200Z 14013KT 30SM BKN015 00/M02 A3002 RMK ST5 SLP174,2025-09-06T22:24:00Z,2025-09-06T18:24:00Z
CYRB,2025-09-06T23:00:00Z,2025-09-06T19:00:00Z,MVFR,0,-1,93,140,11,48300,30.01,NA,BKN  ft,CYRB 062300Z 14011KT 30SM BKN015 M00/M01 A3001 RMK ST5 SLP170,2025-09-06T23:22:40Z,2025-09-06T19:22:40Z
CYRB,2025-09-07T01:48:00Z,2025-09-06T21:48:00Z,MVFR,0,-2,87,150,14,48300,29.95,NA,OVC  ft,CYRB 070148Z 15014KT 30SM OVC012 M00/M02 A2995 RMK ST8 SLP153,2025-09-07T02:04:17Z,2025-09-06T22:04:17Z
CYRB,2025-09-07T02:00:00Z,2025-09-06T22:00:00Z,MVFR,0,-2,87,140,14,48300,29.95,NA,OVC  ft,CYRB 070200Z 14014KT 30SM OVC012 M00/M02 A2995 RMK ST8 SLP152,2025-09-07T03:07:57Z,2025-09-06T23:07:57Z
CYRB,2025-09-07T03:26:00Z,2025-09-06T23:26:00Z,MVFR,0,-2,87,150,19,48300,29.93,NA,OVC  ft,CYRB 070326Z 15019KT 30SM OVC015 M00/M02 A2993 RMK ST8 SLP142,2025-09-07T03:38:11Z,2025-09-06T23:38:11Z
CYRB,2025-09-07T04:00:00Z,2025-09-07T00:00:00Z,MVFR,-1,-2,93,150,17,40200,29.92,NA,OVC  ft,CYRB 070400Z 15017KT 25SM OVC013 M01/M02 A2992 RMK ST8 SLP139,2025-09-07T04:29:51Z,2025-09-07T00:29:51Z
CYRB,2025-09-07T05:00:00Z,2025-09-07T01:00:00Z,MVFR,-1,-2,93,140,18,40200,29.9,NA,BKN  ft,CYRB 070500Z 14018KT 25SM BKN012 M01/M02 A2990 RMK ST7 SLP134,2025-09-07T05:25:37Z,2025-09-07T01:25:37Z
CYRB,2025-09-07T06:00:00Z,2025-09-07T02:00:00Z,MVFR,-1,-2,93,140,18,40200,29.89,NA,BKN  ft,CYRB 070600Z 14018KT 25SM BKN011 M01/M02 A2989 RMK ST7 SLP129,2025-09-07T06:34:57Z,2025-09-07T02:34:57Z
CYRB,2025-09-07T07:00:00Z,2025-09-07T03:00:00Z,MVFR,-1,-3,86,140,19,40200,29.87,NA,OVC  ft,CYRB 070700Z 14019KT 25SM OVC011 M01/M03 A2987 RMK ST8 SLP124,2025-09-07T07:22:57Z,2025-09-07T03:22:57Z
CYRB,2025-09-07T08:00:00Z,2025-09-07T04:00:00Z,MVFR,-1,-3,86,150,16,40200,29.87,NA,OVC  ft,CYRB 070800Z 15016KT 25SM OVC010 M01/M03 A2987 RMK ST8 SLP122,2025-09-07T08:29:59Z,2025-09-07T04:29:59Z
CYRB,2025-09-07T09:00:00Z,2025-09-07T05:00:00Z,MVFR,-1,-3,86,150,14,40200,29.86,NA,OVC  ft,CYRB 070900Z 15014KT 25SM OVC012 M01/M03 A2986 RMK ST8 SLP119,2025-09-07T09:23:44Z,2025-09-07T05:23:44Z
CYRB,2025-09-07T10:00:00Z,2025-09-07T06:00:00Z,MVFR,-2,-3,93,140,19,40200,29.83,NA,BKN  ft,CYRB 071000Z 14019KT 25SM BKN014 M02/M03 A2983 RMK ST7 SLP109,2025-09-07T10:26:14Z,2025-09-07T06:26:14Z
CYRB,2025-09-07T11:00:00Z,2025-09-07T07:00:00Z,MVFR,-1,-3,86,140,23,48300,29.81,NA,BKN  ft; BKN  ft,CYRB 071100Z 14023KT 30SM BKN014 BKN200 M01/M03 A2981 RMK ST5CI2 SLP102,2025-09-07T11:19:27Z,2025-09-07T07:19:27Z
CYRB,2025-09-07T11:20:00Z,2025-09-07T07:20:00Z,VFR,-2,-3,93,120,23,48300,29.81,NA,SCT  ft; BKN  ft,CYRB 071120Z 12023KT 30SM SCT014 BKN200 M02/M03 A2981 RMK ST3CI3 SLP102,2025-09-07T11:41:32Z,2025-09-07T07:41:32Z
CYRB,2025-09-07T12:00:00Z,2025-09-07T08:00:00Z,VFR,-1,-3,86,140,19,48300,29.81,NA,FEW  ft; BKN  ft,CYRB 071200Z 14019G25KT 30SM FEW014 BKN200 M01/M03 A2981 RMK ST2CI4 SLP103,2025-09-07T12:48:19Z,2025-09-07T08:48:19Z
CYRB,2025-09-07T13:00:00Z,2025-09-07T09:00:00Z,VFR,-1,-3,86,130,19,48300,29.81,NA,FEW  ft; BKN  ft,CYRB 071300Z 13019KT 30SM FEW014 BKN200 M01/M03 A2981 RMK ST1CI6 SLP103,2025-09-07T13:26:47Z,2025-09-07T09:26:47Z
CYRB,2025-09-07T14:00:00Z,2025-09-07T10:00:00Z,VFR,-1,-3,86,130,22,48300,29.8,NA,BKN  ft,CYRB 071400Z 13022KT 30SM BKN230 M01/M03 A2980 RMK CS7 SLP101,2025-09-07T14:23:07Z,2025-09-07T10:23:07Z
CYRB,2025-09-07T15:16:00Z,2025-09-07T11:16:00Z,VFR,0,-3,80,130,20,48300,29.8,NA,BKN  ft,CYRB 071516Z 13020KT 30SM BKN230 M00/M03 A2980 RMK CS6 SLP101,2025-09-07T15:23:40Z,2025-09-07T11:23:40Z
CYRB,2025-09-07T16:00:00Z,2025-09-07T12:00:00Z,VFR,0,-3,80,120,19,48300,29.8,NA,BKN  ft,CYRB 071600Z 12019G24KT 30SM BKN240 00/M03 A2980 RMK CI5 SLP101,2025-09-07T16:29:13Z,2025-09-07T12:29:13Z
CYRB,2025-09-07T17:00:00Z,2025-09-07T13:00:00Z,VFR,0,-2,87,130,21,48300,29.8,NA,FEW  ft,CYRB 071700Z 13021KT 30SM FEW010 00/M02 A2980 RMK ST1 ST TR SLP101,2025-09-07T17:21:34Z,2025-09-07T13:21:34Z
CYRB,2025-09-07T18:00:00Z,2025-09-07T14:00:00Z,VFR,1,-2,81,130,22,48300,29.81,NA,FEW  ft,CYRB 071800Z 13022KT 30SM FEW010 01/M02 A2981 RMK ST1 ST TR SLP102,2025-09-07T18:32:56Z,2025-09-07T14:32:56Z
CYRB,2025-09-07T19:00:00Z,2025-09-07T15:00:00Z,VFR,1,-2,81,130,17,48300,29.82,NA,FEW  ft,CYRB 071900Z 13017KT 30SM FEW011 01/M02 A2982 RMK ST1 ST TR SLP106,2025-09-07T19:18:53Z,2025-09-07T15:18:53Z
CYRB,2025-09-07T20:00:00Z,2025-09-07T16:00:00Z,VFR,1,-2,81,130,19,56300,29.83,NA,FEW  ft,CYRB 072000Z 13019KT 35SM FEW011 01/M02 A2983 RMK ST1 ST TR SLP111,2025-09-07T20:25:55Z,2025-09-07T16:25:55Z
CYRB,2025-09-07T21:00:00Z,2025-09-07T17:00:00Z,VFR,1,-1,87,130,19,48300,29.84,NA,FEW  ft,CYRB 072100Z 13019KT 30SM FEW028 01/M01 A2984 RMK SC1 SC TR SLP114,2025-09-07T21:21:36Z,2025-09-07T17:21:36Z
CYRJ,2025-09-05T21:00:00Z,2025-09-05T17:00:00Z,VFR,19,9,52,180,7,64400,29.7,NA,FEW  ft; BKN  ft,CYRJ 052100Z 18007KT 150V210 40SM FEW050 BKN170 19/09 A2970 RMK SC2AC5 SLP061 DENSITY ALT 1500FT,2025-09-05T22:02:55Z,2025-09-05T18:02:55Z
CYRJ,2025-09-05T22:00:00Z,2025-09-05T18:00:00Z,VFR,19,10,56,180,7,64400,29.68,NA,FEW  ft; BKN  ft,CYRJ 052200Z 18007KT 160V220 40SM FEW050 BKN140 19/10 A2968 RMK SC1AC5 SC TR SLP055 DENSITY ALT 1500FT,2025-09-05T22:18:46Z,2025-09-05T18:18:46Z
CYRJ,2025-09-05T23:00:00Z,2025-09-05T19:00:00Z,VFR,17,9,59,190,6,40200,29.69,NA,FEW  ft; SCT  ft,CYRJ 052300Z 19006KT 25SM FEW050 SCT140 17/09 A2969 RMK SC1AC3 SC TR SLP059 DENSITY ALT 1200FT,2025-09-05T23:20:09Z,2025-09-05T19:20:09Z
CYRJ,2025-09-06T01:00:00Z,2025-09-05T21:00:00Z,VFR,14,10,77,130,4,40200,29.64,NA,FEW  ft,CYRJ 060100Z 13004KT 25SM FEW100 14/10 A2964 RMK AC2 SLP043 DENSITY ALT 900FT,2025-09-06T01:42:37Z,2025-09-05T21:42:37Z
CYRJ,2025-09-06T02:22:00Z,2025-09-05T22:22:00Z,VFR,14,10,77,100,4,32200,29.62,NA,OVC  ft,CYRJ 060222Z 10004KT 20SM -SHRA OVC053 14/10 A2962 RMK SC8 CVCTV CLD EMBD SLP033 DENSITY ALT 1000FT,2025-09-06T02:56:37Z,2025-09-05T22:56:37Z
CYRJ,2025-09-06T03:19:00Z,2025-09-05T23:19:00Z,VFR,14,12,88,250,15,19300,29.65,NA,OVC  ft,CYRJ 060319Z 25015G26KT 12SM SHRA OVC052 14/12 A2965 RMK SC8 CVCTV CLD EMBD DIST LTNG E SLP043 DENSITY ALT 1000FT,2025-09-06T03:30:48Z,2025-09-05T23:30:48Z
CYRJ,2025-09-06T04:00:00Z,2025-09-06T00:00:00Z,VFR,13,13,100,230,11,19300,29.65,NA,OVC  ft,CYRJ 060400Z 23011G17KT 12SM -SHRA OVC090 13/13 A2965 RMK AC8 SLP044 DENSITY ALT 900FT,2025-09-06T04:25:47Z,2025-09-06T00:25:47Z
CYRJ,2025-09-06T04:35:00Z,2025-09-06T00:35:00Z,VFR,13,12,94,200,6,40200,29.64,NA,SCT  ft,CYRJ 060435Z 20006KT 25SM SCT100 13/12 A2964 RMK AC3 SLP042 DENSITY ALT 800FT,2025-09-06T04:41:58Z,2025-09-06T00:41:58Z
CYRJ,2025-09-06T05:00:00Z,2025-09-06T01:00:00Z,VFR,13,12,94,220,6,40200,29.66,NA,SCT  ft,CYRJ 060500Z 22006KT 170V240 25SM SCT087 13/12 A2966 RMK AC3 SLP049 DENSITY ALT 800FT,2025-09-06T05:19:58Z,2025-09-06T01:19:58Z
CYRJ,2025-09-06T06:00:00Z,2025-09-06T02:00:00Z,VFR,11,11,100,180,5,40200,29.7,NA,SKC  ft,CYRJ 060600Z 18005KT 25SM SKC 11/11 A2970 RMK SLP061,2025-09-06T06:29:51Z,2025-09-06T02:29:51Z
CYRJ,2025-09-06T07:00:00Z,2025-09-06T03:00:00Z,VFR,11,11,100,200,3,40200,29.72,NA,FEW  ft,CYRJ 060700Z 20003KT 25SM FEW025 11/11 A2972 RMK SC1 SLP068,2025-09-06T07:18:43Z,2025-09-06T03:18:43Z
CYRJ,2025-09-06T08:00:00Z,2025-09-06T04:00:00Z,VFR,11,10,94,210,4,40200,29.73,NA,SKC  ft,CYRJ 060800Z 21004KT 25SM SKC 11/10 A2973 RMK SLP073,2025-09-06T08:25:13Z,2025-09-06T04:25:13Z
CYRJ,2025-09-06T09:00:00Z,2025-09-06T05:00:00Z,VFR,10,10,100,190,6,40200,29.76,NA,SKC  ft,CYRJ 060900Z 19006KT 25SM SKC 10/10 A2976 RMK SLP082,2025-09-06T09:19:48Z,2025-09-06T05:19:48Z
CYRJ,2025-09-06T10:00:00Z,2025-09-06T06:00:00Z,VFR,10,10,100,200,6,40200,29.78,NA,SCT  ft,CYRJ 061000Z 20006KT 25SM SCT050 10/10 A2978 RMK SC3 SLP090,2025-09-06T10:20:32Z,2025-09-06T06:20:32Z
CYRJ,2025-09-06T11:00:00Z,2025-09-06T07:00:00Z,VFR,11,9,88,200,6,64400,29.8,NA,SCT  ft; SCT  ft,CYRJ 061100Z 20006KT 170V240 40SM SCT031 SCT090 11/09 A2980 RMK SC3AC1 SLP098,2025-09-06T11:16:02Z,2025-09-06T07:16:02Z
CYRJ,2025-09-06T12:00:00Z,2025-09-06T08:00:00Z,VFR,12,9,82,220,10,64400,29.81,NA,FEW  ft; SCT  ft; BKN  ft,CYRJ 061200Z 22010G16KT 40SM FEW017 SCT090 BKN240 12/09 A2981 RMK CF2AC1CI3 SLP099,2025-09-06T12:40:03Z,2025-09-06T08:40:03Z
CYRJ,2025-09-06T13:00:00Z,2025-09-06T09:00:00Z,VFR,13,9,77,220,9,64400,29.82,NA,SCT  ft; BKN  ft,CYRJ 061300Z 22009G16KT 40SM SCT034 BKN040 13/09 A2982 RMK CF4SC3 SLP104,2025-09-06T13:22:42Z,2025-09-06T09:22:42Z
CYRJ,2025-09-06T14:00:00Z,2025-09-06T10:00:00Z,VFR,14,9,72,210,8,64400,29.85,NA,FEW  ft; BKN  ft,CYRJ 061400Z 21008KT 200V280 40SM FEW029 BKN046 14/09 A2985 RMK SC2SC5 SLP113,2025-09-06T14:18:40Z,2025-09-06T10:18:40Z
CYRJ,2025-09-06T15:00:00Z,2025-09-06T11:00:00Z,VFR,13,8,72,220,10,64400,29.86,NA,BKN  ft; BKN  ft,CYRJ 061500Z 22010G15KT 40SM BKN036 BKN230 13/08 A2986 RMK SC6CI1 SLP115,2025-09-06T15:19:25Z,2025-09-06T11:19:25Z
CYRJ,2025-09-06T15:30:00Z,2025-09-06T11:30:00Z,VFR,12,9,82,230,9,40200,29.86,NA,FEW  ft; BKN  ft,CYRJ 061530Z 23009G16KT 25SM -SHRA FEW007 BKN042 12/09 A2986 RMK SF2SC5 CVCTV CLD EMBD SLP119,2025-09-06T15:38:48Z,2025-09-06T11:38:48Z
CYRJ,2025-09-06T16:00:00Z,2025-09-06T12:00:00Z,VFR,14,8,67,190,10,64400,29.86,NA,BKN  ft; BKN  ft; OVC  ft,CYRJ 061600Z 19010G18KT 170V240 40SM BKN050 BKN190 OVC240 14/08 A2986 RMK SC5AC1CI2 SLP116,2025-09-06T16:24:54Z,2025-09-06T12:24:54Z
CYRJ,2025-09-06T17:00:00Z,2025-09-06T13:00:00Z,VFR,15,8,63,220,13,64400,29.85,NA,BKN  ft,CYRJ 061700Z 22013G21KT 40SM BKN058 15/08 A2985 RMK SC7 SLP112 DENSITY ALT 800FT,2025-09-06T17:24:34Z,2025-09-06T13:24:34Z
CYRJ,2025-09-06T18:00:00Z,2025-09-06T14:00:00Z,VFR,15,8,63,230,10,64400,29.84,NA,FEW  ft; BKN  ft; BKN  ft,CYRJ 061800Z 23010G20KT 190V250 40SM FEW033 BKN190 BKN200 15/08 A2984 RMK SC2AC3CI2 SLP111 DENSITY ALT 800FT,2025-09-06T18:32:27Z,2025-09-06T14:32:27Z
CYRJ,2025-09-06T19:00:00Z,2025-09-06T15:00:00Z,VFR,16,10,68,210,10,64400,29.83,NA,SCT  ft; BKN  ft; BKN  ft,CYRJ 061900Z 21010G16KT 170V230 40SM SCT032 BKN080 BKN220 16/10 A2983 RMK SC3AC4CI1 CI TR SLP107 DENSITY ALT 1000FT,2025-09-06T19:18:16Z,2025-09-06T15:18:16Z
CYRJ,2025-09-06T20:00:00Z,2025-09-06T16:00:00Z,VFR,15,10,72,230,9,64400,29.84,NA,FEW  ft; BKN  ft,CYRJ 062000Z 23009G15KT 180V250 40SM FEW027 BKN094 15/10 A2984 RMK SC1AC6 SLP110 DENSITY ALT 900FT,2025-09-06T20:25:17Z,2025-09-06T16:25:17Z
CYRJ,2025-09-06T21:00:00Z,2025-09-06T17:00:00Z,VFR,15,9,68,230,13,40200,29.84,NA,FEW  ft; BKN  ft,CYRJ 062100Z 23013KT 200V260 25SM -SHRA FEW025 BKN055 15/09 A2984 RMK SC1SC6 CVCTV CLD EMBD SLP111 DENSITY ALT 900FT,2025-09-06T21:21:21Z,2025-09-06T17:21:21Z
CYRJ,2025-09-06T21:24:00Z,2025-09-06T17:24:00Z,VFR,14,10,77,230,8,40200,29.84,NA,FEW  ft; BKN  ft,CYRJ 062124Z 23008KT 180V250 25SM -SHRA FEW030 BKN054 14/10 A2984 RMK SC1SC6 SLP110,2025-09-06T21:41:56Z,2025-09-06T17:41:56Z
CYRJ,2025-09-06T22:00:00Z,2025-09-06T18:00:00Z,VFR,15,10,72,220,6,64400,29.84,NA,FEW  ft; BKN  ft,CYRJ 062200Z 22006KT 190V250 40SM FEW025 BKN110 15/10 A2984 RMK SC1AC7 SC TR SLP110 DENSITY ALT 800FT,2025-09-06T22:23:59Z,2025-09-06T18:23:59Z
CYRJ,2025-09-06T23:00:00Z,2025-09-06T19:00:00Z,VFR,14,9,72,230,8,40200,29.85,NA,FEW  ft; FEW  ft; SCT  ft,CYRJ 062300Z 23008KT 25SM FEW020 FEW050 SCT100 14/09 A2985 RMK SC1SC1AC4 SC TR SC TR SLP113,2025-09-06T23:22:39Z,2025-09-06T19:22:39Z
CYRJ,2025-09-07T01:00:00Z,2025-09-06T21:00:00Z,VFR,12,9,82,230,7,40200,29.88,NA,FEW  ft,CYRJ 070100Z 23007KT 25SM FEW090 12/09 A2988 RMK AC1 SLP123,2025-09-07T02:04:16Z,2025-09-06T22:04:16Z
CYRJ,2025-09-07T02:29:00Z,2025-09-06T22:29:00Z,VFR,11,10,94,240,7,40200,29.9,NA,BKN  ft,CYRJ 070229Z 24007KT 25SM BKN052 11/10 A2990 RMK SC7 SLP133,2025-09-07T03:07:56Z,2025-09-06T23:07:56Z
CYRJ,2025-09-07T03:33:00Z,2025-09-06T23:33:00Z,VFR,11,10,94,250,5,40200,29.91,NA,SCT  ft; BKN  ft,CYRJ 070333Z 25005KT 25SM SCT043 BKN065 11/10 A2991 RMK SC3SC4 SLP136,2025-09-07T03:38:10Z,2025-09-06T23:38:10Z
CYRJ,2025-09-07T04:00:00Z,2025-09-07T00:00:00Z,VFR,11,11,100,240,7,40200,29.91,NA,FEW  ft; BKN  ft,CYRJ 070400Z 24007KT 25SM FEW047 BKN072 11/11 A2991 RMK SC2AC5 SLP133,2025-09-07T04:29:50Z,2025-09-07T00:29:50Z
CYRJ,2025-09-07T05:00:00Z,2025-09-07T01:00:00Z,VFR,11,10,94,240,6,40200,29.9,NA,FEW  ft; BKN  ft,CYRJ 070500Z 24006KT 25SM FEW015 BKN057 11/10 A2990 RMK SC1SC7 SC TR SLP132,2025-09-07T05:25:36Z,2025-09-07T01:25:36Z
CYRJ,2025-09-07T06:00:00Z,2025-09-07T02:00:00Z,VFR,11,10,94,240,7,40200,29.91,NA,BKN  ft,CYRJ 070600Z 24007KT 25SM BKN057 11/10 A2991 RMK SC7 SLP133,2025-09-07T06:34:56Z,2025-09-07T02:34:56Z
CYRJ,2025-09-07T07:00:00Z,2025-09-07T03:00:00Z,VFR,11,10,94,220,9,40200,29.91,NA,BKN  ft,CYRJ 070700Z 22009KT 25SM BKN060 11/10 A2991 RMK SC7 SLP133,2025-09-07T07:22:57Z,2025-09-07T03:22:57Z
CYRJ,2025-09-07T08:00:00Z,2025-09-07T04:00:00Z,VFR,11,10,94,230,8,40200,29.9,NA,BKN  ft,CYRJ 070800Z 23008KT 25SM BKN063 11/10 A2990 RMK SC7 SLP131,2025-09-07T08:29:58Z,2025-09-07T04:29:58Z
CYRJ,2025-09-07T09:00:00Z,2025-09-07T05:00:00Z,VFR,11,10,94,240,6,40200,29.9,NA,BKN  ft,CYRJ 070900Z 24006KT 25SM BKN069 11/10 A2990 RMK AC7 SLP130,2025-09-07T09:23:43Z,2025-09-07T05:23:43Z
CYRJ,2025-09-07T10:00:00Z,2025-09-07T06:00:00Z,VFR,11,10,94,220,8,40200,29.9,NA,BKN  ft,CYRJ 071000Z 22008KT 25SM BKN075 11/10 A2990 RMK AC7 SLP131,2025-09-07T10:26:13Z,2025-09-07T06:26:13Z
CYRJ,2025-09-07T11:00:00Z,2025-09-07T07:00:00Z,VFR,11,10,94,220,9,64400,29.9,NA,BKN  ft,CYRJ 071100Z 22009KT 40SM BKN055 11/10 A2990 RMK SC7 SLP132,2025-09-07T11:19:26Z,2025-09-07T07:19:26Z
CYRJ,2025-09-07T12:00:00Z,2025-09-07T08:00:00Z,VFR,12,10,88,220,7,64400,29.91,NA,BKN  ft,CYRJ 071200Z 22007KT 40SM BKN051 12/10 A2991 RMK SC7 SLP134,2025-09-07T12:48:18Z,2025-09-07T08:48:18Z
CYRJ,2025-09-07T13:01:00Z,2025-09-07T09:01:00Z,VFR,12,11,94,200,2,64400,29.91,NA,OVC  ft,CYRJ 071301Z 20002KT 40SM -SHRA OVC069 12/11 A2991 RMK AC8 SLP134,2025-09-07T13:26:46Z,2025-09-07T09:26:46Z
CYRJ,2025-09-07T14:00:00Z,2025-09-07T10:00:00Z,VFR,13,11,88,210,5,40200,29.9,NA,BKN  ft,CYRJ 071400Z 21005KT 180V250 25SM BKN063 13/11 A2990 RMK SC7 SLP133,2025-09-07T14:23:06Z,2025-09-07T10:23:06Z
CYRJ,2025-09-07T15:00:00Z,2025-09-07T11:00:00Z,MVFR,15,12,82,0,2,40200,29.89,NA,SCT  ft; BKN  ft; BKN  ft,CYRJ 071500Z VRB02KT 25SM SCT027 BKN030 BKN100 15/12 A2989 RMK SC3SC3AC1 SLP126 DENSITY ALT 800FT,2025-09-07T15:23:39Z,2025-09-07T11:23:39Z
CYRJ,2025-09-07T16:00:00Z,2025-09-07T12:00:00Z,VFR,17,10,64,0,5,40200,29.86,NA,BKN  ft,CYRJ 071600Z VRB05KT 25SM BKN093 17/10 A2986 RMK AC7 SLP119 DENSITY ALT 1000FT,2025-09-07T16:29:12Z,2025-09-07T12:29:12Z
CYRJ,2025-09-07T17:00:00Z,2025-09-07T13:00:00Z,VFR,17,10,64,200,7,40200,29.83,NA,SCT  ft; BKN  ft,CYRJ 071700Z 20007KT 110V250 25SM SCT060 BKN073 17/10 A2983 RMK SC3AC3 CU ASOCTD SLP108 DENSITY ALT 1100FT,2025-09-07T17:21:33Z,2025-09-07T13:21:33Z
CYRJ,2025-09-07T17:25:00Z,2025-09-07T13:25:00Z,VFR,16,11,72,0,4,40200,29.83,NA,BKN  ft; BKN  ft,CYRJ 071725Z VRB04KT 25SM -SHRA BKN035 BKN073 16/11 A2983 RMK SC5AC2 CU ASOCTD SLP106 DENSITY ALT 1000FT,2025-09-07T17:41:29Z,2025-09-07T13:41:29Z
CYRJ,2025-09-07T18:28:00Z,2025-09-07T14:28:00Z,VFR,14,10,77,230,13,40200,29.83,NA,BKN  ft,CYRJ 071828Z 23013G20KT 220V280 25SM -SHRA BKN042 14/10 A2983 RMK SC7 CVCTV CLD EMBD SLP109,2025-09-07T18:32:55Z,2025-09-07T14:32:55Z
CYRJ,2025-09-07T18:35:00Z,2025-09-07T14:35:00Z,MVFR,12,10,88,230,18,4800,29.84,NA,OVC  ft,CYRJ 071835Z 23018G24KT 3SM +SHRA BR OVC032 12/10 A2984 RMK SC8 CVCTV CLD EMBD PRESRR SLP111,2025-09-07T18:45:34Z,2025-09-07T14:45:34Z
CYRJ,2025-09-07T19:09:00Z,2025-09-07T15:09:00Z,VFR,13,12,94,260,8,32200,29.84,NA,FEW  ft; OVC  ft,CYRJ 071909Z 26008KT 20SM -SHRA FEW020 OVC062 13/12 A2984 RMK CU1SC8 CU TR SLP112,2025-09-07T19:18:52Z,2025-09-07T15:18:52Z
CYRJ,2025-09-07T20:00:00Z,2025-09-07T16:00:00Z,VFR,13,11,88,220,7,40200,29.83,NA,FEW  ft; BKN  ft,CYRJ 072000Z 22007KT 25SM VCSH FEW020 BKN100 13/11 A2983 RMK SC1AC7 SC TR SLP109,2025-09-07T20:25:54Z,2025-09-07T16:25:54Z
CYRJ,2025-09-07T21:00:00Z,2025-09-07T17:00:00Z,VFR,14,11,82,220,5,40200,29.84,NA,FEW  ft; BKN  ft; BKN  ft,CYRJ 072100Z 22005KT 25SM FEW020 BKN070 BKN130 14/11 A2984 RMK SC2AC4AC1 SLP112,2025-09-07T21:21:35Z,2025-09-07T17:21:35Z
CYRT,2025-09-05T21:51:00Z,2025-09-05T17:51:00Z,MVFR,7,4,81,10,16,24100,29.91,NA,BKN  ft; OVC  ft,CYRT 052151Z 01016KT 15SM BKN015 OVC036 07/04 A2991 RMK SC6SC2 SLP131,2025-09-05T22:02:55Z,2025-09-05T18:02:55Z
CYRT,2025-09-05T22:00:00Z,2025-09-05T18:00:00Z,MVFR,7,4,81,10,16,24100,29.9,NA,BKN  ft; OVC  ft,CYRT 052200Z 01016KT 15SM BKN018 OVC032 07/04 A2990 RMK SC6SC2 SLP130,2025-09-05T22:18:47Z,2025-09-05T18:18:47Z
CYRT,2025-09-05T23:00:00Z,2025-09-05T19:00:00Z,MVFR,7,4,81,30,15,24100,29.91,NA,FEW  ft; BKN  ft; OVC  ft,CYRT 052300Z 03015G21KT 15SM FEW012 BKN024 OVC035 07/04 A2991 RMK SF1SC5SC2 SLP132,2025-09-05T23:20:09Z,2025-09-05T19:20:09Z
CYRT,2025-09-06T01:00:00Z,2025-09-05T21:00:00Z,MVFR,6,4,87,20,18,24100,29.92,NA,BKN  ft; OVC  ft,CYRT 060100Z 02018KT 15SM BKN016 OVC033 06/04 A2992 RMK SC7SC1 SLP135,2025-09-06T01:42:38Z,2025-09-05T21:42:38Z
CYRT,2025-09-06T02:00:00Z,2025-09-05T22:00:00Z,MVFR,6,4,87,10,17,24100,29.93,NA,BKN  ft; OVC  ft,CYRT 060200Z 01017KT 15SM BKN011 OVC035 06/04 A2993 RMK SC7SC1 SLP140,2025-09-06T02:56:38Z,2025-09-05T22:56:38Z
CYRT,2025-09-06T03:00:00Z,2025-09-05T23:00:00Z,MVFR,6,4,87,10,18,24100,29.93,NA,BKN  ft; OVC  ft,CYRT 060300Z 01018KT 15SM BKN013 OVC033 06/04 A2993 RMK SC6SC2 SLP139,2025-09-06T03:30:48Z,2025-09-05T23:30:48Z
CYRT,2025-09-06T04:00:00Z,2025-09-06T00:00:00Z,VFR,6,4,87,20,16,24100,29.92,NA,OVC  ft,CYRT 060400Z 02016G22KT 15SM OVC031 06/04 A2992 RMK SC8 SLP135,2025-09-06T04:25:49Z,2025-09-06T00:25:49Z
CYRT,2025-09-06T05:00:00Z,2025-09-06T01:00:00Z,MVFR,5,3,87,20,15,24100,29.92,NA,FEW  ft; OVC  ft,CYRT 060500Z 02015G21KT 15SM FEW012 OVC026 05/03 A2992 RMK SC1SC8 SC TR SLP137,2025-09-06T05:19:59Z,2025-09-06T01:19:59Z
CYRT,2025-09-06T06:00:00Z,2025-09-06T02:00:00Z,MVFR,5,2,81,20,18,24100,29.93,NA,OVC  ft,CYRT 060600Z 02018KT 15SM OVC026 05/02 A2993 RMK SC8 SLP138,2025-09-06T06:29:51Z,2025-09-06T02:29:51Z
CYRT,2025-09-06T07:00:00Z,2025-09-06T03:00:00Z,MVFR,4,1,81,20,18,24100,29.92,NA,OVC  ft,CYRT 060700Z 02018G24KT 15SM OVC017 04/01 A2992 RMK SC8 SLP137,2025-09-06T07:18:44Z,2025-09-06T03:18:44Z
CYRT,2025-09-06T08:00:00Z,2025-09-06T04:00:00Z,MVFR,4,1,81,360,17,24100,29.92,NA,OVC  ft,CYRT 060800Z 36017KT 15SM OVC018 04/01 A2992 RMK SC8 SLP136,2025-09-06T08:25:14Z,2025-09-06T04:25:14Z
CYRT,2025-09-06T09:00:00Z,2025-09-06T05:00:00Z,MVFR,4,1,81,20,19,24100,29.93,NA,OVC  ft,CYRT 060900Z 02019KT 15SM OVC019 04/01 A2993 RMK SC8 SLP139,2025-09-06T09:19:49Z,2025-09-06T05:19:49Z
CYRT,2025-09-06T10:00:00Z,2025-09-06T06:00:00Z,MVFR,4,1,81,10,17,24100,29.93,NA,OVC  ft,CYRT 061000Z 01017G26KT 15SM OVC020 04/01 A2993 RMK SC8 SLP139,2025-09-06T10:20:32Z,2025-09-06T06:20:32Z
CYRT,2025-09-06T11:00:00Z,2025-09-06T07:00:00Z,MVFR,4,1,81,20,17,24100,29.93,NA,OVC  ft,CYRT 061100Z 02017KT 15SM OVC021 04/01 A2993 RMK SC8 SLP140,2025-09-06T11:16:03Z,2025-09-06T07:16:03Z
CYRT,2025-09-06T12:00:00Z,2025-09-06T08:00:00Z,MVFR,4,1,81,10,15,24100,29.93,NA,OVC  ft,CYRT 061200Z 01015G23KT 15SM OVC022 04/01 A2993 RMK SC8 SLP140,2025-09-06T12:40:03Z,2025-09-06T08:40:03Z
CYRT,2025-09-06T13:00:00Z,2025-09-06T09:00:00Z,MVFR,4,1,81,10,14,24100,29.93,NA,OVC  ft,CYRT 061300Z 01014G20KT 15SM OVC022 04/01 A2993 RMK SC8 SLP140,2025-09-06T13:22:42Z,2025-09-06T09:22:42Z
CYRT,2025-09-06T14:00:00Z,2025-09-06T10:00:00Z,MVFR,4,1,81,10,18,24100,29.93,NA,OVC  ft,CYRT 061400Z 01018KT 15SM OVC019 04/01 A2993 RMK SC8 SLP139,2025-09-06T14:18:41Z,2025-09-06T10:18:41Z
CYRT,2025-09-06T15:00:00Z,2025-09-06T11:00:00Z,VFR,6,1,71,10,17,24100,29.92,NA,OVC  ft,CYRT 061500Z 01017KT 15SM OVC034 06/01 A2992 RMK SC8 SLP135,2025-09-06T15:19:26Z,2025-09-06T11:19:26Z
CYRT,2025-09-06T16:00:00Z,2025-09-06T12:00:00Z,MVFR,6,1,71,360,17,24100,29.91,NA,BKN  ft; OVC  ft,CYRT 061600Z 36017KT 15SM BKN023 OVC040 06/01 A2991 RMK SC5SC3 SLP133,2025-09-06T16:24:55Z,2025-09-06T12:24:55Z
CYRT,2025-09-06T17:00:00Z,2025-09-06T13:00:00Z,MVFR,7,1,66,350,19,24100,29.9,NA,BKN  ft; OVC  ft,CYRT 061700Z 35019KT 15SM BKN026 OVC040 07/01 A2990 RMK SC5SC3 SLP129,2025-09-06T17:24:34Z,2025-09-06T13:24:34Z
CYRT,2025-09-06T18:00:00Z,2025-09-06T14:00:00Z,VFR,7,1,66,360,17,24100,29.91,NA,SCT  ft; BKN  ft; BKN  ft,CYRT 061800Z 36017KT 15SM SCT026 BKN038 BKN074 07/01 A2991 RMK SC3SC3AC1 SLP132,2025-09-06T18:32:28Z,2025-09-06T14:32:28Z
CYRT,2025-09-06T19:00:00Z,2025-09-06T15:00:00Z,MVFR,7,1,66,360,19,24100,29.9,NA,BKN  ft; BKN  ft,CYRT 061900Z 36019KT 15SM BKN029 BKN081 07/01 A2990 RMK SC5AC2 SLP130,2025-09-06T19:18:17Z,2025-09-06T15:18:17Z
CYRT,2025-09-06T20:00:00Z,2025-09-06T16:00:00Z,VFR,8,1,62,360,16,24100,29.9,NA,BKN  ft; BKN  ft,CYRT 062000Z 36016G22KT 15SM BKN033 BKN080 08/01 A2990 RMK SC5AC2 SLP129,2025-09-06T20:25:18Z,2025-09-06T16:25:18Z
CYRT,2025-09-06T21:00:00Z,2025-09-06T17:00:00Z,VFR,8,1,62,10,18,24100,29.9,NA,BKN  ft; BKN  ft,CYRT 062100Z 01018KT 15SM BKN031 BKN078 08/01 A2990 RMK SC5AC2 SLP130,2025-09-06T21:21:22Z,2025-09-06T17:21:22Z
CYRT,2025-09-06T22:00:00Z,2025-09-06T18:00:00Z,VFR,8,1,62,20,18,24100,29.9,NA,BKN  ft; BKN  ft,CYRT 062200Z 02018G23KT 15SM BKN036 BKN078 08/01 A2990 RMK SC5AC1 SLP129,2025-09-06T22:24:00Z,2025-09-06T18:24:00Z
CYRT,2025-09-06T23:00:00Z,2025-09-06T19:00:00Z,VFR,8,0,57,10,18,24100,29.91,NA,FEW  ft; SCT  ft,CYRT 062300Z 01018G25KT 15SM FEW035 SCT072 08/00 A2991 RMK SC1AC3 SLP131,2025-09-06T23:22:40Z,2025-09-06T19:22:40Z
CYRT,2025-09-07T01:00:00Z,2025-09-06T21:00:00Z,VFR,5,2,81,20,10,24100,29.91,NA,FEW  ft; FEW  ft,CYRT 070100Z 02010KT 15SM FEW051 FEW077 05/02 A2991 RMK SC1AC1 SLP134,2025-09-07T02:04:17Z,2025-09-06T22:04:17Z
CYRT,2025-09-07T02:00:00Z,2025-09-06T22:00:00Z,VFR,4,1,81,10,9,24100,29.92,NA,FEW  ft,CYRT 070200Z 01009KT 15SM FEW055 04/01 A2992 RMK SC1 SLP136,2025-09-07T03:07:57Z,2025-09-06T23:07:57Z
CYRT,2025-09-07T03:00:00Z,2025-09-06T23:00:00Z,VFR,4,2,87,10,8,24100,29.92,NA,SCT  ft,CYRT 070300Z 01008KT 15SM SCT033 04/02 A2992 RMK SC3 SLP136,2025-09-07T03:38:10Z,2025-09-06T23:38:10Z
CYRT,2025-09-07T04:00:00Z,2025-09-07T00:00:00Z,VFR,3,2,93,350,8,24100,29.91,NA,FEW  ft,CYRT 070400Z 35008KT 15SM FEW029 03/02 A2991 RMK SC2 SLP134,2025-09-07T04:29:51Z,2025-09-07T00:29:51Z
CYRT,2025-09-07T05:00:00Z,2025-09-07T01:00:00Z,VFR,3,2,93,360,8,24100,29.91,NA,FEW  ft,CYRT 070500Z 36008KT 15SM FEW029 03/02 A2991 RMK SC1 SLP134,2025-09-07T05:25:37Z,2025-09-07T01:25:37Z
CYRT,2025-09-07T06:00:00Z,2025-09-07T02:00:00Z,VFR,2,2,100,10,8,24100,29.92,NA,SKC  ft,CYRT 070600Z 01008KT 15SM SKC 02/02 A2992 RMK SLP136,2025-09-07T06:34:57Z,2025-09-07T02:34:57Z
CYRT,2025-09-07T07:00:00Z,2025-09-07T03:00:00Z,VFR,2,1,93,340,8,24100,29.92,NA,SKC  ft,CYRT 070700Z 34008KT 15SM SKC 02/01 A2992 RMK SLP135,2025-09-07T07:22:57Z,2025-09-07T03:22:57Z
CYRT,2025-09-07T08:00:00Z,2025-09-07T04:00:00Z,VFR,2,1,93,360,7,24100,29.92,NA,SKC  ft,CYRT 070800Z 36007KT 15SM SKC 02/01 A2992 RMK SLP135,2025-09-07T08:29:59Z,2025-09-07T04:29:59Z
CYRT,2025-09-07T09:00:00Z,2025-09-07T05:00:00Z,VFR,2,1,93,360,8,24100,29.91,NA,SKC  ft,CYRT 070900Z 36008KT 15SM SKC 02/01 A2991 RMK SLP134,2025-09-07T09:23:43Z,2025-09-07T05:23:43Z
CYRT,2025-09-07T10:00:00Z,2025-09-07T06:00:00Z,VFR,1,1,100,350,8,24100,29.91,NA,SKC  ft,CYRT 071000Z 35008KT 15SM SKC 01/01 A2991 RMK SLP134,2025-09-07T10:26:14Z,2025-09-07T06:26:14Z
CYRT,2025-09-07T11:00:00Z,2025-09-07T07:00:00Z,VFR,1,1,100,360,7,24100,29.91,NA,FEW  ft,CYRT 071100Z 36007KT 15SM FEW030 01/01 A2991 RMK SC1 SC TR SLP133,2025-09-07T11:19:27Z,2025-09-07T07:19:27Z
CYRT,2025-09-07T12:00:00Z,2025-09-07T08:00:00Z,VFR,2,2,100,350,8,24100,29.91,NA,FEW  ft,CYRT 071200Z 35008KT 15SM FEW010 02/02 A2991 RMK SC1 SC TR SLP132,2025-09-07T12:48:18Z,2025-09-07T08:48:18Z
CYRT,2025-09-07T13:00:00Z,2025-09-07T09:00:00Z,VFR,3,2,93,360,7,24100,29.91,NA,FEW  ft; FEW  ft,CYRT 071300Z 36007KT 15SM FEW010 FEW250 03/02 A2991 RMK SC1CI1 SC TR SLP131,2025-09-07T13:26:47Z,2025-09-07T09:26:47Z
CYRT,2025-09-07T14:00:00Z,2025-09-07T10:00:00Z,VFR,4,3,93,10,8,24100,29.9,NA,FEW  ft,CYRT 071400Z 01008KT 15SM FEW010 04/03 A2990 RMK SC1 SC TR SLP129,2025-09-07T14:23:07Z,2025-09-07T10:23:07Z
CYRT,2025-09-07T15:00:00Z,2025-09-07T11:00:00Z,VFR,5,2,81,350,5,24100,29.89,NA,FEW  ft; FEW  ft,CYRT 071500Z 35005KT 15SM FEW012 FEW250 05/02 A2989 RMK SC1CI1 SLP126,2025-09-07T15:23:39Z,2025-09-07T11:23:39Z
CYRT,2025-09-07T16:00:00Z,2025-09-07T12:00:00Z,VFR,7,2,71,350,8,24100,29.88,NA,FEW  ft; SCT  ft,CYRT 071600Z 35008KT 15SM FEW018 SCT250 07/02 A2988 RMK CF2CI1 SLP123,2025-09-07T16:29:13Z,2025-09-07T12:29:13Z
CYRT,2025-09-07T17:00:00Z,2025-09-07T13:00:00Z,VFR,7,1,66,360,9,24100,29.88,NA,SCT  ft; BKN  ft,CYRT 071700Z 36009KT 300V060 15SM SCT022 BKN250 07/01 A2988 RMK SC4CI1 SLP121,2025-09-07T17:21:34Z,2025-09-07T13:21:34Z
CYRT,2025-09-07T18:00:00Z,2025-09-07T14:00:00Z,MVFR,8,2,66,10,4,24100,29.87,NA,BKN  ft,CYRT 071800Z 01004KT 310V060 15SM BKN025 08/02 A2987 RMK SC5 SLP119,2025-09-07T18:32:55Z,2025-09-07T14:32:55Z
CYRT,2025-09-07T19:00:00Z,2025-09-07T15:00:00Z,MVFR,8,2,66,330,5,24100,29.87,NA,BKN  ft; BKN  ft,CYRT 071900Z 33005KT 310V030 15SM BKN029 BKN250 08/02 A2987 RMK SC5CI1 SLP118,2025-09-07T19:18:53Z,2025-09-07T15:18:53Z
CYRT,2025-09-07T20:00:00Z,2025-09-07T16:00:00Z,VFR,9,2,62,320,5,24100,29.86,NA,SCT  ft; BKN  ft,CYRT 072000Z 32005KT 310V010 15SM SCT033 BKN250 09/02 A2986 RMK SC4CI2 SLP117,2025-09-07T20:25:54Z,2025-09-07T16:25:54Z
CYRT,2025-09-07T21:00:00Z,2025-09-07T17:00:00Z,VFR,9,1,58,310,8,24100,29.86,NA,SCT  ft; BKN  ft,CYRT 072100Z 31008KT 15SM SCT032 BKN250 09/01 A2986 RMK SC4CI2 SLP117,2025-09-07T21:21:36Z,2025-09-07T17:21:36Z
CYSB,2025-09-05T18:00:00Z,2025-09-05T14:00:00Z,MVFR,11,9,88,220,22,32200,29.44,NA,BKN  ft; BKN  ft,CYSB 051800Z 22022G40KT 20SM R22/4500VP6000FT/D -TSRA BKN025CB BKN060 11/09 A2944 RMK CB5SC2 CB E MVG E VIS E 2 PRESRR SLP977 DENSITY ALT 1500FT,2025-09-05T18:23:21Z,2025-09-05T14:23:21Z
CYSB,2025-09-05T18:22:00Z,2025-09-05T14:22:00Z,VFR,12,10,88,220,17,32200,29.43,NA,SCT  ft; BKN  ft; BKN  ft,CYSB 051822Z 22017G25KT 20SM -SHRA SCT062 BKN110 BKN230 12/10 A2943 RMK CU3AC2CI1 SLP973 DENSITY ALT 1600FT,2025-09-05T18:32:25Z,2025-09-05T14:32:25Z
CYSB,2025-09-05T18:50:00Z,2025-09-05T14:50:00Z,MVFR,13,10,82,220,22,32200,29.44,NA,BKN  ft; BKN  ft,CYSB 051850Z 22022G29KT 20SM BKN020 BKN100 13/10 A2944 RMK SC6AC1 SLP977 DENSITY ALT 1800FT,2025-09-05T19:01:59Z,2025-09-05T15:01:59Z
CYSB,2025-09-05T19:00:00Z,2025-09-05T15:00:00Z,MVFR,13,11,88,220,18,32200,29.45,NA,BKN  ft; BKN  ft,CYSB 051900Z 22018G30KT 20SM BKN018 BKN100 13/11 A2945 RMK SC6AC1 SLP979 DENSITY ALT 1800FT,2025-09-05T19:20:59Z,2025-09-05T15:20:59Z
CYSB,2025-09-05T20:00:00Z,2025-09-05T16:00:00Z,MVFR,15,8,63,260,15,32200,29.49,NA,BKN  ft; BKN  ft,CYSB 052000Z 26015G36KT 20SM BKN030 BKN100 15/08 A2949 RMK SC6AC1 SLP995 DENSITY ALT 1900FT,2025-09-05T20:29:27Z,2025-09-05T16:29:27Z
CYSB,2025-09-05T21:00:00Z,2025-09-05T17:00:00Z,VFR,13,6,63,250,13,32200,29.54,NA,BKN  ft,CYSB 052100Z 25013G25KT 20SM BKN038 13/06 A2954 RMK SC5 SLP012 DENSITY ALT 1700FT,2025-09-05T21:14:26Z,2025-09-05T17:14:26Z
CYSB,2025-09-05T22:00:00Z,2025-09-05T18:00:00Z,VFR,13,5,59,240,12,32200,29.58,NA,BKN  ft,CYSB 052200Z 24012G22KT 20SM BKN039 13/05 A2958 RMK SC7 SLP024 DENSITY ALT 1600FT,2025-09-05T22:18:44Z,2025-09-05T18:18:44Z
CYSB,2025-09-05T23:00:00Z,2025-09-05T19:00:00Z,VFR,11,5,67,240,18,32200,29.62,NA,BKN  ft,CYSB 052300Z 24018G26KT 20SM BKN039 11/05 A2962 RMK SC5 SLP039,2025-09-05T23:20:06Z,2025-09-05T19:20:06Z
CYSB,2025-09-06T01:00:00Z,2025-09-05T21:00:00Z,VFR,10,5,71,240,12,24100,29.68,NA,BKN  ft,CYSB 060100Z 24012G19KT 15SM BKN086 10/05 A2968 RMK AC7 SLP061,2025-09-06T01:42:35Z,2025-09-05T21:42:35Z
CYSB,2025-09-06T02:00:00Z,2025-09-05T22:00:00Z,VFR,9,6,82,230,7,24100,29.7,NA,SCT  ft; OVC  ft,CYSB 060200Z 23007KT 15SM SCT033 OVC092 09/06 A2970 RMK SC3AC5 SLP065,2025-09-06T02:56:34Z,2025-09-05T22:56:34Z
CYSB,2025-09-06T03:00:00Z,2025-09-05T23:00:00Z,VFR,9,5,76,230,10,24100,29.71,NA,FEW  ft; OVC  ft,CYSB 060300Z 23010KT 15SM FEW092 OVC110 09/05 A2971 RMK AC2AC6 SLP068,2025-09-06T03:30:46Z,2025-09-05T23:30:46Z
CYSB,2025-09-06T04:00:00Z,2025-09-06T00:00:00Z,VFR,9,5,76,230,12,24100,29.71,NA,SCT  ft; OVC  ft,CYSB 060400Z 23012KT 15SM SCT095 OVC130 09/05 A2971 RMK AC3AC5 SLP069,2025-09-06T04:25:45Z,2025-09-06T00:25:45Z
CYSB,2025-09-06T05:00:00Z,2025-09-06T01:00:00Z,VFR,8,7,93,220,11,24100,29.72,NA,FEW  ft; FEW  ft; BKN  ft,CYSB 060500Z 22011G16KT 15SM FEW013 FEW043 BKN110 08/07 A2972 RMK SC1SC1AC3 SLP071,2025-09-06T05:19:55Z,2025-09-06T01:19:55Z
CYSB,2025-09-06T06:13:00Z,2025-09-06T02:13:00Z,VFR,8,8,100,190,10,24100,29.73,NA,SCT  ft; BKN  ft; OVC  ft,CYSB 060613Z CCA 19010KT 15SM SCT008 BKN064 OVC100 08/08 A2973 RMK SF4SC1AC3 SLP076,2025-09-06T06:29:49Z,2025-09-06T02:29:49Z
CYSB,2025-09-06T07:00:00Z,2025-09-06T03:00:00Z,VFR,9,8,94,210,8,24100,29.73,NA,SCT  ft; BKN  ft,CYSB 060700Z 21008KT 15SM SCT010 BKN032 09/08 A2973 RMK SC3SC4 SLP076,2025-09-06T07:18:41Z,2025-09-06T03:18:41Z
CYSB,2025-09-06T08:00:00Z,2025-09-06T04:00:00Z,VFR,9,8,94,220,9,24100,29.73,NA,FEW  ft; BKN  ft,CYSB 060800Z 22009G15KT 15SM FEW008 BKN035 09/08 A2973 RMK SF2SC5 SLP075,2025-09-06T08:25:11Z,2025-09-06T04:25:11Z
CYSB,2025-09-06T09:00:00Z,2025-09-06T05:00:00Z,VFR,9,7,87,240,8,24100,29.75,NA,FEW  ft; SCT  ft; OVC  ft,CYSB 060900Z 24008KT 15SM FEW032 SCT057 OVC086 09/07 A2975 RMK SC1SC2AC5 SLP081,2025-09-06T09:19:45Z,2025-09-06T05:19:45Z
CYSB,2025-09-06T10:00:00Z,2025-09-06T06:00:00Z,VFR,9,7,87,230,6,24100,29.76,NA,OVC  ft,CYSB 061000Z 23006KT 15SM OVC077 09/07 A2976 RMK AC8 SLP086,2025-09-06T10:20:30Z,2025-09-06T06:20:30Z
CYSB,2025-09-06T11:00:00Z,2025-09-06T07:00:00Z,VFR,8,7,93,240,6,32200,29.78,NA,BKN  ft,CYSB 061100Z 24006KT 20SM BKN084 08/07 A2978 RMK AC7 SLP092,2025-09-06T11:16:00Z,2025-09-06T07:16:00Z
CYSB,2025-09-06T12:00:00Z,2025-09-06T08:00:00Z,VFR,9,7,87,230,7,32200,29.79,NA,BKN  ft,CYSB 061200Z 23007KT 210V270 20SM BKN072 09/07 A2979 RMK AC7 SLP098,2025-09-06T12:40:00Z,2025-09-06T08:40:00Z
CYSB,2025-09-06T13:00:00Z,2025-09-06T09:00:00Z,VFR,10,7,82,240,8,32200,29.81,NA,SCT  ft; BKN  ft,CYSB 061300Z 24008KT 20SM SCT015 BKN077 10/07 A2981 RMK SC3AC4 SLP103,2025-09-06T13:22:39Z,2025-09-06T09:22:39Z
CYSB,2025-09-06T14:00:00Z,2025-09-06T10:00:00Z,MVFR,11,7,77,220,8,32200,29.82,NA,BKN  ft; OVC  ft,CYSB 061400Z 22008KT 200V260 20SM BKN017 OVC085 11/07 A2982 RMK SC5AC3 SLP109,2025-09-06T14:18:38Z,2025-09-06T10:18:38Z
CYSB,2025-09-06T15:00:00Z,2025-09-06T11:00:00Z,MVFR,12,6,67,260,8,32200,29.83,NA,BKN  ft; OVC  ft,CYSB 061500Z 26008KT 210V290 20SM BKN020 OVC084 12/06 A2983 RMK SC6AC2 SLP110,2025-09-06T15:19:23Z,2025-09-06T11:19:23Z
CYSB,2025-09-06T16:00:00Z,2025-09-06T12:00:00Z,MVFR,12,6,67,230,8,32200,29.83,NA,BKN  ft; OVC  ft,CYSB 061600Z 23008KT 20SM BKN028 OVC084 12/06 A2983 RMK CU6AC2 SLP111,2025-09-06T16:24:52Z,2025-09-06T12:24:52Z
CYSB,2025-09-06T17:00:00Z,2025-09-06T13:00:00Z,MVFR,13,6,63,260,7,32200,29.83,NA,BKN  ft; OVC  ft,CYSB 061700Z 26007G16KT 200V290 20SM BKN028 OVC084 13/06 A2983 RMK CU6AC2 SLP111 DENSITY ALT 1400FT,2025-09-06T17:24:32Z,2025-09-06T13:24:32Z
CYSB,2025-09-06T18:00:00Z,2025-09-06T14:00:00Z,VFR,14,5,55,240,9,32200,29.84,NA,BKN  ft; OVC  ft,CYSB 061800Z 24009G15KT 220V290 20SM BKN035 OVC075 14/05 A2984 RMK CU6AC2 SLP114 DENSITY ALT 1400FT,2025-09-06T18:32:25Z,2025-09-06T14:32:25Z
CYSB,2025-09-06T19:00:00Z,2025-09-06T15:00:00Z,VFR,11,8,82,220,8,32200,29.86,NA,BKN  ft; OVC  ft,CYSB 061900Z 22008G16KT 20SM -SHRA BKN038 OVC076 11/08 A2986 RMK SC7AC1 CVCTV CLD EMBD SLP122,2025-09-06T19:18:13Z,2025-09-06T15:18:13Z
CYSB,2025-09-06T20:00:00Z,2025-09-06T16:00:00Z,VFR,11,7,77,250,5,32200,29.87,NA,OVC  ft,CYSB 062000Z 25005KT 20SM -SHRA OVC031 11/07 A2987 RMK SC8 CVCTV CLD EMBD SLP123,2025-09-06T20:25:14Z,2025-09-06T16:25:14Z
CYSB,2025-09-06T21:00:00Z,2025-09-06T17:00:00Z,MVFR,13,7,67,210,12,32200,29.87,NA,BKN  ft; BKN  ft; OVC  ft,CYSB 062100Z 21012G18KT 20SM BKN024 BKN081 OVC100 13/07 A2987 RMK SC5AC2AC1 SLP124,2025-09-06T21:21:19Z,2025-09-06T17:21:19Z
CYSB,2025-09-06T22:00:00Z,2025-09-06T18:00:00Z,VFR,12,7,72,230,8,32200,29.87,NA,SCT  ft; BKN  ft; OVC  ft,CYSB 062200Z 23008KT 20SM SCT025 BKN075 OVC100 12/07 A2987 RMK SC3AC2AC3 SLP125,2025-09-06T22:23:56Z,2025-09-06T18:23:56Z
CYSB,2025-09-06T23:00:00Z,2025-09-06T19:00:00Z,VFR,11,7,77,230,8,32200,29.88,NA,SCT  ft; BKN  ft; OVC  ft,CYSB 062300Z 23008KT 20SM SCT023 BKN071 OVC100 11/07 A2988 RMK SC4AC3AC1 SLP127,2025-09-06T23:22:36Z,2025-09-06T19:22:36Z
CYSB,2025-09-06T23:36:00Z,2025-09-06T19:36:00Z,VFR,11,8,82,230,6,24100,29.88,NA,SCT  ft; OVC  ft,CYSB 062336Z 23006KT 15SM -SHRA SCT023 OVC070 11/08 A2988 RMK SC4AC4 SLP128,2025-09-06T23:41:53Z,2025-09-06T19:41:53Z
CYSB,2025-09-07T01:39:00Z,2025-09-06T21:39:00Z,VFR,9,8,94,210,2,24100,29.9,NA,SCT  ft; OVC  ft,CYSB 070139Z 21002KT 15SM SCT048 OVC063 09/08 A2990 RMK CU3SC5 SLP133,2025-09-07T02:04:14Z,2025-09-06T22:04:14Z
CYSB,2025-09-07T02:00:00Z,2025-09-06T22:00:00Z,VFR,9,8,94,230,3,24100,29.9,NA,FEW  ft; OVC  ft,CYSB 070200Z 23003KT 15SM FEW010 OVC042 09/08 A2990 RMK SC2SC6 SLP135,2025-09-07T03:07:54Z,2025-09-06T23:07:54Z
CYSB,2025-09-07T03:00:00Z,2025-09-06T23:00:00Z,VFR,8,8,100,0,2,24100,29.9,NA,BKN  ft; OVC  ft,CYSB 070300Z VRB02KT 15SM BKN037 OVC130 08/08 A2990 RMK SC6AC2 SLP136,2025-09-07T03:38:07Z,2025-09-06T23:38:07Z
CYSB,2025-09-07T04:00:00Z,2025-09-07T00:00:00Z,VFR,8,8,100,290,2,24100,29.91,NA,SCT  ft; OVC  ft,CYSB 070400Z 29002KT 15SM SCT037 OVC140 08/08 A2991 RMK SC3AC5 SLP137,2025-09-07T04:29:48Z,2025-09-07T00:29:48Z
CYSB,2025-09-07T05:00:00Z,2025-09-07T01:00:00Z,VFR,8,7,93,260,3,24100,29.92,NA,SCT  ft; OVC  ft,CYSB 070500Z 26003KT 15SM SCT022 OVC039 08/07 A2992 RMK SC3SC5 SLP142,2025-09-07T05:25:33Z,2025-09-07T01:25:33Z
CYSB,2025-09-07T06:00:00Z,2025-09-07T02:00:00Z,VFR,7,7,100,260,4,24100,29.93,NA,SCT  ft; OVC  ft,CYSB 070600Z 26004KT 15SM SCT026 OVC043 07/07 A2993 RMK SC3SC5 SLP143,2025-09-07T06:34:54Z,2025-09-07T02:34:54Z
CYSB,2025-09-07T07:01:00Z,2025-09-07T03:01:00Z,VFR,7,6,93,260,4,24100,29.92,NA,FEW  ft; BKN  ft,CYSB 070701Z 26004KT 15SM FEW043 BKN190 07/06 A2992 RMK SC2CI5 SLP143,2025-09-07T07:41:49Z,2025-09-07T03:41:49Z
CYSB,2025-09-07T08:00:00Z,2025-09-07T04:00:00Z,VFR,6,5,93,260,5,24100,29.93,NA,BKN  ft; BKN  ft,CYSB 070800Z 26005KT 15SM BKN037 BKN190 06/05 A2993 RMK SC5CI2 SLP145,2025-09-07T08:29:56Z,2025-09-07T04:29:56Z
CYSB,2025-09-07T09:00:00Z,2025-09-07T05:00:00Z,VFR,5,4,93,250,5,24100,29.93,NA,SCT  ft,CYSB 070900Z 25005KT 15SM SCT190 05/04 A2993 RMK CI4 SLP148,2025-09-07T09:23:41Z,2025-09-07T05:23:41Z
CYSB,2025-09-07T10:00:00Z,2025-09-07T06:00:00Z,VFR,4,4,100,250,4,24100,29.94,NA,FEW  ft,CYSB 071000Z 25004KT 15SM FEW190 04/04 A2994 RMK AC2 SLP149,2025-09-07T10:26:10Z,2025-09-07T06:26:10Z
CYSB,2025-09-07T11:00:00Z,2025-09-07T07:00:00Z,VFR,4,4,100,270,5,32200,29.96,NA,SCT  ft,CYSB 071100Z 27005KT 20SM SCT150 04/04 A2996 RMK AC4 SLP156,2025-09-07T11:19:23Z,2025-09-07T07:19:23Z
CYSB,2025-09-07T12:00:00Z,2025-09-07T08:00:00Z,VFR,5,5,100,0,2,32200,29.98,NA,FEW  ft; BKN  ft,CYSB 071200Z VRB02KT 20SM FEW062 BKN150 05/05 A2998 RMK SC2AC3 SLP163,2025-09-07T12:48:16Z,2025-09-07T08:48:16Z
CYSB,2025-09-07T13:00:00Z,2025-09-07T09:00:00Z,VFR,7,5,87,250,4,32200,29.99,NA,BKN  ft,CYSB 071300Z 25004KT 220V280 20SM BKN054 07/05 A2999 RMK SC7 SLP166,2025-09-07T13:26:44Z,2025-09-07T09:26:44Z
CYSB,2025-09-07T14:00:00Z,2025-09-07T10:00:00Z,VFR,9,5,76,250,6,32200,29.99,NA,FEW  ft; BKN  ft,CYSB 071400Z 25006KT 220V300 20SM FEW020 BKN048 09/05 A2999 RMK SF1SC6 SLP167,2025-09-07T14:23:04Z,2025-09-07T10:23:04Z
CYSB,2025-09-07T15:00:00Z,2025-09-07T11:00:00Z,MVFR,11,6,72,240,5,32200,30.01,NA,FEW  ft; BKN  ft; BKN  ft,CYSB 071500Z 24005KT 20SM FEW020 BKN022 BKN047 11/06 A3001 RMK SF1CU5SC2 SF TR SLP171,2025-09-07T15:23:37Z,2025-09-07T11:23:37Z
CYSB,2025-09-07T16:00:00Z,2025-09-07T12:00:00Z,MVFR,12,5,63,250,10,32200,30.01,NA,BKN  ft; BKN  ft,CYSB 071600Z 25010KT 210V300 20SM BKN022 BKN050 12/05 A3001 RMK CU5SC2 SLP170,2025-09-07T16:29:09Z,2025-09-07T12:29:09Z
CYSB,2025-09-07T17:00:00Z,2025-09-07T13:00:00Z,MVFR,13,5,59,250,7,32200,30,NA,BKN  ft; BKN  ft,CYSB 071700Z 25007KT 220V290 20SM -SHRA BKN026 BKN040 13/05 A3000 RMK SC5CU2 SLP168,2025-09-07T17:21:31Z,2025-09-07T13:21:31Z
CYSB,2025-09-07T18:00:00Z,2025-09-07T14:00:00Z,VFR,10,7,82,270,7,32200,30.01,NA,BKN  ft; BKN  ft,CYSB 071800Z 27007KT 230V300 20SM -SHRA BKN031 BKN050 10/07 A3001 RMK SC5CU2 SLP174,2025-09-07T18:32:52Z,2025-09-07T14:32:52Z
CYSB,2025-09-07T19:00:00Z,2025-09-07T15:00:00Z,VFR,13,5,59,290,9,32200,30.01,NA,FEW  ft; BKN  ft; BKN  ft,CYSB 071900Z 29009G16KT 230V310 20SM -SHRA FEW022 BKN035 BKN048 13/05 A3001 RMK CF1CU5SC1 SLP173,2025-09-07T19:18:49Z,2025-09-07T15:18:49Z
CYSB,2025-09-07T20:00:00Z,2025-09-07T16:00:00Z,VFR,13,5,59,290,8,32200,30.02,NA,FEW  ft; BKN  ft,CYSB 072000Z 29008KT 20SM FEW030 BKN044 13/05 A3002 RMK CF1CU5 SLP175,2025-09-07T20:25:52Z,2025-09-07T16:25:52Z
CYSB,2025-09-07T21:00:00Z,2025-09-07T17:00:00Z,VFR,13,5,59,290,7,32200,30.02,NA,BKN  ft,CYSB 072100Z 29007KT 20SM BKN050 13/05 A3002 RMK SC6 SLP178,2025-09-07T21:21:33Z,2025-09-07T17:21:33Z
CYTS,2025-09-05T18:00:00Z,2025-09-05T14:00:00Z,MVFR,13,11,88,170,12,24100,29.25,NA,BKN  ft; OVC  ft,CYTS 051800Z 17012G20KT 15SM -SHRA BKN010 OVC035 13/11 A2925 RMK SF5SC3 CVCTV CLD EMBD SLP913 DENSITY ALT 1700FT,2025-09-05T18:23:21Z,2025-09-05T14:23:21Z
CYTS,2025-09-05T19:00:00Z,2025-09-05T15:00:00Z,MVFR,14,11,82,200,11,24100,29.25,NA,BKN  ft; OVC  ft,CYTS 051900Z 20011G21KT 15SM -SHRA BKN015 OVC030 14/11 A2925 RMK SC5SC3 CVCTV CLD EMBD SLP912 DENSITY ALT 1800FT,2025-09-05T19:20:59Z,2025-09-05T15:20:59Z
CYTS,2025-09-05T19:23:00Z,2025-09-05T15:23:00Z,MVFR,14,11,82,210,11,9700,29.26,NA,FEW  ft; BKN  ft; OVC  ft,CYTS 051923Z 21011G20KT 6SM -SHRA FEW015TCU BKN017 OVC033 14/11 A2926 RMK TCU1SC6SC1 SLP916 DENSITY ALT 1800FT,2025-09-05T19:31:29Z,2025-09-05T15:31:29Z
CYTS,2025-09-05T19:34:00Z,2025-09-05T15:34:00Z,IFR,11,10,94,260,11,4000,29.29,NA,FEW  ft; BKN  ft; OVC  ft,CYTS 051934Z 26011G33KT 190V280 2 1/2SM SHRA FEW007 BKN014TCU OVC038 11/10 A2929 RMK CF1TCU5SC2 PRESRR SLP926 DENSITY ALT 1500FT,2025-09-05T19:41:03Z,2025-09-05T15:41:03Z
CYTS,2025-09-05T19:43:00Z,2025-09-05T15:43:00Z,MVFR,10,9,94,260,18,8000,29.29,NA,FEW  ft; BKN  ft; OVC  ft,CYTS 051943Z 26018G28KT 210V310 5SM -SHRA FEW007 BKN013TCU OVC036 10/09 A2929 RMK CF1TCU6SC1 PRESRR SLP929 DENSITY ALT 1400FT,2025-09-05T19:51:34Z,2025-09-05T15:51:34Z
CYTS,2025-09-05T20:00:00Z,2025-09-05T16:00:00Z,MVFR,10,9,94,270,9,24100,29.32,NA,BKN  ft; OVC  ft,CYTS 052000Z 27009G20KT 230V300 15SM -SHRA BKN014TCU OVC035 10/09 A2932 RMK TCU6SC2 PRESRR SLP940 DENSITY ALT 1300FT,2025-09-05T20:29:27Z,2025-09-05T16:29:27Z
CYTS,2025-09-05T20:46:00Z,2025-09-05T16:46:00Z,MVFR,9,8,94,260,12,9700,29.38,NA,FEW  ft; OVC  ft,CYTS 052046Z 26012G20KT 220V300 6SM -SHRA BR FEW015 OVC026 09/08 A2938 RMK CF2CU6 PRESRR SLP959,2025-09-05T20:51:32Z,2025-09-05T16:51:32Z
CYTS,2025-09-05T21:00:00Z,2025-09-05T17:00:00Z,MVFR,9,8,94,260,11,8000,29.39,NA,SCT  ft; BKN  ft; OVC  ft,CYTS 052100Z 26011G18KT 220V300 5SM -SHRA BR SCT015 BKN028 OVC036 09/08 A2939 RMK CF3CU4SC1 SLP963,2025-09-05T21:14:26Z,2025-09-05T17:14:26Z
CYTS,2025-09-05T21:52:00Z,2025-09-05T17:52:00Z,IFR,9,8,94,250,6,4000,29.43,NA,SCT  ft; OVC  ft,CYTS 052152Z 25006G15KT 190V290 2 1/2SM -SHRA BR SCT016 OVC024 09/08 A2943 RMK CF4CU4 SLP975,2025-09-05T22:02:53Z,2025-09-05T18:02:53Z
CYTS,2025-09-05T22:00:00Z,2025-09-05T18:00:00Z,MVFR,8,7,93,240,10,4800,29.44,NA,SCT  ft; OVC  ft,CYTS 052200Z 24010G16KT 190V290 3SM -SHRA BR SCT016 OVC024 08/07 A2944 RMK CF4CU4 PRESRR SLP978,2025-09-05T22:18:44Z,2025-09-05T18:18:44Z
CYTS,2025-09-05T23:00:00Z,2025-09-05T19:00:00Z,MVFR,7,6,93,250,7,9999,29.48,NA,BKN  ft; BKN  ft,CYTS 052300Z 25007G18KT 200V280 10SM -SHRA BKN016 BKN032 07/06 A2948 RMK CU5SC3 PRESRR SLP994,2025-09-05T23:20:06Z,2025-09-05T19:20:06Z
CYTS,2025-09-06T01:00:00Z,2025-09-05T21:00:00Z,VFR,7,6,93,220,5,24100,29.54,NA,FEW  ft; OVC  ft,CYTS 060100Z 22005G15KT 15SM FEW024 OVC094 07/06 A2954 RMK SC2AC6 SLP013,2025-09-06T01:42:35Z,2025-09-05T21:42:35Z
CYTS,2025-09-06T02:00:00Z,2025-09-05T22:00:00Z,VFR,7,5,87,220,7,24100,29.55,NA,FEW  ft; OVC  ft,CYTS 060200Z 22007KT 15SM FEW030 OVC085 07/05 A2955 RMK SC2AC6 SLP017,2025-09-06T02:56:34Z,2025-09-05T22:56:34Z
CYTS,2025-09-06T03:00:00Z,2025-09-05T23:00:00Z,VFR,7,5,87,210,9,24100,29.56,NA,SCT  ft; BKN  ft; OVC  ft,CYTS 060300Z 21009KT 15SM SCT030 BKN071 OVC091 07/05 A2956 RMK SC4AC1AC3 SLP020,2025-09-06T03:30:45Z,2025-09-05T23:30:45Z
CYTS,2025-09-06T04:00:00Z,2025-09-06T00:00:00Z,MVFR,7,5,87,210,8,24100,29.57,NA,BKN  ft; BKN  ft; OVC  ft,CYTS 060400Z 21008KT 15SM BKN023 BKN040 OVC061 07/05 A2957 RMK SC5SC2SC1 SLP024,2025-09-06T04:25:44Z,2025-09-06T00:25:44Z
CYTS,2025-09-06T05:00:00Z,2025-09-06T01:00:00Z,VFR,7,5,87,210,8,24100,29.57,NA,SCT  ft; OVC  ft,CYTS 060500Z 21008G15KT 15SM SCT023 OVC094 07/05 A2957 RMK SC3AC5 SLP025,2025-09-06T05:19:55Z,2025-09-06T01:19:55Z
CYTS,2025-09-06T06:00:00Z,2025-09-06T02:00:00Z,MVFR,7,5,87,210,8,24100,29.59,NA,BKN  ft; OVC  ft,CYTS 060600Z 21008G15KT 15SM BKN018 OVC048 07/05 A2959 RMK SC6SC2 SLP029,2025-09-06T06:29:49Z,2025-09-06T02:29:49Z
CYTS,2025-09-06T06:41:00Z,2025-09-06T02:41:00Z,VFR,7,6,93,220,7,9999,29.6,NA,FEW  ft; OVC  ft,CYTS 060641Z 22007KT 10SM -RA FEW018 OVC031 07/06 A2960 RMK SF2SC6 SLP031,2025-09-06T06:46:47Z,2025-09-06T02:46:47Z
CYTS,2025-09-06T07:00:00Z,2025-09-06T03:00:00Z,VFR,7,6,93,210,7,24100,29.6,NA,FEW  ft; BKN  ft; OVC  ft,CYTS 060700Z 21007KT 180V240 15SM FEW017 BKN031 OVC100 07/06 A2960 RMK SF1SC6AC1 SLP032,2025-09-06T07:18:40Z,2025-09-06T03:18:40Z
CYTS,2025-09-06T08:00:00Z,2025-09-06T04:00:00Z,MVFR,7,6,93,220,6,24100,29.61,NA,OVC  ft,CYTS 060800Z 22006KT 190V270 15SM OVC028 07/06 A2961 RMK SC8 SLP039,2025-09-06T08:25:11Z,2025-09-06T04:25:11Z
CYTS,2025-09-06T09:00:00Z,2025-09-06T05:00:00Z,MVFR,7,6,93,250,3,24100,29.64,NA,OVC  ft,CYTS 060900Z 25003KT 190V290 15SM -RA OVC014 07/06 A2964 RMK SC8 SLP047,2025-09-06T09:19:45Z,2025-09-06T05:19:45Z
CYTS,2025-09-06T10:13:00Z,2025-09-06T06:13:00Z,MVFR,7,5,87,260,6,24100,29.67,NA,BKN  ft,CYTS 061013Z 26006KT 210V300 15SM BKN026 07/05 A2967 RMK SC7 SLP058,2025-09-06T10:20:30Z,2025-09-06T06:20:30Z
CYTS,2025-09-06T11:00:00Z,2025-09-06T07:00:00Z,MVFR,7,5,87,230,4,24100,29.69,NA,OVC  ft,CYTS 061100Z 23004KT 190V270 15SM OVC025 07/05 A2969 RMK SC8 SLP067,2025-09-06T11:16:00Z,2025-09-06T07:16:00Z
CYTS,2025-09-06T12:00:00Z,2025-09-06T08:00:00Z,MVFR,7,4,81,260,6,24100,29.73,NA,OVC  ft,CYTS 061200Z 26006G16KT 200V310 15SM OVC026 07/04 A2973 RMK SC8 SLP079,2025-09-06T12:40:00Z,2025-09-06T08:40:00Z
CYTS,2025-09-06T13:00:00Z,2025-09-06T09:00:00Z,MVFR,7,5,87,250,5,24100,29.75,NA,BKN  ft,CYTS 061300Z 25005KT 220V290 15SM BKN018 07/05 A2975 RMK SC7 SLP085,2025-09-06T13:22:39Z,2025-09-06T09:22:39Z
CYTS,2025-09-06T14:00:00Z,2025-09-06T10:00:00Z,MVFR,8,4,76,270,5,24100,29.76,NA,BKN  ft,CYTS 061400Z 27005KT 210V310 15SM BKN021 08/04 A2976 RMK SC7 SLP090,2025-09-06T14:18:38Z,2025-09-06T10:18:38Z
CYTS,2025-09-06T15:00:00Z,2025-09-06T11:00:00Z,MVFR,8,4,76,260,5,24100,29.78,NA,OVC  ft,CYTS 061500Z 26005KT 220V290 15SM OVC021 08/04 A2978 RMK SC8 SLP094,2025-09-06T15:19:23Z,2025-09-06T11:19:23Z
CYTS,2025-09-06T16:00:00Z,2025-09-06T12:00:00Z,MVFR,9,4,71,290,3,24100,29.78,NA,OVC  ft,CYTS 061600Z 29003KT 210V330 15SM OVC025 09/04 A2978 RMK SC8 SLP097,2025-09-06T16:24:52Z,2025-09-06T12:24:52Z
CYTS,2025-09-06T17:00:00Z,2025-09-06T13:00:00Z,MVFR,10,5,71,290,3,24100,29.79,NA,OVC  ft,CYTS 061700Z 29003KT 230V330 15SM OVC030 10/05 A2979 RMK SC8 SLP100,2025-09-06T17:24:32Z,2025-09-06T13:24:32Z
CYTS,2025-09-06T18:00:00Z,2025-09-06T14:00:00Z,VFR,11,5,67,270,5,24100,29.81,NA,OVC  ft,CYTS 061800Z 27005KT 210V320 15SM OVC032 11/05 A2981 RMK SC8 SLP104,2025-09-06T18:32:25Z,2025-09-06T14:32:25Z
CYTS,2025-09-06T19:00:00Z,2025-09-06T15:00:00Z,VFR,12,5,63,0,5,24100,29.81,NA,OVC  ft,CYTS 061900Z VRB05KT 15SM OVC038 12/05 A2981 RMK SC8 SLP105,2025-09-06T19:18:13Z,2025-09-06T15:18:13Z
CYTS,2025-09-06T20:21:00Z,2025-09-06T16:21:00Z,VFR,11,5,67,210,4,24100,29.83,NA,BKN  ft; BKN  ft,CYTS 062021Z 21004KT 180V290 15SM BKN038 BKN045 11/05 A2983 RMK CU5SC1 SLP111,2025-09-06T20:25:14Z,2025-09-06T16:25:14Z
CYTS,2025-09-06T20:31:00Z,2025-09-06T16:31:00Z,VFR,11,5,67,220,5,24100,29.83,NA,BKN  ft,CYTS 062031Z 22005KT 190V260 15SM -SHRA BKN038 11/05 A2983 RMK CU5 SLP113,2025-09-06T20:41:46Z,2025-09-06T16:41:46Z
CYTS,2025-09-06T21:00:00Z,2025-09-06T17:00:00Z,VFR,10,7,82,210,4,24100,29.84,NA,BKN  ft,CYTS 062100Z 21004KT 15SM -SHRA BKN048 10/07 A2984 RMK SC7 CVCTV CLD EMBD SLP115,2025-09-06T21:21:19Z,2025-09-06T17:21:19Z
CYTS,2025-09-06T21:28:00Z,2025-09-06T17:28:00Z,VFR,11,7,77,0,2,24100,29.84,NA,BKN  ft; BKN  ft,CYTS 062128Z VRB02KT 15SM BKN060 BKN082 11/07 A2984 RMK SC5AC2 SLP115,2025-09-06T21:41:53Z,2025-09-06T17:41:53Z
CYTS,2025-09-06T22:00:00Z,2025-09-06T18:00:00Z,VFR,11,6,72,240,4,24100,29.84,NA,BKN  ft,CYTS 062200Z 24004KT 200V270 15SM BKN048 11/06 A2984 RMK SC5 SLP114,2025-09-06T22:23:56Z,2025-09-06T18:23:56Z
CYTS,2025-09-06T23:00:00Z,2025-09-06T19:00:00Z,VFR,11,7,77,190,4,24100,29.84,NA,BKN  ft; BKN  ft,CYTS 062300Z 19004KT 15SM BKN046 BKN100 11/07 A2984 RMK SC5AC2 SLP115,2025-09-06T23:22:36Z,2025-09-06T19:22:36Z
CYTS,2025-09-07T01:00:00Z,2025-09-06T21:00:00Z,VFR,9,8,94,280,3,24100,29.86,NA,BKN  ft,CYTS 070100Z 28003KT 15SM BKN054 09/08 A2986 RMK SC7 SLP122,2025-09-07T02:04:14Z,2025-09-06T22:04:14Z
CYTS,2025-09-07T02:00:00Z,2025-09-06T22:00:00Z,VFR,9,7,87,220,3,24100,29.86,NA,BKN  ft,CYTS 070200Z 22003KT 15SM BKN049 09/07 A2986 RMK SC7 SLP122,2025-09-07T03:07:53Z,2025-09-06T23:07:53Z
CYTS,2025-09-07T03:27:00Z,2025-09-06T23:27:00Z,VFR,8,7,93,280,3,24100,29.87,NA,OVC  ft,CYTS 070327Z 28003KT 15SM -SHRA OVC041 08/07 A2987 RMK SC8 CVCTV CLD EMBD SLP126,2025-09-07T03:38:07Z,2025-09-06T23:38:07Z
CYTS,2025-09-07T04:00:00Z,2025-09-07T00:00:00Z,MVFR,8,7,93,0,0,24100,29.88,NA,OVC  ft,CYTS 070400Z 00000KT 15SM -SHRA OVC030 08/07 A2988 RMK SC8 CVCTV CLD EMBD SLP128,2025-09-07T04:29:48Z,2025-09-07T00:29:48Z
CYTS,2025-09-07T05:00:00Z,2025-09-07T01:00:00Z,VFR,8,7,93,250,3,24100,29.88,NA,BKN  ft; OVC  ft,CYTS 070500Z 25003KT 15SM BKN044 OVC089 08/07 A2988 RMK SC5AC3 SLP131,2025-09-07T05:25:33Z,2025-09-07T01:25:33Z
CYTS,2025-09-07T06:00:00Z,2025-09-07T02:00:00Z,VFR,7,6,93,250,3,24100,29.89,NA,OVC  ft,CYTS 070600Z 25003KT 15SM OVC086 07/06 A2989 RMK AC8 SLP132,2025-09-07T06:34:54Z,2025-09-07T02:34:54Z
CYTS,2025-09-07T07:00:00Z,2025-09-07T03:00:00Z,VFR,6,6,100,270,3,24100,29.89,NA,SCT  ft; BKN  ft,CYTS 070700Z 27003KT 15SM SCT083 BKN200 06/06 A2989 RMK AC4CI3 SLP132,2025-09-07T07:22:54Z,2025-09-07T03:22:54Z
CYTS,2025-09-07T08:00:00Z,2025-09-07T04:00:00Z,VFR,5,5,100,260,3,24100,29.89,NA,BKN  ft,CYTS 070800Z 26003KT 15SM BKN096 05/05 A2989 RMK AC6 SLP133,2025-09-07T08:29:56Z,2025-09-07T04:29:56Z
CYTS,2025-09-07T09:00:00Z,2025-09-07T05:00:00Z,VFR,5,5,100,250,4,24100,29.9,NA,BKN  ft,CYTS 070900Z 25004KT 15SM BKN094 05/05 A2990 RMK AC7 SLP136,2025-09-07T09:23:41Z,2025-09-07T05:23:41Z
CYTS,2025-09-07T10:00:00Z,2025-09-07T06:00:00Z,VFR,5,5,100,270,4,24100,29.91,NA,SCT  ft; BKN  ft,CYTS 071000Z 27004KT 230V300 15SM SCT031 BKN076 05/05 A2991 RMK SC3AC2 SLP140,2025-09-07T10:26:10Z,2025-09-07T06:26:10Z
CYTS,2025-09-07T11:00:00Z,2025-09-07T07:00:00Z,MVFR,5,5,100,0,2,24100,29.92,NA,FEW  ft; BKN  ft; OVC  ft,CYTS 071100Z VRB02KT 15SM FEW007 BKN028 OVC080 05/05 A2992 RMK SF2SC4AC2 SLP144,2025-09-07T11:19:23Z,2025-09-07T07:19:23Z
CYTS,2025-09-07T12:00:00Z,2025-09-07T08:00:00Z,MVFR,6,5,93,270,4,24100,29.93,NA,FEW  ft; BKN  ft; OVC  ft,CYTS 071200Z 27004KT 240V300 15SM FEW006 BKN019 OVC071 06/05 A2993 RMK SF2SC3AC3 SLP146,2025-09-07T12:48:16Z,2025-09-07T08:48:16Z
CYTS,2025-09-07T13:00:00Z,2025-09-07T09:00:00Z,VFR,7,6,93,270,4,24100,29.94,NA,SCT  ft; BKN  ft; OVC  ft,CYTS 071300Z 27004KT 230V300 15SM SCT006 BKN036 OVC088 07/06 A2994 RMK SF4SC2AC2 SLP151,2025-09-07T13:26:44Z,2025-09-07T09:26:44Z
CYTS,2025-09-07T14:00:00Z,2025-09-07T10:00:00Z,IFR,7,6,93,270,3,24100,29.95,NA,BKN  ft; BKN  ft; OVC  ft,CYTS 071400Z 27003KT 210V300 15SM -RA BKN008 BKN027 OVC070 07/06 A2995 RMK SC6SC1AC1 SLP155,2025-09-07T14:23:04Z,2025-09-07T10:23:04Z
CYTS,2025-09-07T15:00:00Z,2025-09-07T11:00:00Z,MVFR,8,6,87,270,8,24100,29.97,NA,BKN  ft; BKN  ft; OVC  ft,CYTS 071500Z 27008KT 230V300 15SM -SHRA BKN013 BKN050 OVC075 08/06 A2997 RMK SC6SC1AC1 SLP159,2025-09-07T15:23:37Z,2025-09-07T11:23:37Z
CYTS,2025-09-07T16:00:00Z,2025-09-07T12:00:00Z,MVFR,9,6,82,250,8,24100,29.97,NA,BKN  ft; OVC  ft,CYTS 071600Z 25008KT 220V300 15SM BKN015 OVC029 09/06 A2997 RMK SC7SC1 SLP160,2025-09-07T16:29:09Z,2025-09-07T12:29:09Z
CYTS,2025-09-07T17:00:00Z,2025-09-07T13:00:00Z,MVFR,10,6,76,280,5,24100,29.97,NA,BKN  ft,CYTS 071700Z 28005KT 230V340 15SM BKN021 10/06 A2997 RMK SC7 SLP160,2025-09-07T17:21:31Z,2025-09-07T13:21:31Z
CYTS,2025-09-07T18:15:00Z,2025-09-07T14:15:00Z,MVFR,11,5,67,280,9,24100,29.97,NA,BKN  ft; OVC  ft,CYTS 071815Z 28009G18KT 240V310 15SM -SHRA BKN027 OVC037 11/05 A2997 RMK SC7SC1 CVCTV CLD EMBD SLP161,2025-09-07T18:32:52Z,2025-09-07T14:32:52Z
CYTS,2025-09-07T19:02:00Z,2025-09-07T15:02:00Z,VFR,11,5,67,270,9,24100,29.98,NA,BKN  ft; BKN  ft,CYTS 071902Z 27009G16KT 240V310 15SM -SHRA BKN032 BKN110 11/05 A2998 RMK SC6AC1 SLP162,2025-09-07T19:18:49Z,2025-09-07T15:18:49Z
CYTS,2025-09-07T20:00:00Z,2025-09-07T16:00:00Z,VFR,11,8,82,290,7,24100,29.98,NA,BKN  ft; BKN  ft,CYTS 072000Z 29007KT 240V320 15SM -SHRA BKN033 BKN140 11/08 A2998 RMK CU5AC1 SLP163,2025-09-07T20:25:52Z,2025-09-07T16:25:52Z
CYTS,2025-09-07T21:00:00Z,2025-09-07T17:00:00Z,MVFR,11,7,77,270,5,24100,29.99,NA,BKN  ft; BKN  ft,CYTS 072100Z 27005KT 230V310 15SM -SHRA BKN022 BKN110 11/07 A2999 RMK CU5AC1 SLP169,2025-09-07T21:21:33Z,2025-09-07T17:21:33Z
CYUL,2025-09-05T21:00:00Z,2025-09-05T17:00:00Z,VFR,25,12,44,220,13,48300,29.71,NA,FEW  ft; FEW  ft; FEW  ft,CYUL 052100Z 22013KT 30SM FEW065 FEW080 FEW250 25/12 A2971 RMK CF1AC1CI1 CF TR AC TR SLP064 DENSITY ALT 1600FT,2025-09-05T22:02:54Z,2025-09-05T18:02:54Z
CYUL,2025-09-05T22:00:00Z,2025-09-05T18:00:00Z,VFR,25,11,42,210,12,48300,29.7,NA,FEW  ft; SCT  ft; BKN  ft,CYUL 052200Z 21012KT 30SM FEW070 SCT120 BKN250 25/11 A2970 RMK AC1AC3CI2 AC TR SLP061 DENSITY ALT 1600FT,2025-09-05T22:18:46Z,2025-09-05T18:18:46Z
CYUL,2025-09-05T23:00:00Z,2025-09-05T19:00:00Z,VFR,24,12,47,190,11,48300,29.69,NA,FEW  ft; SCT  ft; BKN  ft,CYUL 052300Z 19011KT 30SM FEW090 SCT120 BKN250 24/12 A2969 RMK AC2AC2CI1 SLP057 DENSITY ALT 1500FT,2025-09-05T23:20:08Z,2025-09-05T19:20:08Z
CYUL,2025-09-06T01:00:00Z,2025-09-05T21:00:00Z,VFR,23,13,53,180,11,24100,29.71,NA,FEW  ft; SCT  ft; BKN  ft,CYUL 060100Z CCA 18011KT 15SM FEW075 SCT090 BKN250 23/13 A2971 RMK AC2AC1CI2 SLP062 DENSITY ALT 1400FT,2025-09-06T01:42:36Z,2025-09-05T21:42:36Z
CYUL,2025-09-06T02:00:00Z,2025-09-05T22:00:00Z,VFR,23,13,53,190,11,24100,29.72,NA,FEW  ft; FEW  ft,CYUL 060200Z 19011KT 15SM FEW075 FEW250 23/13 A2972 RMK AC1CI1 AC TR SLP065 DENSITY ALT 1300FT,2025-09-06T02:56:36Z,2025-09-05T22:56:36Z
CYUL,2025-09-06T03:00:00Z,2025-09-05T23:00:00Z,VFR,20,15,73,250,9,24100,29.76,NA,BKN  ft; OVC  ft,CYUL 060300Z 25009G19KT 15SM -RA BKN060 OVC110 20/15 A2976 RMK SC5AC3 SLP080 DENSITY ALT 1000FT,2025-09-06T03:30:47Z,2025-09-05T23:30:47Z
CYUL,2025-09-06T04:00:00Z,2025-09-06T00:00:00Z,VFR,19,14,73,280,11,24100,29.79,NA,FEW  ft; BKN  ft,CYUL 060400Z 28011G18KT 15SM FEW060 BKN120 19/14 A2979 RMK SC2AC5 SLP091 DENSITY ALT 800FT,2025-09-06T04:25:47Z,2025-09-06T00:25:47Z
CYUL,2025-09-06T05:00:00Z,2025-09-06T01:00:00Z,VFR,17,12,73,260,6,24100,29.82,NA,SCT  ft; BKN  ft,CYUL 060500Z 26006KT 15SM SCT080 BKN110 17/12 A2982 RMK AC4AC2 SLP101 DENSITY ALT 600FT,2025-09-06T05:19:57Z,2025-09-06T01:19:57Z
CYUL,2025-09-06T06:00:00Z,2025-09-06T02:00:00Z,VFR,16,11,72,250,6,24100,29.84,NA,FEW  ft; BKN  ft,CYUL 060600Z 25006KT 15SM FEW120 BKN250 16/11 A2984 RMK AC1CI7 AC TR SLP108 DENSITY ALT 400FT,2025-09-06T06:29:50Z,2025-09-06T02:29:50Z
CYUL,2025-09-06T07:00:00Z,2025-09-06T03:00:00Z,VFR,15,11,77,240,8,24100,29.87,NA,BKN  ft,CYUL 060700Z 24008KT 15SM BKN050 15/11 A2987 RMK SC6 SLP117,2025-09-06T07:18:42Z,2025-09-06T03:18:42Z
CYUL,2025-09-06T08:00:00Z,2025-09-06T04:00:00Z,VFR,15,11,77,260,7,24100,29.89,NA,SCT  ft; SCT  ft; BKN  ft,CYUL 060800Z 26007KT 15SM SCT060 SCT120 BKN250 15/11 A2989 RMK SC3AC1CI2 SLP123,2025-09-06T08:25:13Z,2025-09-06T04:25:13Z
CYUL,2025-09-06T09:00:00Z,2025-09-06T05:00:00Z,VFR,14,10,77,260,5,24100,29.9,NA,FEW  ft; FEW  ft,CYUL 060900Z 26005KT 15SM FEW025 FEW250 14/10 A2990 RMK CF1CI1 CF TR SLP127,2025-09-06T09:19:48Z,2025-09-06T05:19:48Z
CYUL,2025-09-06T10:00:00Z,2025-09-06T06:00:00Z,VFR,14,9,72,290,2,24100,29.91,NA,SCT  ft; SCT  ft,CYUL 061000Z 29002KT 15SM SCT060 SCT120 14/09 A2991 RMK SC3AC1 SLP131,2025-09-06T10:20:31Z,2025-09-06T06:20:31Z
CYUL,2025-09-06T11:00:00Z,2025-09-06T07:00:00Z,VFR,15,10,72,260,2,48300,29.91,NA,FEW  ft; FEW  ft; OVC  ft,CYUL 061100Z 26002KT 30SM FEW030 FEW050 OVC150 15/10 A2991 RMK CF1SC1AC7 CF TR SLP131,2025-09-06T11:16:02Z,2025-09-06T07:16:02Z
CYUL,2025-09-06T12:00:00Z,2025-09-06T08:00:00Z,VFR,15,12,82,190,10,24100,29.94,NA,FEW  ft; OVC  ft,CYUL 061200Z CCA 19010KT 15SM -RA FEW030 OVC100 15/12 A2994 RMK CF1AC8 CF TR SLP140,2025-09-06T12:40:02Z,2025-09-06T08:40:02Z
CYUL,2025-09-06T13:05:00Z,2025-09-06T09:05:00Z,VFR,16,12,77,210,9,24100,29.95,NA,OVC  ft,CYUL 061305Z 21009KT 15SM -RA OVC110 16/12 A2995 RMK AC8 -RA INTMT SLP145,2025-09-06T13:22:41Z,2025-09-06T09:22:41Z
CYUL,2025-09-06T14:00:00Z,2025-09-06T10:00:00Z,VFR,15,11,77,210,13,24100,29.95,NA,FEW  ft; OVC  ft,CYUL 061400Z 21013KT 15SM -RA FEW020 OVC120 15/11 A2995 RMK CF1AC8 CF TR SLP144,2025-09-06T14:18:40Z,2025-09-06T10:18:40Z
CYUL,2025-09-06T14:19:00Z,2025-09-06T10:19:00Z,VFR,15,10,72,220,13,24100,29.94,NA,FEW  ft; OVC  ft,CYUL 061419Z 22013KT 15SM FEW020 OVC120 15/10 A2994 RMK CF1AC8 CF TR SLP142,2025-09-06T14:38:53Z,2025-09-06T10:38:53Z
CYUL,2025-09-06T15:00:00Z,2025-09-06T11:00:00Z,VFR,16,10,68,250,10,24100,29.95,NA,FEW  ft; FEW  ft; OVC  ft,CYUL 061500Z 25010G16KT 15SM FEW030 FEW095 OVC110 16/10 A2995 RMK CF1AC2AC6 CF TR PRESRR SLP145,2025-09-06T15:19:25Z,2025-09-06T11:19:25Z
CYUL,2025-09-06T16:00:00Z,2025-09-06T12:00:00Z,VFR,16,11,72,230,12,24100,29.97,NA,BKN  ft; OVC  ft,CYUL 061600Z 23012KT 15SM BKN040 OVC100 16/11 A2997 RMK SC5AC3 SLP150,2025-09-06T16:24:54Z,2025-09-06T12:24:54Z
CYUL,2025-09-06T16:33:00Z,2025-09-06T12:33:00Z,VFR,16,11,72,230,10,24100,29.97,NA,SCT  ft; BKN  ft; OVC  ft,CYUL 061633Z CCA 23010KT 15SM -RA SCT035 BKN075 OVC100 16/11 A2997 RMK SC3AC4AC1 SLP150,2025-09-06T16:42:32Z,2025-09-06T12:42:32Z
CYUL,2025-09-06T17:00:00Z,2025-09-06T13:00:00Z,VFR,15,11,77,260,10,9700,29.96,NA,FEW  ft; BKN  ft; OVC  ft,CYUL 061700Z 26010G17KT 230V290 6SM -RA BR FEW030 BKN075 OVC100 15/11 A2996 RMK CU1AC6AC1 SLP148,2025-09-06T17:24:33Z,2025-09-06T13:24:33Z
CYUL,2025-09-06T18:00:00Z,2025-09-06T14:00:00Z,MVFR,14,12,88,250,7,12900,29.96,NA,BKN  ft; OVC  ft,CYUL 061800Z 25007KT 8SM BKN017 OVC070 14/12 A2996 RMK SC5AC3 SLP148,2025-09-06T18:32:26Z,2025-09-06T14:32:26Z
CYUL,2025-09-06T19:00:00Z,2025-09-06T15:00:00Z,MVFR,14,13,94,270,7,9999,29.95,NA,FEW  ft; BKN  ft; OVC  ft,CYUL 061900Z 27007KT 230V300 10SM -RA FEW011 BKN016 OVC070 14/13 A2995 RMK CU1SC7AC1 CU TR SLP144,2025-09-06T19:18:15Z,2025-09-06T15:18:15Z
CYUL,2025-09-06T19:32:00Z,2025-09-06T15:32:00Z,VFR,15,12,82,220,9,24100,29.93,NA,FEW  ft; SCT  ft; BKN  ft,CYUL 061932Z 22009KT 15SM FEW024 SCT030 BKN100 15/12 A2993 RMK CF1SC3AC3 SLP138,2025-09-06T19:41:25Z,2025-09-06T15:41:25Z
CYUL,2025-09-06T20:00:00Z,2025-09-06T16:00:00Z,VFR,16,13,83,230,7,24100,29.92,NA,FEW  ft; BKN  ft; BKN  ft,CYUL 062000Z 23007KT 15SM FEW018 BKN130 BKN220 16/13 A2992 RMK CF2AC4CC1 SLP136,2025-09-06T20:25:16Z,2025-09-06T16:25:16Z
CYUL,2025-09-06T21:00:00Z,2025-09-06T17:00:00Z,VFR,16,13,83,230,5,24100,29.92,NA,SCT  ft; SCT  ft; BKN  ft; BKN  ft,CYUL 062100Z 23005KT 15SM SCT020 SCT045 BKN130 BKN230 16/13 A2992 RMK SC3SC1AC2CC1 SLP134,2025-09-06T21:21:20Z,2025-09-06T17:21:20Z
CYUL,2025-09-06T22:00:00Z,2025-09-06T18:00:00Z,VFR,17,13,77,230,5,24100,29.94,NA,SCT  ft; SCT  ft; BKN  ft; BKN  ft,CYUL 062200Z 23005KT 15SM SCT025 SCT040 BKN070 BKN250 17/13 A2994 RMK SC3CU1AC1CI1 SLP140 DENSITY ALT 400FT,2025-09-06T22:23:58Z,2025-09-06T18:23:58Z
CYUL,2025-09-06T23:00:00Z,2025-09-06T19:00:00Z,VFR,17,12,73,230,7,24100,29.93,NA,FEW  ft; SCT  ft; BKN  ft,CYUL 062300Z 23007KT 15SM FEW025 SCT080 BKN250 17/12 A2993 RMK CF1AC3CI1 SLP139 DENSITY ALT 400FT,2025-09-06T23:22:38Z,2025-09-06T19:22:38Z
CYUL,2025-09-07T01:00:00Z,2025-09-06T21:00:00Z,VFR,16,13,83,180,7,24100,29.97,NA,BKN  ft,CYUL 070100Z 18007KT 15SM BKN250 16/13 A2997 RMK CI5 SLP150,2025-09-07T02:04:16Z,2025-09-06T22:04:16Z
CYUL,2025-09-07T02:00:00Z,2025-09-06T22:00:00Z,VFR,16,12,77,200,8,24100,29.97,NA,SCT  ft; BKN  ft,CYUL 070200Z 20008KT 15SM SCT043 BKN075 16/12 A2997 RMK CF3AC3 SLP151,2025-09-07T03:07:55Z,2025-09-06T23:07:55Z
CYUL,2025-09-07T03:00:00Z,2025-09-06T23:00:00Z,VFR,16,12,77,220,9,24100,29.97,NA,SCT  ft,CYUL 070300Z 22009KT 15SM SCT090 16/12 A2997 RMK AC4 SLP151,2025-09-07T03:38:09Z,2025-09-06T23:38:09Z
CYUL,2025-09-07T04:00:00Z,2025-09-07T00:00:00Z,VFR,15,12,82,210,11,24100,29.97,NA,SCT  ft,CYUL 070400Z 21011KT 15SM SCT120 15/12 A2997 RMK AC3 SLP152,2025-09-07T04:29:49Z,2025-09-07T00:29:49Z
CYUL,2025-09-07T05:00:00Z,2025-09-07T01:00:00Z,VFR,15,11,77,240,11,24100,29.97,NA,BKN  ft,CYUL 070500Z 24011G18KT 15SM BKN090 15/11 A2997 RMK AC5 SLP152,2025-09-07T05:25:35Z,2025-09-07T01:25:35Z
CYUL,2025-09-07T06:00:00Z,2025-09-07T02:00:00Z,VFR,13,10,82,310,3,24100,29.97,NA,SCT  ft,CYUL 070600Z 31003KT 250V330 15SM SCT090 13/10 A2997 RMK AC4 SLP151,2025-09-07T06:34:56Z,2025-09-07T02:34:56Z
CYUL,2025-09-07T07:00:00Z,2025-09-07T03:00:00Z,VFR,14,11,82,0,2,24100,29.95,NA,BKN  ft,CYUL 070700Z VRB02KT 15SM BKN090 14/11 A2995 RMK AC5 SLP144,2025-09-07T07:22:56Z,2025-09-07T03:22:56Z
CYUL,2025-09-07T08:00:00Z,2025-09-07T04:00:00Z,VFR,14,11,82,240,7,24100,29.95,NA,BKN  ft,CYUL 070800Z 24007KT 15SM BKN090 14/11 A2995 RMK AC7 SLP144,2025-09-07T08:29:58Z,2025-09-07T04:29:58Z
CYUL,2025-09-07T09:00:00Z,2025-09-07T05:00:00Z,VFR,14,11,82,270,3,24100,29.95,NA,OVC  ft,CYUL 070900Z 27003KT 15SM OVC095 14/11 A2995 RMK AC8 SLP144,2025-09-07T09:23:42Z,2025-09-07T05:23:42Z
CYUL,2025-09-07T10:00:00Z,2025-09-07T06:00:00Z,VFR,15,11,77,220,6,24100,29.95,NA,OVC  ft,CYUL 071000Z 22006KT 190V270 15SM OVC080 15/11 A2995 RMK AC8 SLP146,2025-09-07T10:26:13Z,2025-09-07T06:26:13Z
CYUL,2025-09-07T11:00:00Z,2025-09-07T07:00:00Z,VFR,14,11,82,150,3,48300,29.96,NA,SCT  ft; BKN  ft,CYUL 071100Z 15003KT 140V220 30SM SCT065 BKN120 14/11 A2996 RMK SC4AC2 SLP149,2025-09-07T11:19:25Z,2025-09-07T07:19:25Z
CYUL,2025-09-07T12:00:00Z,2025-09-07T08:00:00Z,VFR,15,12,82,260,4,48300,29.97,NA,SCT  ft; BKN  ft; BKN  ft,CYUL 071200Z 26004KT 200V270 30SM SCT018 BKN130 BKN250 15/12 A2997 RMK SC4AC2CI1 SLP152,2025-09-07T12:48:17Z,2025-09-07T08:48:17Z
CYUL,2025-09-07T13:00:00Z,2025-09-07T09:00:00Z,VFR,15,10,72,200,8,48300,29.97,NA,FEW  ft; FEW  ft; BKN  ft; BKN  ft,CYUL 071300Z 20008KT 30SM FEW020 FEW050 BKN110 BKN250 15/10 A2997 RMK CF1SC1AC6CI1 CF TR CI TR SLP152,2025-09-07T13:26:46Z,2025-09-07T09:26:46Z
CYUL,2025-09-07T14:00:00Z,2025-09-07T10:00:00Z,VFR,17,12,73,210,6,48300,29.97,NA,FEW  ft; FEW  ft; SCT  ft; BKN  ft,CYUL 071400Z 21006KT 30SM FEW020 FEW090 SCT110 BKN250 17/12 A2997 RMK CF1AC2AC2CI1 CF TR SLP151,2025-09-07T14:23:05Z,2025-09-07T10:23:05Z
CYUL,2025-09-07T15:00:00Z,2025-09-07T11:00:00Z,VFR,18,12,68,200,9,48300,29.97,NA,FEW  ft; BKN  ft; BKN  ft,CYUL 071500Z 20009KT 30SM FEW025 BKN110 BKN250 18/12 A2997 RMK CU1AC4CI1 CI TR SLP150 DENSITY ALT 500FT,2025-09-07T15:23:38Z,2025-09-07T11:23:38Z
CYUL,2025-09-07T16:00:00Z,2025-09-07T12:00:00Z,VFR,19,11,60,220,12,48300,29.96,NA,SCT  ft; BKN  ft; BKN  ft,CYUL 071600Z 22012G17KT 30SM SCT025TCU BKN110 BKN250 19/11 A2996 RMK TCU3AC2CI1 CI TR SLP148 DENSITY ALT 600FT,2025-09-07T16:29:11Z,2025-09-07T12:29:11Z
CYUL,2025-09-07T16:26:00Z,2025-09-07T12:26:00Z,VFR,18,11,64,240,16,48300,29.96,NA,SCT  ft; BKN  ft; BKN  ft,CYUL 071626Z 24016G22KT 30SM -SHRA SCT025TCU BKN075 BKN250 18/11 A2996 RMK TCU3AC2CI1 SLP148 DENSITY ALT 500FT,2025-09-07T16:44:42Z,2025-09-07T12:44:42Z
CYUL,2025-09-07T17:00:00Z,2025-09-07T13:00:00Z,VFR,18,9,56,240,18,24100,29.96,NA,FEW  ft; BKN  ft; BKN  ft; BKN  ft,CYUL 071700Z 24018G23KT 15SM -SHRA FEW025TCU BKN040 BKN070 BKN230 18/09 A2996 RMK TCU1SC4AC1CI1 SLP147 DENSITY ALT 500FT,2025-09-07T17:21:33Z,2025-09-07T13:21:33Z
CYUL,2025-09-07T18:00:00Z,2025-09-07T14:00:00Z,VFR,19,10,56,240,18,24100,29.95,NA,FEW  ft; BKN  ft; BKN  ft; BKN  ft,CYUL 071800Z 24018G24KT 15SM FEW035 BKN075 BKN120 BKN230 19/10 A2995 RMK SC1AC4AC2CC1 CC TR SLP144 DENSITY ALT 600FT,2025-09-07T18:32:54Z,2025-09-07T14:32:54Z
CYUL,2025-09-07T18:32:00Z,2025-09-07T14:32:00Z,VFR,18,11,64,220,17,24100,29.95,NA,FEW  ft; FEW  ft; BKN  ft; BKN  ft,CYUL 071832Z 22017G26KT 15SM -SHRA FEW010 FEW030 BKN070 BKN120 BKN230 18/11 A2995 RMK CF1CU1AC4AC2CC1 CF TR SLP144 DENSITY ALT 500FT,2025-09-07T18:45:33Z,2025-09-07T14:45:33Z
CYUL,2025-09-07T19:00:00Z,2025-09-07T15:00:00Z,VFR,18,11,64,230,16,24100,29.95,NA,FEW  ft; BKN  ft; BKN  ft; BKN  ft,CYUL 071900Z 23016KT 15SM FEW020 BKN090 BKN120 BKN230 18/11 A2995 RMK CU1AC4AC2CC1 CC TR SLP144 DENSITY ALT 500FT,2025-09-07T19:18:51Z,2025-09-07T15:18:51Z
CYUL,2025-09-07T20:00:00Z,2025-09-07T16:00:00Z,VFR,18,11,64,240,15,24100,29.95,NA,SCT  ft; BKN  ft; BKN  ft,CYUL 072000Z 24015KT 15SM -SHRA SCT040TCU BKN075 BKN250 18/11 A2995 RMK TCU3AC3CI1 SLP145 DENSITY ALT 500FT,2025-09-07T20:25:53Z,2025-09-07T16:25:53Z
CYUL,2025-09-07T20:26:00Z,2025-09-07T16:26:00Z,VFR,18,12,68,230,12,24100,29.96,NA,SCT  ft; BKN  ft; BKN  ft,CYUL 072026Z 23012KT 15SM SCT040TCU BKN100 BKN230 18/12 A2996 RMK TCU4AC3CC1 CC TR SLP148 DENSITY ALT 500FT,2025-09-07T20:42:10Z,2025-09-07T16:42:10Z
CYUL,2025-09-07T21:00:00Z,2025-09-07T17:00:00Z,VFR,17,11,68,220,10,24100,29.96,NA,FEW  ft; BKN  ft; BKN  ft,CYUL 072100Z 22010G16KT 15SM FEW035TCU BKN075 BKN250 17/11 A2996 RMK TCU2AC3CI1 CI TR SLP149 DENSITY ALT 400FT,2025-09-07T21:21:35Z,2025-09-07T17:21:35Z
CYUY,2025-09-05T21:50:00Z,2025-09-05T17:50:00Z,MVFR,12,11,94,230,23,24100,29.42,NA,SCT  ft; BKN  ft; BKN  ft,CYUY 052150Z 23023G37KT 15SM SCT020TCU BKN030 BKN100 12/11 A2942 RMK TCU3CU3AC1 PRESRR SLP972 DENSITY ALT 1500FT,2025-09-05T22:02:55Z,2025-09-05T18:02:55Z
CYUY,2025-09-05T22:09:00Z,2025-09-05T18:09:00Z,MVFR,12,9,82,260,21,24100,29.44,NA,BKN  ft; BKN  ft,CYUY 052209Z 26021G33KT 15SM -SHRA BKN020TCU BKN070 12/09 A2944 RMK TCU6AC1 PRESRR SLP979 DENSITY ALT 1400FT,2025-09-05T22:18:46Z,2025-09-05T18:18:46Z
CYUY,2025-09-05T22:19:00Z,2025-09-05T18:19:00Z,VFR,11,9,88,260,21,24100,29.45,NA,SCT  ft; BKN  ft; BKN  ft,CYUY 052219Z 26021G39KT 15SM SCT023TCU BKN050 BKN070 11/09 A2945 RMK TCU4SC1AC1 PRESRR SLP984 DENSITY ALT 1400FT,2025-09-05T22:40:52Z,2025-09-05T18:40:52Z
CYUY,2025-09-05T23:00:00Z,2025-09-05T19:00:00Z,VFR,11,8,82,250,12,24100,29.49,NA,FEW  ft; SCT  ft; SCT  ft,CYUY 052300Z 25012G19KT 15SM FEW024 SCT050 SCT070 11/08 A2949 RMK CU1SC2AC1 AC TR SLP996 DENSITY ALT 1200FT,2025-09-05T23:20:08Z,2025-09-05T19:20:08Z
CYUY,2025-09-06T01:00:00Z,2025-09-05T21:00:00Z,VFR,9,6,82,250,17,24100,29.57,NA,BKN  ft,CYUY 060100Z 25017G27KT 15SM -SHRA BKN045 09/06 A2957 RMK SC5 CVCTV CLD EMBD SLP022,2025-09-06T01:42:37Z,2025-09-05T21:42:37Z
CYUY,2025-09-06T02:00:00Z,2025-09-05T22:00:00Z,VFR,8,5,82,250,11,24100,29.59,NA,FEW  ft; BKN  ft; BKN  ft,CYUY 060200Z 25011KT 15SM FEW040 BKN090 BKN140 08/05 A2959 RMK SC1AC4AC1 AC TR SLP032,2025-09-06T02:56:37Z,2025-09-05T22:56:37Z
CYUY,2025-09-06T03:00:00Z,2025-09-05T23:00:00Z,VFR,8,5,82,220,7,24100,29.6,NA,BKN  ft; BKN  ft; OVC  ft,CYUY 060300Z 22007KT 15SM BKN040 BKN090 OVC210 08/05 A2960 RMK SC6AC1CI1 SLP034,2025-09-06T03:30:47Z,2025-09-05T23:30:47Z
CYUY,2025-09-06T04:14:00Z,2025-09-06T00:14:00Z,VFR,8,6,87,220,7,24100,29.62,NA,FEW  ft; OVC  ft,CYUY 060414Z 22007KT 15SM -SHRA FEW033 OVC075 08/06 A2962 RMK SC2AS6 CVCTV CLD EMBD SLP039,2025-09-06T04:25:47Z,2025-09-06T00:25:47Z
CYUY,2025-09-06T05:00:00Z,2025-09-06T01:00:00Z,VFR,8,6,87,220,12,24100,29.62,NA,BKN  ft,CYUY 060500Z 22012KT 15SM -SHRA BKN050 08/06 A2962 RMK SC7 CVCTV CLD EMBD SLP040,2025-09-06T05:19:58Z,2025-09-06T01:19:58Z
CYUY,2025-09-06T06:00:00Z,2025-09-06T02:00:00Z,VFR,8,6,87,210,8,24100,29.63,NA,SCT  ft; BKN  ft; BKN  ft,CYUY 060600Z 21008KT 15SM -SHRA SCT030 BKN100 BKN130 08/06 A2963 RMK SC3AC2AS2 SLP044,2025-09-06T06:29:50Z,2025-09-06T02:29:50Z
CYUY,2025-09-06T07:00:00Z,2025-09-06T03:00:00Z,MVFR,8,6,87,220,10,24100,29.64,NA,BKN  ft; BKN  ft,CYUY 060700Z 22010G17KT 15SM BKN030 BKN140 08/06 A2964 RMK SC6AC1 SLP047,2025-09-06T07:18:43Z,2025-09-06T03:18:43Z
CYUY,2025-09-06T08:00:00Z,2025-09-06T04:00:00Z,MVFR,9,6,82,230,11,24100,29.66,NA,BKN  ft; BKN  ft,CYUY 060800Z 23011KT 15SM BKN028 BKN110 09/06 A2966 RMK SC6AC1 SLP052,2025-09-06T08:25:13Z,2025-09-06T04:25:13Z
CYUY,2025-09-06T09:00:00Z,2025-09-06T05:00:00Z,VFR,9,6,82,230,10,24100,29.68,NA,OVC  ft,CYUY 060900Z 23010KT 15SM OVC031 09/06 A2968 RMK SC8 SLP058,2025-09-06T09:19:48Z,2025-09-06T05:19:48Z
CYUY,2025-09-06T09:20:00Z,2025-09-06T05:20:00Z,MVFR,9,6,82,230,11,24100,29.68,NA,OVC  ft,CYUY 060920Z 23011KT 15SM -SHRA OVC025 09/06 A2968 RMK SC8 CVCTV CLD EMBD SLP058,2025-09-06T09:38:42Z,2025-09-06T05:38:42Z
CYUY,2025-09-06T10:00:00Z,2025-09-06T06:00:00Z,VFR,9,6,82,220,12,24100,29.68,NA,OVC  ft,CYUY 061000Z 22012G19KT 15SM OVC035 09/06 A2968 RMK SC8 SLP060,2025-09-06T10:20:32Z,2025-09-06T06:20:32Z
CYUY,2025-09-06T11:00:00Z,2025-09-06T07:00:00Z,MVFR,9,6,82,230,13,24100,29.7,NA,BKN  ft; OVC  ft,CYUY 061100Z 23013KT 15SM BKN021 OVC035 09/06 A2970 RMK SF5SC3 SLP068,2025-09-06T11:16:02Z,2025-09-06T07:16:02Z
CYUY,2025-09-06T12:00:00Z,2025-09-06T08:00:00Z,MVFR,9,6,82,250,14,24100,29.72,NA,FEW  ft; BKN  ft; BKN  ft; BKN  ft,CYUY 061200Z 25014G19KT 15SM FEW020 BKN025 BKN120 BKN240 09/06 A2972 RMK ST2SC3AC2CI1 CI TR SLP075,2025-09-06T12:40:02Z,2025-09-06T08:40:02Z
CYUY,2025-09-06T13:00:00Z,2025-09-06T09:00:00Z,MVFR,10,6,76,250,12,24100,29.75,NA,BKN  ft; BKN  ft; BKN  ft; BKN  ft,CYUY 061300Z 25012G19KT 15SM BKN023 BKN034 BKN180 BKN220 10/06 A2975 RMK SC5SC1AC1CI1 CI TR SLP083,2025-09-06T13:22:41Z,2025-09-06T09:22:41Z
CYUY,2025-09-06T14:00:00Z,2025-09-06T10:00:00Z,MVFR,10,5,71,290,12,24100,29.77,NA,BKN  ft,CYUY 061400Z 29012G18KT 15SM BKN021 10/05 A2977 RMK SC7 SLP090,2025-09-06T14:18:40Z,2025-09-06T10:18:40Z
CYUY,2025-09-06T15:00:00Z,2025-09-06T11:00:00Z,MVFR,10,5,71,260,9,24100,29.78,NA,BKN  ft,CYUY 061500Z 26009KT 15SM BKN024 10/05 A2978 RMK SC7 SLP096,2025-09-06T15:19:25Z,2025-09-06T11:19:25Z
CYUY,2025-09-06T16:00:00Z,2025-09-06T12:00:00Z,MVFR,12,5,63,240,12,24100,29.79,NA,BKN  ft,CYUY 061600Z 24012G17KT 220V280 15SM BKN030 12/05 A2979 RMK SC7 SLP097,2025-09-06T16:24:54Z,2025-09-06T12:24:54Z
CYUY,2025-09-06T17:00:00Z,2025-09-06T13:00:00Z,MVFR,12,6,67,270,7,24100,29.8,NA,BKN  ft; BKN  ft; BKN  ft,CYUY 061700Z 27007KT 240V300 15SM BKN030 BKN044 BKN220 12/06 A2980 RMK SC5SC1CI1 SLP100,2025-09-06T17:24:33Z,2025-09-06T13:24:33Z
CYUY,2025-09-06T18:00:00Z,2025-09-06T14:00:00Z,VFR,13,6,63,300,9,24100,29.8,NA,SCT  ft; BKN  ft,CYUY 061800Z 30009G15KT 15SM SCT030 BKN240 13/06 A2980 RMK SC4CI3 CU ASOCTD SLP103,2025-09-06T18:32:27Z,2025-09-06T14:32:27Z
CYUY,2025-09-06T19:00:00Z,2025-09-06T15:00:00Z,VFR,12,6,67,270,8,24100,29.81,NA,BKN  ft; BKN  ft; BKN  ft,CYUY 061900Z 27008KT 240V320 15SM BKN031 BKN050 BKN220 12/06 A2981 RMK SC5SC2CI1 CI TR CU ASOCTD SLP106,2025-09-06T19:18:16Z,2025-09-06T15:18:16Z
CYUY,2025-09-06T20:00:00Z,2025-09-06T16:00:00Z,VFR,13,5,59,280,9,24100,29.82,NA,SCT  ft; BKN  ft; BKN  ft,CYUY 062000Z 28009KT 250V330 15SM SCT035 BKN062 BKN220 13/05 A2982 RMK CU4SC2CI1 SLP108 DENSITY ALT 1200FT,2025-09-06T20:25:17Z,2025-09-06T16:25:17Z
CYUY,2025-09-06T21:00:00Z,2025-09-06T17:00:00Z,VFR,11,7,77,290,7,24100,29.84,NA,SCT  ft; BKN  ft; BKN  ft,CYUY 062100Z 29007KT 15SM -SHRA SCT035 BKN062 BKN120 11/07 A2984 RMK CU3SC2AC2 SLP116,2025-09-06T21:21:21Z,2025-09-06T17:21:21Z
CYUY,2025-09-06T22:00:00Z,2025-09-06T18:00:00Z,VFR,12,7,72,250,7,24100,29.85,NA,SCT  ft; BKN  ft,CYUY 062200Z 25007KT 15SM -SHRA SCT045 BKN100 12/07 A2985 RMK CU3AC4 SLP119,2025-09-06T22:23:59Z,2025-09-06T18:23:59Z
CYUY,2025-09-06T23:00:00Z,2025-09-06T19:00:00Z,VFR,11,7,77,230,4,24100,29.85,NA,FEW  ft; BKN  ft,CYUY 062300Z 23004KT 15SM FEW045 BKN095 11/07 A2985 RMK CU1AC7 CU TR SLP119,2025-09-06T23:22:38Z,2025-09-06T19:22:38Z
CYUY,2025-09-07T01:00:00Z,2025-09-06T21:00:00Z,VFR,10,7,82,190,3,24100,29.87,NA,BKN  ft,CYUY 070100Z 19003KT 15SM BKN093 10/07 A2987 RMK AC7 SLP124,2025-09-07T02:04:16Z,2025-09-06T22:04:16Z
CYUY,2025-09-07T02:00:00Z,2025-09-06T22:00:00Z,VFR,10,7,82,140,2,24100,29.86,NA,BKN  ft,CYUY 070200Z 14002KT 15SM BKN048 10/07 A2986 RMK SC7 SLP123,2025-09-07T03:07:56Z,2025-09-06T23:07:56Z
CYUY,2025-09-07T03:19:00Z,2025-09-06T23:19:00Z,VFR,9,8,94,0,2,24100,29.88,NA,OVC  ft,CYUY 070319Z VRB02KT 15SM -SHRA OVC040 09/08 A2988 RMK SC8 CVCTV CLD EMBD SLP128,2025-09-07T03:38:09Z,2025-09-06T23:38:09Z
CYUY,2025-09-07T04:00:00Z,2025-09-07T00:00:00Z,VFR,9,8,94,260,3,24100,29.88,NA,OVC  ft,CYUY 070400Z 26003KT 210V270 15SM OVC032 09/08 A2988 RMK SC8 SLP128,2025-09-07T04:29:50Z,2025-09-07T00:29:50Z
CYUY,2025-09-07T05:00:00Z,2025-09-07T01:00:00Z,VFR,9,7,87,0,0,24100,29.87,NA,OVC  ft,CYUY 070500Z 00000KT 15SM OVC038 09/07 A2987 RMK SC8 SLP126,2025-09-07T05:25:35Z,2025-09-07T01:25:35Z
CYUY,2025-09-07T05:39:00Z,2025-09-07T01:39:00Z,VFR,9,8,94,0,2,24100,29.87,NA,OVC  ft,CYUY 070539Z VRB02KT 15SM -SHRA OVC035 09/08 A2987 RMK SC8 CVCTV CLD EMBD SLP125,2025-09-07T05:42:22Z,2025-09-07T01:42:22Z
CYUY,2025-09-07T06:00:00Z,2025-09-07T02:00:00Z,VFR,9,8,94,0,0,24100,29.87,NA,OVC  ft,CYUY 070600Z 00000KT 15SM -SHRA OVC035 09/08 A2987 RMK SC8 CVCTV CLD EMBD SLP124,2025-09-07T06:34:56Z,2025-09-07T02:34:56Z
CYUY,2025-09-07T07:00:00Z,2025-09-07T03:00:00Z,VFR,9,9,100,290,3,24100,29.86,NA,OVC  ft,CYUY 070700Z 29003KT 15SM -SHRA OVC035 09/09 A2986 RMK SC8 CVCTV CLD EMBD SLP122,2025-09-07T07:22:56Z,2025-09-07T03:22:56Z
CYUY,2025-09-07T08:00:00Z,2025-09-07T04:00:00Z,MVFR,8,8,100,270,3,11300,29.86,NA,OVC  ft,CYUY 070800Z 27003KT 7SM -SHRA OVC030 08/08 A2986 RMK SC8 CVCTV CLD EMBD SLP121,2025-09-07T08:29:58Z,2025-09-07T04:29:58Z
CYUY,2025-09-07T09:00:00Z,2025-09-07T05:00:00Z,VFR,8,8,100,240,3,24100,29.86,NA,SCT  ft; OVC  ft,CYUY 070900Z 24003KT 15SM -SHRA SCT010 OVC045 08/08 A2986 RMK SC3SC5 SLP123,2025-09-07T09:23:43Z,2025-09-07T05:23:43Z
CYUY,2025-09-07T10:12:00Z,2025-09-07T06:12:00Z,MVFR,8,8,100,250,5,24100,29.86,NA,BKN  ft; OVC  ft,CYUY 071012Z 25005KT 15SM -SHRA BKN010 OVC050 08/08 A2986 RMK SC5SC3 CVCTV CLD EMBD SLP123,2025-09-07T10:26:13Z,2025-09-07T06:26:13Z
CYUY,2025-09-07T10:25:00Z,2025-09-07T06:25:00Z,MVFR,8,8,100,250,5,24100,29.87,NA,BKN  ft; OVC  ft,CYUY 071025Z 25005KT 15SM BKN011 OVC060 08/08 A2987 RMK SC6SC2 SLP124,2025-09-07T10:42:06Z,2025-09-07T06:42:06Z
CYUY,2025-09-07T11:00:00Z,2025-09-07T07:00:00Z,MVFR,8,8,100,270,5,24100,29.87,NA,OVC  ft,CYUY 071100Z 27005KT 15SM OVC010 08/08 A2987 RMK SF8 SLP127,2025-09-07T11:19:25Z,2025-09-07T07:19:25Z
CYUY,2025-09-07T11:23:00Z,2025-09-07T07:23:00Z,IFR,8,8,100,270,5,24100,29.88,NA,OVC  ft,CYUY 071123Z 27005KT 15SM OVC008 08/08 A2988 RMK SF8 SLP128,2025-09-07T11:41:30Z,2025-09-07T07:41:30Z
CYUY,2025-09-07T12:19:00Z,2025-09-07T08:19:00Z,MVFR,8,8,100,260,7,24100,29.9,NA,SCT  ft; BKN  ft; BKN  ft,CYUY 071219Z 26007KT 15SM SCT008 BKN025 BKN100 08/08 A2990 RMK ST3SC4AC1 AC TR VIS LWR S SLP135,2025-09-07T12:48:18Z,2025-09-07T08:48:18Z
CYUY,2025-09-07T13:00:00Z,2025-09-07T09:00:00Z,IFR,9,8,94,270,8,24100,29.91,NA,BKN  ft; OVC  ft,CYUY 071300Z 27008KT 15SM BKN008 OVC028 09/08 A2991 RMK ST6SC2 SLP139,2025-09-07T13:26:46Z,2025-09-07T09:26:46Z
CYUY,2025-09-07T13:38:00Z,2025-09-07T09:38:00Z,VFR,9,8,94,280,6,24100,29.91,NA,SCT  ft; BKN  ft; BKN  ft,CYUY 071338Z 28006KT 15SM SCT008 BKN044 BKN120 09/08 A2991 RMK CF4SC3AC1 AC TR SLP141,2025-09-07T13:42:03Z,2025-09-07T09:42:03Z
CYUY,2025-09-07T14:00:00Z,2025-09-07T10:00:00Z,VFR,9,8,94,270,8,24100,29.91,NA,SCT  ft; BKN  ft; BKN  ft,CYUY 071400Z 27008KT 15SM SCT008 BKN044 BKN240 09/08 A2991 RMK CF4SC3CI1 CI TR SLP141,2025-09-07T14:23:06Z,2025-09-07T10:23:06Z
CYUY,2025-09-07T15:00:00Z,2025-09-07T11:00:00Z,MVFR,11,7,77,270,9,24100,29.93,NA,BKN  ft; BKN  ft; BKN  ft,CYUY 071500Z 27009KT 240V310 15SM BKN016 BKN160 BKN220 11/07 A2993 RMK CU7AC1CI1 AC TR CI TR SLP144,2025-09-07T15:23:38Z,2025-09-07T11:23:38Z
CYUY,2025-09-07T16:00:00Z,2025-09-07T12:00:00Z,VFR,10,6,76,280,9,24100,29.94,NA,SCT  ft; BKN  ft,CYUY 071600Z 28009G15KT 15SM SCT021 BKN040 10/06 A2994 RMK CU4SC3 SLP148,2025-09-07T16:29:11Z,2025-09-07T12:29:11Z
CYUY,2025-09-07T17:00:00Z,2025-09-07T13:00:00Z,VFR,12,6,67,250,12,24100,29.93,NA,SCT  ft; BKN  ft,CYUY 071700Z 25012KT 15SM SCT027 BKN045 12/06 A2993 RMK CU4SC2 SLP146,2025-09-07T17:21:33Z,2025-09-07T13:21:33Z
CYUY,2025-09-07T17:32:00Z,2025-09-07T13:32:00Z,VFR,12,6,67,250,15,24100,29.93,NA,SCT  ft; BKN  ft; BKN  ft,CYUY 071732Z 25015G20KT 15SM -SHRA SCT033 BKN048 BKN100 12/06 A2993 RMK CU4SC2AC1 AC TR SLP145,2025-09-07T17:41:29Z,2025-09-07T13:41:29Z
CYUY,2025-09-07T18:11:00Z,2025-09-07T14:11:00Z,VFR,9,6,82,310,11,24100,29.94,NA,SCT  ft; BKN  ft; BKN  ft; BKN  ft,CYUY 071811Z 31011G19KT 250V330 15SM -SHRA SCT030 BKN050 BKN160 BKN240 09/06 A2994 RMK CU4SC2AC1CI1 CI TR TCU ASOCTD SLP152,2025-09-07T18:32:54Z,2025-09-07T14:32:54Z
CYUY,2025-09-07T19:00:00Z,2025-09-07T15:00:00Z,VFR,11,6,72,330,11,24100,29.94,NA,SCT  ft; BKN  ft; BKN  ft,CYUY 071900Z 33011KT 270V340 15SM -SHRA SCT030 BKN050 BKN140 11/06 A2994 RMK CU4SC1AC2 SLP151,2025-09-07T19:18:52Z,2025-09-07T15:18:52Z
CYUY,2025-09-07T20:14:00Z,2025-09-07T16:14:00Z,VFR,10,7,82,320,11,24100,29.96,NA,SCT  ft; BKN  ft; BKN  ft,CYUY 072014Z 32011KT 230V340 15SM SHRA SCT030TCU BKN150 BKN240 10/07 A2996 RMK TCU4AC2CI1 CI TR SLP155,2025-09-07T20:25:54Z,2025-09-07T16:25:54Z
CYUY,2025-09-07T20:23:00Z,2025-09-07T16:23:00Z,VFR,9,7,87,300,3,24100,29.95,NA,SCT  ft; SCT  ft; BKN  ft,CYUY 072023Z 30003KT 260V330 15SM -SHRA SCT030TCU SCT150 BKN240 09/07 A2995 RMK TCU3AC1CI1 SLP154,2025-09-07T20:42:10Z,2025-09-07T16:42:10Z
CYUY,2025-09-07T21:00:00Z,2025-09-07T17:00:00Z,VFR,11,7,77,270,8,24100,29.96,NA,FEW  ft; SCT  ft; SCT  ft,CYUY 072100Z 27008KT 15SM -SHRA FEW025TCU SCT150 SCT230 11/07 A2996 RMK TCU2AC1CI2 SLP156,2025-09-07T21:21:35Z,2025-09-07T17:21:35Z
CYVO,2025-09-05T21:33:00Z,2025-09-05T17:33:00Z,VFR,13,11,88,200,12,9999,29.44,NA,FEW  ft; SCT  ft; BKN  ft; BKN  ft,CYVO 052133Z 20012G19KT 10SM -SHRA FEW013 SCT026TCU BKN055 BKN090 13/11 A2944 RMK CF1TCU3SC2AC1 SLP980 DENSITY ALT 1700FT,2025-09-05T22:02:54Z,2025-09-05T18:02:54Z
CYVO,2025-09-05T22:00:00Z,2025-09-05T18:00:00Z,VFR,13,12,94,190,12,24100,29.45,NA,FEW  ft; BKN  ft; BKN  ft,CYVO 052200Z 19012G20KT 15SM FEW020 BKN033 BKN090 13/12 A2945 RMK CF2CU4AC1 SLP983 DENSITY ALT 1800FT,2025-09-05T22:18:46Z,2025-09-05T18:18:46Z
CYVO,2025-09-05T23:00:00Z,2025-09-05T19:00:00Z,MVFR,13,11,88,210,11,24100,29.48,NA,FEW  ft; BKN  ft; BKN  ft,CYVO 052300Z 21011G18KT 15SM FEW020 BKN026TCU BKN045 13/11 A2948 RMK CF2TCU4SC1 SLP995 DENSITY ALT 1600FT,2025-09-05T23:20:08Z,2025-09-05T19:20:08Z
CYVO,2025-09-05T23:19:00Z,2025-09-05T19:19:00Z,MVFR,12,10,88,260,11,19300,29.51,NA,FEW  ft; BKN  ft; BKN  ft,CYVO 052319Z 26011G18KT 180V290 12SM -SHRA FEW019 BKN027TCU BKN045 12/10 A2951 RMK CF2TCU4SC1 PRESRR SLP003 DENSITY ALT 1600FT,2025-09-05T23:39:29Z,2025-09-05T19:39:29Z
CYVO,2025-09-06T01:00:00Z,2025-09-05T21:00:00Z,VFR,10,9,94,210,6,24100,29.58,NA,FEW  ft; SCT  ft,CYVO 060100Z 21006KT 15SM FEW030 SCT075 10/09 A2958 RMK CU1AC2 SLP029,2025-09-06T01:42:37Z,2025-09-05T21:42:37Z
CYVO,2025-09-06T02:30:00Z,2025-09-05T22:30:00Z,VFR,9,7,87,230,7,14500,29.61,NA,FEW  ft; BKN  ft; BKN  ft,CYVO 060230Z AUTO 23007KT 9SM FEW033 BKN050 BKN091 09/07 A2961 RMK PCPN 0.8MM PAST HR SLP038,2025-09-06T02:56:37Z,2025-09-05T22:56:37Z
CYVO,2025-09-06T03:00:00Z,2025-09-05T23:00:00Z,VFR,9,8,94,210,4,14500,29.62,NA,SCT  ft; BKN  ft; BKN  ft; OVC  ft,CYVO 060300Z AUTO 21004KT 9SM SCT037 BKN046 BKN120 OVC220 09/08 A2962 RMK PCPN 0.8MM PAST HR SLP043,2025-09-06T03:30:47Z,2025-09-05T23:30:47Z
CYVO,2025-09-06T04:00:00Z,2025-09-06T00:00:00Z,VFR,9,7,87,220,6,14500,29.63,NA,BKN  ft; BKN  ft,CYVO 060400Z AUTO 22006KT 9SM BKN033 BKN045 09/07 A2963 RMK SLP045,2025-09-06T04:25:47Z,2025-09-06T00:25:47Z
CYVO,2025-09-06T05:00:00Z,2025-09-06T01:00:00Z,VFR,8,7,93,200,5,14500,29.65,NA,FEW  ft; SCT  ft; SCT  ft,CYVO 060500Z AUTO 20005KT 9SM FEW027 SCT120 SCT160 08/07 A2965 RMK SLP052,2025-09-06T05:19:57Z,2025-09-06T01:19:57Z
CYVO,2025-09-06T06:00:00Z,2025-09-06T02:00:00Z,VFR,8,7,93,190,6,14500,29.66,NA,SCT  ft; SCT  ft; OVC  ft,CYVO 060600Z AUTO 19006KT 9SM SCT041 SCT066 OVC099 08/07 A2966 RMK SLP056,2025-09-06T06:29:50Z,2025-09-06T02:29:50Z
CYVO,2025-09-06T07:00:00Z,2025-09-06T03:00:00Z,VFR,8,7,93,190,7,14500,29.67,NA,OVC  ft,CYVO 060700Z AUTO 19007KT 9SM OVC043 08/07 A2967 RMK SLP059,2025-09-06T07:18:43Z,2025-09-06T03:18:43Z
CYVO,2025-09-06T07:25:00Z,2025-09-06T03:25:00Z,VFR,8,7,93,200,7,14500,29.67,NA,FEW  ft; OVC  ft,CYVO 060725Z AUTO 20007KT 9SM -RA FEW034 OVC048 08/07 A2967 RMK SLP062,2025-09-06T07:39:09Z,2025-09-06T03:39:09Z
CYVO,2025-09-06T08:00:00Z,2025-09-06T04:00:00Z,VFR,8,7,93,200,7,14500,29.68,NA,FEW  ft; BKN  ft; OVC  ft,CYVO 060800Z AUTO 20007KT 9SM -RA FEW033 BKN040 OVC050 08/07 A2968 RMK SLP061,2025-09-06T08:25:13Z,2025-09-06T04:25:13Z
CYVO,2025-09-06T08:29:00Z,2025-09-06T04:29:00Z,MVFR,8,7,93,210,9,11300,29.69,NA,FEW  ft; SCT  ft; BKN  ft; OVC  ft,CYVO 060829Z AUTO 21009G17KT 7SM -RA FEW017 SCT023 BKN029 OVC046 08/07 A2969 RMK SLP068,2025-09-06T08:41:58Z,2025-09-06T04:41:58Z
CYVO,2025-09-06T09:00:00Z,2025-09-06T05:00:00Z,VFR,8,7,93,210,6,14500,29.7,NA,FEW  ft; SCT  ft; OVC  ft,CYVO 060900Z AUTO 21006KT 9SM FEW032 SCT043 OVC100 08/07 A2970 RMK PCPN 0.5MM PAST HR SLP068,2025-09-06T09:19:48Z,2025-09-06T05:19:48Z
CYVO,2025-09-06T10:00:00Z,2025-09-06T06:00:00Z,VFR,8,7,93,200,6,24100,29.72,NA,SCT  ft; BKN  ft,CYVO 061000Z 20006KT 15SM SCT041 BKN080 08/07 A2972 RMK SC4AC3 SLP074,2025-09-06T10:20:32Z,2025-09-06T06:20:32Z
CYVO,2025-09-06T11:00:00Z,2025-09-06T07:00:00Z,VFR,8,7,93,200,6,24100,29.72,NA,FEW  ft; BKN  ft; BKN  ft,CYVO 061100Z 20006KT 15SM FEW022 BKN044 BKN100 08/07 A2972 RMK SF1SC5AC1 SLP077,2025-09-06T11:16:02Z,2025-09-06T07:16:02Z
CYVO,2025-09-06T12:00:00Z,2025-09-06T08:00:00Z,VFR,9,7,87,200,7,24100,29.74,NA,FEW  ft; BKN  ft,CYVO 061200Z 20007KT 15SM FEW015 BKN040 09/07 A2974 RMK SF1SC6 SLP083,2025-09-06T12:40:02Z,2025-09-06T08:40:02Z
CYVO,2025-09-06T13:00:00Z,2025-09-06T09:00:00Z,VFR,10,7,82,210,9,24100,29.76,NA,FEW  ft; BKN  ft,CYVO 061300Z 21009KT 15SM FEW023 BKN037 10/07 A2976 RMK CF1SC6 SLP089,2025-09-06T13:22:41Z,2025-09-06T09:22:41Z
CYVO,2025-09-06T14:00:00Z,2025-09-06T10:00:00Z,MVFR,10,7,82,210,9,24100,29.77,NA,BKN  ft,CYVO 061400Z 21009G15KT 160V260 15SM BKN022 10/07 A2977 RMK SC7 SLP093,2025-09-06T14:18:40Z,2025-09-06T10:18:40Z
CYVO,2025-09-06T15:00:00Z,2025-09-06T11:00:00Z,MVFR,12,8,77,260,6,24100,29.78,NA,BKN  ft,CYVO 061500Z 26006KT 190V290 15SM BKN025 12/08 A2978 RMK SC7 SLP095,2025-09-06T15:19:25Z,2025-09-06T11:19:25Z
CYVO,2025-09-06T16:00:00Z,2025-09-06T12:00:00Z,VFR,12,6,67,250,12,24100,29.78,NA,BKN  ft; BKN  ft,CYVO 061600Z 25012KT 200V280 15SM BKN039 BKN055 12/06 A2978 RMK SC5SC1 TCU EMBD SLP095,2025-09-06T16:24:54Z,2025-09-06T12:24:54Z
CYVO,2025-09-06T16:38:00Z,2025-09-06T12:38:00Z,VFR,12,7,72,240,10,24100,29.79,NA,BKN  ft; BKN  ft,CYVO 061638Z 24010KT 180V250 15SM -SHRA BKN037TCU BKN055 12/07 A2979 RMK TCU5SC1 SLP100,2025-09-06T16:42:32Z,2025-09-06T12:42:32Z
CYVO,2025-09-06T17:00:00Z,2025-09-06T13:00:00Z,VFR,13,7,67,200,13,24100,29.79,NA,BKN  ft; BKN  ft,CYVO 061700Z 20013KT 15SM -SHRA BKN042TCU BKN074 13/07 A2979 RMK TCU5AC1 AC TR SLP100,2025-09-06T17:24:33Z,2025-09-06T13:24:33Z
CYVO,2025-09-06T18:00:00Z,2025-09-06T14:00:00Z,VFR,12,8,77,220,6,24100,29.8,NA,BKN  ft; BKN  ft,CYVO 061800Z 22006KT 15SM -SHRA BKN036TCU BKN170 12/08 A2980 RMK TCU5AC2 SLP103,2025-09-06T18:32:27Z,2025-09-06T14:32:27Z
CYVO,2025-09-06T19:00:00Z,2025-09-06T15:00:00Z,VFR,13,7,67,230,9,24100,29.81,NA,SCT  ft; BKN  ft; BKN  ft,CYVO 061900Z 23009G15KT 15SM VCSH SCT047 BKN065 BKN170 13/07 A2981 RMK CU3SC2AC2 SLP106,2025-09-06T19:18:15Z,2025-09-06T15:18:15Z
CYVO,2025-09-06T20:00:00Z,2025-09-06T16:00:00Z,VFR,11,9,88,250,10,24100,29.82,NA,FEW  ft; BKN  ft,CYVO 062000Z 25010G16KT 15SM -SHRA FEW036 BKN043 11/09 A2982 RMK CU2SC5 SLP112,2025-09-06T20:25:17Z,2025-09-06T16:25:17Z
CYVO,2025-09-06T20:21:00Z,2025-09-06T16:21:00Z,VFR,11,9,88,260,6,24100,29.83,NA,FEW  ft; BKN  ft,CYVO 062021Z 26006KT 15SM FEW039 BKN050 11/09 A2983 RMK CU1SC6 SLP114,2025-09-06T20:41:48Z,2025-09-06T16:41:48Z
CYVO,2025-09-06T21:00:00Z,2025-09-06T17:00:00Z,VFR,12,9,82,230,5,24100,29.84,NA,SCT  ft; BKN  ft; BKN  ft,CYVO 062100Z 23005KT 15SM SCT048TCU BKN065 BKN170 12/09 A2984 RMK TCU3SC2AC2 SLP117,2025-09-06T21:21:21Z,2025-09-06T17:21:21Z
CYVO,2025-09-06T22:00:00Z,2025-09-06T18:00:00Z,VFR,11,9,88,260,7,19300,29.86,NA,SCT  ft; BKN  ft; BKN  ft,CYVO 062200Z 26007KT 12SM -SHRA SCT035TCU BKN060 BKN170 11/09 A2986 RMK TCU3SC3AC1 SLP123,2025-09-06T22:23:59Z,2025-09-06T18:23:59Z
CYVO,2025-09-06T23:00:00Z,2025-09-06T19:00:00Z,VFR,11,9,88,220,3,24100,29.85,NA,FEW  ft; SCT  ft; BKN  ft; BKN  ft,CYVO 062300Z 22003KT 15SM FEW034 SCT055 BKN100 BKN180 11/09 A2985 RMK CU2SC2AC2AC1 SLP122,2025-09-06T23:22:38Z,2025-09-06T19:22:38Z
CYVO,2025-09-07T01:00:00Z,2025-09-06T21:00:00Z,VFR,10,9,94,0,0,24100,29.87,NA,FEW  ft; BKN  ft,CYVO 070100Z 00000KT 15SM FEW055 BKN090 10/09 A2987 RMK SC2AC4 SLP128,2025-09-07T02:04:16Z,2025-09-06T22:04:16Z
CYVO,2025-09-07T02:00:00Z,2025-09-06T22:00:00Z,VFR,10,9,94,0,2,24100,29.88,NA,BKN  ft,CYVO 070200Z VRB02KT 15SM BKN090 10/09 A2988 RMK AC6 LAST STFD OBS/NXT 071000Z SLP130,2025-09-07T03:07:56Z,2025-09-06T23:07:56Z
CYVO,2025-09-07T03:00:00Z,2025-09-06T23:00:00Z,VFR,9,8,94,200,2,14500,29.88,NA,OVC  ft,CYVO 070300Z AUTO 20002KT 9SM OVC100 09/08 A2988 RMK SLP132,2025-09-07T03:38:09Z,2025-09-06T23:38:09Z
CYVO,2025-09-07T04:00:00Z,2025-09-07T00:00:00Z,VFR,9,8,94,180,3,14500,29.89,NA,OVC  ft,CYVO 070400Z AUTO 18003KT 9SM OVC096 09/08 A2989 RMK SLP133,2025-09-07T04:29:50Z,2025-09-07T00:29:50Z
CYVO,2025-09-07T05:12:00Z,2025-09-07T01:12:00Z,VFR,9,8,94,160,4,14500,29.88,NA,SCT  ft; OVC  ft,CYVO 070512Z AUTO 16004KT 9SM SCT055 OVC095 09/08 A2988 RMK SLP132,2025-09-07T05:25:35Z,2025-09-07T01:25:35Z
CYVO,2025-09-07T06:14:00Z,2025-09-07T02:14:00Z,MVFR,9,8,94,180,5,14500,29.87,NA,BKN  ft; BKN  ft; OVC  ft,CYVO 070614Z AUTO 18005KT 9SM -RA BKN026 BKN039 OVC091 09/08 A2987 RMK SLP130,2025-09-07T06:34:56Z,2025-09-07T02:34:56Z
CYVO,2025-09-07T07:00:00Z,2025-09-07T03:00:00Z,VFR,9,9,100,190,5,14500,29.86,NA,BKN  ft; OVC  ft,CYVO 070700Z AUTO 19005KT 9SM -RA BKN045 OVC071 09/09 A2986 RMK SLP124,2025-09-07T07:22:56Z,2025-09-07T03:22:56Z
CYVO,2025-09-07T07:33:00Z,2025-09-07T03:33:00Z,MVFR,9,9,100,190,4,8000,29.86,NA,FEW  ft; SCT  ft; OVC  ft,CYVO 070733Z AUTO 19004KT 5SM -RA BR FEW023 SCT029 OVC040 09/09 A2986 RMK SLP125,2025-09-07T07:41:51Z,2025-09-07T03:41:51Z
CYVO,2025-09-07T08:18:00Z,2025-09-07T04:18:00Z,VFR,9,9,100,190,5,14500,29.85,NA,FEW  ft; BKN  ft; BKN  ft; OVC  ft,CYVO 070818Z AUTO 19005KT 9SM FEW015 BKN031 BKN048 OVC120 09/09 A2985 RMK SLP122,2025-09-07T08:29:58Z,2025-09-07T04:29:58Z
CYVO,2025-09-07T09:00:00Z,2025-09-07T05:00:00Z,MVFR,9,9,100,190,4,14500,29.86,NA,SCT  ft; BKN  ft; BKN  ft; OVC  ft,CYVO 070900Z AUTO 19004KT 9SM -RA SCT015 BKN030 BKN037 OVC050 09/09 A2986 RMK SLP122,2025-09-07T09:23:42Z,2025-09-07T05:23:42Z
CYVO,2025-09-07T09:21:00Z,2025-09-07T05:21:00Z,MVFR,9,9,100,190,3,14500,29.85,NA,SCT  ft; BKN  ft; BKN  ft; OVC  ft,CYVO 070921Z AUTO 19003KT 9SM -RA SCT012 BKN022 BKN029 OVC037 09/09 A2985 RMK SLP123,2025-09-07T09:41:33Z,2025-09-07T05:41:33Z
CYVO,2025-09-07T10:00:00Z,2025-09-07T06:00:00Z,IFR,9,9,100,210,5,24100,29.85,NA,BKN  ft; OVC  ft,CYVO 071000Z 21005KT 15SM -RA BKN008 OVC015 09/09 A2985 RMK SF6SC2 SLP122,2025-09-07T10:26:13Z,2025-09-07T06:26:13Z
CYVO,2025-09-07T11:00:00Z,2025-09-07T07:00:00Z,IFR,9,8,94,280,5,12900,29.86,NA,OVC  ft; OVC  ft,CYVO 071100Z 28005KT 250V320 8SM -RA OVC007 OVC014 09/08 A2986 RMK SF6SC2 SLP124,2025-09-07T11:19:25Z,2025-09-07T07:19:25Z
CYVO,2025-09-07T12:07:00Z,2025-09-07T08:07:00Z,IFR,9,8,94,250,6,20900,29.87,NA,BKN  ft; OVC  ft,CYVO 071207Z 25006KT 13SM BKN007 OVC015 09/08 A2987 RMK SF7SC1 SLP128,2025-09-07T12:48:18Z,2025-09-07T08:48:18Z
CYVO,2025-09-07T13:00:00Z,2025-09-07T09:00:00Z,IFR,9,8,94,250,7,24100,29.88,NA,BKN  ft; OVC  ft,CYVO 071300Z 25007KT 15SM BKN008 OVC012 09/08 A2988 RMK SF6SC2 SLP133,2025-09-07T13:26:46Z,2025-09-07T09:26:46Z
CYVO,2025-09-07T13:25:00Z,2025-09-07T09:25:00Z,MVFR,9,8,94,250,7,24100,29.89,NA,SCT  ft; BKN  ft,CYVO 071325Z 25007KT 15SM SCT010 BKN028 09/08 A2989 RMK SC4SC3 SLP135,2025-09-07T13:42:02Z,2025-09-07T09:42:02Z
CYVO,2025-09-07T14:00:00Z,2025-09-07T10:00:00Z,MVFR,9,8,94,250,7,19300,29.89,NA,BKN  ft; BKN  ft,CYVO 071400Z 25007KT 12SM -SHRA BKN010 BKN045 09/08 A2989 RMK CU6SC1 SLP136,2025-09-07T14:23:06Z,2025-09-07T10:23:06Z
CYVO,2025-09-07T15:00:00Z,2025-09-07T11:00:00Z,VFR,10,8,88,270,11,24100,29.9,NA,FEW  ft; BKN  ft,CYVO 071500Z 27011G17KT 15SM FEW012 BKN039 10/08 A2990 RMK CF2SC5 SLP139,2025-09-07T15:23:38Z,2025-09-07T11:23:38Z
CYVO,2025-09-07T16:00:00Z,2025-09-07T12:00:00Z,MVFR,10,7,82,260,8,24100,29.91,NA,BKN  ft; BKN  ft,CYVO 071600Z 26008KT 15SM VCSH BKN015 BKN038 10/07 A2991 RMK CU5SC2 SLP143,2025-09-07T16:29:11Z,2025-09-07T12:29:11Z
CYVO,2025-09-07T16:29:00Z,2025-09-07T12:29:00Z,MVFR,11,8,82,290,7,24100,29.92,NA,BKN  ft; BKN  ft,CYVO 071629Z 29007KT 230V310 15SM -SHRA BKN018 BKN047 11/08 A2992 RMK CU5SC2 SLP144,2025-09-07T16:44:43Z,2025-09-07T12:44:43Z
CYVO,2025-09-07T17:00:00Z,2025-09-07T13:00:00Z,MVFR,12,7,72,250,11,24100,29.91,NA,BKN  ft; BKN  ft,CYVO 071700Z 25011KT 230V290 15SM BKN023 BKN045 12/07 A2991 RMK CU5SC2 OCNL -SHRA SLP141,2025-09-07T17:21:33Z,2025-09-07T13:21:33Z
CYVO,2025-09-07T18:00:00Z,2025-09-07T14:00:00Z,VFR,10,7,82,250,10,24100,29.93,NA,SCT  ft; BKN  ft,CYVO 071800Z 25010G19KT 15SM -SHRA SCT025TCU BKN050 10/07 A2993 RMK TCU4SC3 SLP147,2025-09-07T18:32:54Z,2025-09-07T14:32:54Z
CYVO,2025-09-07T19:00:00Z,2025-09-07T15:00:00Z,VFR,13,5,59,220,10,24100,29.92,NA,SCT  ft; BKN  ft,CYVO 071900Z 22010G19KT 190V270 15SM -SHRA SCT032 BKN055 13/05 A2992 RMK CU3SC3 SLP145,2025-09-07T19:18:52Z,2025-09-07T15:18:52Z
CYVO,2025-09-07T20:20:00Z,2025-09-07T16:20:00Z,VFR,12,6,67,320,8,24100,29.93,NA,FEW  ft; BKN  ft,CYVO 072020Z 32008G15KT 250V340 15SM FEW040 BKN060 12/06 A2993 RMK CU2SC5 SLP149,2025-09-07T20:25:53Z,2025-09-07T16:25:53Z
CYVO,2025-09-07T21:00:00Z,2025-09-07T17:00:00Z,VFR,13,6,63,230,7,24100,29.94,NA,SCT  ft; BKN  ft; BKN  ft,CYVO 072100Z 23007KT 180V270 15SM VCSH SCT033 BKN055 BKN140 13/06 A2994 RMK CU3SC2AC1 SLP150,2025-09-07T21:21:35Z,2025-09-07T17:21:35Z
CYVR,2025-09-05T21:00:00Z,2025-09-05T17:00:00Z,VFR,21,19,88,250,4,32200,29.84,NA,FEW  ft; SCT  ft,CYVR 052100Z 25004KT 200V280 20SM FEW160 SCT210 21/19 A2984 RMK AC1CI3 AC TR HZ SLP106 DENSITY ALT 900FT,2025-09-05T22:02:53Z,2025-09-05T18:02:53Z
CYVR,2025-09-05T22:00:00Z,2025-09-05T18:00:00Z,VFR,22,19,83,240,6,24100,29.82,NA,FEW  ft; FEW  ft; SCT  ft,CYVR 052200Z 24006KT 15SM FEW110 FEW160 SCT220 22/19 A2982 RMK AC1AC1CI3 AC TR HZ SLP101 DENSITY ALT 900FT,2025-09-05T22:18:45Z,2025-09-05T18:18:45Z
CYVR,2025-09-05T23:00:00Z,2025-09-05T19:00:00Z,VFR,22,19,83,240,5,24100,29.81,NA,FEW  ft; FEW  ft,CYVR 052300Z 24005KT 210V280 15SM FEW110 FEW220 22/19 A2981 RMK AC1CI1 AC TR HZ SLP096 DENSITY ALT 1000FT,2025-09-05T23:20:07Z,2025-09-05T19:20:07Z
CYVR,2025-09-06T01:00:00Z,2025-09-05T21:00:00Z,VFR,21,17,78,230,3,19300,29.8,NA,FEW  ft,CYVR 060100Z 23003KT 200V270 12SM FEW220 21/17 A2980 RMK CI2 HZ SLP094 DENSITY ALT 900FT,2025-09-06T01:42:35Z,2025-09-05T21:42:35Z
CYVR,2025-09-06T02:00:00Z,2025-09-05T22:00:00Z,VFR,21,17,78,0,2,19300,29.8,NA,BKN  ft,CYVR 060200Z VRB02KT 12SM BKN220 21/17 A2980 RMK HZ4CI2 SLP092 DENSITY ALT 900FT,2025-09-06T02:56:35Z,2025-09-05T22:56:35Z
CYVR,2025-09-06T03:00:00Z,2025-09-05T23:00:00Z,VFR,19,17,88,0,0,19300,29.79,NA,BKN  ft; BKN  ft,CYVR 060300Z 00000KT 12SM BKN099 BKN220 19/17 A2979 RMK HZ4AC1CI2 SLP090 DENSITY ALT 700FT,2025-09-06T03:30:46Z,2025-09-05T23:30:46Z
CYVR,2025-09-06T04:00:00Z,2025-09-06T00:00:00Z,VFR,19,18,94,0,2,9999,29.8,NA,BKN  ft; BKN  ft,CYVR 060400Z VRB02KT 10SM BKN096 BKN220 19/18 A2980 RMK HZ3AC2CI1 SLP093 DENSITY ALT 700FT,2025-09-06T04:25:45Z,2025-09-06T00:25:45Z
CYVR,2025-09-06T05:00:00Z,2025-09-06T01:00:00Z,VFR,17,17,100,250,2,12900,29.81,NA,BKN  ft; BKN  ft,CYVR 060500Z 25002KT 8SM BKN088 BKN220 17/17 A2981 RMK HZ3AC2CI1 SLP096 DENSITY ALT 500FT,2025-09-06T05:19:56Z,2025-09-06T01:19:56Z
CYVR,2025-09-06T06:00:00Z,2025-09-06T02:00:00Z,VFR,19,17,88,130,2,12900,29.82,NA,SCT  ft; BKN  ft,CYVR 060600Z 13002KT 8SM SCT092 BKN220 19/17 A2982 RMK HZ2AC2CI1 SLP101 DENSITY ALT 600FT,2025-09-06T06:29:49Z,2025-09-06T02:29:49Z
CYVR,2025-09-06T07:00:00Z,2025-09-06T03:00:00Z,VFR,19,17,88,60,4,9999,29.83,NA,SCT  ft; SCT  ft,CYVR 060700Z 06004KT 10SM SCT098 SCT220 19/17 A2983 RMK HZ2AC1CI1 SLP103 DENSITY ALT 600FT,2025-09-06T07:18:41Z,2025-09-06T03:18:41Z
CYVR,2025-09-06T08:00:00Z,2025-09-06T04:00:00Z,VFR,18,16,88,90,4,9999,29.82,NA,SCT  ft; SCT  ft,CYVR 060800Z 09004KT 10SM SCT097 SCT220 18/16 A2982 RMK HZ1AC3CI1 CI TR SLP100 DENSITY ALT 500FT,2025-09-06T08:25:12Z,2025-09-06T04:25:12Z
CYVR,2025-09-06T09:00:00Z,2025-09-06T05:00:00Z,VFR,18,18,100,190,8,9999,29.84,NA,SCT  ft; SCT  ft,CYVR 060900Z 19008KT 10SM SCT097 SCT220 18/18 A2984 RMK HZ1AC2CI1 CI TR SLP107 DENSITY ALT 500FT,2025-09-06T09:19:46Z,2025-09-06T05:19:46Z
CYVR,2025-09-06T10:00:00Z,2025-09-06T06:00:00Z,VFR,17,16,94,90,3,19300,29.85,NA,FEW  ft; SCT  ft,CYVR 061000Z 09003KT 12SM FEW089 SCT120 17/16 A2985 RMK HZ1AC1AC1 SLP109 DENSITY ALT 400FT,2025-09-06T10:20:30Z,2025-09-06T06:20:30Z
CYVR,2025-09-06T11:00:00Z,2025-09-06T07:00:00Z,VFR,17,16,94,90,2,19300,29.85,NA,SCT  ft,CYVR 061100Z 09002KT 12SM SCT092 17/16 A2985 RMK HZ1AC2 SLP110 DENSITY ALT 300FT,2025-09-06T11:16:01Z,2025-09-06T07:16:01Z
CYVR,2025-09-06T12:00:00Z,2025-09-06T08:00:00Z,VFR,16,15,94,100,6,19300,29.85,NA,FEW  ft; SCT  ft,CYVR 061200Z 10006KT 12SM FEW093 SCT220 16/15 A2985 RMK HZ1AC1CI1 SLP110 DENSITY ALT 300FT,2025-09-06T12:40:00Z,2025-09-06T08:40:00Z
CYVR,2025-09-06T13:00:00Z,2025-09-06T09:00:00Z,VFR,16,16,100,90,5,19300,29.85,NA,SCT  ft; BKN  ft,CYVR 061300Z 09005KT 12SM SCT089 BKN220 16/16 A2985 RMK HZ2AC2CI1 SLP112 DENSITY ALT 300FT,2025-09-06T13:22:40Z,2025-09-06T09:22:40Z
CYVR,2025-09-06T14:00:00Z,2025-09-06T10:00:00Z,VFR,16,16,100,130,5,19300,29.87,NA,FEW  ft; BKN  ft,CYVR 061400Z 13005KT 12SM FEW090 BKN220 16/16 A2987 RMK AC2CI3 HZ SLP116 DENSITY ALT 300FT,2025-09-06T14:18:39Z,2025-09-06T10:18:39Z
CYVR,2025-09-06T15:00:00Z,2025-09-06T11:00:00Z,VFR,17,16,94,130,6,19300,29.88,NA,FEW  ft; BKN  ft,CYVR 061500Z 13006KT 12SM FEW080 BKN220 17/16 A2988 RMK AC2CI4 HZ SLP121 DENSITY ALT 300FT,2025-09-06T15:19:24Z,2025-09-06T11:19:24Z
CYVR,2025-09-06T16:00:00Z,2025-09-06T12:00:00Z,VFR,18,16,88,110,6,19300,29.89,NA,FEW  ft; BKN  ft,CYVR 061600Z 11006KT 12SM FEW160 BKN220 18/16 A2989 RMK AC1CI5 HZ SLP125 DENSITY ALT 400FT,2025-09-06T16:24:53Z,2025-09-06T12:24:53Z
CYVR,2025-09-06T17:00:00Z,2025-09-06T13:00:00Z,VFR,19,16,83,140,6,24100,29.91,NA,FEW  ft; SCT  ft,CYVR 061700Z 14006KT 090V150 15SM FEW100 SCT220 19/16 A2991 RMK AC1CI3 AC TR HZ SLP132 DENSITY ALT 500FT,2025-09-06T17:24:32Z,2025-09-06T13:24:32Z
CYVR,2025-09-06T18:00:00Z,2025-09-06T14:00:00Z,VFR,19,15,78,110,11,24100,29.93,NA,FEW  ft; SCT  ft; BKN  ft,CYVR 061800Z 11011G18KT 15SM FEW017 SCT120 BKN220 19/15 A2993 RMK SC2AC1CI3 HZ SLP137 DENSITY ALT 500FT,2025-09-06T18:32:25Z,2025-09-06T14:32:25Z
CYVR,2025-09-06T19:00:00Z,2025-09-06T15:00:00Z,VFR,20,15,73,110,4,24100,29.93,NA,SCT  ft; BKN  ft,CYVR 061900Z 11004KT 060V160 15SM SCT022 BKN220 20/15 A2993 RMK SC3CI3 HZ SLP138 DENSITY ALT 600FT,2025-09-06T19:18:14Z,2025-09-06T15:18:14Z
CYVR,2025-09-06T20:00:00Z,2025-09-06T16:00:00Z,VFR,21,16,73,80,7,24100,29.93,NA,FEW  ft; BKN  ft,CYVR 062000Z 08007KT 15SM FEW026 BKN220 21/16 A2993 RMK SC1CI5 HZ SLP136 DENSITY ALT 800FT,2025-09-06T20:25:15Z,2025-09-06T16:25:15Z
CYVR,2025-09-06T21:00:00Z,2025-09-06T17:00:00Z,VFR,23,17,69,120,8,24100,29.91,NA,FEW  ft; BKN  ft,CYVR 062100Z 12008KT 15SM FEW160 BKN220 23/17 A2991 RMK AC1CI5 SLP130 DENSITY ALT 1000FT,2025-09-06T21:21:20Z,2025-09-06T17:21:20Z
CYVR,2025-09-06T22:00:00Z,2025-09-06T18:00:00Z,VFR,22,16,69,150,8,24100,29.9,NA,FEW  ft; BKN  ft,CYVR 062200Z 15008KT 15SM FEW160 BKN220 22/16 A2990 RMK AC1CI5 HZ SLP126 DENSITY ALT 1000FT,2025-09-06T22:23:57Z,2025-09-06T18:23:57Z
CYVR,2025-09-06T23:00:00Z,2025-09-06T19:00:00Z,VFR,23,17,69,140,8,24100,29.9,NA,FEW  ft; BKN  ft,CYVR 062300Z 14008KT 15SM FEW160 BKN220 23/17 A2990 RMK AC2CI5 HZ SLP126 DENSITY ALT 1100FT,2025-09-06T23:22:37Z,2025-09-06T19:22:37Z
CYVR,2025-09-07T01:36:00Z,2025-09-06T21:36:00Z,VFR,19,18,94,130,8,19300,29.89,NA,FEW  ft; OVC  ft,CYVR 070136Z 13008KT 12SM FEW055 OVC095 19/18 A2989 RMK SC1AC7 HZ SLP125 DENSITY ALT 600FT,2025-09-07T02:04:15Z,2025-09-06T22:04:15Z
CYVR,2025-09-07T02:00:00Z,2025-09-06T22:00:00Z,VFR,19,18,94,110,5,9999,29.89,NA,FEW  ft; BKN  ft; OVC  ft,CYVR 070200Z 11005KT 10SM FEW060 BKN098 OVC160 19/18 A2989 RMK SC1AC6AS1 HZ SLP124 DENSITY ALT 600FT,2025-09-07T03:07:54Z,2025-09-06T23:07:54Z
CYVR,2025-09-07T03:00:00Z,2025-09-06T23:00:00Z,VFR,19,18,94,100,5,19300,29.9,NA,BKN  ft; OVC  ft; OVC  ft,CYVR 070300Z 10005KT 12SM BKN100 OVC130 OVC160 19/18 A2990 RMK AC5AC3AS1 AS TR HZ SLP126 DENSITY ALT 500FT,2025-09-07T03:38:08Z,2025-09-06T23:38:08Z
CYVR,2025-09-07T04:00:00Z,2025-09-07T00:00:00Z,VFR,18,16,88,110,9,19300,29.91,NA,BKN  ft; OVC  ft,CYVR 070400Z 11009KT 12SM BKN096 OVC160 18/16 A2991 RMK AC7AS1 HZ SLP132 DENSITY ALT 400FT,2025-09-07T04:29:48Z,2025-09-07T00:29:48Z
CYVR,2025-09-07T05:00:00Z,2025-09-07T01:00:00Z,VFR,17,16,94,90,6,19300,29.92,NA,BKN  ft; OVC  ft,CYVR 070500Z 09006KT 12SM BKN100 OVC170 17/16 A2992 RMK AC7AS1 HZ SLP133 DENSITY ALT 300FT,2025-09-07T05:25:33Z,2025-09-07T01:25:33Z
CYVR,2025-09-07T06:00:00Z,2025-09-07T02:00:00Z,VFR,17,15,88,120,7,19300,29.93,NA,OVC  ft,CYVR 070600Z 12007KT 12SM OVC100 17/15 A2993 RMK AC8 HZ SLP139 DENSITY ALT 300FT,2025-09-07T06:34:54Z,2025-09-07T02:34:54Z
CYVR,2025-09-07T07:00:00Z,2025-09-07T03:00:00Z,VFR,16,15,94,110,11,24100,29.96,NA,BKN  ft; BKN  ft,CYVR 070700Z 11011KT 15SM BKN100 BKN130 16/15 A2996 RMK AC5AC2 SLP148,2025-09-07T07:22:55Z,2025-09-07T03:22:55Z
CYVR,2025-09-07T08:00:00Z,2025-09-07T04:00:00Z,VFR,16,14,88,110,15,24100,29.98,NA,BKN  ft,CYVR 070800Z 11015KT 15SM BKN130 16/14 A2998 RMK AC7 SLP153,2025-09-07T08:29:57Z,2025-09-07T04:29:57Z
CYVR,2025-09-07T09:00:00Z,2025-09-07T05:00:00Z,VFR,16,15,94,100,12,24100,29.99,NA,FEW  ft,CYVR 070900Z 10012KT 15SM FEW130 16/15 A2999 RMK AC1 SLP157,2025-09-07T09:23:41Z,2025-09-07T05:23:41Z
CYVR,2025-09-07T09:37:00Z,2025-09-07T05:37:00Z,MVFR,16,15,94,100,13,19300,30,NA,BKN  ft,CYVR 070937Z 10013KT 12SM BKN012 16/15 A3000 RMK SC7 SLP160,2025-09-07T09:41:31Z,2025-09-07T05:41:31Z
CYVR,2025-09-07T10:00:00Z,2025-09-07T06:00:00Z,MVFR,17,15,88,110,14,24100,30,NA,OVC  ft,CYVR 071000Z 11014KT 15SM OVC011 17/15 A3000 RMK SC8 SLP162,2025-09-07T10:26:11Z,2025-09-07T06:26:11Z
CYVR,2025-09-07T11:00:00Z,2025-09-07T07:00:00Z,MVFR,16,15,94,90,12,24100,30.01,NA,BKN  ft; OVC  ft,CYVR 071100Z 09012KT 15SM BKN012 OVC095 16/15 A3001 RMK SC7AC1 SLP164,2025-09-07T11:19:24Z,2025-09-07T07:19:24Z
CYVR,2025-09-07T12:00:00Z,2025-09-07T08:00:00Z,VFR,16,15,94,80,11,24100,30,NA,FEW  ft; SCT  ft,CYVR 071200Z 08011KT 15SM FEW012 SCT220 16/15 A3000 RMK SC1CI2 SLP162,2025-09-07T12:48:16Z,2025-09-07T08:48:16Z
CYVR,2025-09-07T13:00:00Z,2025-09-07T09:00:00Z,VFR,16,15,94,100,11,24100,30,NA,FEW  ft; FEW  ft,CYVR 071300Z 10011KT 15SM FEW150 FEW220 16/15 A3000 RMK AC1CI1 AC TR SLP162,2025-09-07T13:26:45Z,2025-09-07T09:26:45Z
CYVR,2025-09-07T14:00:00Z,2025-09-07T10:00:00Z,VFR,16,15,94,120,10,24100,30.01,NA,FEW  ft; FEW  ft; FEW  ft,CYVR 071400Z 12010KT 15SM FEW014 FEW080 FEW220 16/15 A3001 RMK SC1AC1CI1 AC TR SLP165,2025-09-07T14:23:04Z,2025-09-07T10:23:04Z
CYVR,2025-09-07T15:00:00Z,2025-09-07T11:00:00Z,MVFR,17,15,88,130,7,32200,30.02,NA,BKN  ft,CYVR 071500Z 13007KT 20SM BKN025 17/15 A3002 RMK SC7 SLP167,2025-09-07T15:23:37Z,2025-09-07T11:23:37Z
CYVR,2025-09-07T16:00:00Z,2025-09-07T12:00:00Z,VFR,18,15,83,130,7,32200,30.03,NA,SCT  ft; BKN  ft; BKN  ft,CYVR 071600Z 13007KT 20SM SCT023 BKN035 BKN220 18/15 A3003 RMK SC4SC2CI1 SLP170 DENSITY ALT 300FT,2025-09-07T16:29:10Z,2025-09-07T12:29:10Z
CYVR,2025-09-07T17:00:00Z,2025-09-07T13:00:00Z,MVFR,17,14,83,120,11,24100,30.04,NA,BKN  ft; OVC  ft,CYVR 071700Z 12011KT 15SM BKN021 OVC034 17/14 A3004 RMK SC5SC3 SLP176,2025-09-07T17:21:32Z,2025-09-07T13:21:32Z
CYVR,2025-09-07T18:00:00Z,2025-09-07T14:00:00Z,VFR,17,14,83,120,12,24100,30.05,NA,FEW  ft; OVC  ft,CYVR 071800Z 12012KT 15SM FEW025 OVC035 17/14 A3005 RMK SC2SC6 SLP179,2025-09-07T18:32:53Z,2025-09-07T14:32:53Z
CYVR,2025-09-07T19:00:00Z,2025-09-07T15:00:00Z,MVFR,19,14,73,130,11,24100,30.06,NA,BKN  ft; BKN  ft; BKN  ft,CYVR 071900Z 13011KT 15SM BKN030 BKN042 BKN220 19/14 A3006 RMK SC6SC1CI1 SC TR SLP182 DENSITY ALT 400FT,2025-09-07T19:18:50Z,2025-09-07T15:18:50Z
CYVR,2025-09-07T20:00:00Z,2025-09-07T16:00:00Z,VFR,20,14,69,110,14,24100,30.07,NA,FEW  ft; BKN  ft,CYVR 072000Z 11014KT 15SM FEW023 BKN220 20/14 A3007 RMK CU2CI4 SLP184 DENSITY ALT 500FT,2025-09-07T20:25:52Z,2025-09-07T16:25:52Z
CYVR,2025-09-07T21:00:00Z,2025-09-07T17:00:00Z,VFR,21,14,64,120,12,32200,30.08,NA,SCT  ft; BKN  ft,CYVR 072100Z 12012G18KT 20SM SCT024 BKN220 21/14 A3008 RMK SC3CI3 CU ASOCTD SLP187 DENSITY ALT 600FT,2025-09-07T21:21:34Z,2025-09-07T17:21:34Z
CYVV,2025-09-05T18:18:00Z,2025-09-05T14:18:00Z,VFR,18,12,68,220,19,9999,29.57,NA,BKN  ft,CYVV 051818Z 22019G35KT 10SM -TSRA BKN043CB 18/12 A2957 RMK CB7 SLP018 DENSITY ALT 1700FT,2025-09-05T18:23:21Z,2025-09-05T14:23:21Z
CYVV,2025-09-05T18:26:00Z,2025-09-05T14:26:00Z,MVFR,14,11,82,250,19,6400,29.6,NA,BKN  ft; BKN  ft,CYVV 051826Z 25019G35KT 4SM TSRA BKN033CB BKN080 14/11 A2960 RMK CB7AC1 AC TR PRESRR SLP027 DENSITY ALT 1200FT,2025-09-05T18:32:26Z,2025-09-05T14:32:26Z
CYVV,2025-09-05T18:38:00Z,2025-09-05T14:38:00Z,MVFR,15,12,82,230,14,9999,29.59,NA,BKN  ft; BKN  ft,CYVV 051838Z 23014G25KT 10SM BKN029 BKN034 15/12 A2959 RMK CF6CU1 SLP023 DENSITY ALT 1300FT,2025-09-05T18:48:17Z,2025-09-05T14:48:17Z
CYVV,2025-09-05T18:50:00Z,2025-09-05T14:50:00Z,MVFR,15,12,82,250,14,9999,29.6,NA,BKN  ft; BKN  ft,CYVV 051850Z 25014G22KT 10SM -SHRA BKN023 BKN034 15/12 A2960 RMK CF5CU2 PRESRR SLP029 DENSITY ALT 1300FT,2025-09-05T19:02:00Z,2025-09-05T15:02:00Z
CYVV,2025-09-05T19:13:00Z,2025-09-05T15:13:00Z,MVFR,15,11,77,280,14,24100,29.63,NA,BKN  ft; BKN  ft,CYVV 051913Z 28014G24KT 15SM BKN021 BKN035 15/11 A2963 RMK CF5SC2 PRESRR SLP036 DENSITY ALT 1300FT,2025-09-05T19:21:00Z,2025-09-05T15:21:00Z
CYVV,2025-09-05T20:00:00Z,2025-09-05T16:00:00Z,MVFR,15,10,72,260,14,24100,29.65,NA,BKN  ft; BKN  ft,CYVV 052000Z 26014G24KT 15SM BKN021 BKN050 15/10 A2965 RMK SF5SC2 SLP045 DENSITY ALT 1200FT,2025-09-05T20:29:27Z,2025-09-05T16:29:27Z
CYVV,2025-09-05T21:00:00Z,2025-09-05T17:00:00Z,VFR,16,9,63,250,16,24100,29.68,NA,BKN  ft,CYVV 052100Z 25016G27KT 15SM BKN035 16/09 A2968 RMK CU7 SLP053 DENSITY ALT 1400FT,2025-09-05T21:14:26Z,2025-09-05T17:14:26Z
CYVV,2025-09-05T22:00:00Z,2025-09-05T18:00:00Z,VFR,15,9,68,270,11,24100,29.71,NA,BKN  ft,CYVV 052200Z 27011G21KT 15SM BKN035 15/09 A2971 RMK CU6 SLP064 DENSITY ALT 1200FT,2025-09-05T22:18:45Z,2025-09-05T18:18:45Z
CYVV,2025-09-05T23:00:00Z,2025-09-05T19:00:00Z,VFR,15,8,63,250,11,24100,29.74,NA,SCT  ft; BKN  ft; BKN  ft,CYVV 052300Z 25011G22KT 15SM SCT035 BKN050 BKN250 15/08 A2974 RMK CU3CU2CC1 SLP074 DENSITY ALT 1100FT,2025-09-05T23:20:07Z,2025-09-05T19:20:07Z
CYVV,2025-09-06T01:00:00Z,2025-09-05T21:00:00Z,VFR,14,6,59,270,14,9999,29.78,NA,SCT  ft; SCT  ft,CYVV 060100Z 27014G21KT 10SM SCT035 SCT070 14/06 A2978 RMK CU3AC1 SLP089 DENSITY ALT 1000FT,2025-09-06T01:42:35Z,2025-09-05T21:42:35Z
CYVV,2025-09-06T02:00:00Z,2025-09-05T22:00:00Z,VFR,14,6,59,280,11,9999,29.8,NA,FEW  ft; BKN  ft,CYVV 060200Z 28011G16KT 230V300 10SM FEW040 BKN070 14/06 A2980 RMK CU2AC3 SLP096,2025-09-06T02:56:35Z,2025-09-05T22:56:35Z
CYVV,2025-09-06T03:00:00Z,2025-09-05T23:00:00Z,VFR,14,5,55,260,14,9999,29.81,NA,FEW  ft; OVC  ft,CYVV 060300Z 26014G21KT 10SM FEW040 OVC070 14/05 A2981 RMK CU2AC6 SLP099,2025-09-06T03:30:46Z,2025-09-05T23:30:46Z
CYVV,2025-09-06T04:00:00Z,2025-09-06T00:00:00Z,VFR,13,6,63,250,13,9999,29.83,NA,FEW  ft; OVC  ft,CYVV 060400Z 25013G20KT 10SM FEW050 OVC070 13/06 A2983 RMK CU1AC7 SLP106,2025-09-06T04:25:45Z,2025-09-06T00:25:45Z
CYVV,2025-09-06T05:00:00Z,2025-09-06T01:00:00Z,VFR,14,6,59,250,10,9999,29.84,NA,FEW  ft; OVC  ft,CYVV 060500Z 25010G22KT 10SM FEW040 OVC070 14/06 A2984 RMK CU2AC6 SLP107,2025-09-06T05:19:55Z,2025-09-06T01:19:55Z
CYVV,2025-09-06T06:00:00Z,2025-09-06T02:00:00Z,VFR,14,7,63,250,8,9999,29.83,NA,FEW  ft; BKN  ft; OVC  ft,CYVV 060600Z 25008G19KT 10SM FEW040 BKN060 OVC070 14/07 A2983 RMK CU2CU5AC1 SLP105,2025-09-06T06:29:49Z,2025-09-06T02:29:49Z
CYVV,2025-09-06T07:00:00Z,2025-09-06T03:00:00Z,VFR,14,7,63,250,10,9999,29.83,NA,SCT  ft; BKN  ft; OVC  ft,CYVV 060700Z 25010G16KT 220V280 10SM SCT040 BKN060 OVC070 14/07 A2983 RMK CU3CU4AC1 SLP104,2025-09-06T07:18:41Z,2025-09-06T03:18:41Z
CYVV,2025-09-06T08:00:00Z,2025-09-06T04:00:00Z,VFR,14,8,67,250,11,9999,29.82,NA,FEW  ft; BKN  ft; OVC  ft,CYVV 060800Z 25011KT 210V300 10SM FEW030 BKN060 OVC070 14/08 A2982 RMK CU2CU5AC1 SLP103,2025-09-06T08:25:11Z,2025-09-06T04:25:11Z
CYVV,2025-09-06T09:00:00Z,2025-09-06T05:00:00Z,VFR,14,7,63,250,9,9999,29.82,NA,FEW  ft; BKN  ft; BKN  ft,CYVV 060900Z 25009G15KT 230V290 10SM FEW035 BKN055 BKN120 14/07 A2982 RMK CU2CU4AC1 SLP101,2025-09-06T09:19:46Z,2025-09-06T05:19:46Z
CYVV,2025-09-06T10:00:00Z,2025-09-06T06:00:00Z,VFR,13,7,67,260,9,9999,29.83,NA,FEW  ft; SCT  ft; BKN  ft,CYVV 061000Z 26009G21KT 10SM FEW040 SCT120 BKN270 13/07 A2983 RMK CU1AC2CC2 SLP105,2025-09-06T10:20:30Z,2025-09-06T06:20:30Z
CYVV,2025-09-06T11:00:00Z,2025-09-06T07:00:00Z,VFR,14,7,63,260,8,24100,29.85,NA,FEW  ft; BKN  ft; BKN  ft; BKN  ft,CYVV 061100Z 26008G19KT 15SM FEW020 BKN039 BKN120 BKN250 14/07 A2985 RMK SF1CU6AC1CC1 SF TR CC TR SLP113,2025-09-06T11:16:00Z,2025-09-06T07:16:00Z
CYVV,2025-09-06T11:34:00Z,2025-09-06T07:34:00Z,VFR,14,6,59,260,10,24100,29.86,NA,FEW  ft; BKN  ft; BKN  ft,CYVV 061134Z 26010G20KT 15SM TS FEW015 BKN038 BKN250 14/06 A2986 RMK CU1SC7CC1 CU TR CC TR CB EMBD SLP117,2025-09-06T11:38:58Z,2025-09-06T07:38:58Z
CYVV,2025-09-06T12:00:00Z,2025-09-06T08:00:00Z,VFR,14,8,67,250,12,24100,29.87,NA,SCT  ft; OVC  ft,CYVV 061200Z 25012G17KT 15SM SCT035 OVC060 14/08 A2987 RMK CU4SC4 SLP120,2025-09-06T12:40:00Z,2025-09-06T08:40:00Z
CYVV,2025-09-06T13:00:00Z,2025-09-06T09:00:00Z,VFR,14,8,67,260,9,24100,29.88,NA,FEW  ft; BKN  ft; BKN  ft,CYVV 061300Z 26009KT 15SM FEW015 BKN035 BKN060 14/08 A2988 RMK CF1CU5SC2 CF TR SLP124,2025-09-06T13:22:40Z,2025-09-06T09:22:40Z
CYVV,2025-09-06T13:23:00Z,2025-09-06T09:23:00Z,MVFR,12,10,88,230,14,8000,29.89,NA,SCT  ft; OVC  ft,CYVV 061323Z 23014G22KT 210V270 5SM -SHRA SCT036 OVC060 12/10 A2989 RMK CU3SC5 SLP127,2025-09-06T13:38:41Z,2025-09-06T09:38:41Z
CYVV,2025-09-06T14:00:00Z,2025-09-06T10:00:00Z,MVFR,12,10,88,230,9,12900,29.89,NA,BKN  ft; OVC  ft,CYVV 061400Z 23009KT 8SM -SHRA BKN030 OVC066 12/10 A2989 RMK CU5AC3 SLP128,2025-09-06T14:18:39Z,2025-09-06T10:18:39Z
CYVV,2025-09-06T15:00:00Z,2025-09-06T11:00:00Z,VFR,12,10,88,230,11,24100,29.89,NA,BKN  ft; OVC  ft,CYVV 061500Z 23011G20KT 15SM BKN031 OVC060 12/10 A2989 RMK CU5SC3 SLP127,2025-09-06T15:19:24Z,2025-09-06T11:19:24Z
CYVV,2025-09-06T16:07:00Z,2025-09-06T12:07:00Z,MVFR,12,10,88,250,9,19300,29.91,NA,BKN  ft; OVC  ft,CYVV 061607Z 25009G15KT 12SM -SHRA BKN027 OVC051 12/10 A2991 RMK CU5SC3 SLP134,2025-09-06T16:24:52Z,2025-09-06T12:24:52Z
CYVV,2025-09-06T17:16:00Z,2025-09-06T13:16:00Z,MVFR,12,11,94,220,10,24100,29.92,NA,BKN  ft; OVC  ft,CYVV 061716Z 22010KT 15SM BKN026 OVC046 12/11 A2992 RMK SC6SC2 SLP138,2025-09-06T17:24:32Z,2025-09-06T13:24:32Z
CYVV,2025-09-06T17:25:00Z,2025-09-06T13:25:00Z,MVFR,12,11,94,220,10,9999,29.92,NA,BKN  ft; OVC  ft,CYVV 061725Z 22010KT 10SM -SHRA BKN026 OVC046 12/11 A2992 RMK SC6SC2 CVCTV CLD EMBD SLP138,2025-09-06T17:41:53Z,2025-09-06T13:41:53Z
CYVV,2025-09-06T18:00:00Z,2025-09-06T14:00:00Z,MVFR,13,11,88,230,8,24100,29.92,NA,BKN  ft; OVC  ft,CYVV 061800Z 23008KT 15SM -SHRA BKN026 OVC052 13/11 A2992 RMK CU7SC1 SLP138,2025-09-06T18:32:25Z,2025-09-06T14:32:25Z
CYVV,2025-09-06T19:10:00Z,2025-09-06T15:10:00Z,MVFR,13,10,82,240,5,24100,29.93,NA,BKN  ft; BKN  ft,CYVV 061910Z 24005KT 15SM BKN026 BKN050 13/10 A2993 RMK CU6SC1 SLP139,2025-09-06T19:18:14Z,2025-09-06T15:18:14Z
CYVV,2025-09-06T20:00:00Z,2025-09-06T16:00:00Z,VFR,15,10,72,260,6,24100,29.93,NA,BKN  ft; OVC  ft,CYVV 062000Z 26006KT 220V280 15SM BKN047 OVC250 15/10 A2993 RMK SC7CC1 SLP138,2025-09-06T20:25:15Z,2025-09-06T16:25:15Z
CYVV,2025-09-06T21:00:00Z,2025-09-06T17:00:00Z,MVFR,13,10,82,240,9,6400,29.94,NA,OVC  ft,CYVV 062100Z 24009G18KT 4SM -SHRA OVC023 13/10 A2994 RMK SC8 CVCTV CLD EMBD SLP142,2025-09-06T21:21:19Z,2025-09-06T17:21:19Z
CYVV,2025-09-06T21:28:00Z,2025-09-06T17:28:00Z,MVFR,13,10,82,250,8,24100,29.94,NA,OVC  ft,CYVV 062128Z 25008KT 15SM OVC025 13/10 A2994 RMK SC8 SLP142,2025-09-06T21:41:54Z,2025-09-06T17:41:54Z
CYVV,2025-09-06T22:00:00Z,2025-09-06T18:00:00Z,VFR,13,10,82,230,8,24100,29.94,NA,SCT  ft; OVC  ft,CYVV 062200Z 23008KT 15SM SCT025 OVC061 13/10 A2994 RMK CU3SC5 SLP142,2025-09-06T22:23:57Z,2025-09-06T18:23:57Z
CYVV,2025-09-06T23:00:00Z,2025-09-06T19:00:00Z,MVFR,13,12,94,210,4,24100,29.93,NA,BKN  ft; OVC  ft,CYVV 062300Z 21004KT 15SM VCSH BKN024 OVC071 13/12 A2993 RMK CU7AC1 DIST SH E-S SLP140,2025-09-06T23:22:36Z,2025-09-06T19:22:36Z
CYVV,2025-09-07T01:00:00Z,2025-09-06T21:00:00Z,MVFR,11,11,100,310,3,12900,29.95,NA,FEW  ft; BKN  ft; OVC  ft,CYVV 070100Z 31003KT 230V350 8SM -SHRA FEW011 BKN024 OVC053 11/11 A2995 RMK SF2CU4SC2 SLP146,2025-09-07T02:04:14Z,2025-09-06T22:04:14Z
CYVV,2025-09-07T02:00:00Z,2025-09-06T22:00:00Z,MVFR,11,11,100,280,3,9999,29.96,NA,OVC  ft,CYVV 070200Z 28003KT 250V340 10SM -SHRA OVC029 11/11 A2996 RMK CU8 SLP152,2025-09-07T03:07:54Z,2025-09-06T23:07:54Z
CYVV,2025-09-07T03:00:00Z,2025-09-06T23:00:00Z,MVFR,11,11,100,320,5,9700,29.97,NA,FEW  ft; OVC  ft,CYVV 070300Z 32005KT 250V050 6SM -SHRA BR FEW011 OVC018 11/11 A2997 RMK SF2CU6 SLP155,2025-09-07T03:38:08Z,2025-09-06T23:38:08Z
CYVV,2025-09-07T04:09:00Z,2025-09-07T00:09:00Z,MVFR,11,11,100,290,3,9999,29.98,NA,OVC  ft,CYVV 070409Z 29003KT 260V330 10SM OVC026 11/11 A2998 RMK CU8 SLP157,2025-09-07T04:29:48Z,2025-09-07T00:29:48Z
CYVV,2025-09-07T05:00:00Z,2025-09-07T01:00:00Z,VFR,10,10,100,180,4,9999,29.99,NA,SCT  ft; OVC  ft,CYVV 070500Z 18004KT 10SM SCT028 OVC049 10/10 A2999 RMK CU4SC4 SLP160,2025-09-07T05:25:33Z,2025-09-07T01:25:33Z
CYVV,2025-09-07T06:00:00Z,2025-09-07T02:00:00Z,VFR,10,10,100,250,3,9999,29.99,NA,FEW  ft; SCT  ft; BKN  ft,CYVV 070600Z 25003KT 210V290 10SM FEW011 SCT033 BKN069 10/10 A2999 RMK SF1CU4AC3 SF TR SLP162,2025-09-07T06:34:54Z,2025-09-07T02:34:54Z
CYVV,2025-09-07T07:00:00Z,2025-09-07T03:00:00Z,VFR,10,7,82,300,4,24100,29.99,NA,FEW  ft; SCT  ft; BKN  ft,CYVV 070700Z 30004KT 260V330 15SM FEW036 SCT076 BKN150 10/07 A2999 RMK CU2AC1AC4 SLP161,2025-09-07T07:22:55Z,2025-09-07T03:22:55Z
CYVV,2025-09-07T08:00:00Z,2025-09-07T04:00:00Z,VFR,10,6,76,300,3,24100,29.99,NA,FEW  ft; SCT  ft,CYVV 070800Z 30003KT 260V360 15SM FEW039 SCT160 10/06 A2999 RMK CU1AC3 SLP162,2025-09-07T08:29:57Z,2025-09-07T04:29:57Z
CYVV,2025-09-07T09:00:00Z,2025-09-07T05:00:00Z,VFR,9,6,82,0,0,24100,30,NA,BKN  ft; BKN  ft,CYVV 070900Z 00000KT 15SM BKN047 BKN160 09/06 A3000 RMK CU6AC1 AC TR SLP164,2025-09-07T09:23:41Z,2025-09-07T05:23:41Z
CYVV,2025-09-07T10:05:00Z,2025-09-07T06:05:00Z,MVFR,7,7,100,0,0,24100,30.01,NA,BKN  ft,CYVV 071005Z 00000KT 15SM -SHRA BKN028 07/07 A3001 RMK SC7 CVCTV CLD EMBD SLP169,2025-09-07T10:26:11Z,2025-09-07T06:26:11Z
CYVV,2025-09-07T11:00:00Z,2025-09-07T07:00:00Z,VFR,7,7,100,120,4,24100,30.02,NA,BKN  ft,CYVV 071100Z 12004KT 15SM BKN031 07/07 A3002 RMK CU6 SLP173,2025-09-07T11:19:24Z,2025-09-07T07:19:24Z
CYVV,2025-09-07T11:17:00Z,2025-09-07T07:17:00Z,VFR,7,7,100,140,2,9999,30.03,NA,BKN  ft,CYVV 071117Z 14002KT 10SM -SHRA BKN035 07/07 A3003 RMK CU7 SLP175,2025-09-07T11:41:28Z,2025-09-07T07:41:28Z
CYVV,2025-09-07T12:23:00Z,2025-09-07T08:23:00Z,VFR,10,8,88,200,2,24100,30.04,NA,SCT  ft; BKN  ft; BKN  ft,CYVV 071223Z 20002KT 15SM SCT035 BKN083 BKN250 10/08 A3004 RMK CU4AC3CC1 CC TR SLP178,2025-09-07T12:48:16Z,2025-09-07T08:48:16Z
CYVV,2025-09-07T13:00:00Z,2025-09-07T09:00:00Z,MVFR,11,9,88,160,6,24100,30.04,NA,BKN  ft,CYVV 071300Z 16006KT 15SM BKN027 11/09 A3004 RMK CU7 SLP177,2025-09-07T13:26:45Z,2025-09-07T09:26:45Z
CYVV,2025-09-07T14:00:00Z,2025-09-07T10:00:00Z,MVFR,13,9,77,240,9,24100,30.05,NA,BKN  ft; BKN  ft,CYVV 071400Z 24009KT 150V270 15SM BKN027 BKN080 13/09 A3005 RMK CU5AC1 SLP181,2025-09-07T14:23:04Z,2025-09-07T10:23:04Z
CYVV,2025-09-07T15:00:00Z,2025-09-07T11:00:00Z,MVFR,14,10,77,260,8,24100,30.06,NA,BKN  ft,CYVV 071500Z 26008G16KT 15SM BKN028 14/10 A3006 RMK CU7 SLP185,2025-09-07T15:23:37Z,2025-09-07T11:23:37Z
CYVV,2025-09-07T16:22:00Z,2025-09-07T12:22:00Z,MVFR,13,9,77,250,7,24100,30.08,NA,BKN  ft,CYVV 071622Z 25007KT 210V280 15SM BKN025 13/09 A3008 RMK CU5 SLP192,2025-09-07T16:29:09Z,2025-09-07T12:29:09Z
CYVV,2025-09-07T17:00:00Z,2025-09-07T13:00:00Z,MVFR,14,9,72,270,10,24100,30.08,NA,BKN  ft,CYVV 071700Z 27010G15KT 15SM BKN025 14/09 A3008 RMK CU6 SLP190,2025-09-07T17:21:32Z,2025-09-07T13:21:32Z
CYVV,2025-09-07T18:00:00Z,2025-09-07T14:00:00Z,MVFR,15,9,68,270,9,24100,30.08,NA,BKN  ft,CYVV 071800Z 27009G16KT 240V300 15SM BKN027 15/09 A3008 RMK CU7 SLP192,2025-09-07T18:32:52Z,2025-09-07T14:32:52Z
CYVV,2025-09-07T19:00:00Z,2025-09-07T15:00:00Z,MVFR,15,8,63,290,10,24100,30.09,NA,BKN  ft,CYVV 071900Z 29010G18KT 240V310 15SM BKN027 15/08 A3009 RMK CU7 SLP194,2025-09-07T19:18:50Z,2025-09-07T15:18:50Z
CYVV,2025-09-07T20:00:00Z,2025-09-07T16:00:00Z,MVFR,14,8,67,280,8,24100,30.1,NA,BKN  ft,CYVV 072000Z 28008G18KT 250V320 15SM BKN027 14/08 A3010 RMK CU5 SLP200,2025-09-07T20:25:52Z,2025-09-07T16:25:52Z
CYVV,2025-09-07T21:00:00Z,2025-09-07T17:00:00Z,MVFR,13,8,72,270,8,24100,30.11,NA,BKN  ft,CYVV 072100Z 27008G16KT 15SM BKN026 13/08 A3011 RMK CU7 SLP203,2025-09-07T21:21:34Z,2025-09-07T17:21:34Z
CYWG,2025-09-05T21:00:00Z,2025-09-05T17:00:00Z,VFR,16,2,39,340,19,24100,29.83,NA,FEW  ft; FEW  ft; FEW  ft,CYWG 052100Z 34019G31KT 15SM FEW061 FEW140 FEW230 16/02 A2983 RMK SC1AC1CC1 CC TR SLP110 DENSITY ALT 1200FT,2025-09-05T22:02:54Z,2025-09-05T18:02:54Z
CYWG,2025-09-05T22:00:00Z,2025-09-05T18:00:00Z,VFR,16,1,36,320,20,24100,29.85,NA,FEW  ft; FEW  ft; FEW  ft,CYWG 052200Z 32020G27KT 15SM FEW064 FEW140 FEW240 16/01 A2985 RMK SC1AC1CC1 SC TR AC TR SLP114 DENSITY ALT 1200FT,2025-09-05T22:18:46Z,2025-09-05T18:18:46Z
CYWG,2025-09-05T23:00:00Z,2025-09-05T19:00:00Z,VFR,15,0,36,330,16,24100,29.86,NA,FEW  ft; FEW  ft; FEW  ft,CYWG 052300Z 33016G23KT 15SM FEW068 FEW140 FEW240 15/M00 A2986 RMK AC1AC1CC1 AC TR AC TR CC TR SLP119 DENSITY ALT 1100FT,2025-09-05T23:20:08Z,2025-09-05T19:20:08Z
CYWG,2025-09-06T01:00:00Z,2025-09-05T21:00:00Z,VFR,10,4,67,310,8,24100,29.89,NA,FEW  ft; FEW  ft,CYWG 060100Z 31008KT 15SM FEW068 FEW240 10/04 A2989 RMK AC1CC1 AC TR CC TR SLP130,2025-09-06T01:42:36Z,2025-09-05T21:42:36Z
CYWG,2025-09-06T02:00:00Z,2025-09-05T22:00:00Z,VFR,7,4,81,310,8,24100,29.9,NA,FEW  ft; FEW  ft,CYWG 060200Z 31008KT 15SM FEW068 FEW250 07/04 A2990 RMK AC1CC1 SLP136,2025-09-06T02:56:36Z,2025-09-05T22:56:36Z
CYWG,2025-09-06T03:00:00Z,2025-09-05T23:00:00Z,VFR,5,4,93,280,7,24100,29.91,NA,FEW  ft,CYWG 060300Z 28007KT 15SM FEW120 05/04 A2991 RMK AC1 SLP139,2025-09-06T03:30:47Z,2025-09-05T23:30:47Z
CYWG,2025-09-06T04:00:00Z,2025-09-06T00:00:00Z,VFR,7,6,93,290,5,24100,29.91,NA,BKN  ft,CYWG 060400Z 29005KT 15SM BKN130 07/06 A2991 RMK AC6 SLP138,2025-09-06T04:25:47Z,2025-09-06T00:25:47Z
CYWG,2025-09-06T05:00:00Z,2025-09-06T01:00:00Z,VFR,6,5,93,280,7,24100,29.92,NA,SCT  ft; BKN  ft,CYWG 060500Z 28007KT 15SM SCT066 BKN130 06/05 A2992 RMK AC3AC2 SLP139,2025-09-06T05:19:57Z,2025-09-06T01:19:57Z
CYWG,2025-09-06T06:00:00Z,2025-09-06T02:00:00Z,VFR,8,8,100,270,6,24100,29.92,NA,BKN  ft,CYWG 060600Z 27006KT 15SM BKN064 08/08 A2992 RMK SC6 SLP140,2025-09-06T06:29:50Z,2025-09-06T02:29:50Z
CYWG,2025-09-06T07:00:00Z,2025-09-06T03:00:00Z,VFR,8,8,100,280,6,24100,29.92,NA,FEW  ft; BKN  ft; BKN  ft,CYWG 060700Z 28006KT 15SM FEW027 BKN067 BKN130 08/08 A2992 RMK SC2AC4AC1 SLP141,2025-09-06T07:18:42Z,2025-09-06T03:18:42Z
CYWG,2025-09-06T08:00:00Z,2025-09-06T04:00:00Z,VFR,9,8,94,280,8,24100,29.93,NA,FEW  ft; SCT  ft; BKN  ft; BKN  ft,CYWG 060800Z 28008KT 15SM FEW018 SCT042 BKN070 BKN120 09/08 A2993 RMK SF1SC2AC3AC1 SLP143,2025-09-06T08:25:12Z,2025-09-06T04:25:12Z
CYWG,2025-09-06T09:00:00Z,2025-09-06T05:00:00Z,VFR,9,8,94,280,7,24100,29.94,NA,BKN  ft,CYWG 060900Z 28007KT 15SM BKN061 09/08 A2994 RMK SC6 SLP145,2025-09-06T09:19:47Z,2025-09-06T05:19:47Z
CYWG,2025-09-06T10:00:00Z,2025-09-06T06:00:00Z,VFR,8,7,93,290,7,24100,29.95,NA,BKN  ft; BKN  ft,CYWG 061000Z 29007KT 15SM BKN062 BKN130 08/07 A2995 RMK SC5AC1 SLP150,2025-09-06T10:20:31Z,2025-09-06T06:20:31Z
CYWG,2025-09-06T11:00:00Z,2025-09-06T07:00:00Z,VFR,7,7,100,280,6,24100,29.96,NA,SCT  ft; BKN  ft,CYWG 061100Z 28006KT 15SM SCT052 BKN100 07/07 A2996 RMK SC3AC4 SLP155,2025-09-06T11:16:01Z,2025-09-06T07:16:01Z
CYWG,2025-09-06T12:00:00Z,2025-09-06T08:00:00Z,VFR,6,6,100,280,8,24100,29.98,NA,FEW  ft; BKN  ft,CYWG 061200Z 28008KT 15SM FEW052 BKN100 06/06 A2998 RMK SC1AC6 SLP160,2025-09-06T12:40:02Z,2025-09-06T08:40:02Z
CYWG,2025-09-06T13:00:00Z,2025-09-06T09:00:00Z,VFR,8,8,100,290,6,24100,29.99,NA,BKN  ft; BKN  ft,CYWG 061300Z 29006KT 15SM BKN062 BKN095 08/08 A2999 RMK SC5AC1 SLP166,2025-09-06T13:22:41Z,2025-09-06T09:22:41Z
CYWG,2025-09-06T14:00:00Z,2025-09-06T10:00:00Z,VFR,10,8,88,300,10,24100,30.01,NA,FEW  ft; SCT  ft; BKN  ft,CYWG 061400Z CCA 30010KT 15SM FEW008 SCT066 BKN082 10/08 A3001 RMK CU1AC3AC3 CU TR TCU ASOCTD N-NE SLP172,2025-09-06T14:18:40Z,2025-09-06T10:18:40Z
CYWG,2025-09-06T15:00:00Z,2025-09-06T11:00:00Z,VFR,12,6,67,350,15,24100,30.02,NA,SCT  ft; BKN  ft; BKN  ft; BKN  ft,CYWG 061500Z 35015KT 15SM SCT020 BKN040 BKN068 BKN080 12/06 A3002 RMK CU3SC2AC1AC1 AC TR AC TR TCU ASOCTD SLP177,2025-09-06T15:19:25Z,2025-09-06T11:19:25Z
CYWG,2025-09-06T16:00:00Z,2025-09-06T12:00:00Z,VFR,13,5,59,350,18,24100,30.04,NA,FEW  ft; BKN  ft,CYWG 061600Z 35018G26KT 15SM FEW027 BKN072 13/05 A3004 RMK CU2AC4 SLP180,2025-09-06T16:24:54Z,2025-09-06T12:24:54Z
CYWG,2025-09-06T17:00:00Z,2025-09-06T13:00:00Z,VFR,12,5,63,350,15,24100,30.05,NA,FEW  ft; BKN  ft,CYWG 061700Z 35015G21KT 15SM FEW035 BKN072 12/05 A3005 RMK CU1AC6 SLP187,2025-09-06T17:24:33Z,2025-09-06T13:24:33Z
CYWG,2025-09-06T18:00:00Z,2025-09-06T14:00:00Z,VFR,13,5,59,360,13,24100,30.07,NA,FEW  ft; FEW  ft; BKN  ft,CYWG 061800Z 36013G20KT 15SM FEW035 FEW045 BKN075 13/05 A3007 RMK CU1SC1AC5 DIST SH N-NE TCU TOPS SLP190,2025-09-06T18:32:26Z,2025-09-06T14:32:26Z
CYWG,2025-09-06T19:00:00Z,2025-09-06T15:00:00Z,VFR,12,6,67,30,11,22500,30.08,NA,SCT  ft; BKN  ft; BKN  ft,CYWG 061900Z CCA 03011G17KT 14SM SCT035TCU BKN065 BKN078 12/06 A3008 RMK TCU4CU2AC1 VIRGA N-SE HRZN SLP196,2025-09-06T19:18:15Z,2025-09-06T15:18:15Z
CYWG,2025-09-06T20:00:00Z,2025-09-06T16:00:00Z,VFR,14,4,51,340,11,24100,30.08,NA,BKN  ft; BKN  ft,CYWG 062000Z 34011G19KT 300V010 15SM BKN040 BKN070 14/04 A3008 RMK SC5AC1 TCU ASOCTD SLP195,2025-09-06T20:25:16Z,2025-09-06T16:25:16Z
CYWG,2025-09-06T21:00:00Z,2025-09-06T17:00:00Z,VFR,14,5,55,350,14,22500,30.09,NA,SCT  ft; SCT  ft,CYWG 062100Z 35014G20KT 14SM SCT055TCU SCT065 14/05 A3009 RMK TCU3SC1 SC TR DIST SH NE-E AND NW SLP198,2025-09-06T21:21:20Z,2025-09-06T17:21:20Z
CYWG,2025-09-06T22:00:00Z,2025-09-06T18:00:00Z,VFR,13,5,59,340,9,22500,30.1,NA,SCT  ft; BKN  ft; BKN  ft,CYWG 062200Z 34009KT 14SM -SHRA SCT050TCU BKN060 BKN070 13/05 A3010 RMK TCU3SC1AC3 SC TR SLP202,2025-09-06T22:23:58Z,2025-09-06T18:23:58Z
CYWG,2025-09-06T22:26:00Z,2025-09-06T18:26:00Z,VFR,13,5,59,330,12,24100,30.1,NA,FEW  ft; SCT  ft; SCT  ft; BKN  ft,CYWG 062226Z 33012KT 15SM FEW040TCU SCT065 SCT075 BKN095 13/05 A3010 RMK TCU2SC1AC1AC1 SLP203,2025-09-06T22:41:58Z,2025-09-06T18:41:58Z
CYWG,2025-09-06T23:00:00Z,2025-09-06T19:00:00Z,VFR,13,4,55,350,10,22500,30.11,NA,FEW  ft; FEW  ft; SCT  ft; BKN  ft,CYWG 062300Z 35010G18KT 14SM FEW032 FEW037TCU SCT042 BKN052 BKN077 13/04 A3011 RMK CF1TCU1SC3SC1AC2 CF TR DIST SH NE AND E SLP206,2025-09-06T23:22:38Z,2025-09-06T19:22:38Z
CYWG,2025-09-07T01:00:00Z,2025-09-06T21:00:00Z,VFR,9,5,76,320,6,24100,30.13,NA,FEW  ft; FEW  ft; BKN  ft,CYWG 070100Z 32006KT 15SM FEW015 FEW030 BKN075 09/05 A3013 RMK CU1SC1AC6 CU TR SC TR SLP213,2025-09-07T02:04:16Z,2025-09-06T22:04:16Z
CYWG,2025-09-07T02:00:00Z,2025-09-06T22:00:00Z,VFR,9,6,82,310,5,24100,30.15,NA,BKN  ft,CYWG 070200Z 31005KT 15SM BKN073 09/06 A3015 RMK AC7 SLP217,2025-09-07T03:07:55Z,2025-09-06T23:07:55Z
CYWG,2025-09-07T03:00:00Z,2025-09-06T23:00:00Z,VFR,8,6,87,310,4,24100,30.16,NA,BKN  ft,CYWG 070300Z 31004KT 15SM BKN073 08/06 A3016 RMK AC7 SLP221,2025-09-07T03:38:09Z,2025-09-06T23:38:09Z
CYWG,2025-09-07T04:00:00Z,2025-09-07T00:00:00Z,VFR,8,6,87,340,5,24100,30.17,NA,BKN  ft,CYWG 070400Z 34005KT 15SM BKN073 08/06 A3017 RMK AC7 SLP225,2025-09-07T04:29:49Z,2025-09-07T00:29:49Z
CYWG,2025-09-07T05:00:00Z,2025-09-07T01:00:00Z,VFR,5,4,93,290,4,24100,30.18,NA,FEW  ft,CYWG 070500Z 29004KT 15SM FEW070 05/04 A3018 RMK AC2 SLP228,2025-09-07T05:25:35Z,2025-09-07T01:25:35Z
CYWG,2025-09-07T06:00:00Z,2025-09-07T02:00:00Z,VFR,4,4,100,270,4,24100,30.18,NA,SKC  ft,CYWG 070600Z 27004KT 15SM SKC 04/04 A3018 RMK SLP229,2025-09-07T06:34:55Z,2025-09-07T02:34:55Z
CYWG,2025-09-07T07:02:00Z,2025-09-07T03:02:00Z,VFR,2,2,100,270,5,24100,30.18,NA,SKC  ft,CYWG 070702Z 27005KT 15SM SKC 02/02 A3018 RMK SLP230,2025-09-07T07:22:56Z,2025-09-07T03:22:56Z
CYWG,2025-09-07T08:00:00Z,2025-09-07T04:00:00Z,VFR,2,2,100,260,3,24100,30.18,NA,SKC  ft,CYWG 070800Z 26003KT 15SM SKC 02/02 A3018 RMK SLP232,2025-09-07T08:29:58Z,2025-09-07T04:29:58Z
CYWG,2025-09-07T09:00:00Z,2025-09-07T05:00:00Z,VFR,2,2,100,230,3,24100,30.18,NA,SKC  ft,CYWG 070900Z 23003KT 15SM SKC 02/02 A3018 RMK SLP231,2025-09-07T09:23:42Z,2025-09-07T05:23:42Z
CYWG,2025-09-07T10:00:00Z,2025-09-07T06:00:00Z,VFR,3,3,100,210,2,24100,30.18,NA,FEW  ft,CYWG 071000Z 21002KT 15SM FEW070 03/03 A3018 RMK AC1 AC TR SLP232,2025-09-07T10:26:12Z,2025-09-07T06:26:12Z
CYWG,2025-09-07T11:00:00Z,2025-09-07T07:00:00Z,VFR,4,4,100,200,2,24100,30.18,NA,FEW  ft,CYWG 071100Z 20002KT 15SM FEW070 04/04 A3018 RMK AC2 SLP230,2025-09-07T11:19:25Z,2025-09-07T07:19:25Z
CYWG,2025-09-07T11:35:00Z,2025-09-07T07:35:00Z,VFR,2,1,93,240,3,24100,30.18,NA,FEW  ft; FEW  ft,CYWG 071135Z 24003KT 15SM FEW070 FEW250 02/01 A3018 RMK AC1CI2 AC TR SLP232,2025-09-07T11:41:30Z,2025-09-07T07:41:30Z
CYWG,2025-09-07T12:00:00Z,2025-09-07T08:00:00Z,VFR,3,3,100,0,2,24100,30.19,NA,FEW  ft; FEW  ft,CYWG 071200Z VRB02KT 15SM FEW070 FEW250 03/03 A3019 RMK AC1CI2 AC TR SLP233,2025-09-07T12:48:17Z,2025-09-07T08:48:17Z
CYWG,2025-09-07T13:00:00Z,2025-09-07T09:00:00Z,VFR,4,4,100,230,3,24100,30.19,NA,FEW  ft; SCT  ft,CYWG 071300Z 23003KT 15SM FEW070 SCT250 04/04 A3019 RMK AC1CI3 AC TR SLP234,2025-09-07T13:26:46Z,2025-09-07T09:26:46Z
CYWG,2025-09-07T14:00:00Z,2025-09-07T10:00:00Z,VFR,8,5,82,200,3,24100,30.19,NA,FEW  ft; FEW  ft; SCT  ft,CYWG 071400Z 20003KT 15SM FEW025 FEW066 SCT280 08/05 A3019 RMK SC1ACC1CI3 ACC TR HVY DEW CONTRAILS SLP235,2025-09-07T14:23:05Z,2025-09-07T10:23:05Z
CYWG,2025-09-07T15:00:00Z,2025-09-07T11:00:00Z,VFR,11,5,67,220,8,24100,30.19,NA,FEW  ft; FEW  ft; SCT  ft; SCT  ft,CYWG 071500Z 22008KT 15SM FEW040 FEW075 SCT270 SCT300 11/05 A3019 RMK SC1ACC1CI3CI1 SC TR ACC TR CONTRAILS SLP234,2025-09-07T15:23:38Z,2025-09-07T11:23:38Z
CYWG,2025-09-07T16:00:00Z,2025-09-07T12:00:00Z,VFR,13,5,59,220,10,24100,30.18,NA,FEW  ft; SCT  ft,CYWG 071600Z 22010KT 15SM FEW260 SCT300 13/05 A3018 RMK CI2CI2 CONTRAILS SLP229,2025-09-07T16:29:11Z,2025-09-07T12:29:11Z
CYWG,2025-09-07T17:00:00Z,2025-09-07T13:00:00Z,VFR,15,5,51,230,12,24100,30.16,NA,FEW  ft; FEW  ft; SCT  ft,CYWG 071700Z 23012KT 15SM FEW040 FEW260 SCT300 15/05 A3016 RMK CU1CI2CI2 CU TR CONTRAILS SLP223,2025-09-07T17:21:33Z,2025-09-07T13:21:33Z
CYWG,2025-09-07T18:00:00Z,2025-09-07T14:00:00Z,VFR,16,6,52,230,9,24100,30.15,NA,FEW  ft; FEW  ft; BKN  ft,CYWG 071800Z 23009G16KT 15SM FEW045 FEW230 BKN300 16/06 A3015 RMK CU2CI1CI3 CI TR HALO SLP217,2025-09-07T18:32:54Z,2025-09-07T14:32:54Z
CYWG,2025-09-07T19:00:00Z,2025-09-07T15:00:00Z,VFR,17,5,45,220,8,24100,30.12,NA,FEW  ft; FEW  ft; FEW  ft,CYWG 071900Z 22008G19KT 15SM FEW050 FEW230 FEW300 17/05 A3012 RMK CU1CC1CI1 CI TR SLP210 DENSITY ALT 1000FT,2025-09-07T19:18:51Z,2025-09-07T15:18:51Z
CYWG,2025-09-07T20:00:00Z,2025-09-07T16:00:00Z,VFR,18,5,43,190,8,24100,30.1,NA,FEW  ft; FEW  ft; FEW  ft,CYWG 072000Z 19008KT 180V250 15SM FEW053 FEW120 FEW250 18/05 A3010 RMK CU1AC1CI1 CU TR AC TR CI TR SLP200 DENSITY ALT 1200FT,2025-09-07T20:25:53Z,2025-09-07T16:25:53Z
CYWG,2025-09-07T21:00:00Z,2025-09-07T17:00:00Z,VFR,19,4,37,230,11,24100,30.07,NA,FEW  ft; FEW  ft; FEW  ft,CYWG 072100Z 23011G18KT 15SM FEW055 FEW180 FEW300 19/04 A3007 RMK CU1AC1CI1 CU TR AC TR SLP192 DENSITY ALT 1200FT,2025-09-07T21:21:35Z,2025-09-07T17:21:35Z
CYXE,2025-09-05T21:00:00Z,2025-09-05T17:00:00Z,VFR,16,4,45,350,8,24100,30.08,NA,SCT  ft; BKN  ft,CYXE 052100Z 35008KT 270V030 15SM SCT045 BKN250 16/04 A3008 RMK CU3CI2 SLP203 DENSITY ALT 2000FT,2025-09-05T22:02:54Z,2025-09-05T18:02:54Z
CYXE,2025-09-05T22:00:00Z,2025-09-05T18:00:00Z,VFR,16,3,42,320,7,24100,30.07,NA,SCT  ft; SCT  ft,CYXE 052200Z 32007KT 290V010 15SM SCT045 SCT250 16/03 A3007 RMK CU3CI1 SLP202 DENSITY ALT 2000FT,2025-09-05T22:18:46Z,2025-09-05T18:18:46Z
CYXE,2025-09-05T23:00:00Z,2025-09-05T19:00:00Z,VFR,16,2,39,10,9,24100,30.06,NA,SCT  ft; SCT  ft,CYXE 052300Z 01009KT 300V020 15SM SCT045 SCT250 16/02 A3006 RMK CU3CI1 SLP199 DENSITY ALT 2100FT,2025-09-05T23:20:08Z,2025-09-05T19:20:08Z
CYXE,2025-09-06T01:00:00Z,2025-09-05T21:00:00Z,VFR,14,2,44,350,6,24100,30.06,NA,SCT  ft,CYXE 060100Z 35006KT 15SM SCT250 14/02 A3006 RMK CI3 SLP198 DENSITY ALT 1900FT,2025-09-06T01:42:36Z,2025-09-05T21:42:36Z
CYXE,2025-09-06T02:00:00Z,2025-09-05T22:00:00Z,VFR,10,4,67,70,6,24100,30.06,NA,SCT  ft,CYXE 060200Z 07006KT 15SM SCT250 10/04 A3006 RMK CI3 SLP197,2025-09-06T02:56:36Z,2025-09-05T22:56:36Z
CYXE,2025-09-06T03:00:00Z,2025-09-05T23:00:00Z,VFR,8,4,76,80,7,24100,30.07,NA,SCT  ft,CYXE 060300Z 08007KT 15SM SCT250 08/04 A3007 RMK CI3 SLP200,2025-09-06T03:30:47Z,2025-09-05T23:30:47Z
CYXE,2025-09-06T04:00:00Z,2025-09-06T00:00:00Z,VFR,8,4,76,100,8,24100,30.07,NA,SCT  ft,CYXE 060400Z 10008KT 15SM SCT250 08/04 A3007 RMK CI3 SLP201,2025-09-06T04:25:46Z,2025-09-06T00:25:46Z
CYXE,2025-09-06T05:00:00Z,2025-09-06T01:00:00Z,VFR,8,4,76,120,6,24100,30.08,NA,SCT  ft,CYXE 060500Z 12006KT 15SM SCT250 08/04 A3008 RMK CI3 SLP205,2025-09-06T05:19:57Z,2025-09-06T01:19:57Z
CYXE,2025-09-06T06:00:00Z,2025-09-06T02:00:00Z,VFR,6,3,81,140,7,24100,30.09,NA,FEW  ft,CYXE 060600Z 14007KT 15SM FEW250 06/03 A3009 RMK CI2 SLP206,2025-09-06T06:29:50Z,2025-09-06T02:29:50Z
CYXE,2025-09-06T07:00:00Z,2025-09-06T03:00:00Z,VFR,6,3,81,180,5,24100,30.09,NA,SKC  ft,CYXE 060700Z 18005KT 15SM SKC 06/03 A3009 RMK SLP208,2025-09-06T07:18:42Z,2025-09-06T03:18:42Z
CYXE,2025-09-06T08:00:00Z,2025-09-06T04:00:00Z,VFR,5,3,87,180,7,24100,30.1,NA,SKC  ft,CYXE 060800Z 18007KT 15SM SKC 05/03 A3010 RMK SLP209,2025-09-06T08:25:12Z,2025-09-06T04:25:12Z
CYXE,2025-09-06T09:00:00Z,2025-09-06T05:00:00Z,VFR,5,3,87,180,7,24100,30.09,NA,SKC  ft,CYXE 060900Z 18007KT 15SM SKC 05/03 A3009 RMK SLP207,2025-09-06T09:19:47Z,2025-09-06T05:19:47Z
CYXE,2025-09-06T10:00:00Z,2025-09-06T06:00:00Z,VFR,5,3,87,180,7,24100,30.09,NA,SKC  ft,CYXE 061000Z 18007KT 15SM SKC 05/03 A3009 RMK SLP206,2025-09-06T10:20:31Z,2025-09-06T06:20:31Z
CYXE,2025-09-06T11:00:00Z,2025-09-06T07:00:00Z,VFR,4,2,87,180,6,24100,30.09,NA,SKC  ft,CYXE 061100Z 18006KT 15SM SKC 04/02 A3009 RMK SLP207,2025-09-06T11:16:01Z,2025-09-06T07:16:01Z
CYXE,2025-09-06T12:00:00Z,2025-09-06T08:00:00Z,VFR,4,2,87,170,3,24100,30.1,NA,FEW  ft,CYXE 061200Z 17003KT 15SM FEW300 04/02 A3010 RMK CI2 SLP211,2025-09-06T12:40:01Z,2025-09-06T08:40:01Z
CYXE,2025-09-06T13:00:00Z,2025-09-06T09:00:00Z,VFR,4,2,87,170,4,24100,30.11,NA,SCT  ft,CYXE 061300Z 17004KT 15SM SCT300 04/02 A3011 RMK CI3 SLP214,2025-09-06T13:22:41Z,2025-09-06T09:22:41Z
CYXE,2025-09-06T14:00:00Z,2025-09-06T10:00:00Z,VFR,7,4,81,160,3,24100,30.11,NA,FEW  ft,CYXE 061400Z 16003KT 15SM FEW300 07/04 A3011 RMK CI2 SLP216,2025-09-06T14:18:40Z,2025-09-06T10:18:40Z
CYXE,2025-09-06T15:00:00Z,2025-09-06T11:00:00Z,VFR,10,4,67,180,8,24100,30.11,NA,FEW  ft,CYXE 061500Z 18008KT 15SM FEW300 10/04 A3011 RMK CI2 SLP215,2025-09-06T15:19:24Z,2025-09-06T11:19:24Z
CYXE,2025-09-06T16:00:00Z,2025-09-06T12:00:00Z,VFR,13,5,59,140,5,24100,30.11,NA,FEW  ft,CYXE 061600Z 14005KT 120V190 15SM FEW300 13/05 A3011 RMK CI1 SLP214,2025-09-06T16:24:53Z,2025-09-06T12:24:53Z
CYXE,2025-09-06T17:00:00Z,2025-09-06T13:00:00Z,VFR,16,5,48,130,8,24100,30.12,NA,FEW  ft,CYXE 061700Z 13008KT 15SM FEW300 16/05 A3012 RMK CI1 SLP215 DENSITY ALT 1900FT,2025-09-06T17:24:33Z,2025-09-06T13:24:33Z
CYXE,2025-09-06T18:00:00Z,2025-09-06T14:00:00Z,VFR,17,4,42,140,6,24100,30.12,NA,FEW  ft,CYXE 061800Z 14006KT 070V170 15SM FEW300 17/04 A3012 RMK CI1 SLP214 DENSITY ALT 2100FT,2025-09-06T18:32:26Z,2025-09-06T14:32:26Z
CYXE,2025-09-06T19:00:00Z,2025-09-06T15:00:00Z,VFR,18,4,40,110,6,24100,30.11,NA,SCT  ft,CYXE 061900Z 11006KT 080V180 15SM SCT300 18/04 A3011 RMK CI3 SLP211 DENSITY ALT 2200FT,2025-09-06T19:18:15Z,2025-09-06T15:18:15Z
CYXE,2025-09-06T20:00:00Z,2025-09-06T16:00:00Z,VFR,19,4,37,130,8,24100,30.1,NA,SCT  ft,CYXE 062000Z 13008KT 070V200 15SM SCT300 19/04 A3010 RMK CI3 SLP208 DENSITY ALT 2300FT,2025-09-06T20:25:16Z,2025-09-06T16:25:16Z
CYXE,2025-09-06T21:00:00Z,2025-09-06T17:00:00Z,VFR,20,4,35,140,6,24100,30.09,NA,FEW  ft,CYXE 062100Z 14006KT 070V220 15SM FEW300 20/04 A3009 RMK CI1 SLP203 DENSITY ALT 2400FT,2025-09-06T21:21:20Z,2025-09-06T17:21:20Z
CYXE,2025-09-06T22:00:00Z,2025-09-06T18:00:00Z,VFR,20,3,33,120,8,24100,30.07,NA,FEW  ft,CYXE 062200Z 12008KT 060V160 15SM FEW300 20/03 A3007 RMK CI1 SLP198 DENSITY ALT 2500FT,2025-09-06T22:23:58Z,2025-09-06T18:23:58Z
CYXE,2025-09-06T23:00:00Z,2025-09-06T19:00:00Z,VFR,20,3,33,160,5,24100,30.06,NA,FEW  ft,CYXE 062300Z 16005KT 090V210 15SM FEW300 20/03 A3006 RMK CI2 SLP195 DENSITY ALT 2500FT,2025-09-06T23:22:38Z,2025-09-06T19:22:38Z
CYXE,2025-09-07T01:00:00Z,2025-09-06T21:00:00Z,VFR,18,4,40,120,5,24100,30.05,NA,FEW  ft,CYXE 070100Z 12005KT 15SM FEW300 18/04 A3005 RMK CI1 SLP191 DENSITY ALT 2200FT,2025-09-07T02:04:15Z,2025-09-06T22:04:15Z
CYXE,2025-09-07T02:00:00Z,2025-09-06T22:00:00Z,VFR,14,4,51,100,9,24100,30.05,NA,FEW  ft,CYXE 070200Z 10009KT 15SM FEW300 14/04 A3005 RMK CI1 SLP193,2025-09-07T03:07:55Z,2025-09-06T23:07:55Z
CYXE,2025-09-07T03:00:00Z,2025-09-06T23:00:00Z,VFR,14,3,48,120,10,24100,30.06,NA,FEW  ft,CYXE 070300Z 12010G16KT 15SM FEW300 14/03 A3006 RMK CI1 SLP192,2025-09-07T03:38:09Z,2025-09-06T23:38:09Z
CYXE,2025-09-07T04:00:00Z,2025-09-07T00:00:00Z,VFR,13,3,51,130,9,24100,30.05,NA,SKC  ft,CYXE 070400Z 13009KT 15SM SKC 13/03 A3005 RMK SLP190,2025-09-07T04:29:49Z,2025-09-07T00:29:49Z
CYXE,2025-09-07T05:00:00Z,2025-09-07T01:00:00Z,VFR,12,2,51,130,10,24100,30.05,NA,SKC  ft,CYXE 070500Z 13010KT 15SM SKC 12/02 A3005 RMK SLP190,2025-09-07T05:25:34Z,2025-09-07T01:25:34Z
CYXE,2025-09-07T06:00:00Z,2025-09-07T02:00:00Z,VFR,10,3,62,130,8,24100,30.05,NA,SKC  ft,CYXE 070600Z 13008KT 15SM SKC 10/03 A3005 RMK SLP189,2025-09-07T06:34:55Z,2025-09-07T02:34:55Z
CYXE,2025-09-07T07:00:00Z,2025-09-07T03:00:00Z,VFR,8,2,66,150,7,24100,30.05,NA,SKC  ft,CYXE 070700Z 15007KT 15SM SKC 08/02 A3005 RMK SLP189,2025-09-07T07:22:56Z,2025-09-07T03:22:56Z
CYXE,2025-09-07T08:00:00Z,2025-09-07T04:00:00Z,VFR,7,2,71,150,8,24100,30.03,NA,FEW  ft,CYXE 070800Z 15008KT 15SM FEW300 07/02 A3003 RMK CI2 SLP184,2025-09-07T08:29:58Z,2025-09-07T04:29:58Z
CYXE,2025-09-07T09:00:00Z,2025-09-07T05:00:00Z,VFR,7,3,76,150,8,24100,30.02,NA,FEW  ft,CYXE 070900Z 15008KT 15SM FEW300 07/03 A3002 RMK CI2 SLP178,2025-09-07T09:23:42Z,2025-09-07T05:23:42Z
CYXE,2025-09-07T10:00:00Z,2025-09-07T06:00:00Z,VFR,7,2,71,160,3,24100,30,NA,FEW  ft,CYXE 071000Z 16003KT 15SM FEW300 07/02 A3000 RMK CI2 SLP172,2025-09-07T10:26:12Z,2025-09-07T06:26:12Z
CYXE,2025-09-07T11:00:00Z,2025-09-07T07:00:00Z,VFR,5,2,81,120,3,24100,29.99,NA,FEW  ft,CYXE 071100Z 12003KT 15SM FEW300 05/02 A2999 RMK CI2 SLP169,2025-09-07T11:19:25Z,2025-09-07T07:19:25Z
CYXE,2025-09-07T12:00:00Z,2025-09-07T08:00:00Z,VFR,6,2,76,160,6,24100,29.98,NA,SCT  ft,CYXE 071200Z 16006KT 15SM SCT300 06/02 A2998 RMK CI3 SLP165,2025-09-07T12:48:17Z,2025-09-07T08:48:17Z
CYXE,2025-09-07T13:00:00Z,2025-09-07T09:00:00Z,VFR,5,2,81,160,5,24100,29.96,NA,SCT  ft,CYXE 071300Z 16005KT 15SM SCT300 05/02 A2996 RMK CI4 SLP162,2025-09-07T13:26:46Z,2025-09-07T09:26:46Z
CYXE,2025-09-07T14:00:00Z,2025-09-07T10:00:00Z,VFR,9,3,66,150,7,24100,29.96,NA,BKN  ft,CYXE 071400Z 15007KT 15SM BKN300 09/03 A2996 RMK CI5 SLP159,2025-09-07T14:23:05Z,2025-09-07T10:23:05Z
CYXE,2025-09-07T15:00:00Z,2025-09-07T11:00:00Z,VFR,11,3,58,170,8,24100,29.95,NA,BKN  ft,CYXE 071500Z 17008KT 15SM BKN300 11/03 A2995 RMK CI5 SLP156,2025-09-07T15:23:38Z,2025-09-07T11:23:38Z
CYXE,2025-09-07T16:00:00Z,2025-09-07T12:00:00Z,VFR,14,4,51,150,5,24100,29.93,NA,BKN  ft,CYXE 071600Z 15005KT 15SM BKN300 14/04 A2993 RMK CI6 SLP149 DENSITY ALT 2000FT,2025-09-07T16:29:11Z,2025-09-07T12:29:11Z
CYXE,2025-09-07T17:00:00Z,2025-09-07T13:00:00Z,VFR,18,5,43,150,5,24100,29.92,NA,BKN  ft,CYXE 071700Z 15005KT 120V180 15SM BKN300 18/05 A2992 RMK CI7 SLP144 DENSITY ALT 2400FT,2025-09-07T17:21:32Z,2025-09-07T13:21:32Z
CYXE,2025-09-07T18:00:00Z,2025-09-07T14:00:00Z,VFR,21,5,35,130,5,24100,29.9,NA,BKN  ft,CYXE 071800Z 13005KT 120V230 15SM BKN300 21/05 A2990 RMK CI7 SLP136 DENSITY ALT 2800FT,2025-09-07T18:32:54Z,2025-09-07T14:32:54Z
CYXE,2025-09-07T19:00:00Z,2025-09-07T15:00:00Z,VFR,23,4,29,0,6,24100,29.88,NA,BKN  ft,CYXE 071900Z VRB06KT 15SM BKN300 23/04 A2988 RMK CI6 SLP129 DENSITY ALT 3000FT,2025-09-07T19:18:51Z,2025-09-07T15:18:51Z
CYXE,2025-09-07T20:00:00Z,2025-09-07T16:00:00Z,VFR,24,5,29,180,3,24100,29.87,NA,BKN  ft,CYXE 072000Z 18003KT 15SM BKN300 24/05 A2987 RMK CI7 SLP126 DENSITY ALT 3200FT,2025-09-07T20:25:53Z,2025-09-07T16:25:53Z
CYXE,2025-09-07T21:00:00Z,2025-09-07T17:00:00Z,VFR,25,4,26,210,5,24100,29.85,NA,OVC  ft,CYXE 072100Z 21005KT 160V240 15SM OVC280 25/04 A2985 RMK CI8 SLP119 DENSITY ALT 3400FT,2025-09-07T21:21:34Z,2025-09-07T17:21:34Z
CYXS,2025-09-05T21:00:00Z,2025-09-05T17:00:00Z,VFR,21,11,53,0,3,14500,29.92,NA,CLR  ft,CYXS 052100Z AUTO VRB03KT 9SM CLR 21/11 A2992 RMK SLP142 DENSITY ALT 3600FT,2025-09-05T22:02:53Z,2025-09-05T18:02:53Z
CYXS,2025-09-05T22:00:00Z,2025-09-05T18:00:00Z,VFR,23,13,53,0,0,14500,29.91,NA,CLR  ft,CYXS 052200Z AUTO 00000KT 9SM CLR 23/13 A2991 RMK SLP137 DENSITY ALT 3800FT,2025-09-05T22:18:45Z,2025-09-05T18:18:45Z
CYXS,2025-09-05T23:00:00Z,2025-09-05T19:00:00Z,VFR,24,13,50,320,3,12900,29.89,NA,CLR  ft,CYXS 052300Z AUTO 32003KT 290V020 8SM CLR 24/13 A2989 RMK SLP130 DENSITY ALT 3900FT,2025-09-05T23:20:07Z,2025-09-05T19:20:07Z
CYXS,2025-09-06T01:00:00Z,2025-09-05T21:00:00Z,VFR,23,12,50,0,0,12900,29.88,NA,CLR  ft,CYXS 060100Z AUTO 00000KT 8SM CLR 23/12 A2988 RMK SLP128 DENSITY ALT 3800FT,2025-09-06T01:42:36Z,2025-09-05T21:42:36Z
CYXS,2025-09-06T02:54:00Z,2025-09-05T22:54:00Z,MVFR,16,13,83,0,0,8000,29.88,NA,CLR  ft,CYXS 060254Z AUTO 00000KT 5SM HZ CLR 16/13 A2988 RMK SLP131 DENSITY ALT 3000FT,2025-09-06T02:56:35Z,2025-09-05T22:56:35Z
CYXS,2025-09-06T03:27:00Z,2025-09-05T23:27:00Z,MVFR,15,12,82,60,2,8000,29.88,NA,CLR  ft,CYXS 060327Z AUTO 06002KT 5SM BR CLR 15/12 A2988 RMK SLP131 DENSITY ALT 2900FT,2025-09-06T03:30:46Z,2025-09-05T23:30:46Z
CYXS,2025-09-06T04:13:00Z,2025-09-06T00:13:00Z,MVFR,13,11,88,0,0,8000,29.88,NA,CLR  ft,CYXS 060413Z AUTO 00000KT 5SM BR CLR 13/11 A2988 RMK SLP133 DENSITY ALT 2600FT,2025-09-06T04:25:46Z,2025-09-06T00:25:46Z
CYXS,2025-09-06T05:00:00Z,2025-09-06T01:00:00Z,MVFR,12,11,94,0,2,8000,29.88,NA,CLR  ft,CYXS 060500Z AUTO VRB02KT 5SM BR CLR 12/11 A2988 RMK SLP131 DENSITY ALT 2600FT,2025-09-06T05:19:56Z,2025-09-06T01:19:56Z
CYXS,2025-09-06T06:10:00Z,2025-09-06T02:10:00Z,VFR,10,10,100,0,0,9700,29.88,NA,CLR  ft,CYXS 060610Z AUTO 00000KT 6SM BR CLR 10/10 A2988 RMK SLP130,2025-09-06T06:29:49Z,2025-09-06T02:29:49Z
CYXS,2025-09-06T06:42:00Z,2025-09-06T02:42:00Z,MVFR,9,9,100,250,2,4800,29.88,NA,CLR  ft,CYXS 060642Z AUTO 25002KT 3SM BR CLR 09/09 A2988 RMK VIS VRB 1 1/4-3 SLP131,2025-09-06T06:46:48Z,2025-09-06T02:46:48Z
CYXS,2025-09-06T07:15:00Z,2025-09-06T03:15:00Z,VFR,10,9,94,0,2,9700,29.89,NA,CLR  ft,CYXS 060715Z AUTO VRB02KT 6SM BR CLR 10/09 A2989 RMK SLP134,2025-09-06T07:18:41Z,2025-09-06T03:18:41Z
CYXS,2025-09-06T07:20:00Z,2025-09-06T03:20:00Z,MVFR,9,9,100,90,4,8000,29.89,NA,CLR  ft,CYXS 060720Z AUTO 09004KT 080V140 5SM BR CLR 09/09 A2989 RMK SLP133,2025-09-06T07:39:08Z,2025-09-06T03:39:08Z
CYXS,2025-09-06T08:03:00Z,2025-09-06T04:03:00Z,VFR,10,10,100,180,4,9700,29.9,NA,FEW  ft,CYXS 060803Z AUTO 18004KT 6SM BR FEW140 10/10 A2990 RMK SLP133,2025-09-06T08:25:12Z,2025-09-06T04:25:12Z
CYXS,2025-09-06T09:07:00Z,2025-09-06T05:07:00Z,MVFR,9,9,100,220,2,8000,29.9,NA,CLR  ft,CYXS 060907Z AUTO 22002KT 5SM BR CLR 09/09 A2990 RMK SLP135,2025-09-06T09:19:47Z,2025-09-06T05:19:47Z
CYXS,2025-09-06T09:32:00Z,2025-09-06T05:32:00Z,VFR,9,9,100,0,0,9700,29.91,NA,CLR  ft,CYXS 060932Z AUTO 00000KT 6SM BR CLR 09/09 A2991 RMK SLP135,2025-09-06T09:38:40Z,2025-09-06T05:38:40Z
CYXS,2025-09-06T10:00:00Z,2025-09-06T06:00:00Z,VFR,8,7,93,180,2,9700,29.91,NA,CLR  ft,CYXS 061000Z AUTO 18002KT 6SM BR CLR 08/07 A2991 RMK SLP137,2025-09-06T10:20:31Z,2025-09-06T06:20:31Z
CYXS,2025-09-06T11:00:00Z,2025-09-06T07:00:00Z,VFR,8,7,93,0,0,14500,29.91,NA,CLR  ft,CYXS 061100Z AUTO 00000KT 9SM CLR 08/07 A2991 RMK SLP136,2025-09-06T11:16:01Z,2025-09-06T07:16:01Z
CYXS,2025-09-06T11:29:00Z,2025-09-06T07:29:00Z,MVFR,7,6,93,0,0,4800,29.92,NA,CLR  ft,CYXS 061129Z AUTO 00000KT 3SM BR CLR 07/06 A2992 RMK SLP139,2025-09-06T11:38:58Z,2025-09-06T07:38:58Z
CYXS,2025-09-06T12:36:00Z,2025-09-06T08:36:00Z,MVFR,6,6,100,0,0,8000,29.92,NA,FEW  ft,CYXS 061236Z AUTO 00000KT 5SM BR FEW066 06/06 A2992 RMK SLP141,2025-09-06T12:40:01Z,2025-09-06T08:40:01Z
CYXS,2025-09-06T13:16:00Z,2025-09-06T09:16:00Z,LIFR,7,7,100,0,0,800,29.92,NA,BKN  ft,CYXS 061316Z AUTO 00000KT 1/2SM -RA FG BKN007 07/07 A2992 RMK SLP142,2025-09-06T13:22:40Z,2025-09-06T09:22:40Z
CYXS,2025-09-06T13:34:00Z,2025-09-06T09:34:00Z,LIFR,6,6,100,0,0,1200,29.93,NA,FEW  ft,CYXS 061334Z AUTO 00000KT 3/4SM -RA BR FEW007 06/06 A2993 RMK VIS VRB 1/4-3 SLP145,2025-09-06T13:38:41Z,2025-09-06T09:38:41Z
CYXS,2025-09-06T14:16:00Z,2025-09-06T10:16:00Z,LIFR,6,6,100,0,0,2800,29.93,NA,BKN  ft; BKN  ft,CYXS 061416Z AUTO 00000KT 1 3/4SM BR BKN001 BKN007 06/06 A2993 RMK SLP152,2025-09-06T14:18:39Z,2025-09-06T10:18:39Z
CYXS,2025-09-06T14:35:00Z,2025-09-06T10:35:00Z,LIFR,7,7,100,0,0,2400,29.94,NA,OVC  ft,CYXS 061435Z AUTO 00000KT 1 1/2SM BR OVC001 07/07 A2994 RMK SLP152,2025-09-06T14:38:52Z,2025-09-06T10:38:52Z
CYXS,2025-09-06T15:00:00Z,2025-09-06T11:00:00Z,LIFR,8,8,100,180,2,NA,29.94,NA,OVX  ft,CYXS 061500Z AUTO 18002KT 0SM -RA FG VV001 08/08 A2994 RMK SLP152,2025-09-06T15:19:24Z,2025-09-06T11:19:24Z
CYXS,2025-09-06T15:32:00Z,2025-09-06T11:32:00Z,MVFR,9,9,100,0,0,4800,29.94,NA,SCT  ft,CYXS 061532Z AUTO 00000KT 3SM BR SCT002 09/09 A2994 RMK SLP154,2025-09-06T15:38:46Z,2025-09-06T11:38:46Z
CYXS,2025-09-06T16:00:00Z,2025-09-06T12:00:00Z,VFR,10,10,100,0,0,12900,29.95,NA,CLR  ft,CYXS 061600Z AUTO 00000KT 8SM CLR 10/10 A2995 RMK SLP155,2025-09-06T16:24:53Z,2025-09-06T12:24:53Z
CYXS,2025-09-06T17:00:00Z,2025-09-06T13:00:00Z,VFR,12,12,100,170,4,14500,29.95,NA,CLR  ft,CYXS 061700Z AUTO 17004KT 9SM CLR 12/12 A2995 RMK SLP155 DENSITY ALT 2500FT,2025-09-06T17:24:32Z,2025-09-06T13:24:32Z
CYXS,2025-09-06T18:00:00Z,2025-09-06T14:00:00Z,VFR,15,12,82,170,3,14500,29.95,NA,CLR  ft,CYXS 061800Z AUTO 17003KT 130V220 9SM CLR 15/12 A2995 RMK SLP157 DENSITY ALT 2800FT,2025-09-06T18:32:26Z,2025-09-06T14:32:26Z
CYXS,2025-09-06T19:00:00Z,2025-09-06T15:00:00Z,VFR,17,12,73,160,3,14500,29.95,NA,BKN  ft,CYXS 061900Z AUTO 16003KT 120V210 9SM BKN150 17/12 A2995 RMK SLP154 DENSITY ALT 3100FT,2025-09-06T19:18:14Z,2025-09-06T15:18:14Z
CYXS,2025-09-06T20:00:00Z,2025-09-06T16:00:00Z,VFR,19,12,64,0,2,14500,29.94,NA,CLR  ft,CYXS 062000Z AUTO VRB02KT 9SM CLR 19/12 A2994 RMK SLP150 DENSITY ALT 3300FT,2025-09-06T20:25:15Z,2025-09-06T16:25:15Z
CYXS,2025-09-06T21:00:00Z,2025-09-06T17:00:00Z,VFR,21,13,60,0,0,14500,29.94,NA,CLR  ft,CYXS 062100Z AUTO 00000KT 9SM CLR 21/13 A2994 RMK SLP149 DENSITY ALT 3500FT,2025-09-06T21:21:20Z,2025-09-06T17:21:20Z
CYXS,2025-09-06T22:00:00Z,2025-09-06T18:00:00Z,VFR,21,13,60,20,5,12900,29.93,NA,CLR  ft,CYXS 062200Z AUTO 02005KT 8SM CLR 21/13 A2993 RMK SLP146 DENSITY ALT 3500FT,2025-09-06T22:23:57Z,2025-09-06T18:23:57Z
CYXS,2025-09-06T23:00:00Z,2025-09-06T19:00:00Z,VFR,20,13,64,330,4,12900,29.93,NA,CLR  ft,CYXS 062300Z AUTO 33004KT 8SM CLR 20/13 A2993 RMK SLP145 DENSITY ALT 3400FT,2025-09-06T23:22:37Z,2025-09-06T19:22:37Z
CYXS,2025-09-07T01:49:00Z,2025-09-06T21:49:00Z,MVFR,18,14,78,240,3,8000,29.92,NA,FEW  ft,CYXS 070149Z AUTO 24003KT 190V250 5SM HZ FEW150 18/14 A2992 RMK SLP145 DENSITY ALT 3200FT,2025-09-07T02:04:15Z,2025-09-06T22:04:15Z
CYXS,2025-09-07T02:46:00Z,2025-09-06T22:46:00Z,MVFR,15,13,88,250,4,8000,29.91,NA,FEW  ft,CYXS 070246Z AUTO 25004KT 5SM BR FEW170 15/13 A2991 RMK SLP142 DENSITY ALT 2800FT,2025-09-07T03:07:55Z,2025-09-06T23:07:55Z
CYXS,2025-09-07T03:00:00Z,2025-09-06T23:00:00Z,MVFR,15,14,94,0,2,8000,29.9,NA,CLR  ft,CYXS 070300Z AUTO VRB02KT 5SM BR CLR 15/14 A2990 RMK SLP138 DENSITY ALT 2900FT,2025-09-07T03:38:08Z,2025-09-06T23:38:08Z
CYXS,2025-09-07T04:17:00Z,2025-09-07T00:17:00Z,VFR,15,14,94,260,6,9700,29.91,NA,BKN  ft; BKN  ft,CYXS 070417Z AUTO 26006KT 6SM BR BKN150 BKN170 15/14 A2991 RMK SLP141 DENSITY ALT 2900FT,2025-09-07T04:29:49Z,2025-09-07T00:29:49Z
CYXS,2025-09-07T04:33:00Z,2025-09-07T00:33:00Z,MVFR,15,14,94,0,0,8000,29.91,NA,FEW  ft; BKN  ft,CYXS 070433Z AUTO 00000KT 5SM BR FEW140 BKN180 15/14 A2991 RMK SLP142 DENSITY ALT 2900FT,2025-09-07T04:44:25Z,2025-09-07T00:44:25Z
CYXS,2025-09-07T05:00:00Z,2025-09-07T01:00:00Z,MVFR,13,13,100,80,2,8000,29.91,NA,SCT  ft; BKN  ft,CYXS 070500Z AUTO 08002KT 5SM BR SCT150 BKN180 13/13 A2991 RMK SLP142 DENSITY ALT 2600FT,2025-09-07T05:25:34Z,2025-09-07T01:25:34Z
CYXS,2025-09-07T06:08:00Z,2025-09-07T02:08:00Z,MVFR,13,13,100,210,2,4800,29.91,NA,FEW  ft,CYXS 070608Z AUTO 21002KT 3SM BR FEW150 13/13 A2991 RMK SLP141 DENSITY ALT 2600FT,2025-09-07T06:34:55Z,2025-09-07T02:34:55Z
CYXS,2025-09-07T07:14:00Z,2025-09-07T03:14:00Z,IFR,11,11,100,0,0,2800,29.92,NA,SCT  ft,CYXS 070714Z AUTO 00000KT 1 3/4SM BR SCT150 11/11 A2992 RMK SLP142,2025-09-07T07:22:55Z,2025-09-07T03:22:55Z
CYXS,2025-09-07T07:37:00Z,2025-09-07T03:37:00Z,IFR,12,12,100,0,0,3200,29.92,NA,FEW  ft,CYXS 070737Z AUTO 00000KT 2SM BR FEW150 12/12 A2992 RMK SLP142,2025-09-07T07:41:50Z,2025-09-07T03:41:50Z
CYXS,2025-09-07T08:25:00Z,2025-09-07T04:25:00Z,LIFR,9,9,100,230,2,600,29.91,NA,FEW  ft; SCT  ft; BKN  ft,CYXS 070825Z AUTO 23002KT 3/8SM FG FEW008 SCT076 BKN150 09/09 A2991 RMK SLP140,2025-09-07T08:29:57Z,2025-09-07T04:29:57Z
CYXS,2025-09-07T08:35:00Z,2025-09-07T04:35:00Z,LIFR,10,10,100,230,3,800,29.92,NA,BKN  ft; BKN  ft,CYXS 070835Z AUTO 23003KT 1/2SM -RA FG BKN071 BKN150 10/10 A2992 RMK VIS VRB 1/8-1 3/4 SLP140,2025-09-07T08:44:43Z,2025-09-07T04:44:43Z
CYXS,2025-09-07T09:16:00Z,2025-09-07T05:16:00Z,LIFR,9,9,100,0,0,1000,29.91,NA,FEW  ft,CYXS 070916Z AUTO 00000KT 5/8SM -RA BR FEW071 09/09 A2991 RMK SLP139,2025-09-07T09:23:41Z,2025-09-07T05:23:41Z
CYXS,2025-09-07T09:37:00Z,2025-09-07T05:37:00Z,LIFR,9,9,100,0,0,600,29.92,NA,FEW  ft,CYXS 070937Z AUTO 00000KT 3/8SM FG FEW005 09/09 A2992 RMK SLP141,2025-09-07T09:41:32Z,2025-09-07T05:41:32Z
CYXS,2025-09-07T10:23:00Z,2025-09-07T06:23:00Z,LIFR,8,8,100,0,2,800,29.92,NA,BKN  ft,CYXS 071023Z AUTO VRB02KT 1/2SM FG BKN005 08/08 A2992 RMK SLP141,2025-09-07T10:26:11Z,2025-09-07T06:26:11Z
CYXS,2025-09-07T10:40:00Z,2025-09-07T06:40:00Z,MVFR,8,8,100,250,3,4800,29.92,NA,FEW  ft,CYXS 071040Z AUTO 25003KT 3SM BR FEW003 08/08 A2992 RMK SLP142,2025-09-07T10:42:04Z,2025-09-07T06:42:04Z
CYXS,2025-09-07T11:14:00Z,2025-09-07T07:14:00Z,IFR,7,7,100,280,2,1600,29.92,NA,CLR  ft,CYXS 071114Z AUTO 28002KT 1SM -RA BR CLR 07/07 A2992 RMK VIS VRB 3/8-3 SLP143,2025-09-07T11:19:24Z,2025-09-07T07:19:24Z
CYXS,2025-09-07T11:23:00Z,2025-09-07T07:23:00Z,MVFR,8,8,100,290,3,4800,29.92,NA,CLR  ft,CYXS 071123Z AUTO 29003KT 3SM BR CLR 08/08 A2992 RMK SLP144,2025-09-07T11:41:29Z,2025-09-07T07:41:29Z
CYXS,2025-09-07T12:43:00Z,2025-09-07T08:43:00Z,LIFR,8,8,100,190,3,NA,29.93,NA,OVX  ft,CYXS 071243Z AUTO 19003KT 120V240 1/2SM FG VV003 08/08 A2993 RMK SLP147,2025-09-07T12:48:17Z,2025-09-07T08:48:17Z
CYXS,2025-09-07T13:11:00Z,2025-09-07T09:11:00Z,LIFR,7,7,100,0,2,600,29.93,NA,FEW  ft; BKN  ft,CYXS 071311Z AUTO VRB02KT 3/8SM FG FEW001 BKN007 07/07 A2993 RMK SLP148,2025-09-07T13:26:45Z,2025-09-07T09:26:45Z
CYXS,2025-09-07T13:40:00Z,2025-09-07T09:40:00Z,MVFR,8,8,100,200,5,6400,29.93,NA,SCT  ft; BKN  ft; OVC  ft,CYXS 071340Z AUTO 20005KT 4SM BR SCT001 BKN011 OVC130 08/08 A2993 RMK SLP148,2025-09-07T13:42:01Z,2025-09-07T09:42:01Z
CYXS,2025-09-07T14:16:00Z,2025-09-07T10:16:00Z,LIFR,7,7,100,170,4,400,29.93,NA,BKN  ft,CYXS 071416Z AUTO 17004KT 1/4SM FG BKN005 07/07 A2993 RMK SLP152,2025-09-07T14:23:05Z,2025-09-07T10:23:05Z
CYXS,2025-09-07T15:20:00Z,2025-09-07T11:20:00Z,LIFR,10,10,100,0,2,NA,29.95,NA,OVX  ft,CYXS 071520Z AUTO VRB02KT 3/8SM FG VV002 10/10 A2995 RMK SLP155,2025-09-07T15:23:37Z,2025-09-07T11:23:37Z
CYXS,2025-09-07T16:23:00Z,2025-09-07T12:23:00Z,LIFR,12,12,100,180,7,3600,29.95,NA,OVC  ft,CYXS 071623Z AUTO 18007KT 2 1/4SM BR OVC003 12/12 A2995 RMK SLP155,2025-09-07T16:29:10Z,2025-09-07T12:29:10Z
CYXS,2025-09-07T16:37:00Z,2025-09-07T12:37:00Z,LIFR,12,12,100,170,6,4800,29.95,NA,OVC  ft,CYXS 071637Z AUTO 17006KT 3SM BR OVC003 12/12 A2995 RMK SLP155 DENSITY ALT 2500FT,2025-09-07T16:44:42Z,2025-09-07T12:44:42Z
CYXS,2025-09-07T17:00:00Z,2025-09-07T13:00:00Z,VFR,14,13,94,180,6,12900,29.96,NA,SCT  ft,CYXS 071700Z AUTO 18006KT 8SM SCT003 14/13 A2996 RMK SLP156 DENSITY ALT 2700FT,2025-09-07T17:21:32Z,2025-09-07T13:21:32Z
CYXS,2025-09-07T18:14:00Z,2025-09-07T14:14:00Z,MVFR,18,12,68,160,7,8000,29.95,NA,CLR  ft,CYXS 071814Z AUTO 16007KT 5SM HZ CLR 18/12 A2995 RMK SLP153 DENSITY ALT 3100FT,2025-09-07T18:32:53Z,2025-09-07T14:32:53Z
CYXS,2025-09-07T19:00:00Z,2025-09-07T15:00:00Z,MVFR,20,13,64,170,6,8000,29.95,NA,CLR  ft,CYXS 071900Z AUTO 17006KT 140V200 5SM HZ CLR 20/13 A2995 RMK SLP152 DENSITY ALT 3400FT,2025-09-07T19:18:50Z,2025-09-07T15:18:50Z
CYXS,2025-09-07T20:00:00Z,2025-09-07T16:00:00Z,MVFR,22,12,53,180,4,6400,29.94,NA,CLR  ft,CYXS 072000Z AUTO 18004KT 140V210 4SM HZ CLR 22/12 A2994 RMK SLP148 DENSITY ALT 3600FT,2025-09-07T20:25:53Z,2025-09-07T16:25:53Z
CYXS,2025-09-07T21:00:00Z,2025-09-07T17:00:00Z,MVFR,23,12,50,0,3,6400,29.94,NA,CLR  ft,CYXS 072100Z AUTO VRB03KT 4SM HZ CLR 23/12 A2994 RMK SLP145 DENSITY ALT 3800FT,2025-09-07T21:21:34Z,2025-09-07T17:21:34Z
CYXT,2025-09-05T21:00:00Z,2025-09-05T17:00:00Z,VFR,23,15,61,0,2,32200,29.84,NA,FEW  ft,CYXT 052100Z VRB02KT 20SM FEW150 23/15 A2984 RMK AC1 AC TR FU SLP109 DENSITY ALT 1900FT,2025-09-05T22:02:54Z,2025-09-05T18:02:54Z
CYXT,2025-09-05T22:00:00Z,2025-09-05T18:00:00Z,VFR,24,15,57,0,0,24100,29.83,NA,FEW  ft,CYXT 052200Z 00000KT 15SM FEW130 24/15 A2983 RMK AC2 SLP104 DENSITY ALT 2100FT,2025-09-05T22:18:45Z,2025-09-05T18:18:45Z
CYXT,2025-09-05T23:00:00Z,2025-09-05T19:00:00Z,VFR,25,16,57,0,2,24100,29.82,NA,SKC  ft,CYXT 052300Z VRB02KT 15SM SKC 25/16 A2982 RMK FU SLP100 DENSITY ALT 2200FT,2025-09-05T23:20:07Z,2025-09-05T19:20:07Z
CYXT,2025-09-06T01:00:00Z,2025-09-05T21:00:00Z,VFR,26,17,58,220,4,24100,29.81,NA,SKC  ft,CYXT 060100Z 22004KT 190V270 15SM SKC 26/17 A2981 RMK FU SLP096 DENSITY ALT 2300FT,2025-09-06T01:42:36Z,2025-09-05T21:42:36Z
CYXT,2025-09-06T02:00:00Z,2025-09-05T22:00:00Z,VFR,24,17,65,250,2,24100,29.81,NA,SKC  ft,CYXT 060200Z 25002KT 15SM SKC 24/17 A2981 RMK FU SLP099 DENSITY ALT 2100FT,2025-09-06T02:56:35Z,2025-09-05T22:56:35Z
CYXT,2025-09-06T03:00:00Z,2025-09-05T23:00:00Z,VFR,21,16,73,150,5,24100,29.82,NA,SKC  ft,CYXT 060300Z 15005KT 15SM SKC 21/16 A2982 RMK FU SLP100 DENSITY ALT 1800FT,2025-09-06T03:30:46Z,2025-09-05T23:30:46Z
CYXT,2025-09-06T04:00:00Z,2025-09-06T00:00:00Z,VFR,19,16,83,180,6,24100,29.83,NA,SKC  ft,CYXT 060400Z 18006KT 15SM SKC 19/16 A2983 RMK FU SLP107 DENSITY ALT 1500FT,2025-09-06T04:25:46Z,2025-09-06T00:25:46Z
CYXT,2025-09-06T05:00:00Z,2025-09-06T01:00:00Z,VFR,18,15,83,180,6,24100,29.85,NA,SKC  ft,CYXT 060500Z 18006KT 15SM SKC 18/15 A2985 RMK FU SLP111 DENSITY ALT 1400FT,2025-09-06T05:19:56Z,2025-09-06T01:19:56Z
CYXT,2025-09-06T06:00:00Z,2025-09-06T02:00:00Z,VFR,17,16,94,190,4,24100,29.86,NA,SKC  ft,CYXT 060600Z 19004KT 15SM SKC 17/16 A2986 RMK FU SLP115 DENSITY ALT 1300FT,2025-09-06T06:29:50Z,2025-09-06T02:29:50Z
CYXT,2025-09-06T07:00:00Z,2025-09-06T03:00:00Z,VFR,16,16,100,200,3,24100,29.87,NA,SKC  ft,CYXT 060700Z 20003KT 15SM SKC 16/16 A2987 RMK FU SLP120 DENSITY ALT 1100FT,2025-09-06T07:18:42Z,2025-09-06T03:18:42Z
CYXT,2025-09-06T08:00:00Z,2025-09-06T04:00:00Z,VFR,16,16,100,0,0,24100,29.89,NA,SKC  ft,CYXT 060800Z 00000KT 15SM SKC 16/16 A2989 RMK FU SLP124 DENSITY ALT 1100FT,2025-09-06T08:25:12Z,2025-09-06T04:25:12Z
CYXT,2025-09-06T09:00:00Z,2025-09-06T05:00:00Z,VFR,15,15,100,230,2,24100,29.89,NA,SKC  ft,CYXT 060900Z 23002KT 15SM SKC 15/15 A2989 RMK FU SLP124 DENSITY ALT 1000FT,2025-09-06T09:19:47Z,2025-09-06T05:19:47Z
CYXT,2025-09-06T10:00:00Z,2025-09-06T06:00:00Z,VFR,14,14,100,0,2,24100,29.89,NA,SKC  ft,CYXT 061000Z VRB02KT 15SM SKC 14/14 A2989 RMK FU SLP126,2025-09-06T10:20:31Z,2025-09-06T06:20:31Z
CYXT,2025-09-06T11:00:00Z,2025-09-06T07:00:00Z,VFR,14,14,100,340,2,24100,29.9,NA,SKC  ft,CYXT 061100Z 34002KT 15SM SKC 14/14 A2990 RMK FU SLP129,2025-09-06T11:16:01Z,2025-09-06T07:16:01Z
CYXT,2025-09-06T12:00:00Z,2025-09-06T08:00:00Z,VFR,14,14,100,320,3,24100,29.91,NA,SKC  ft,CYXT 061200Z 32003KT 15SM SKC 14/14 A2991 RMK FU SLP130,2025-09-06T12:40:01Z,2025-09-06T08:40:01Z
CYXT,2025-09-06T13:14:00Z,2025-09-06T09:14:00Z,LIFR,13,13,100,290,3,1200,29.91,NA,FEW  ft,CYXT 061314Z 29003KT 3/4SM PRFG BR FEW210 13/13 A2991 RMK FG3CI1 CI TR SLP130,2025-09-06T13:22:40Z,2025-09-06T09:22:40Z
CYXT,2025-09-06T13:19:00Z,2025-09-06T09:19:00Z,LIFR,13,13,100,280,2,NA,29.91,NA,OVX  ft,CYXT 061319Z 28002KT 3/8SM FG VV001 13/13 A2991 RMK FG8 SLP130,2025-09-06T13:38:42Z,2025-09-06T09:38:42Z
CYXT,2025-09-06T14:00:00Z,2025-09-06T10:00:00Z,LIFR,12,12,100,300,2,NA,29.91,NA,OVX  ft,CYXT 061400Z 30002KT 1/8SM FG VV001 12/12 A2991 RMK FG8 SLP133,2025-09-06T14:18:39Z,2025-09-06T10:18:39Z
CYXT,2025-09-06T15:00:00Z,2025-09-06T11:00:00Z,LIFR,13,13,100,310,4,NA,29.92,NA,OVX  ft,CYXT 061500Z 31004KT 1/8SM FG VV001 13/13 A2992 RMK FG8 SLP137,2025-09-06T15:19:24Z,2025-09-06T11:19:24Z
CYXT,2025-09-06T16:00:00Z,2025-09-06T12:00:00Z,LIFR,14,14,100,0,2,NA,29.93,NA,OVX  ft,CYXT 061600Z VRB02KT 1/8SM FG VV001 14/14 A2993 RMK FG8 SLP140,2025-09-06T16:24:53Z,2025-09-06T12:24:53Z
CYXT,2025-09-06T17:05:00Z,2025-09-06T13:05:00Z,LIFR,14,14,100,0,0,NA,29.93,NA,OVX  ft,CYXT 061705Z 00000KT 1/2SM FG VV001 14/14 A2993 RMK FG8 SLP140,2025-09-06T17:08:12Z,2025-09-06T13:08:12Z
CYXT,2025-09-06T17:18:00Z,2025-09-06T13:18:00Z,LIFR,14,14,100,0,2,1200,29.93,NA,SKC  ft,CYXT 061718Z VRB02KT 3/4SM BCFG BR SKC 14/14 A2993 RMK SLP140,2025-09-06T17:24:32Z,2025-09-06T13:24:32Z
CYXT,2025-09-06T17:26:00Z,2025-09-06T13:26:00Z,LIFR,14,14,100,0,0,1600,29.93,NA,BKN  ft,CYXT 061726Z 00000KT 1SM BCFG BR BKN003 14/14 A2993 RMK FG5SF2 SLP140,2025-09-06T17:41:54Z,2025-09-06T13:41:54Z
CYXT,2025-09-06T18:25:00Z,2025-09-06T14:25:00Z,IFR,16,16,100,250,3,4800,29.92,NA,BKN  ft; BKN  ft,CYXT 061825Z 25003KT 220V330 3SM BR BKN005 BKN210 16/16 A2992 RMK FG2SF3CI1 CI TR SLP136 DENSITY ALT 1000FT,2025-09-06T18:32:26Z,2025-09-06T14:32:26Z
CYXT,2025-09-06T18:41:00Z,2025-09-06T14:41:00Z,MVFR,16,16,100,260,3,6400,29.92,NA,FEW  ft; SCT  ft,CYXT 061841Z 26003KT 240V350 4SM BR FEW005 SCT210 16/16 A2992 RMK FG1SF1CI1 SLP137 DENSITY ALT 1100FT,2025-09-06T18:45:15Z,2025-09-06T14:45:15Z
CYXT,2025-09-06T19:00:00Z,2025-09-06T15:00:00Z,VFR,17,16,94,0,0,24100,29.91,NA,FEW  ft; FEW  ft,CYXT 061900Z 00000KT 15SM FEW005 FEW210 17/16 A2991 RMK FG1SF1CI1 SF TR FU VIS W 4 SLP133 DENSITY ALT 1200FT,2025-09-06T19:18:14Z,2025-09-06T15:18:14Z
CYXT,2025-09-06T20:00:00Z,2025-09-06T16:00:00Z,VFR,21,16,73,0,3,32200,29.91,NA,FEW  ft,CYXT 062000Z VRB03KT 20SM FEW210 21/16 A2991 RMK CI1 FU SLP132 DENSITY ALT 1600FT,2025-09-06T20:25:15Z,2025-09-06T16:25:15Z
CYXT,2025-09-06T21:00:00Z,2025-09-06T17:00:00Z,VFR,23,16,65,0,2,32200,29.9,NA,FEW  ft,CYXT 062100Z VRB02KT 20SM FEW210 23/16 A2990 RMK CI1 CI TR FU SLP127 DENSITY ALT 1900FT,2025-09-06T21:21:20Z,2025-09-06T17:21:20Z
CYXT,2025-09-06T22:00:00Z,2025-09-06T18:00:00Z,VFR,25,16,57,210,4,32200,29.89,NA,FEW  ft,CYXT 062200Z 21004KT 200V330 20SM FEW210 25/16 A2989 RMK CI1 CI TR FU SLP124 DENSITY ALT 2100FT,2025-09-06T22:23:57Z,2025-09-06T18:23:57Z
CYXT,2025-09-06T23:00:00Z,2025-09-06T19:00:00Z,VFR,26,16,54,150,4,32200,29.88,NA,FEW  ft,CYXT 062300Z 15004KT 100V190 20SM FEW210 26/16 A2988 RMK CI1 CI TR FU SLP119 DENSITY ALT 2300FT,2025-09-06T23:22:37Z,2025-09-06T19:22:37Z
CYXT,2025-09-07T01:00:00Z,2025-09-06T21:00:00Z,VFR,26,15,51,170,8,32200,29.87,NA,FEW  ft,CYXT 070100Z 17008KT 20SM FEW210 26/15 A2987 RMK CI1 CI TR FU SLP117 DENSITY ALT 2200FT,2025-09-07T02:04:15Z,2025-09-06T22:04:15Z
CYXT,2025-09-07T02:00:00Z,2025-09-06T22:00:00Z,VFR,24,16,61,160,9,32200,29.86,NA,FEW  ft,CYXT 070200Z 16009KT 20SM FEW210 24/16 A2986 RMK CI1 CI TR FU SLP116 DENSITY ALT 2000FT,2025-09-07T03:07:55Z,2025-09-06T23:07:55Z
CYXT,2025-09-07T03:00:00Z,2025-09-06T23:00:00Z,VFR,21,16,73,230,3,32200,29.87,NA,SKC  ft,CYXT 070300Z 23003KT 160V250 20SM SKC 21/16 A2987 RMK SLP119 DENSITY ALT 1700FT,2025-09-07T03:38:08Z,2025-09-06T23:38:08Z
CYXT,2025-09-07T04:00:00Z,2025-09-07T00:00:00Z,VFR,19,16,83,180,9,32200,29.89,NA,SKC  ft,CYXT 070400Z 18009KT 20SM SKC 19/16 A2989 RMK SLP125 DENSITY ALT 1500FT,2025-09-07T04:29:49Z,2025-09-07T00:29:49Z
CYXT,2025-09-07T05:00:00Z,2025-09-07T01:00:00Z,VFR,17,15,88,160,8,24100,29.9,NA,SKC  ft,CYXT 070500Z 16008KT 15SM SKC 17/15 A2990 RMK FU SLP131 DENSITY ALT 1200FT,2025-09-07T05:25:34Z,2025-09-07T01:25:34Z
CYXT,2025-09-07T06:00:00Z,2025-09-07T02:00:00Z,VFR,17,15,88,170,4,32200,29.92,NA,SKC  ft,CYXT 070600Z 17004KT 20SM SKC 17/15 A2992 RMK SLP135 DENSITY ALT 1100FT,2025-09-07T06:34:55Z,2025-09-07T02:34:55Z
CYXT,2025-09-07T07:00:00Z,2025-09-07T03:00:00Z,VFR,16,15,94,180,4,32200,29.93,NA,SKC  ft,CYXT 070700Z 18004KT 20SM SKC 16/15 A2993 RMK FU SLP140 DENSITY ALT 1000FT,2025-09-07T07:22:55Z,2025-09-07T03:22:55Z
CYXT,2025-09-07T08:00:00Z,2025-09-07T04:00:00Z,VFR,16,15,94,190,8,24100,29.93,NA,SKC  ft,CYXT 070800Z 19008KT 15SM SKC 16/15 A2993 RMK SLP140 DENSITY ALT 1100FT,2025-09-07T08:29:57Z,2025-09-07T04:29:57Z
CYXT,2025-09-07T09:00:00Z,2025-09-07T05:00:00Z,VFR,15,15,100,190,5,24100,29.94,NA,SKC  ft,CYXT 070900Z 19005KT 15SM SKC 15/15 A2994 RMK FU SLP142,2025-09-07T09:23:42Z,2025-09-07T05:23:42Z
CYXT,2025-09-07T10:00:00Z,2025-09-07T06:00:00Z,VFR,14,14,100,290,2,24100,29.95,NA,FEW  ft,CYXT 071000Z 29002KT 15SM MIFG FEW240 14/14 A2995 RMK CI1 SLP143,2025-09-07T10:26:12Z,2025-09-07T06:26:12Z
CYXT,2025-09-07T11:00:00Z,2025-09-07T07:00:00Z,VFR,13,13,100,0,2,32200,29.95,NA,FEW  ft,CYXT 071100Z VRB02KT 20SM FEW240 13/13 A2995 RMK CI1 CI TR SLP145,2025-09-07T11:19:24Z,2025-09-07T07:19:24Z
CYXT,2025-09-07T11:36:00Z,2025-09-07T07:36:00Z,VFR,12,12,100,0,2,24100,29.95,NA,FEW  ft; FEW  ft,CYXT 071136Z VRB02KT 15SM FEW002 FEW240 12/12 A2995 RMK SF1CI1 SF TR CI TR SLP146,2025-09-07T11:41:29Z,2025-09-07T07:41:29Z
CYXT,2025-09-07T12:00:00Z,2025-09-07T08:00:00Z,VFR,12,12,100,290,2,24100,29.96,NA,FEW  ft; FEW  ft,CYXT 071200Z 29002KT 15SM MIFG FEW002 FEW240 12/12 A2996 RMK SF1CI1 SF TR CI TR SLP148,2025-09-07T12:48:17Z,2025-09-07T08:48:17Z
CYXT,2025-09-07T13:18:00Z,2025-09-07T09:18:00Z,IFR,13,13,100,0,0,3200,29.97,NA,OVC  ft,CYXT 071318Z 00000KT 2SM BR MIFG OVC005 13/13 A2997 RMK SC8 SLP152,2025-09-07T13:26:45Z,2025-09-07T09:26:45Z
CYXT,2025-09-07T14:18:00Z,2025-09-07T10:18:00Z,LIFR,14,14,100,0,2,NA,29.98,NA,OVX  ft,CYXT 071418Z VRB02KT 3/8SM FG VV002 14/14 A2998 RMK FG8 SLP155,2025-09-07T14:23:05Z,2025-09-07T10:23:05Z
CYXT,2025-09-07T15:00:00Z,2025-09-07T11:00:00Z,LIFR,14,14,100,170,2,NA,29.98,NA,OVX  ft,CYXT 071500Z 17002KT 1/4SM FG VV002 14/14 A2998 RMK FG8 SLP156,2025-09-07T15:23:38Z,2025-09-07T11:23:38Z
CYXT,2025-09-07T16:00:00Z,2025-09-07T12:00:00Z,LIFR,14,14,100,0,0,NA,29.99,NA,OVX  ft,CYXT 071600Z 00000KT 3/8SM FG VV003 14/14 A2999 RMK FG8 SLP159,2025-09-07T16:29:10Z,2025-09-07T12:29:10Z
CYXT,2025-09-07T16:28:00Z,2025-09-07T12:28:00Z,LIFR,14,14,100,180,3,600,29.99,NA,OVC  ft,CYXT 071628Z 18003KT 170V250 3/8SM -DZ FG OVC002 14/14 A2999 RMK SC8 SLP159,2025-09-07T16:44:42Z,2025-09-07T12:44:42Z
CYXT,2025-09-07T17:00:00Z,2025-09-07T13:00:00Z,LIFR,14,14,100,0,2,NA,29.99,NA,OVX  ft,CYXT 071700Z VRB02KT 1/4SM -DZ FG VV002 14/14 A2999 RMK FG8 VIS VRB 1/4-3/8 SLP160,2025-09-07T17:21:32Z,2025-09-07T13:21:32Z
CYXT,2025-09-07T17:35:00Z,2025-09-07T13:35:00Z,LIFR,14,14,100,0,0,1200,29.99,NA,OVC  ft,CYXT 071735Z 00000KT 3/4SM BR OVC002 14/14 A2999 RMK SC8 SLP159,2025-09-07T17:41:28Z,2025-09-07T13:41:28Z
CYXT,2025-09-07T18:21:00Z,2025-09-07T14:21:00Z,LIFR,14,14,100,200,2,2400,29.99,NA,OVC  ft,CYXT 071821Z 20002KT 1 1/2SM BR OVC003 14/14 A2999 RMK SC8 SLP162,2025-09-07T18:32:53Z,2025-09-07T14:32:53Z
CYXT,2025-09-07T18:39:00Z,2025-09-07T14:39:00Z,LIFR,15,15,100,170,4,4000,30,NA,OVC  ft,CYXT 071839Z 17004KT 150V220 2 1/2SM BR OVC004 15/15 A3000 RMK SC8 SLP163,2025-09-07T18:45:32Z,2025-09-07T14:45:32Z
CYXT,2025-09-07T19:00:00Z,2025-09-07T15:00:00Z,LIFR,15,15,100,150,4,4800,30,NA,OVC  ft,CYXT 071900Z 15004KT 140V200 3SM BR OVC004 15/15 A3000 RMK FG1SC7 VIS SE 10 SLP163,2025-09-07T19:18:50Z,2025-09-07T15:18:50Z
CYXT,2025-09-07T19:36:00Z,2025-09-07T15:36:00Z,IFR,17,16,94,200,5,8000,30,NA,FEW  ft; OVC  ft,CYXT 071936Z 20005KT 120V250 5SM BR FEW004 OVC009 17/16 A3000 RMK SC2SC6 VIS SE 10 SLP162 DENSITY ALT 1000FT,2025-09-07T19:41:50Z,2025-09-07T15:41:50Z
CYXT,2025-09-07T20:00:00Z,2025-09-07T16:00:00Z,MVFR,17,15,88,200,5,8000,29.99,NA,FEW  ft; BKN  ft,CYXT 072000Z 20005KT 170V240 5SM BR FEW004 BKN011 17/15 A2999 RMK SC1SC6 VIS SE 10 SLP161 DENSITY ALT 1100FT,2025-09-07T20:25:53Z,2025-09-07T16:25:53Z
CYXT,2025-09-07T20:33:00Z,2025-09-07T16:33:00Z,VFR,19,15,78,180,7,24100,29.99,NA,FEW  ft; SCT  ft; BKN  ft,CYXT 072033Z 18007KT 150V210 15SM FEW004 SCT014 BKN210 19/15 A2999 RMK SF1SC4CI3 SF TR VIS LWR SW SLP161 DENSITY ALT 1300FT,2025-09-07T20:42:09Z,2025-09-07T16:42:09Z
CYXT,2025-09-07T21:00:00Z,2025-09-07T17:00:00Z,VFR,20,15,73,180,9,32200,29.99,NA,FEW  ft; SCT  ft; BKN  ft,CYXT 072100Z 18009KT 20SM FEW006 SCT016 BKN210 20/15 A2999 RMK SF1SC3CI3 SF TR VIS LWR SW SLP159 DENSITY ALT 1400FT,2025-09-07T21:21:34Z,2025-09-07T17:21:34Z
CYXY,2025-09-05T21:00:00Z,2025-09-05T17:00:00Z,VFR,23,9,41,150,14,64400,29.75,NA,FEW  ft; FEW  ft; SCT  ft,CYXY 052100Z 15014G21KT 40SM FEW100 FEW200 SCT300 23/09 A2975 RMK AC1CC1CI2 SLP082 DENSITY ALT 4000FT,2025-09-05T22:02:55Z,2025-09-05T18:02:55Z
CYXY,2025-09-05T22:00:00Z,2025-09-05T18:00:00Z,VFR,24,8,36,150,15,64400,29.74,NA,FEW  ft; SCT  ft; BKN  ft,CYXY 052200Z 15015KT 40SM FEW100 SCT170 BKN250 24/08 A2974 RMK AC1AC2CI4 SLP078 DENSITY ALT 4200FT,2025-09-05T22:18:47Z,2025-09-05T18:18:47Z
CYXY,2025-09-05T23:00:00Z,2025-09-05T19:00:00Z,VFR,25,8,34,150,8,64400,29.74,NA,FEW  ft; SCT  ft; BKN  ft,CYXY 052300Z 15008G15KT 110V180 40SM FEW080 SCT170 BKN250 25/08 A2974 RMK AC2AC2CI3 SLP078 DENSITY ALT 4200FT,2025-09-05T23:20:09Z,2025-09-05T19:20:09Z
CYXY,2025-09-06T01:00:00Z,2025-09-05T21:00:00Z,VFR,24,8,36,240,8,64400,29.75,NA,FEW  ft; SCT  ft; BKN  ft; BKN  ft,CYXY 060100Z 24008KT 40SM FEW060 SCT085 BKN150 BKN250 24/08 A2975 RMK SC1AC4AC1CI2 SC TR SLP085 DENSITY ALT 4100FT,2025-09-06T01:42:37Z,2025-09-05T21:42:37Z
CYXY,2025-09-06T02:00:00Z,2025-09-05T22:00:00Z,VFR,23,8,38,260,5,64400,29.76,NA,FEW  ft; SCT  ft; BKN  ft; BKN  ft,CYXY 060200Z 26005KT 210V300 40SM FEW060 SCT085 BKN150 BKN250 23/08 A2976 RMK SC1AC3AC2CI2 SC TR SLP088 DENSITY ALT 4000FT,2025-09-06T02:56:38Z,2025-09-05T22:56:38Z
CYXY,2025-09-06T03:00:00Z,2025-09-05T23:00:00Z,VFR,22,9,44,10,3,64400,29.78,NA,FEW  ft; SCT  ft; BKN  ft; BKN  ft,CYXY 060300Z 01003KT 320V100 40SM FEW065 SCT095 BKN150 BKN220 22/09 A2978 RMK SC2AC2AC2CI1 SLP094 DENSITY ALT 3800FT,2025-09-06T03:30:48Z,2025-09-05T23:30:48Z
CYXY,2025-09-06T04:00:00Z,2025-09-06T00:00:00Z,VFR,20,9,49,0,2,64400,29.8,NA,SCT  ft; BKN  ft; OVC  ft,CYXY 060400Z VRB02KT 40SM SCT072 BKN160 OVC220 20/09 A2980 RMK AC3AC4CI1 VIRGA SE-NW SLP100 DENSITY ALT 3600FT,2025-09-06T04:25:48Z,2025-09-06T00:25:48Z
CYXY,2025-09-06T05:00:00Z,2025-09-06T01:00:00Z,VFR,19,9,52,280,6,24100,29.82,NA,BKN  ft; BKN  ft; BKN  ft,CYXY 060500Z 28006KT 270V030 15SM BKN066 BKN100 BKN170 19/09 A2982 RMK CU5AC1AC1 SLP109 DENSITY ALT 3400FT,2025-09-06T05:19:59Z,2025-09-06T01:19:59Z
CYXY,2025-09-06T06:00:00Z,2025-09-06T02:00:00Z,VFR,18,9,56,10,5,24100,29.85,NA,BKN  ft; BKN  ft,CYXY 060600Z 01005G17KT 300V060 15SM -SHRA BKN058 BKN082 18/09 A2985 RMK CU5AC2 FU SLP117 DENSITY ALT 3300FT,2025-09-06T06:29:51Z,2025-09-06T02:29:51Z
CYXY,2025-09-06T06:36:00Z,2025-09-06T02:36:00Z,VFR,16,9,63,350,6,24100,29.86,NA,SCT  ft; BKN  ft; BKN  ft,CYXY 060636Z 35006KT 320V020 15SM SCT062 BKN083 BKN160 16/09 A2986 RMK CU3AC2AC2 SLP121 DENSITY ALT 3100FT,2025-09-06T06:46:50Z,2025-09-06T02:46:50Z
CYXY,2025-09-06T07:00:00Z,2025-09-06T03:00:00Z,VFR,16,9,63,340,7,24100,29.87,NA,FEW  ft; BKN  ft,CYXY 060700Z 34007KT 15SM FEW074 BKN100 16/09 A2987 RMK AC2AC4 SLP124 DENSITY ALT 3100FT,2025-09-06T07:18:44Z,2025-09-06T03:18:44Z
CYXY,2025-09-06T08:00:00Z,2025-09-06T04:00:00Z,VFR,15,9,68,340,6,24100,29.88,NA,FEW  ft; BKN  ft; BKN  ft,CYXY 060800Z 34006KT 15SM FEW072 BKN140 BKN170 15/09 A2988 RMK AC1AC4AC1 SLP129 DENSITY ALT 3000FT,2025-09-06T08:25:14Z,2025-09-06T04:25:14Z
CYXY,2025-09-06T09:00:00Z,2025-09-06T05:00:00Z,VFR,15,9,68,350,8,24100,29.9,NA,SCT  ft; BKN  ft; BKN  ft,CYXY 060900Z 35008KT 15SM SCT082 BKN120 BKN150 15/09 A2990 RMK AC3AC2AC2 SLP135 DENSITY ALT 2900FT,2025-09-06T09:19:49Z,2025-09-06T05:19:49Z
CYXY,2025-09-06T10:00:00Z,2025-09-06T06:00:00Z,VFR,14,10,77,350,6,24100,29.92,NA,BKN  ft; BKN  ft,CYXY 061000Z 35006KT 15SM BKN045 BKN072 14/10 A2992 RMK SC5AC2 FU SLP138 DENSITY ALT 2800FT,2025-09-06T10:20:32Z,2025-09-06T06:20:32Z
CYXY,2025-09-06T11:00:00Z,2025-09-06T07:00:00Z,VFR,14,10,77,350,4,24100,29.94,NA,FEW  ft; OVC  ft,CYXY 061100Z 35004KT 15SM -SHRA FEW032 OVC043 14/10 A2994 RMK SC2SC6 CVCTV CLD EMBD SLP146 DENSITY ALT 2800FT,2025-09-06T11:16:03Z,2025-09-06T07:16:03Z
CYXY,2025-09-06T12:00:00Z,2025-09-06T08:00:00Z,VFR,13,12,94,350,5,9700,29.94,NA,SCT  ft; OVC  ft,CYXY 061200Z 35005KT 320V020 6SM -SHRA SCT007 OVC035 13/12 A2994 RMK SF3SC5 CVCTV CLD EMBD SLP149 DENSITY ALT 2600FT,2025-09-06T12:40:03Z,2025-09-06T08:40:03Z
CYXY,2025-09-06T13:00:00Z,2025-09-06T09:00:00Z,MVFR,12,12,100,340,3,24100,29.95,NA,FEW  ft; BKN  ft; OVC  ft,CYXY 061300Z 34003KT 15SM -SHRA FEW007 BKN017 OVC038 12/12 A2995 RMK SF2SC5SC1 CVCTV CLD EMBD SLP151 DENSITY ALT 2600FT,2025-09-06T13:22:42Z,2025-09-06T09:22:42Z
CYXY,2025-09-06T14:00:00Z,2025-09-06T10:00:00Z,IFR,12,12,100,0,0,24100,29.95,NA,BKN  ft; BKN  ft; OVC  ft,CYXY 061400Z 00000KT 15SM -SHRA BKN006 BKN020 OVC079 12/12 A2995 RMK SF6SC1AC1 VIS HGR N SLP152 DENSITY ALT 2600FT,2025-09-06T14:18:41Z,2025-09-06T10:18:41Z
CYXY,2025-09-06T14:28:00Z,2025-09-06T10:28:00Z,VFR,13,11,88,0,0,64400,29.95,NA,SCT  ft; BKN  ft; BKN  ft,CYXY 061428Z 00000KT 40SM -SHRA SCT006 BKN065 BKN160 13/11 A2995 RMK SF3SC3AC1 CVCTV CLD EMBD SLP153 DENSITY ALT 2600FT,2025-09-06T14:38:54Z,2025-09-06T10:38:54Z
CYXY,2025-09-06T15:00:00Z,2025-09-06T11:00:00Z,VFR,12,11,94,360,2,64400,29.95,NA,FEW  ft; BKN  ft; BKN  ft,CYXY 061500Z 36002KT 40SM FEW006 BKN065 BKN160 12/11 A2995 RMK SF1SC7AC1 SF TR AC TR SLP155 DENSITY ALT 2600FT,2025-09-06T15:19:26Z,2025-09-06T11:19:26Z
CYXY,2025-09-06T16:00:00Z,2025-09-06T12:00:00Z,VFR,12,12,100,350,3,40200,29.96,NA,SCT  ft; BKN  ft; OVC  ft,CYXY 061600Z 35003KT 25SM SCT004 BKN064 OVC090 12/12 A2996 RMK SF4SC3AC1 SLP160 DENSITY ALT 2600FT,2025-09-06T16:24:55Z,2025-09-06T12:24:55Z
CYXY,2025-09-06T17:00:00Z,2025-09-06T13:00:00Z,VFR,14,12,88,40,3,64400,29.97,NA,SCT  ft; SCT  ft; BKN  ft; BKN  ft,CYXY 061700Z 04003KT 310V100 40SM SCT004 SCT036 BKN068 BKN081 14/12 A2997 RMK SF3SC1AC1AC2 VIS LWR N SLP161 DENSITY ALT 2700FT,2025-09-06T17:24:34Z,2025-09-06T13:24:34Z
CYXY,2025-09-06T18:00:00Z,2025-09-06T14:00:00Z,VFR,14,12,88,0,2,64400,29.97,NA,FEW  ft; SCT  ft; BKN  ft; BKN  ft,CYXY 061800Z VRB02KT 40SM FEW004 SCT011 BKN035 BKN068 14/12 A2997 RMK SF1SF2SC3AC1 SLP161 DENSITY ALT 2800FT,2025-09-06T18:32:28Z,2025-09-06T14:32:28Z
CYXY,2025-09-06T19:00:00Z,2025-09-06T15:00:00Z,VFR,15,11,77,330,4,64400,29.96,NA,SCT  ft; BKN  ft; BKN  ft,CYXY 061900Z 33004KT 300V060 40SM SCT035 BKN080 BKN220 15/11 A2996 RMK SC4AC2CI1 SLP160 DENSITY ALT 2800FT,2025-09-06T19:18:16Z,2025-09-06T15:18:16Z
CYXY,2025-09-06T20:00:00Z,2025-09-06T16:00:00Z,VFR,16,10,68,360,4,64400,29.95,NA,SCT  ft; BKN  ft; BKN  ft,CYXY 062000Z 36004KT 240V020 40SM SCT040TCU BKN075 BKN240 16/10 A2995 RMK TCU3AC3CI1 SLP157 DENSITY ALT 3000FT,2025-09-06T20:25:17Z,2025-09-06T16:25:17Z
CYXY,2025-09-06T21:00:00Z,2025-09-06T17:00:00Z,VFR,17,10,64,350,4,64400,29.94,NA,FEW  ft; SCT  ft; BKN  ft; BKN  ft,CYXY 062100Z 35004KT 280V080 40SM FEW045TCU SCT075 BKN200 BKN260 17/10 A2994 RMK TCU2AC2CI1CI1 SLP151 DENSITY ALT 3200FT,2025-09-06T21:21:21Z,2025-09-06T17:21:21Z
CYXY,2025-09-06T22:00:00Z,2025-09-06T18:00:00Z,VFR,19,9,52,350,4,64400,29.93,NA,FEW  ft; SCT  ft; BKN  ft,CYXY 062200Z 35004KT 320V020 40SM FEW050TCU SCT080 BKN260 19/09 A2993 RMK TCU2AC1CI4 SLP147 DENSITY ALT 3300FT,2025-09-06T22:23:59Z,2025-09-06T18:23:59Z
CYXY,2025-09-06T23:00:00Z,2025-09-06T19:00:00Z,VFR,20,8,46,280,4,64400,29.91,NA,FEW  ft; SCT  ft; BKN  ft,CYXY 062300Z 28004KT 160V310 40SM FEW055 SCT085 BKN260 20/08 A2991 RMK CU2AC1CI4 TCU ASOCTD SLP141 DENSITY ALT 3400FT,2025-09-06T23:22:39Z,2025-09-06T19:22:39Z
CYXY,2025-09-07T01:00:00Z,2025-09-06T21:00:00Z,VFR,19,9,52,350,4,64400,29.88,NA,FEW  ft; SCT  ft; BKN  ft,CYXY 070100Z 35004KT 40SM FEW060 SCT140 BKN260 19/09 A2988 RMK CU2AC1CI3 TCU ASOCTD SLP132 DENSITY ALT 3400FT,2025-09-07T02:04:17Z,2025-09-06T22:04:17Z
CYXY,2025-09-07T02:00:00Z,2025-09-06T22:00:00Z,VFR,19,9,52,320,4,64400,29.87,NA,FEW  ft; FEW  ft; BKN  ft,CYXY 070200Z 32004KT 220V340 40SM FEW060 FEW080 BKN260 19/09 A2987 RMK CU1AC1CI4 TCU ASOCTD SLP130 DENSITY ALT 3400FT,2025-09-07T03:07:57Z,2025-09-06T23:07:57Z
CYXY,2025-09-07T03:00:00Z,2025-09-06T23:00:00Z,VFR,18,9,56,340,3,64400,29.87,NA,FEW  ft; SCT  ft; BKN  ft,CYXY 070300Z 34003KT 40SM FEW065 SCT140 BKN260 18/09 A2987 RMK SC2AC2CI2 SLP130 DENSITY ALT 3300FT,2025-09-07T03:38:10Z,2025-09-06T23:38:10Z
CYXY,2025-09-07T04:00:00Z,2025-09-07T00:00:00Z,VFR,17,10,64,0,2,64400,29.87,NA,FEW  ft; BKN  ft,CYXY 070400Z VRB02KT 40SM FEW082 BKN240 17/10 A2987 RMK AC2CI4 SLP132 DENSITY ALT 3100FT,2025-09-07T04:29:50Z,2025-09-07T00:29:50Z
CYXY,2025-09-07T05:00:00Z,2025-09-07T01:00:00Z,VFR,14,10,77,260,5,24100,29.88,NA,FEW  ft; BKN  ft,CYXY 070500Z 26005KT 15SM FEW082 BKN240 14/10 A2988 RMK AC2CI3 SLP136 DENSITY ALT 2900FT,2025-09-07T05:25:36Z,2025-09-07T01:25:36Z
CYXY,2025-09-07T06:00:00Z,2025-09-07T02:00:00Z,VFR,13,8,72,240,3,24100,29.89,NA,BKN  ft,CYXY 070600Z 24003KT 15SM BKN240 13/08 A2989 RMK CI5 SLP140 DENSITY ALT 2700FT,2025-09-07T06:34:57Z,2025-09-07T02:34:57Z
CYXY,2025-09-07T07:00:00Z,2025-09-07T03:00:00Z,VFR,11,7,77,250,4,24100,29.9,NA,BKN  ft,CYXY 070700Z 25004KT 15SM BKN240 11/07 A2990 RMK CI5 SLP142,2025-09-07T07:22:57Z,2025-09-07T03:22:57Z
CYXY,2025-09-07T08:00:00Z,2025-09-07T04:00:00Z,VFR,11,5,67,230,4,24100,29.9,NA,BKN  ft,CYXY 070800Z 23004KT 15SM BKN240 11/05 A2990 RMK CI5 SLP142,2025-09-07T08:29:59Z,2025-09-07T04:29:59Z
CYXY,2025-09-07T09:00:00Z,2025-09-07T05:00:00Z,VFR,9,4,71,260,3,24100,29.89,NA,BKN  ft,CYXY 070900Z 26003KT 15SM BKN240 09/04 A2989 RMK CI5 SLP138,2025-09-07T09:23:43Z,2025-09-07T05:23:43Z
CYXY,2025-09-07T10:00:00Z,2025-09-07T06:00:00Z,VFR,9,7,87,0,2,24100,29.89,NA,BKN  ft,CYXY 071000Z VRB02KT 15SM BKN240 09/07 A2989 RMK CI5 SLP139,2025-09-07T10:26:14Z,2025-09-07T06:26:14Z
CYXY,2025-09-07T11:00:00Z,2025-09-07T07:00:00Z,VFR,8,4,76,220,4,24100,29.88,NA,BKN  ft,CYXY 071100Z 22004KT 15SM BKN240 08/04 A2988 RMK CI6 SLP135,2025-09-07T11:19:26Z,2025-09-07T07:19:26Z
CYXY,2025-09-07T12:00:00Z,2025-09-07T08:00:00Z,VFR,9,6,82,190,4,24100,29.87,NA,BKN  ft,CYXY 071200Z 19004KT 150V220 15SM BKN240 09/06 A2987 RMK CI6 SLP133,2025-09-07T12:48:18Z,2025-09-07T08:48:18Z
CYXY,2025-09-07T13:00:00Z,2025-09-07T09:00:00Z,VFR,10,6,76,160,5,64400,29.88,NA,FEW  ft; BKN  ft,CYXY 071300Z 16005KT 40SM FEW120 BKN220 10/06 A2988 RMK AC1CI6 AC TR SLP134,2025-09-07T13:26:47Z,2025-09-07T09:26:47Z
CYXY,2025-09-07T14:00:00Z,2025-09-07T10:00:00Z,VFR,9,6,82,190,9,64400,29.88,NA,FEW  ft; SCT  ft,CYXY 071400Z 19009KT 40SM FEW120 SCT220 09/06 A2988 RMK AC1CI2 SLP133,2025-09-07T14:23:06Z,2025-09-07T10:23:06Z
CYXY,2025-09-07T15:00:00Z,2025-09-07T11:00:00Z,VFR,10,6,76,190,10,64400,29.87,NA,FEW  ft; BKN  ft,CYXY 071500Z 19010KT 40SM FEW100 BKN260 10/06 A2987 RMK AC1CI6 SLP131,2025-09-07T15:23:39Z,2025-09-07T11:23:39Z
CYXY,2025-09-07T16:00:00Z,2025-09-07T12:00:00Z,VFR,12,6,67,170,12,64400,29.86,NA,BKN  ft; BKN  ft; BKN  ft,CYXY 071600Z 17012KT 40SM BKN080 BKN170 BKN220 12/06 A2986 RMK AC5AC1CI1 VIRGA W SLP128 DENSITY ALT 2600FT,2025-09-07T16:29:12Z,2025-09-07T12:29:12Z
CYXY,2025-09-07T17:00:00Z,2025-09-07T13:00:00Z,VFR,12,6,67,180,11,64400,29.87,NA,SCT  ft; OVC  ft,CYXY 071700Z 18011KT 40SM SCT080 OVC110 12/06 A2987 RMK AC4AC4 VIRGA SLP132 DENSITY ALT 2600FT,2025-09-07T17:21:33Z,2025-09-07T13:21:33Z
CYXY,2025-09-07T18:00:00Z,2025-09-07T14:00:00Z,VFR,12,7,72,170,12,64400,29.88,NA,FEW  ft; BKN  ft; OVC  ft,CYXY 071800Z 17012KT 40SM -RA FEW032 BKN090 OVC110 12/07 A2988 RMK SC1AC5AC2 SLP137 DENSITY ALT 2600FT,2025-09-07T18:32:55Z,2025-09-07T14:32:55Z
CYXY,2025-09-07T19:00:00Z,2025-09-07T15:00:00Z,VFR,13,7,67,160,6,64400,29.88,NA,FEW  ft; BKN  ft; BKN  ft; BKN  ft,CYXY 071900Z 16006KT 40SM -RA FEW032 BKN090 BKN120 BKN210 13/07 A2988 RMK SC1AC5AC1CI1 CI TR SLP139 DENSITY ALT 2800FT,2025-09-07T19:18:53Z,2025-09-07T15:18:53Z
CYXY,2025-09-07T19:32:00Z,2025-09-07T15:32:00Z,VFR,14,7,63,170,7,64400,29.89,NA,FEW  ft; BKN  ft; BKN  ft; BKN  ft,CYXY 071932Z 17007G17KT 130V190 40SM FEW032 BKN090 BKN120 BKN210 BKN280 14/07 A2989 RMK SC1AC4AC1CI1CI1 CI TR SLP140 DENSITY ALT 2800FT,2025-09-07T19:41:52Z,2025-09-07T15:41:52Z
CYXY,2025-09-07T20:00:00Z,2025-09-07T16:00:00Z,VFR,14,7,63,160,7,64400,29.89,NA,SCT  ft; BKN  ft; BKN  ft,CYXY 072000Z 16007KT 140V210 40SM SCT090 BKN150 BKN240 14/07 A2989 RMK AC3AC2CI2 AC LENT W OBS TAKEN +07 SLP140 DENSITY ALT 2900FT,2025-09-07T20:25:54Z,2025-09-07T16:25:54Z
CYXY,2025-09-07T21:00:00Z,2025-09-07T17:00:00Z,VFR,17,7,52,100,4,64400,29.88,NA,FEW  ft; FEW  ft; SCT  ft; BKN  ft,CYXY 072100Z 10004KT 40SM FEW090 FEW130 SCT200 BKN260 17/07 A2988 RMK AC1AC1CI1CI3 SLP135 DENSITY ALT 3200FT,2025-09-07T21:21:36Z,2025-09-07T17:21:36Z
CYYB,2025-09-05T18:00:00Z,2025-09-05T14:00:00Z,MVFR,17,11,68,190,27,32200,29.49,NA,BKN  ft,CYYB 051800Z 19027G36KT 20SM BKN029 17/11 A2949 RMK CU7 SLP991 DENSITY ALT 2200FT,2025-09-05T18:23:21Z,2025-09-05T14:23:21Z
CYYB,2025-09-05T19:00:00Z,2025-09-05T15:00:00Z,VFR,17,9,59,210,23,32200,29.48,NA,BKN  ft; BKN  ft,CYYB 051900Z 21023G36KT 20SM BKN037 BKN090 17/09 A2948 RMK CU6AC1 SLP987 DENSITY ALT 2300FT,2025-09-05T19:20:59Z,2025-09-05T15:20:59Z
CYYB,2025-09-05T19:25:00Z,2025-09-05T15:25:00Z,MVFR,16,11,72,240,28,6400,29.51,NA,OVC  ft,CYYB 051925Z 24028G43KT 190V260 4SM SHRA OVC030 16/11 A2951 RMK SC8 CVCTV CLD EMBD PRESRR SLP000 DENSITY ALT 2100FT,2025-09-05T19:31:29Z,2025-09-05T15:31:29Z
CYYB,2025-09-05T19:41:00Z,2025-09-05T15:41:00Z,MVFR,12,12,100,180,14,32200,29.53,NA,BKN  ft; BKN  ft,CYYB 051941Z 18014KT 20SM BKN030 BKN050 12/12 A2953 RMK SC5SC2 WIND EST SLP006 DENSITY ALT 1600FT,2025-09-05T19:51:34Z,2025-09-05T15:51:34Z
CYYB,2025-09-05T20:00:00Z,2025-09-05T16:00:00Z,MVFR,12,11,94,270,9,32200,29.54,NA,FEW  ft; BKN  ft,CYYB 052000Z 27009KT 20SM FEW005 BKN030 12/11 A2954 RMK SF2SC5 WIND EST SLP010 DENSITY ALT 1700FT,2025-09-05T20:29:27Z,2025-09-05T16:29:27Z
CYYB,2025-09-05T21:00:00Z,2025-09-05T17:00:00Z,MVFR,13,11,88,270,14,48300,29.56,NA,BKN  ft; BKN  ft,CYYB 052100Z 27014KT 30SM BKN025 BKN100 13/11 A2956 RMK CU6AC1 WIND EST SLP019 DENSITY ALT 1700FT,2025-09-05T21:14:26Z,2025-09-05T17:14:26Z
CYYB,2025-09-05T22:00:00Z,2025-09-05T18:00:00Z,MVFR,13,10,82,230,14,48300,29.58,NA,BKN  ft; BKN  ft,CYYB 052200Z 23014KT 30SM BKN030 BKN090 13/10 A2958 RMK CU5AC1 WIND EST SLP026 DENSITY ALT 1700FT,2025-09-05T22:18:44Z,2025-09-05T18:18:44Z
CYYB,2025-09-05T23:00:00Z,2025-09-05T19:00:00Z,MVFR,13,8,72,270,14,48300,29.62,NA,BKN  ft; BKN  ft,CYYB 052300Z 27014KT 30SM BKN025 BKN090 13/08 A2962 RMK CU6AC1 WIND EST SLP037 DENSITY ALT 1600FT,2025-09-05T23:20:06Z,2025-09-05T19:20:06Z
CYYB,2025-09-05T23:32:00Z,2025-09-05T19:32:00Z,VFR,12,8,77,230,14,48300,29.64,NA,SCT  ft; BKN  ft,CYYB 052332Z 23014KT 30SM SCT025 BKN090 12/08 A2964 RMK CU4AC1 WIND EST SLP046 DENSITY ALT 1500FT,2025-09-05T23:39:27Z,2025-09-05T19:39:27Z
CYYB,2025-09-06T01:00:00Z,2025-09-05T21:00:00Z,VFR,12,7,72,230,14,24100,29.7,NA,SCT  ft; BKN  ft; BKN  ft,CYYB 060100Z 23014KT 15SM SCT025 BKN090 BKN260 12/07 A2970 RMK SC3AC2CI2 WIND EST SLP063,2025-09-06T01:42:35Z,2025-09-05T21:42:35Z
CYYB,2025-09-06T02:00:00Z,2025-09-05T22:00:00Z,VFR,10,6,76,270,9,24100,29.72,NA,SCT  ft; BKN  ft,CYYB 060200Z 27009KT 15SM SCT040 BKN120 10/06 A2972 RMK SC3AC2 LAST STFD OBS/NEXT 061100 UTC WIND EST SLP072,2025-09-06T02:56:34Z,2025-09-05T22:56:34Z
CYYB,2025-09-06T03:00:00Z,2025-09-05T23:00:00Z,NA,10,7,82,NA,NA,NA,29.73,NA,NA,CYYB 060300Z AUTO /////KT 10/07 A2973 RMK WIND MISG CLD MISG WX MISG VIS MISG ICE MISG SLP074,2025-09-06T03:30:46Z,2025-09-05T23:30:46Z
CYYB,2025-09-06T04:00:00Z,2025-09-06T00:00:00Z,NA,11,7,77,NA,NA,NA,29.74,NA,NA,CYYB 060400Z AUTO /////KT 11/07 A2974 RMK WIND MISG CLD MISG WX MISG VIS MISG ICE MISG SLP078,2025-09-06T04:25:45Z,2025-09-06T00:25:45Z
CYYB,2025-09-06T05:00:00Z,2025-09-06T01:00:00Z,NA,10,7,82,NA,NA,NA,29.75,NA,NA,CYYB 060500Z AUTO /////KT 10/07 A2975 RMK WIND MISG CLD MISG WX MISG VIS MISG ICE MISG SLP081,2025-09-06T05:19:55Z,2025-09-06T01:19:55Z
CYYB,2025-09-06T06:00:00Z,2025-09-06T02:00:00Z,NA,10,8,88,NA,NA,NA,29.76,NA,NA,CYYB 060600Z AUTO /////KT 10/08 A2976 RMK WIND MISG CLD MISG WX MISG VIS MISG ICE MISG SLP083,2025-09-06T06:29:49Z,2025-09-06T02:29:49Z
CYYB,2025-09-06T07:00:00Z,2025-09-06T03:00:00Z,NA,11,7,77,NA,NA,NA,29.76,NA,NA,CYYB 060700Z AUTO /////KT 11/07 A2976 RMK WIND MISG CLD MISG WX MISG VIS MISG ICE MISG SLP082,2025-09-06T07:18:41Z,2025-09-06T03:18:41Z
CYYB,2025-09-06T07:22:00Z,2025-09-06T03:22:00Z,VFR,11,8,82,240,14,14500,29.76,NA,NA,CYYB 060722Z AUTO 24014G24KT 220V360 9SM 11/08 A2976 RMK CLD MISG SLP085,2025-09-06T07:39:08Z,2025-09-06T03:39:08Z
CYYB,2025-09-06T08:00:00Z,2025-09-06T04:00:00Z,VFR,10,8,88,230,9,14500,29.76,NA,FEW  ft,CYYB 060800Z AUTO 23009G18KT 9SM FEW043 10/08 A2976 RMK SLP085,2025-09-06T08:25:11Z,2025-09-06T04:25:11Z
CYYB,2025-09-06T09:00:00Z,2025-09-06T05:00:00Z,VFR,10,8,88,240,10,14500,29.76,NA,FEW  ft,CYYB 060900Z AUTO 24010G16KT 9SM FEW020 10/08 A2976 RMK SLP086,2025-09-06T09:19:46Z,2025-09-06T05:19:46Z
CYYB,2025-09-06T09:18:00Z,2025-09-06T05:18:00Z,MVFR,10,8,88,230,9,14500,29.77,NA,BKN  ft,CYYB 060918Z AUTO 23009G19KT 9SM BKN020 10/08 A2977 RMK SLP090,2025-09-06T09:38:39Z,2025-09-06T05:38:39Z
CYYB,2025-09-06T10:00:00Z,2025-09-06T06:00:00Z,VFR,10,9,94,240,10,14500,29.78,NA,SCT  ft,CYYB 061000Z AUTO 24010G16KT 9SM SCT018 10/09 A2978 RMK SLP091,2025-09-06T10:20:30Z,2025-09-06T06:20:30Z
CYYB,2025-09-06T10:20:00Z,2025-09-06T06:20:00Z,MVFR,10,9,94,230,7,14500,29.78,NA,SCT  ft; BKN  ft; BKN  ft; BKN  ft,CYYB 061020Z AUTO 23007G17KT 9SM SCT016 BKN023 BKN049 BKN060 10/09 A2978 RMK SLP092,2025-09-06T10:39:45Z,2025-09-06T06:39:45Z
CYYB,2025-09-06T11:00:00Z,2025-09-06T07:00:00Z,MVFR,10,9,94,240,10,48300,29.79,NA,BKN  ft; BKN  ft,CYYB 061100Z 24010G18KT 30SM BKN018 BKN100 10/09 A2979 RMK SC5AC2 SLP094,2025-09-06T11:16:00Z,2025-09-06T07:16:00Z
CYYB,2025-09-06T12:00:00Z,2025-09-06T08:00:00Z,VFR,11,9,88,250,9,48300,29.81,NA,SCT  ft; BKN  ft,CYYB 061200Z 25009G15KT 30SM SCT016 BKN055 11/09 A2981 RMK SC3SC4 SLP102,2025-09-06T12:40:00Z,2025-09-06T08:40:00Z
CYYB,2025-09-06T13:00:00Z,2025-09-06T09:00:00Z,MVFR,11,8,82,260,12,48300,29.83,NA,BKN  ft; OVC  ft,CYYB 061300Z 26012G21KT 30SM BKN022 OVC055 11/08 A2983 RMK SC5SC3 SLP108,2025-09-06T13:22:39Z,2025-09-06T09:22:39Z
CYYB,2025-09-06T14:00:00Z,2025-09-06T10:00:00Z,MVFR,11,8,82,240,8,48300,29.84,NA,BKN  ft; OVC  ft,CYYB 061400Z 24008G19KT 30SM BKN018 OVC050 11/08 A2984 RMK SC5SC3 SLP112,2025-09-06T14:18:38Z,2025-09-06T10:18:38Z
CYYB,2025-09-06T15:00:00Z,2025-09-06T11:00:00Z,MVFR,11,8,82,250,9,48300,29.84,NA,BKN  ft; OVC  ft,CYYB 061500Z 25009G18KT 30SM BKN022 OVC040 11/08 A2984 RMK SC7SC1 SLP114,2025-09-06T15:19:23Z,2025-09-06T11:19:23Z
CYYB,2025-09-06T16:00:00Z,2025-09-06T12:00:00Z,VFR,11,8,82,260,9,48300,29.85,NA,FEW  ft; OVC  ft,CYYB 061600Z 26009G18KT 30SM FEW020 OVC044 11/08 A2985 RMK SC2SC6 SLP116,2025-09-06T16:24:52Z,2025-09-06T12:24:52Z
CYYB,2025-09-06T17:00:00Z,2025-09-06T13:00:00Z,VFR,14,7,63,260,10,48300,29.85,NA,SCT  ft; BKN  ft; BKN  ft,CYYB 061700Z 26010G19KT 210V280 30SM SCT027 BKN090 BKN260 14/07 A2985 RMK CU3AC3CI1 SLP115 DENSITY ALT 1500FT,2025-09-06T17:24:32Z,2025-09-06T13:24:32Z
CYYB,2025-09-06T18:00:00Z,2025-09-06T14:00:00Z,VFR,15,7,59,250,14,48300,29.86,NA,SCT  ft; BKN  ft,CYYB 061800Z 25014G21KT 210V270 30SM SCT031 BKN095 15/07 A2986 RMK CU4AC3 SLP118 DENSITY ALT 1600FT,2025-09-06T18:32:25Z,2025-09-06T14:32:25Z
CYYB,2025-09-06T19:00:00Z,2025-09-06T15:00:00Z,VFR,14,8,67,230,10,48300,29.86,NA,SCT  ft; OVC  ft,CYYB 061900Z 23010KT 210V290 30SM SCT031 OVC055 14/08 A2986 RMK CU4SC4 SLP119 DENSITY ALT 1500FT,2025-09-06T19:18:13Z,2025-09-06T15:18:13Z
CYYB,2025-09-06T20:00:00Z,2025-09-06T16:00:00Z,VFR,14,9,72,260,9,48300,29.87,NA,SCT  ft; OVC  ft,CYYB 062000Z 26009KT 220V300 30SM SCT040 OVC080 14/09 A2987 RMK CU3AC5 SLP123 DENSITY ALT 1500FT,2025-09-06T20:25:15Z,2025-09-06T16:25:15Z
CYYB,2025-09-06T21:00:00Z,2025-09-06T17:00:00Z,VFR,14,8,67,250,9,48300,29.88,NA,SCT  ft; OVC  ft,CYYB 062100Z 25009KT 30SM SCT040 OVC090 14/08 A2988 RMK SC4AC4 SLP127,2025-09-06T21:21:19Z,2025-09-06T17:21:19Z
CYYB,2025-09-06T22:00:00Z,2025-09-06T18:00:00Z,VFR,12,9,82,270,5,48300,29.89,NA,SCT  ft; OVC  ft,CYYB 062200Z 27005KT 30SM SCT035 OVC090 12/09 A2989 RMK CU4AC4 SLP129,2025-09-06T22:23:57Z,2025-09-06T18:23:57Z
CYYB,2025-09-06T23:00:00Z,2025-09-06T19:00:00Z,VFR,12,8,77,240,6,48300,29.89,NA,SCT  ft; OVC  ft,CYYB 062300Z 24006KT 30SM SCT035 OVC090 12/08 A2989 RMK SC4AC4 SLP129,2025-09-06T23:22:36Z,2025-09-06T19:22:36Z
CYYB,2025-09-07T01:00:00Z,2025-09-06T21:00:00Z,VFR,11,8,82,250,6,24100,29.9,NA,SCT  ft; BKN  ft; OVC  ft,CYYB 070100Z 25006KT 15SM SCT026 BKN049 OVC080 11/08 A2990 RMK SC4SC2AC2 SLP134,2025-09-07T02:04:14Z,2025-09-06T22:04:14Z
CYYB,2025-09-07T02:55:00Z,2025-09-06T22:55:00Z,MVFR,11,10,94,250,5,14500,29.91,NA,BKN  ft; OVC  ft,CYYB 070255Z AUTO 25005KT 9SM -RA BKN020 OVC027 11/10 A2991 RMK SLP137,2025-09-07T03:07:54Z,2025-09-06T23:07:54Z
CYYB,2025-09-07T03:00:00Z,2025-09-06T23:00:00Z,MVFR,11,10,94,250,4,14500,29.91,NA,BKN  ft; OVC  ft,CYYB 070300Z AUTO 25004KT 9SM -RA BKN020 OVC029 11/10 A2991 RMK SLP138,2025-09-07T03:38:07Z,2025-09-06T23:38:07Z
CYYB,2025-09-07T03:43:00Z,2025-09-06T23:43:00Z,MVFR,10,10,100,240,6,8000,29.92,NA,FEW  ft; BKN  ft; OVC  ft,CYYB 070343Z AUTO 24006KT 5SM RA BR FEW009 BKN014 OVC018 10/10 A2992 RMK PCPN 1.5MM PAST HR SLP139,2025-09-07T03:50:40Z,2025-09-06T23:50:40Z
CYYB,2025-09-07T04:13:00Z,2025-09-07T00:13:00Z,MVFR,10,10,100,250,3,12900,29.92,NA,FEW  ft; SCT  ft; BKN  ft; OVC  ft,CYYB 070413Z AUTO 25003KT 230V290 8SM -RA FEW009 SCT015 BKN026 OVC042 10/10 A2992 RMK SLP141,2025-09-07T04:29:48Z,2025-09-07T00:29:48Z
CYYB,2025-09-07T04:31:00Z,2025-09-07T00:31:00Z,MVFR,10,10,100,240,5,14500,29.92,NA,FEW  ft; SCT  ft; BKN  ft; OVC  ft,CYYB 070431Z AUTO 24005KT 9SM -RA FEW011 SCT016 BKN023 OVC043 10/10 A2992 RMK PCPN 1.0MM PAST HR SLP141,2025-09-07T04:44:24Z,2025-09-07T00:44:24Z
CYYB,2025-09-07T05:08:00Z,2025-09-07T01:08:00Z,VFR,10,9,94,200,7,14500,29.92,NA,SCT  ft; BKN  ft; BKN  ft; OVC  ft,CYYB 070508Z AUTO 20007KT 9SM -RA SCT013 BKN046 BKN060 OVC071 10/09 A2992 RMK SLP140,2025-09-07T05:25:33Z,2025-09-07T01:25:33Z
CYYB,2025-09-07T05:32:00Z,2025-09-07T01:32:00Z,VFR,9,9,100,200,6,14500,29.91,NA,FEW  ft; SCT  ft; OVC  ft,CYYB 070532Z AUTO 20006KT 9SM -RA FEW016 SCT027 OVC042 09/09 A2991 RMK SLP139,2025-09-07T05:42:19Z,2025-09-07T01:42:19Z
CYYB,2025-09-07T06:30:00Z,2025-09-07T02:30:00Z,MVFR,9,9,100,260,4,14500,29.91,NA,SCT  ft; OVC  ft,CYYB 070630Z AUTO 26004KT 9SM -RA SCT007 OVC018 09/09 A2991 RMK SLP139,2025-09-07T06:34:54Z,2025-09-07T02:34:54Z
CYYB,2025-09-07T06:44:00Z,2025-09-07T02:44:00Z,MVFR,9,9,100,260,3,14500,29.91,NA,SCT  ft; OVC  ft,CYYB 070644Z AUTO 26003KT 210V290 9SM SCT007 OVC020 09/09 A2991 RMK SLP139,2025-09-07T06:47:32Z,2025-09-07T02:47:32Z
CYYB,2025-09-07T07:02:00Z,2025-09-07T03:02:00Z,MVFR,9,9,100,310,5,14500,29.9,NA,SCT  ft; OVC  ft,CYYB 070702Z AUTO 31005KT 9SM -RA SCT007 OVC018 09/09 A2990 RMK SLP136,2025-09-07T07:22:55Z,2025-09-07T03:22:55Z
CYYB,2025-09-07T07:38:00Z,2025-09-07T03:38:00Z,IFR,9,9,100,270,4,6400,29.9,NA,SCT  ft; BKN  ft; BKN  ft; OVC  ft,CYYB 070738Z AUTO 27004KT 240V320 4SM -RA BR SCT005 BKN009 BKN022 OVC028 09/09 A2990 RMK SLP135,2025-09-07T07:41:49Z,2025-09-07T03:41:49Z
CYYB,2025-09-07T08:17:00Z,2025-09-07T04:17:00Z,IFR,9,9,100,290,5,14500,29.9,NA,BKN  ft,CYYB 070817Z AUTO 29005KT 9SM BKN005 09/09 A2990 RMK SLP136,2025-09-07T08:29:56Z,2025-09-07T04:29:56Z
CYYB,2025-09-07T09:00:00Z,2025-09-07T05:00:00Z,IFR,8,8,100,290,6,14500,29.91,NA,BKN  ft; BKN  ft; OVC  ft,CYYB 070900Z AUTO 29006KT 9SM BKN005 BKN044 OVC180 08/08 A2991 RMK SLP138,2025-09-07T09:23:41Z,2025-09-07T05:23:41Z
CYYB,2025-09-07T09:27:00Z,2025-09-07T05:27:00Z,VFR,8,8,100,300,6,14500,29.91,NA,SCT  ft; BKN  ft; BKN  ft,CYYB 070927Z AUTO 30006KT 9SM SCT006 BKN042 BKN170 08/08 A2991 RMK SLP141,2025-09-07T09:41:31Z,2025-09-07T05:41:31Z
CYYB,2025-09-07T10:16:00Z,2025-09-07T06:16:00Z,IFR,8,8,100,300,7,14500,29.92,NA,BKN  ft; BKN  ft; BKN  ft; OVC  ft,CYYB 071016Z AUTO 30007KT 9SM BKN005 BKN014 BKN026 OVC033 08/08 A2992 RMK SLP145,2025-09-07T10:26:10Z,2025-09-07T06:26:10Z
CYYB,2025-09-07T11:00:00Z,2025-09-07T07:00:00Z,LIFR,8,8,100,290,8,48300,29.94,NA,BKN  ft; OVC  ft,CYYB 071100Z 29008KT 30SM BKN003 OVC012 08/08 A2994 RMK SF7SC1 SLP148,2025-09-07T11:19:24Z,2025-09-07T07:19:24Z
CYYB,2025-09-07T12:00:00Z,2025-09-07T08:00:00Z,LIFR,7,7,100,280,5,48300,29.96,NA,BKN  ft; OVC  ft,CYYB 071200Z 28005KT 30SM BKN003 OVC100 07/07 A2996 RMK CF6AC2 CIG VRB 2-4 SLP156,2025-09-07T12:48:16Z,2025-09-07T08:48:16Z
CYYB,2025-09-07T13:00:00Z,2025-09-07T09:00:00Z,LIFR,8,8,100,270,5,48300,29.98,NA,BKN  ft; BKN  ft,CYYB 071300Z 27005KT 30SM BKN003 BKN100 08/08 A2998 RMK CF5AC1 SLP162,2025-09-07T13:26:44Z,2025-09-07T09:26:44Z
CYYB,2025-09-07T14:00:00Z,2025-09-07T10:00:00Z,IFR,10,8,88,270,5,48300,29.99,NA,BKN  ft,CYYB 071400Z 27005KT 230V310 30SM BKN008 10/08 A2999 RMK CU5 SLP164,2025-09-07T14:23:04Z,2025-09-07T10:23:04Z
CYYB,2025-09-07T15:00:00Z,2025-09-07T11:00:00Z,MVFR,12,7,72,260,7,48300,30,NA,BKN  ft; BKN  ft,CYYB 071500Z CCA 26007KT 30SM BKN020 BKN060 12/07 A3000 RMK CU5SC1 SLP167,2025-09-07T15:23:37Z,2025-09-07T11:23:37Z
CYYB,2025-09-07T16:00:00Z,2025-09-07T12:00:00Z,MVFR,11,6,72,240,11,48300,30.01,NA,BKN  ft; BKN  ft,CYYB 071600Z 24011G18KT 30SM BKN024 BKN060 11/06 A3001 RMK CU5SC2 SLP171,2025-09-07T16:29:09Z,2025-09-07T12:29:09Z
CYYB,2025-09-07T17:00:00Z,2025-09-07T13:00:00Z,VFR,13,6,63,280,8,48300,30.01,NA,SCT  ft; BKN  ft,CYYB 071700Z 28008G18KT 220V300 30SM SCT027 BKN050 13/06 A3001 RMK CU4SC2 SLP170,2025-09-07T17:21:31Z,2025-09-07T13:21:31Z
CYYB,2025-09-07T18:00:00Z,2025-09-07T14:00:00Z,VFR,14,7,63,230,11,48300,30,NA,SCT  ft; BKN  ft,CYYB 071800Z 23011G21KT 220V290 30SM SCT032 BKN065 14/07 A3000 RMK CU4SC1 SLP167,2025-09-07T18:32:52Z,2025-09-07T14:32:52Z
CYYB,2025-09-07T19:00:00Z,2025-09-07T15:00:00Z,VFR,14,7,63,230,14,48300,30,NA,BKN  ft; BKN  ft,CYYB 071900Z 23014G23KT 220V280 30SM BKN034 BKN055 14/07 A3000 RMK CU5SC1 SH N SLP166,2025-09-07T19:18:49Z,2025-09-07T15:18:49Z
CYYB,2025-09-07T20:00:00Z,2025-09-07T16:00:00Z,VFR,11,8,82,300,9,48300,30.01,NA,SCT  ft; BKN  ft,CYYB 072000Z 30009G22KT 30SM VCSH SCT030 BKN055 11/08 A3001 RMK CU4SC2 SLP173,2025-09-07T20:25:52Z,2025-09-07T16:25:52Z
CYYB,2025-09-07T21:00:00Z,2025-09-07T17:00:00Z,VFR,12,7,72,270,9,48300,30.02,NA,SCT  ft; BKN  ft,CYYB 072100Z 27009G16KT 230V310 30SM SCT031 BKN060 12/07 A3002 RMK CU3SC3 SH S SLP176,2025-09-07T21:21:33Z,2025-09-07T17:21:33Z
CYYC,2025-09-05T21:00:00Z,2025-09-05T17:00:00Z,VFR,20,4,35,160,12,14500,30.05,NA,SKC  ft,CYYC 052100Z 16012KT 9SM SKC 20/04 A3005 RMK SLP188 DENSITY ALT 4900FT,2025-09-05T22:02:54Z,2025-09-05T18:02:54Z
CYYC,2025-09-05T22:00:00Z,2025-09-05T18:00:00Z,VFR,21,3,31,160,12,14500,30.03,NA,SKC  ft,CYYC 052200Z 16012KT 9SM SKC 21/03 A3003 RMK SLP182 DENSITY ALT 5000FT,2025-09-05T22:18:45Z,2025-09-05T18:18:45Z
CYYC,2025-09-05T23:00:00Z,2025-09-05T19:00:00Z,VFR,21,3,31,160,12,14500,30.02,NA,SKC  ft,CYYC 052300Z 16012KT 9SM SKC 21/03 A3002 RMK SLP177 DENSITY ALT 5000FT,2025-09-05T23:20:07Z,2025-09-05T19:20:07Z
CYYC,2025-09-06T01:00:00Z,2025-09-05T21:00:00Z,VFR,19,5,40,180,8,14500,30,NA,SKC  ft,CYYC 060100Z 18008KT 9SM SKC 19/05 A3000 RMK SLP175 DENSITY ALT 4900FT,2025-09-06T01:42:36Z,2025-09-05T21:42:36Z
CYYC,2025-09-06T02:00:00Z,2025-09-05T22:00:00Z,VFR,18,4,40,170,8,14500,30,NA,SKC  ft,CYYC 060200Z 17008KT 9SM SKC 18/04 A3000 RMK FU SLP174 DENSITY ALT 4700FT,2025-09-06T02:56:36Z,2025-09-05T22:56:36Z
CYYC,2025-09-06T03:00:00Z,2025-09-05T23:00:00Z,VFR,17,4,42,150,8,12900,30,NA,SKC  ft,CYYC 060300Z 15008KT 8SM SKC 17/04 A3000 RMK FU SLP173 DENSITY ALT 4600FT,2025-09-06T03:30:47Z,2025-09-05T23:30:47Z
CYYC,2025-09-06T04:00:00Z,2025-09-06T00:00:00Z,VFR,15,4,48,150,6,9999,30,NA,SKC  ft,CYYC 060400Z 15006KT 10SM SKC 15/04 A3000 RMK SLP170 DENSITY ALT 4400FT,2025-09-06T04:25:46Z,2025-09-06T00:25:46Z
CYYC,2025-09-06T05:00:00Z,2025-09-06T01:00:00Z,VFR,13,3,51,170,6,9999,30,NA,SKC  ft,CYYC 060500Z 17006KT 10SM SKC 13/03 A3000 RMK SLP170 DENSITY ALT 4200FT,2025-09-06T05:19:56Z,2025-09-06T01:19:56Z
CYYC,2025-09-06T06:00:00Z,2025-09-06T02:00:00Z,VFR,13,2,47,170,8,9999,30.01,NA,SKC  ft,CYYC 060600Z 17008KT 10SM SKC 13/02 A3001 RMK SLP170 DENSITY ALT 4200FT,2025-09-06T06:29:50Z,2025-09-06T02:29:50Z
CYYC,2025-09-06T07:00:00Z,2025-09-06T03:00:00Z,VFR,12,2,51,180,5,9999,30,NA,SKC  ft,CYYC 060700Z 18005KT 10SM SKC 12/02 A3000 RMK SLP167 DENSITY ALT 4000FT,2025-09-06T07:18:42Z,2025-09-06T03:18:42Z
CYYC,2025-09-06T08:00:00Z,2025-09-06T04:00:00Z,VFR,12,2,51,180,4,9999,30.01,NA,SKC  ft,CYYC 060800Z 18004KT 10SM SKC 12/02 A3001 RMK SLP166 DENSITY ALT 4100FT,2025-09-06T08:25:12Z,2025-09-06T04:25:12Z
CYYC,2025-09-06T09:00:00Z,2025-09-06T05:00:00Z,VFR,11,1,50,150,2,9999,30,NA,SKC  ft,CYYC 060900Z 15002KT 10SM SKC 11/01 A3000 RMK SLP164 DENSITY ALT 3900FT,2025-09-06T09:19:47Z,2025-09-06T05:19:47Z
CYYC,2025-09-06T11:00:00Z,2025-09-06T07:00:00Z,VFR,9,4,71,190,4,9999,29.98,NA,SKC  ft,CYYC 061100Z 19004KT 10SM SKC 09/04 A2998 RMK FU SLP158,2025-09-06T11:16:01Z,2025-09-06T07:16:01Z
CYYC,2025-09-06T12:00:00Z,2025-09-06T08:00:00Z,VFR,9,5,76,220,5,9999,29.97,NA,SKC  ft,CYYC 061200Z 22005KT 10SM SKC 09/05 A2997 RMK SLP157,2025-09-06T12:40:01Z,2025-09-06T08:40:01Z
CYYC,2025-09-06T13:00:00Z,2025-09-06T09:00:00Z,VFR,8,4,76,0,0,12900,29.98,NA,FEW  ft,CYYC 061300Z 00000KT 8SM FEW140 08/04 A2998 RMK FU2AC1 AC TR FU SLP161,2025-09-06T13:22:40Z,2025-09-06T09:22:40Z
CYYC,2025-09-06T14:00:00Z,2025-09-06T10:00:00Z,VFR,9,5,76,0,2,19300,29.98,NA,FEW  ft,CYYC 061400Z VRB02KT 12SM FEW250 09/05 A2998 RMK FU1CI1 CI TR FU SLP161,2025-09-06T14:18:39Z,2025-09-06T10:18:39Z
CYYC,2025-09-06T15:00:00Z,2025-09-06T11:00:00Z,VFR,12,7,72,0,0,19300,29.98,NA,SKC  ft,CYYC 061500Z 00000KT 12SM SKC 12/07 A2998 RMK FU SLP162 DENSITY ALT 4100FT,2025-09-06T15:19:24Z,2025-09-06T11:19:24Z
CYYC,2025-09-06T16:00:00Z,2025-09-06T12:00:00Z,VFR,16,8,59,0,2,19300,29.99,NA,SKC  ft,CYYC 061600Z VRB02KT 12SM SKC 16/08 A2999 RMK FU SLP160 DENSITY ALT 4500FT,2025-09-06T16:24:53Z,2025-09-06T12:24:53Z
CYYC,2025-09-06T17:00:00Z,2025-09-06T13:00:00Z,VFR,19,9,52,200,4,19300,29.99,NA,SKC  ft,CYYC 061700Z 20004KT 110V230 12SM SKC 19/09 A2999 RMK FU SLP160 DENSITY ALT 4900FT,2025-09-06T17:24:33Z,2025-09-06T13:24:33Z
CYYC,2025-09-06T18:00:00Z,2025-09-06T14:00:00Z,VFR,21,7,40,160,4,19300,29.98,NA,SKC  ft,CYYC 061800Z 16004KT 100V220 12SM SKC 21/07 A2998 RMK FU SLP154 DENSITY ALT 5100FT,2025-09-06T18:32:26Z,2025-09-06T14:32:26Z
CYYC,2025-09-06T19:00:00Z,2025-09-06T15:00:00Z,VFR,23,9,41,180,3,9999,29.98,NA,SKC  ft,CYYC 061900Z 18003KT 090V220 10SM SKC 23/09 A2998 RMK FU SLP153 DENSITY ALT 5300FT,2025-09-06T19:18:15Z,2025-09-06T15:18:15Z
CYYC,2025-09-06T20:00:00Z,2025-09-06T16:00:00Z,VFR,23,8,38,170,7,9999,29.98,NA,SKC  ft,CYYC 062000Z 17007KT 120V180 10SM SKC 23/08 A2998 RMK FU SLP151 DENSITY ALT 5400FT,2025-09-06T20:25:16Z,2025-09-06T16:25:16Z
CYYC,2025-09-06T21:00:00Z,2025-09-06T17:00:00Z,VFR,25,8,34,180,5,9999,29.98,NA,SKC  ft,CYYC 062100Z 18005KT 10SM SKC 25/08 A2998 RMK FU SLP151 DENSITY ALT 5500FT,2025-09-06T21:21:20Z,2025-09-06T17:21:20Z
CYYC,2025-09-06T22:00:00Z,2025-09-06T18:00:00Z,VFR,26,8,32,150,6,9999,29.98,NA,SKC  ft,CYYC 062200Z 15006KT 120V190 10SM SKC 26/08 A2998 RMK FU SLP149 DENSITY ALT 5600FT,2025-09-06T22:23:58Z,2025-09-06T18:23:58Z
CYYC,2025-09-06T23:00:00Z,2025-09-06T19:00:00Z,VFR,26,8,32,140,5,9999,29.97,NA,FEW  ft,CYYC 062300Z 14005KT 10SM FEW250 26/08 A2997 RMK CI1 CI TR FU SLP148 DENSITY ALT 5600FT,2025-09-06T23:22:37Z,2025-09-06T19:22:37Z
CYYC,2025-09-07T01:00:00Z,2025-09-06T21:00:00Z,VFR,24,6,31,150,10,9999,29.96,NA,FEW  ft,CYYC 070100Z 15010KT 10SM FEW250 24/06 A2996 RMK CI1 FU SLP148 DENSITY ALT 5500FT,2025-09-07T02:04:15Z,2025-09-06T22:04:15Z
CYYC,2025-09-07T02:00:00Z,2025-09-06T22:00:00Z,VFR,22,5,33,150,7,9999,29.96,NA,FEW  ft; FEW  ft,CYYC 070200Z 15007KT 10SM FEW120 FEW250 22/05 A2996 RMK AC1CI2 AC TR VIRGA W / FU SLP151 DENSITY ALT 5200FT,2025-09-07T03:07:55Z,2025-09-06T23:07:55Z
CYYC,2025-09-07T03:00:00Z,2025-09-06T23:00:00Z,VFR,19,4,37,170,5,9999,29.98,NA,FEW  ft; SCT  ft,CYYC 070300Z 17005KT 10SM FEW120 SCT250 19/04 A2998 RMK AC1CI2 FU SLP156 DENSITY ALT 4900FT,2025-09-07T03:38:08Z,2025-09-06T23:38:08Z
CYYC,2025-09-07T04:00:00Z,2025-09-07T00:00:00Z,VFR,19,4,37,160,6,9999,29.98,NA,FEW  ft,CYYC 070400Z 16006KT 10SM FEW120 19/04 A2998 RMK AC1 AC TR SLP152 DENSITY ALT 4800FT,2025-09-07T04:29:49Z,2025-09-07T00:29:49Z
CYYC,2025-09-07T05:00:00Z,2025-09-07T01:00:00Z,VFR,18,4,40,200,4,9999,29.98,NA,FEW  ft; FEW  ft,CYYC 070500Z 20004KT 10SM FEW120 FEW250 18/04 A2998 RMK AC1CI2 AC TR CONTRAILS SLP148 DENSITY ALT 4800FT,2025-09-07T05:25:34Z,2025-09-07T01:25:34Z
CYYC,2025-09-07T06:00:00Z,2025-09-07T02:00:00Z,VFR,17,5,45,190,2,9999,29.97,NA,FEW  ft,CYYC 070600Z 19002KT 10SM FEW120 17/05 A2997 RMK AC2 VIRGA OVRHD SLP144 DENSITY ALT 4600FT,2025-09-07T06:34:55Z,2025-09-07T02:34:55Z
CYYC,2025-09-07T07:00:00Z,2025-09-07T03:00:00Z,VFR,15,6,55,0,2,9999,29.96,NA,BKN  ft,CYYC 070700Z VRB02KT 10SM BKN210 15/06 A2996 RMK CI6 SLP141 DENSITY ALT 4500FT,2025-09-07T07:22:56Z,2025-09-07T03:22:56Z
CYYC,2025-09-07T08:00:00Z,2025-09-07T04:00:00Z,VFR,15,6,55,220,2,9999,29.96,NA,SCT  ft,CYYC 070800Z 22002KT 10SM SCT210 15/06 A2996 RMK CI4 SLP140 DENSITY ALT 4400FT,2025-09-07T08:29:57Z,2025-09-07T04:29:57Z
CYYC,2025-09-07T09:00:00Z,2025-09-07T05:00:00Z,VFR,13,7,67,40,2,9999,29.95,NA,FEW  ft; SCT  ft,CYYC 070900Z 04002KT 10SM FEW170 SCT220 13/07 A2995 RMK AC1CI3 AC TR SLP136 DENSITY ALT 4200FT,2025-09-07T09:23:42Z,2025-09-07T05:23:42Z
CYYC,2025-09-07T10:00:00Z,2025-09-07T06:00:00Z,VFR,13,7,67,10,2,9999,29.94,NA,FEW  ft; SCT  ft,CYYC 071000Z 01002KT 10SM FEW170 SCT220 13/07 A2994 RMK AC1CI4 AC TR SLP133 DENSITY ALT 4200FT,2025-09-07T10:26:12Z,2025-09-07T06:26:12Z
CYYC,2025-09-07T11:00:00Z,2025-09-07T07:00:00Z,VFR,12,8,77,330,2,9999,29.94,NA,FEW  ft; BKN  ft,CYYC 071100Z 33002KT 10SM FEW170 BKN220 12/08 A2994 RMK AC1CI5 AC TR SLP133 DENSITY ALT 4200FT,2025-09-07T11:19:24Z,2025-09-07T07:19:24Z
CYYC,2025-09-07T12:00:00Z,2025-09-07T08:00:00Z,VFR,12,9,82,0,0,9999,29.93,NA,FEW  ft; BKN  ft,CYYC 071200Z 00000KT 10SM FEW170 BKN230 12/09 A2993 RMK AC1CI6 AC TR CONTRAILS SLP131 DENSITY ALT 4200FT,2025-09-07T12:48:17Z,2025-09-07T08:48:17Z
CYYC,2025-09-07T13:00:00Z,2025-09-07T09:00:00Z,VFR,12,9,82,10,3,12900,29.94,NA,FEW  ft; SCT  ft,CYYC 071300Z 01003KT 8SM FEW170 SCT250 12/09 A2994 RMK FU1AC1CI2 FU / VIRGA NE-E / CONTRAILS SLP134 DENSITY ALT 4200FT,2025-09-07T13:26:45Z,2025-09-07T09:26:45Z
CYYC,2025-09-07T14:00:00Z,2025-09-07T10:00:00Z,VFR,12,9,82,310,2,19300,29.94,NA,FEW  ft; SCT  ft,CYYC 071400Z 31002KT 12SM FEW180 SCT240 12/09 A2994 RMK AC1CI2 HZ SLP139 DENSITY ALT 4100FT,2025-09-07T14:23:05Z,2025-09-07T10:23:05Z
CYYC,2025-09-07T15:00:00Z,2025-09-07T11:00:00Z,VFR,15,10,72,30,3,24100,29.94,NA,SCT  ft,CYYC 071500Z 03003KT 15SM SCT240 15/10 A2994 RMK CI4 SLP137 DENSITY ALT 4400FT,2025-09-07T15:23:38Z,2025-09-07T11:23:38Z
CYYC,2025-09-07T16:00:00Z,2025-09-07T12:00:00Z,VFR,16,10,68,230,5,24100,29.94,NA,BKN  ft,CYYC 071600Z 23005KT 15SM BKN240 16/10 A2994 RMK CI6 CC ASOCTD SLP136 DENSITY ALT 4600FT,2025-09-07T16:29:10Z,2025-09-07T12:29:10Z
CYYC,2025-09-07T17:00:00Z,2025-09-07T13:00:00Z,VFR,20,11,56,0,0,24100,29.93,NA,BKN  ft,CYYC 071700Z 00000KT 15SM BKN240 20/11 A2993 RMK CI5 SLP131 DENSITY ALT 5100FT,2025-09-07T17:21:32Z,2025-09-07T13:21:32Z
CYYC,2025-09-07T18:00:00Z,2025-09-07T14:00:00Z,VFR,23,10,44,350,6,24100,29.93,NA,FEW  ft; BKN  ft,CYYC 071800Z 35006KT 15SM FEW230 BKN250 23/10 A2993 RMK CI1CI5 SLP126 DENSITY ALT 5400FT,2025-09-07T18:32:53Z,2025-09-07T14:32:53Z
CYYC,2025-09-07T19:00:00Z,2025-09-07T15:00:00Z,VFR,25,11,42,360,7,19300,29.92,NA,FEW  ft; BKN  ft,CYYC 071900Z 36007KT 330V060 12SM FEW210 BKN230 25/11 A2992 RMK CI2CI5 HZ SLP124 DENSITY ALT 5600FT,2025-09-07T19:18:51Z,2025-09-07T15:18:51Z
CYYC,2025-09-07T20:00:00Z,2025-09-07T16:00:00Z,VFR,25,9,36,10,5,19300,29.92,NA,SCT  ft; OVC  ft,CYYC 072000Z 01005KT 350V050 12SM SCT180 OVC240 25/09 A2992 RMK AC3CI5 HZ SLP124 DENSITY ALT 5600FT,2025-09-07T20:25:53Z,2025-09-07T16:25:53Z
CYYC,2025-09-07T21:00:00Z,2025-09-07T17:00:00Z,VFR,25,10,39,50,5,19300,29.92,NA,SCT  ft; OVC  ft,CYYC 072100Z 05005KT 12SM SCT200 OVC240 25/10 A2992 RMK CC3CI5 HZ SLP127 DENSITY ALT 5600FT,2025-09-07T21:21:34Z,2025-09-07T17:21:34Z
CYYG,2025-09-05T21:55:00Z,2025-09-05T17:55:00Z,VFR,21,20,94,150,11,24100,30.01,NA,SCT  ft,CYYG 052155Z 15011KT 15SM SCT040 21/20 A3001 RMK SC4 SLP164 DENSITY ALT 900FT,2025-09-05T22:02:55Z,2025-09-05T18:02:55Z
CYYG,2025-09-05T22:00:00Z,2025-09-05T18:00:00Z,VFR,21,20,94,150,10,24100,30.01,NA,FEW  ft,CYYG 052200Z 15010G15KT 15SM FEW030 21/20 A3001 RMK SC3 SLP164 DENSITY ALT 900FT,2025-09-05T22:18:47Z,2025-09-05T18:18:47Z
CYYG,2025-09-05T23:00:00Z,2025-09-05T19:00:00Z,VFR,21,19,88,160,13,24100,30.01,NA,FEW  ft; FEW  ft,CYYG 052300Z 16013G19KT 15SM FEW040 FEW250 21/19 A3001 RMK SC1CI1 SC TR CI TR SLP165 DENSITY ALT 800FT,2025-09-05T23:20:09Z,2025-09-05T19:20:09Z
CYYG,2025-09-06T01:00:00Z,2025-09-05T21:00:00Z,VFR,20,19,94,160,12,24100,30.02,NA,FEW  ft,CYYG 060100Z 16012G17KT 15SM FEW030 20/19 A3002 RMK SC1 SC TR SLP170 DENSITY ALT 700FT,2025-09-06T01:42:37Z,2025-09-05T21:42:37Z
CYYG,2025-09-06T02:00:00Z,2025-09-05T22:00:00Z,VFR,20,18,88,180,12,24100,30.04,NA,SCT  ft,CYYG 060200Z 18012G18KT 15SM SCT017 20/18 A3004 RMK SC3 SLP173 DENSITY ALT 700FT,2025-09-06T02:56:37Z,2025-09-05T22:56:37Z
CYYG,2025-09-06T03:10:00Z,2025-09-05T23:10:00Z,VFR,20,18,88,170,13,24100,30.03,NA,SCT  ft,CYYG 060310Z 17013KT 15SM SCT017 20/18 A3003 RMK SC3 SLP172 DENSITY ALT 700FT,2025-09-06T03:30:48Z,2025-09-05T23:30:48Z
CYYG,2025-09-06T04:00:00Z,2025-09-06T00:00:00Z,VFR,19,19,100,160,12,24100,30.02,NA,SCT  ft,CYYG 060400Z 16012KT 15SM SCT017 19/19 A3002 RMK SC3 SLP167 DENSITY ALT 700FT,2025-09-06T04:25:48Z,2025-09-06T00:25:48Z
CYYG,2025-09-06T05:00:00Z,2025-09-06T01:00:00Z,VFR,19,18,94,170,12,24100,30.02,NA,FEW  ft; FEW  ft; FEW  ft,CYYG 060500Z 17012KT 15SM FEW010 FEW030 FEW075 19/18 A3002 RMK SF1SC1AC1 SF TR AC TR SLP166 DENSITY ALT 700FT,2025-09-06T05:19:58Z,2025-09-06T01:19:58Z
CYYG,2025-09-06T06:00:00Z,2025-09-06T02:00:00Z,VFR,19,18,94,180,11,24100,30,NA,FEW  ft; FEW  ft,CYYG 060600Z 18011KT 15SM FEW010 FEW070 19/18 A3000 RMK SF1AC2 SF TR SLP161 DENSITY ALT 700FT,2025-09-06T06:29:51Z,2025-09-06T02:29:51Z
CYYG,2025-09-06T07:00:00Z,2025-09-06T03:00:00Z,VFR,20,18,88,180,12,24100,30,NA,FEW  ft,CYYG 060700Z 18012G18KT 15SM FEW040 20/18 A3000 RMK SC1 SLP161 DENSITY ALT 700FT,2025-09-06T07:18:43Z,2025-09-06T03:18:43Z
CYYG,2025-09-06T08:00:00Z,2025-09-06T04:00:00Z,MVFR,20,18,88,200,12,24100,30,NA,BKN  ft,CYYG 060800Z 20012KT 15SM BKN030 20/18 A3000 RMK SC6 SLP162 DENSITY ALT 700FT,2025-09-06T08:25:13Z,2025-09-06T04:25:13Z
CYYG,2025-09-06T09:00:00Z,2025-09-06T05:00:00Z,MVFR,20,17,83,200,12,24100,30.01,NA,BKN  ft,CYYG 060900Z 20012G19KT 15SM BKN022 20/17 A3001 RMK SC7 SLP164 DENSITY ALT 700FT,2025-09-06T09:19:49Z,2025-09-06T05:19:49Z
CYYG,2025-09-06T10:00:00Z,2025-09-06T06:00:00Z,MVFR,19,16,83,190,15,24100,30.01,NA,BKN  ft,CYYG 061000Z 19015G20KT 15SM BKN019 19/16 A3001 RMK SC7 SLP166 DENSITY ALT 700FT,2025-09-06T10:20:32Z,2025-09-06T06:20:32Z
CYYG,2025-09-06T11:00:00Z,2025-09-06T07:00:00Z,MVFR,19,16,83,200,12,24100,30.02,NA,BKN  ft,CYYG 061100Z 20012G18KT 15SM BKN016 19/16 A3002 RMK SC7 SLP169 DENSITY ALT 600FT,2025-09-06T11:16:02Z,2025-09-06T07:16:02Z
CYYG,2025-09-06T12:00:00Z,2025-09-06T08:00:00Z,MVFR,20,16,78,200,15,24100,30.03,NA,OVC  ft,CYYG 061200Z 20015G21KT 15SM OVC016 20/16 A3003 RMK SC8 SLP171 DENSITY ALT 700FT,2025-09-06T12:40:03Z,2025-09-06T08:40:03Z
CYYG,2025-09-06T13:00:00Z,2025-09-06T09:00:00Z,MVFR,21,17,78,210,12,24100,30.04,NA,OVC  ft,CYYG 061300Z 21012G18KT 15SM OVC016 21/17 A3004 RMK SC8 SLP175 DENSITY ALT 800FT,2025-09-06T13:22:42Z,2025-09-06T09:22:42Z
CYYG,2025-09-06T14:00:00Z,2025-09-06T10:00:00Z,VFR,23,18,74,190,14,24100,30.03,NA,SCT  ft; BKN  ft,CYYG 061400Z 19014G20KT 15SM SCT016 BKN250 23/18 A3003 RMK SC3CI3 SLP170 DENSITY ALT 1000FT,2025-09-06T14:18:41Z,2025-09-06T10:18:41Z
CYYG,2025-09-06T15:00:00Z,2025-09-06T11:00:00Z,VFR,24,18,69,200,15,24100,30.02,NA,FEW  ft; BKN  ft,CYYG 061500Z 20015G20KT 15SM FEW022 BKN250 24/18 A3002 RMK CF1CI6 SLP169 DENSITY ALT 1200FT,2025-09-06T15:19:25Z,2025-09-06T11:19:25Z
CYYG,2025-09-06T16:00:00Z,2025-09-06T12:00:00Z,VFR,25,18,65,200,16,24100,30.02,NA,FEW  ft; OVC  ft,CYYG 061600Z 20016G22KT 15SM FEW022 OVC250 25/18 A3002 RMK CF1CI8 CF TR SLP166 DENSITY ALT 1300FT,2025-09-06T16:24:54Z,2025-09-06T12:24:54Z
CYYG,2025-09-06T17:00:00Z,2025-09-06T13:00:00Z,VFR,26,18,61,210,14,24100,30,NA,FEW  ft; BKN  ft,CYYG 061700Z 21014G20KT 15SM FEW032 BKN250 26/18 A3000 RMK CF1CI5 CF TR SLP162 DENSITY ALT 1500FT,2025-09-06T17:24:34Z,2025-09-06T13:24:34Z
CYYG,2025-09-06T18:00:00Z,2025-09-06T14:00:00Z,VFR,27,18,58,200,14,24100,29.99,NA,FEW  ft; SCT  ft,CYYG 061800Z 20014G22KT 15SM FEW034 SCT250 27/18 A2999 RMK CF1CI3 CF TR SLP156 DENSITY ALT 1600FT,2025-09-06T18:32:27Z,2025-09-06T14:32:27Z
CYYG,2025-09-06T19:00:00Z,2025-09-06T15:00:00Z,VFR,27,18,58,170,14,24100,29.97,NA,SKC  ft,CYYG 061900Z 17014G19KT 15SM SKC 27/18 A2997 RMK SLP152 DENSITY ALT 1600FT,2025-09-06T19:18:16Z,2025-09-06T15:18:16Z
CYYG,2025-09-06T20:00:00Z,2025-09-06T16:00:00Z,VFR,27,19,62,190,11,24100,29.97,NA,SKC  ft,CYYG 062000Z 19011KT 15SM SKC 27/19 A2997 RMK SLP149 DENSITY ALT 1600FT,2025-09-06T20:25:17Z,2025-09-06T16:25:17Z
CYYG,2025-09-06T21:00:00Z,2025-09-06T17:00:00Z,VFR,28,18,55,190,11,24100,29.95,NA,SKC  ft,CYYG 062100Z 19011KT 15SM SKC 28/18 A2995 RMK SLP145 DENSITY ALT 1700FT,2025-09-06T21:21:21Z,2025-09-06T17:21:21Z
CYYG,2025-09-06T22:00:00Z,2025-09-06T18:00:00Z,VFR,26,18,61,180,11,24100,29.94,NA,BKN  ft,CYYG 062200Z 18011KT 15SM BKN250 26/18 A2994 RMK CI7 SLP141 DENSITY ALT 1500FT,2025-09-06T22:23:59Z,2025-09-06T18:23:59Z
CYYG,2025-09-06T23:00:00Z,2025-09-06T19:00:00Z,VFR,25,18,65,180,10,24100,29.96,NA,FEW  ft; BKN  ft,CYYG 062300Z 18010KT 15SM FEW025 BKN250 25/18 A2996 RMK SC1CI7 SC TR SLP146 DENSITY ALT 1300FT,2025-09-06T23:22:39Z,2025-09-06T19:22:39Z
CYYG,2025-09-07T01:00:00Z,2025-09-06T21:00:00Z,VFR,23,18,74,200,12,24100,29.97,NA,FEW  ft,CYYG 070100Z 20012KT 15SM FEW040 23/18 A2997 RMK SC2 SLP150 DENSITY ALT 1100FT,2025-09-07T02:04:16Z,2025-09-06T22:04:16Z
CYYG,2025-09-07T02:00:00Z,2025-09-06T22:00:00Z,VFR,21,19,88,190,10,24100,29.97,NA,BKN  ft,CYYG 070200Z 19010KT 15SM BKN260 21/19 A2997 RMK CI5 SLP149 DENSITY ALT 900FT,2025-09-07T03:07:56Z,2025-09-06T23:07:56Z
CYYG,2025-09-07T03:00:00Z,2025-09-06T23:00:00Z,VFR,21,19,88,190,15,24100,29.95,NA,BKN  ft,CYYG 070300Z 19015KT 15SM BKN260 21/19 A2995 RMK CI6 SLP144 DENSITY ALT 1000FT,2025-09-07T03:38:10Z,2025-09-06T23:38:10Z
CYYG,2025-09-07T04:00:00Z,2025-09-07T00:00:00Z,VFR,21,19,88,190,13,24100,29.94,NA,BKN  ft,CYYG 070400Z 19013G20KT 15SM BKN230 21/19 A2994 RMK CI6 SLP142 DENSITY ALT 1000FT,2025-09-07T04:29:50Z,2025-09-07T00:29:50Z
CYYG,2025-09-07T05:00:00Z,2025-09-07T01:00:00Z,VFR,21,19,88,190,12,24100,29.93,NA,FEW  ft; FEW  ft; BKN  ft,CYYG 070500Z 19012G18KT 15SM FEW040 FEW140 BKN230 21/19 A2993 RMK SC1AC2CI4 SC TR SLP138 DENSITY ALT 1000FT,2025-09-07T05:25:36Z,2025-09-07T01:25:36Z
CYYG,2025-09-07T06:00:00Z,2025-09-07T02:00:00Z,VFR,21,19,88,200,13,24100,29.92,NA,FEW  ft; BKN  ft,CYYG 070600Z 20013G19KT 15SM FEW030 BKN240 21/19 A2992 RMK SC1CI4 SLP135 DENSITY ALT 1000FT,2025-09-07T06:34:56Z,2025-09-07T02:34:56Z
CYYG,2025-09-07T07:00:00Z,2025-09-07T03:00:00Z,MVFR,21,19,88,190,14,24100,29.91,NA,BKN  ft; BKN  ft,CYYG 070700Z 19014KT 15SM BKN030 BKN240 21/19 A2991 RMK SC5CI1 SLP129 DENSITY ALT 1000FT,2025-09-07T07:22:57Z,2025-09-07T03:22:57Z
CYYG,2025-09-07T08:00:00Z,2025-09-07T04:00:00Z,MVFR,21,19,88,200,10,24100,29.91,NA,BKN  ft,CYYG 070800Z 20010G18KT 15SM BKN018 21/19 A2991 RMK SC7 SLP131 DENSITY ALT 1000FT,2025-09-07T08:29:58Z,2025-09-07T04:29:58Z
CYYG,2025-09-07T08:35:00Z,2025-09-07T04:35:00Z,MVFR,22,19,83,220,7,24100,29.92,NA,OVC  ft,CYYG 070835Z 22007KT 190V250 15SM OVC015 22/19 A2992 RMK SC8 SLP132 DENSITY ALT 1000FT,2025-09-07T08:44:44Z,2025-09-07T04:44:44Z
CYYG,2025-09-07T09:04:00Z,2025-09-07T05:04:00Z,IFR,20,18,88,290,10,8000,29.94,NA,OVC  ft,CYYG 070904Z 29010G20KT 210V350 5SM -RA BR OVC006 20/18 A2994 RMK SF8 CIG RAG PRESRR SLP140 DENSITY ALT 800FT,2025-09-07T09:23:43Z,2025-09-07T05:23:43Z
CYYG,2025-09-07T09:31:00Z,2025-09-07T05:31:00Z,LIFR,17,17,100,340,6,6400,29.95,NA,OVC  ft,CYYG 070931Z 34006KT 4SM -RA BR OVC004 17/17 A2995 RMK FG2SF6 WSHFT 0904 CIG RAG SLP143 DENSITY ALT 500FT,2025-09-07T09:41:34Z,2025-09-07T05:41:34Z
CYYG,2025-09-07T10:00:00Z,2025-09-07T06:00:00Z,LIFR,17,17,100,340,7,2400,29.96,NA,OVC  ft,CYYG 071000Z 34007KT 1 1/2SM -RA BR OVC004 17/17 A2996 RMK ST8 VIS VRB 1-2 SLP147 DENSITY ALT 400FT,2025-09-07T10:26:13Z,2025-09-07T06:26:13Z
CYYG,2025-09-07T11:00:00Z,2025-09-07T07:00:00Z,LIFR,17,16,94,350,6,4800,29.97,NA,OVC  ft,CYYG 071100Z 35006KT 3SM -RA BR OVC003 17/16 A2997 RMK ST8 SLP150 DENSITY ALT 400FT,2025-09-07T11:19:26Z,2025-09-07T07:19:26Z
CYYG,2025-09-07T12:29:00Z,2025-09-07T08:29:00Z,LIFR,16,16,100,20,6,3200,29.98,NA,OVC  ft,CYYG 071229Z 02006KT 2SM BR OVC004 16/16 A2998 RMK ST8 SLP155,2025-09-07T12:48:18Z,2025-09-07T08:48:18Z
CYYG,2025-09-07T13:00:00Z,2025-09-07T09:00:00Z,LIFR,16,16,100,10,7,8000,29.99,NA,OVC  ft,CYYG 071300Z 01007KT 5SM BR OVC004 16/16 A2999 RMK ST8 SLP158,2025-09-07T13:26:47Z,2025-09-07T09:26:47Z
CYYG,2025-09-07T14:00:00Z,2025-09-07T10:00:00Z,LIFR,17,16,94,10,5,24100,30,NA,OVC  ft,CYYG 071400Z 01005KT 320V020 15SM OVC004 17/16 A3000 RMK ST8 SLP162 DENSITY ALT 400FT,2025-09-07T14:23:06Z,2025-09-07T10:23:06Z
CYYG,2025-09-07T15:00:00Z,2025-09-07T11:00:00Z,IFR,17,16,94,50,4,24100,30,NA,OVC  ft,CYYG 071500Z 05004KT 360V070 15SM OVC009 17/16 A3000 RMK SC8 SLP161 DENSITY ALT 400FT,2025-09-07T15:23:39Z,2025-09-07T11:23:39Z
CYYG,2025-09-07T16:00:00Z,2025-09-07T12:00:00Z,MVFR,18,15,83,350,4,24100,30,NA,OVC  ft,CYYG 071600Z 35004KT 15SM OVC010 18/15 A3000 RMK SC8 SLP161 DENSITY ALT 500FT,2025-09-07T16:29:12Z,2025-09-07T12:29:12Z
CYYG,2025-09-07T17:00:00Z,2025-09-07T13:00:00Z,MVFR,18,15,83,20,4,24100,29.99,NA,OVC  ft,CYYG 071700Z 02004KT 15SM OVC013 18/15 A2999 RMK SC8 SLP158 DENSITY ALT 500FT,2025-09-07T17:21:33Z,2025-09-07T13:21:33Z
CYYG,2025-09-07T18:00:00Z,2025-09-07T14:00:00Z,MVFR,18,15,83,60,4,24100,29.98,NA,OVC  ft,CYYG 071800Z 06004KT 040V110 15SM OVC016 18/15 A2998 RMK SC8 SLP156 DENSITY ALT 600FT,2025-09-07T18:32:55Z,2025-09-07T14:32:55Z
CYYG,2025-09-07T19:00:00Z,2025-09-07T15:00:00Z,MVFR,19,16,83,50,3,9999,29.97,NA,OVC  ft,CYYG 071900Z 05003KT 350V090 10SM OVC015 19/16 A2997 RMK SC8 SLP152 DENSITY ALT 600FT,2025-09-07T19:18:52Z,2025-09-07T15:18:52Z
CYYG,2025-09-07T20:00:00Z,2025-09-07T16:00:00Z,MVFR,18,17,94,100,3,12900,29.97,NA,OVC  ft,CYYG 072000Z 10003KT 8SM -RA OVC010 18/17 A2997 RMK SC8 SLP150 DENSITY ALT 500FT,2025-09-07T20:25:54Z,2025-09-07T16:25:54Z
CYYG,2025-09-07T21:00:00Z,2025-09-07T17:00:00Z,MVFR,18,16,88,40,7,24100,29.95,NA,SCT  ft; BKN  ft; OVC  ft,CYYG 072100Z 04007KT 15SM SCT011 BKN022 OVC055 18/16 A2995 RMK SC3SC3SC2 SLP144 DENSITY ALT 500FT,2025-09-07T21:21:35Z,2025-09-07T17:21:35Z
CYYJ,2025-09-05T21:00:00Z,2025-09-05T17:00:00Z,VFR,18,14,78,120,8,48300,29.84,NA,FEW  ft; SCT  ft,CYYJ 052100Z 12008KT 30SM FEW200 SCT250 18/14 A2984 RMK CI2CI2 SLP106 DENSITY ALT 600FT,2025-09-05T22:02:53Z,2025-09-05T18:02:53Z
CYYJ,2025-09-05T22:00:00Z,2025-09-05T18:00:00Z,VFR,19,14,73,130,9,48300,29.82,NA,FEW  ft; SCT  ft,CYYJ 052200Z 13009KT 30SM FEW220 SCT250 19/14 A2982 RMK CC1CI3 SLP101 DENSITY ALT 700FT,2025-09-05T22:18:45Z,2025-09-05T18:18:45Z
CYYJ,2025-09-05T23:00:00Z,2025-09-05T19:00:00Z,VFR,21,15,69,120,9,48300,29.81,NA,SCT  ft,CYYJ 052300Z 12009KT 30SM SCT250 21/15 A2981 RMK CI3 SLP097 DENSITY ALT 900FT,2025-09-05T23:20:07Z,2025-09-05T19:20:07Z
CYYJ,2025-09-06T01:00:00Z,2025-09-05T21:00:00Z,VFR,18,14,78,90,6,32200,29.8,NA,SCT  ft; BKN  ft,CYYJ 060100Z 09006KT 20SM SCT210 BKN250 18/14 A2980 RMK CC3CI3 HZ SLP092 DENSITY ALT 600FT,2025-09-06T01:42:35Z,2025-09-05T21:42:35Z
CYYJ,2025-09-06T02:00:00Z,2025-09-05T22:00:00Z,VFR,16,14,88,100,5,48300,29.79,NA,SCT  ft; BKN  ft,CYYJ 060200Z 10005KT 30SM SCT210 BKN250 16/14 A2979 RMK CC4CI2 SLP090 DENSITY ALT 400FT,2025-09-06T02:56:35Z,2025-09-05T22:56:35Z
CYYJ,2025-09-06T03:00:00Z,2025-09-05T23:00:00Z,VFR,15,13,88,100,5,48300,29.79,NA,FEW  ft; BKN  ft,CYYJ 060300Z 10005KT 30SM FEW170 BKN250 15/13 A2979 RMK AC2CS4 SLP089 DENSITY ALT 300FT,2025-09-06T03:30:46Z,2025-09-05T23:30:46Z
CYYJ,2025-09-06T04:00:00Z,2025-09-06T00:00:00Z,VFR,15,13,88,110,4,32200,29.8,NA,SCT  ft; BKN  ft,CYYJ 060400Z 11004KT 20SM SCT170 BKN210 15/13 A2980 RMK AC3CS4 SLP094 DENSITY ALT 300FT,2025-09-06T04:25:45Z,2025-09-06T00:25:45Z
CYYJ,2025-09-06T05:00:00Z,2025-09-06T01:00:00Z,VFR,15,13,88,0,0,48300,29.81,NA,SCT  ft; BKN  ft,CYYJ 060500Z 00000KT 30SM SCT170 BKN200 15/13 A2981 RMK AC3CS4 SLP098 DENSITY ALT 300FT,2025-09-06T05:19:56Z,2025-09-06T01:19:56Z
CYYJ,2025-09-06T06:00:00Z,2025-09-06T02:00:00Z,VFR,15,13,88,0,0,48300,29.81,NA,FEW  ft; SCT  ft; OVC  ft,CYYJ 060600Z 00000KT 30SM FEW140 SCT160 OVC200 15/13 A2981 RMK AC2AC2CS4 SLP098,2025-09-06T06:29:49Z,2025-09-06T02:29:49Z
CYYJ,2025-09-06T07:08:00Z,2025-09-06T03:08:00Z,VFR,15,14,94,160,12,48300,29.83,NA,FEW  ft; SCT  ft; OVC  ft,CYYJ 060708Z 16012KT 040V170 30SM -RA FEW110 SCT140 OVC200 15/14 A2983 RMK AC2AC2CS4 PRESRR SLP105 DENSITY ALT 300FT,2025-09-06T07:18:41Z,2025-09-06T03:18:41Z
CYYJ,2025-09-06T07:24:00Z,2025-09-06T03:24:00Z,VFR,15,13,88,140,7,48300,29.84,NA,BKN  ft; OVC  ft,CYYJ 060724Z 14007KT 060V150 30SM BKN110 OVC200 15/13 A2984 RMK AC6CS4 INTMT -RA SLP107,2025-09-06T07:39:08Z,2025-09-06T03:39:08Z
CYYJ,2025-09-06T08:00:00Z,2025-09-06T04:00:00Z,VFR,15,13,88,0,0,48300,29.84,NA,FEW  ft; BKN  ft; OVC  ft,CYYJ 060800Z 00000KT 30SM FEW120 BKN150 OVC200 15/13 A2984 RMK AC2AC3CS3 SLP107,2025-09-06T08:25:12Z,2025-09-06T04:25:12Z
CYYJ,2025-09-06T09:00:00Z,2025-09-06T05:00:00Z,VFR,15,13,88,0,0,48300,29.84,NA,SCT  ft; BKN  ft; BKN  ft,CYYJ 060900Z 00000KT 30SM SCT130 BKN160 BKN200 15/13 A2984 RMK AC3AC2CS2 SLP107,2025-09-06T09:19:46Z,2025-09-06T05:19:46Z
CYYJ,2025-09-06T10:00:00Z,2025-09-06T06:00:00Z,VFR,15,13,88,0,0,48300,29.84,NA,FEW  ft; SCT  ft,CYYJ 061000Z 00000KT 30SM FEW130 SCT250 15/13 A2984 RMK AC1CI3 SLP108,2025-09-06T10:20:31Z,2025-09-06T06:20:31Z
CYYJ,2025-09-06T11:00:00Z,2025-09-06T07:00:00Z,VFR,14,13,94,140,3,48300,29.85,NA,FEW  ft; SCT  ft,CYYJ 061100Z 14003KT 30SM FEW130 SCT250 14/13 A2985 RMK AC1CI2 SLP110,2025-09-06T11:16:01Z,2025-09-06T07:16:01Z
CYYJ,2025-09-06T12:00:00Z,2025-09-06T08:00:00Z,VFR,13,13,100,0,2,48300,29.85,NA,FEW  ft; FEW  ft,CYYJ 061200Z VRB02KT 30SM FEW130 FEW200 13/13 A2985 RMK AC1CI1 SLP110,2025-09-06T12:40:01Z,2025-09-06T08:40:01Z
CYYJ,2025-09-06T13:00:00Z,2025-09-06T09:00:00Z,VFR,13,12,94,90,2,48300,29.86,NA,FEW  ft; FEW  ft,CYYJ 061300Z 09002KT 30SM FEW050 FEW130 13/12 A2986 RMK SC1AC1 SC TR SLP112,2025-09-06T13:22:40Z,2025-09-06T09:22:40Z
CYYJ,2025-09-06T14:00:00Z,2025-09-06T10:00:00Z,VFR,13,13,100,100,3,48300,29.87,NA,FEW  ft; BKN  ft,CYYJ 061400Z 10003KT 070V130 30SM FEW130 BKN250 13/13 A2987 RMK AC2CI3 SLP118,2025-09-06T14:18:39Z,2025-09-06T10:18:39Z
CYYJ,2025-09-06T15:00:00Z,2025-09-06T11:00:00Z,VFR,14,13,94,100,3,48300,29.88,NA,FEW  ft; FEW  ft; BKN  ft,CYYJ 061500Z 10003KT 30SM FEW120 FEW210 BKN250 14/13 A2988 RMK AC1CC1CI6 AC TR SLP121,2025-09-06T15:19:24Z,2025-09-06T11:19:24Z
CYYJ,2025-09-06T16:00:00Z,2025-09-06T12:00:00Z,VFR,15,13,88,120,7,32200,29.9,NA,FEW  ft; BKN  ft,CYYJ 061600Z 12007KT 20SM FEW220 BKN250 15/13 A2990 RMK CC2CI3 HZ SLP127,2025-09-06T16:24:53Z,2025-09-06T12:24:53Z
CYYJ,2025-09-06T17:00:00Z,2025-09-06T13:00:00Z,VFR,15,13,88,130,11,32200,29.92,NA,FEW  ft; FEW  ft; BKN  ft,CYYJ 061700Z 13011KT 20SM FEW070 FEW220 BKN250 15/13 A2992 RMK AC1CC1CI4 AC TR HZ SLP134,2025-09-06T17:24:32Z,2025-09-06T13:24:32Z
CYYJ,2025-09-06T18:00:00Z,2025-09-06T14:00:00Z,VFR,16,13,83,130,9,32200,29.93,NA,FEW  ft; BKN  ft,CYYJ 061800Z 13009G15KT 20SM FEW010 BKN250 16/13 A2993 RMK SF1CI6 SF TR SLP138,2025-09-06T18:32:25Z,2025-09-06T14:32:25Z
CYYJ,2025-09-06T19:00:00Z,2025-09-06T15:00:00Z,VFR,16,12,77,120,8,32200,29.93,NA,FEW  ft; FEW  ft; BKN  ft,CYYJ 061900Z 12008KT 20SM FEW005 FEW200 BKN250 16/12 A2993 RMK SF1CC1CI5 SF TR SLP138,2025-09-06T19:18:14Z,2025-09-06T15:18:14Z
CYYJ,2025-09-06T20:00:00Z,2025-09-06T16:00:00Z,VFR,15,13,88,130,10,32200,29.93,NA,FEW  ft; FEW  ft; SCT  ft; BKN  ft,CYYJ 062000Z 13010KT 20SM FEW005 FEW010 SCT220 BKN250 15/13 A2993 RMK SF1SF1CC3CI2 SF TR SF TR SLP136,2025-09-06T20:25:15Z,2025-09-06T16:25:15Z
CYYJ,2025-09-06T21:00:00Z,2025-09-06T17:00:00Z,VFR,16,14,88,110,8,32200,29.91,NA,FEW  ft; FEW  ft; BKN  ft,CYYJ 062100Z 11008KT 20SM VCFG FEW003 FEW010 BKN250 16/14 A2991 RMK SF1SF1CI7 SF TR SF TR VIS NE - E 3 SLP132,2025-09-06T21:21:20Z,2025-09-06T17:21:20Z
CYYJ,2025-09-06T22:00:00Z,2025-09-06T18:00:00Z,VFR,16,14,88,120,4,32200,29.91,NA,SCT  ft; BKN  ft,CYYJ 062200Z 12004KT 080V140 20SM SCT160 BKN250 16/14 A2991 RMK AC4CS3 SLP129 DENSITY ALT 300FT,2025-09-06T22:23:57Z,2025-09-06T18:23:57Z
CYYJ,2025-09-06T23:00:00Z,2025-09-06T19:00:00Z,VFR,15,13,88,80,3,48300,29.91,NA,BKN  ft; OVC  ft,CYYJ 062300Z 08003KT 060V130 30SM BKN160 OVC250 15/13 A2991 RMK AC5CS3 SLP129,2025-09-06T23:22:37Z,2025-09-06T19:22:37Z
CYYJ,2025-09-07T01:00:00Z,2025-09-06T21:00:00Z,VFR,14,13,94,160,5,48300,29.91,NA,BKN  ft; OVC  ft,CYYJ 070100Z 16005KT 090V180 30SM BKN140 OVC250 14/13 A2991 RMK AC5CI3 SLP129,2025-09-07T02:04:15Z,2025-09-06T22:04:15Z
CYYJ,2025-09-07T02:36:00Z,2025-09-06T22:36:00Z,VFR,13,13,100,110,5,32200,29.9,NA,SCT  ft; BKN  ft; BKN  ft,CYYJ 070236Z 11005KT 20SM -RA SCT100 BKN140 BKN250 13/13 A2990 RMK AC3AC3CI1 SLP127,2025-09-07T03:07:54Z,2025-09-06T23:07:54Z
CYYJ,2025-09-07T03:00:00Z,2025-09-06T23:00:00Z,VFR,14,13,94,70,7,32200,29.9,NA,FEW  ft; BKN  ft; BKN  ft,CYYJ 070300Z 07007KT 20SM FEW100 BKN130 BKN190 14/13 A2990 RMK AC2AC3AC2 SLP126,2025-09-07T03:38:08Z,2025-09-06T23:38:08Z
CYYJ,2025-09-07T04:00:00Z,2025-09-07T00:00:00Z,VFR,13,12,94,120,4,32200,29.91,NA,FEW  ft; BKN  ft; BKN  ft,CYYJ 070400Z 12004KT 20SM FEW100 BKN130 BKN250 13/12 A2991 RMK AC1AC4CI2 SLP130,2025-09-07T04:29:49Z,2025-09-07T00:29:49Z
CYYJ,2025-09-07T05:00:00Z,2025-09-07T01:00:00Z,VFR,13,12,94,120,3,32200,29.91,NA,FEW  ft; SCT  ft; BKN  ft,CYYJ 070500Z 12003KT 080V140 20SM FEW100 SCT130 BKN240 13/12 A2991 RMK AC1AC2CI4 SLP132,2025-09-07T05:25:34Z,2025-09-07T01:25:34Z
CYYJ,2025-09-07T06:00:00Z,2025-09-07T02:00:00Z,VFR,13,12,94,130,6,32200,29.94,NA,FEW  ft; FEW  ft; BKN  ft,CYYJ 070600Z 13006KT 20SM FEW100 FEW130 BKN240 13/12 A2994 RMK AC1AC1CI3 SLP142,2025-09-07T06:34:55Z,2025-09-07T02:34:55Z
CYYJ,2025-09-07T07:00:00Z,2025-09-07T03:00:00Z,VFR,13,12,94,150,5,32200,29.96,NA,FEW  ft; SCT  ft,CYYJ 070700Z 15005KT 20SM FEW130 SCT250 13/12 A2996 RMK AC2CI1 SLP147,2025-09-07T07:22:55Z,2025-09-07T03:22:55Z
CYYJ,2025-09-07T08:00:00Z,2025-09-07T04:00:00Z,VFR,12,12,100,0,0,32200,29.96,NA,FEW  ft; FEW  ft,CYYJ 070800Z 00000KT 20SM FEW130 FEW250 12/12 A2996 RMK AC1CI1 SLP148,2025-09-07T08:29:57Z,2025-09-07T04:29:57Z
CYYJ,2025-09-07T09:00:00Z,2025-09-07T05:00:00Z,VFR,12,12,100,0,2,32200,29.98,NA,FEW  ft; FEW  ft,CYYJ 070900Z VRB02KT 20SM FEW150 FEW250 12/12 A2998 RMK AC1CI1 SLP153,2025-09-07T09:23:41Z,2025-09-07T05:23:41Z
CYYJ,2025-09-07T10:00:00Z,2025-09-07T06:00:00Z,VFR,12,11,94,0,2,32200,29.98,NA,FEW  ft; SCT  ft,CYYJ 071000Z VRB02KT 20SM FEW150 SCT220 12/11 A2998 RMK AC1CI2 SLP155,2025-09-07T10:26:11Z,2025-09-07T06:26:11Z
CYYJ,2025-09-07T11:00:00Z,2025-09-07T07:00:00Z,VFR,12,12,100,100,7,32200,29.98,NA,FEW  ft; FEW  ft,CYYJ 071100Z 10007KT 20SM FEW150 FEW220 12/12 A2998 RMK AC1CI1 SLP155,2025-09-07T11:19:24Z,2025-09-07T07:19:24Z
CYYJ,2025-09-07T12:00:00Z,2025-09-07T08:00:00Z,VFR,12,12,100,0,2,32200,29.99,NA,FEW  ft; FEW  ft,CYYJ 071200Z VRB02KT 20SM FEW150 FEW220 12/12 A2999 RMK AC1CI1 SLP159,2025-09-07T12:48:16Z,2025-09-07T08:48:16Z
CYYJ,2025-09-07T13:00:00Z,2025-09-07T09:00:00Z,VFR,11,11,100,320,3,32200,30,NA,FEW  ft,CYYJ 071300Z 32003KT 20SM FEW150 11/11 A3000 RMK AC1 SLP160,2025-09-07T13:26:45Z,2025-09-07T09:26:45Z
CYYJ,2025-09-07T14:00:00Z,2025-09-07T10:00:00Z,VFR,11,11,100,180,4,32200,30,NA,FEW  ft; FEW  ft; FEW  ft,CYYJ 071400Z 18004KT 170V320 20SM FEW030 FEW150 FEW250 11/11 A3000 RMK SC1AC1CI1 SC TR CI TR SLP162,2025-09-07T14:23:05Z,2025-09-07T10:23:05Z
CYYJ,2025-09-07T15:00:00Z,2025-09-07T11:00:00Z,VFR,13,12,94,100,3,48300,30.02,NA,FEW  ft; SCT  ft; SCT  ft,CYYJ 071500Z 10003KT 30SM FEW035 SCT220 SCT250 13/12 A3002 RMK SC1CC3CI1 SC TR SLP167,2025-09-07T15:23:37Z,2025-09-07T11:23:37Z
CYYJ,2025-09-07T16:00:00Z,2025-09-07T12:00:00Z,VFR,14,13,94,0,2,48300,30.03,NA,FEW  ft; SCT  ft; SCT  ft,CYYJ 071600Z VRB02KT 30SM FEW020 SCT210 SCT250 14/13 A3003 RMK SC1CC3CI1 SC TR SLP170,2025-09-07T16:29:10Z,2025-09-07T12:29:10Z
CYYJ,2025-09-07T17:00:00Z,2025-09-07T13:00:00Z,VFR,15,13,88,140,6,48300,30.04,NA,FEW  ft; FEW  ft; SCT  ft,CYYJ 071700Z 14006KT 30SM FEW020 FEW220 SCT250 15/13 A3004 RMK SC1CI2CI1 SC TR SLP175,2025-09-07T17:21:32Z,2025-09-07T13:21:32Z
CYYJ,2025-09-07T18:00:00Z,2025-09-07T14:00:00Z,VFR,16,13,83,120,3,48300,30.05,NA,FEW  ft; SCT  ft; BKN  ft,CYYJ 071800Z 12003KT 070V150 30SM FEW025 SCT220 BKN250 16/13 A3005 RMK SC1CC4CI1 SC TR SLP176,2025-09-07T18:32:53Z,2025-09-07T14:32:53Z
CYYJ,2025-09-07T19:00:00Z,2025-09-07T15:00:00Z,VFR,17,13,77,120,6,48300,30.05,NA,FEW  ft; SCT  ft; BKN  ft,CYYJ 071900Z 12006KT 080V150 30SM FEW035 SCT170 BKN250 17/13 A3005 RMK SC1AC4CI1 SC TR SLP179 DENSITY ALT 300FT,2025-09-07T19:18:50Z,2025-09-07T15:18:50Z
CYYJ,2025-09-07T20:00:00Z,2025-09-07T16:00:00Z,VFR,17,13,77,130,8,48300,30.05,NA,FEW  ft; FEW  ft; BKN  ft,CYYJ 072000Z 13008KT 30SM FEW030 FEW180 BKN250 17/13 A3005 RMK SC1AC1CI4 SC TR SLP179,2025-09-07T20:25:52Z,2025-09-07T16:25:52Z
CYYJ,2025-09-07T21:00:00Z,2025-09-07T17:00:00Z,VFR,17,13,77,140,11,48300,30.05,NA,FEW  ft; SCT  ft; BKN  ft,CYYJ 072100Z 14011G17KT 30SM FEW030 SCT190 BKN250 17/13 A3005 RMK SC1AC3CI3 SC TR SLP178,2025-09-07T21:21:34Z,2025-09-07T17:21:34Z
CYYT,2025-09-05T21:48:00Z,2025-09-05T17:48:00Z,LIFR,11,11,100,140,7,2000,30.24,NA,OVC  ft,CYYT 052148Z 14007KT 1 1/4SM BR OVC002 11/11 A3024 RMK ST8 SLP247,2025-09-05T22:02:55Z,2025-09-05T18:02:55Z
CYYT,2025-09-05T22:14:00Z,2025-09-05T18:14:00Z,LIFR,11,11,100,140,5,NA,30.25,NA,OVX  ft,CYYT 052214Z 14005KT 090V160 1/2SM R10/P6000FT/U R16/P6000FT/U FG VV002 11/11 A3025 RMK FG8 SLP249,2025-09-05T22:18:47Z,2025-09-05T18:18:47Z
CYYT,2025-09-05T23:08:00Z,2025-09-05T19:08:00Z,LIFR,11,11,100,160,7,NA,30.25,NA,OVX  ft,CYYT 052308Z 16007KT 3/8SM R10/4500VP6000FT/D R16/2800VP6000FT/D FG VV002 11/11 A3025 RMK FG8 SLP248,2025-09-05T23:20:09Z,2025-09-05T19:20:09Z
CYYT,2025-09-06T01:00:00Z,2025-09-05T21:00:00Z,LIFR,11,11,100,160,7,NA,30.26,NA,OVX  ft,CYYT 060100Z 16007KT 1/4SM R10/1600V2000FT/N R16/2200VP6000FT/D FG VV002 11/11 A3026 RMK FG8 SLP251,2025-09-06T01:42:37Z,2025-09-05T21:42:37Z
CYYT,2025-09-06T02:00:00Z,2025-09-05T22:00:00Z,LIFR,11,11,100,160,8,NA,30.25,NA,OVX  ft,CYYT 060200Z 16008KT 1/4SM R10/1400V1800FT/N R16/1400V2000FT/N FG VV002 11/11 A3025 RMK FG8 SLP249,2025-09-06T02:56:38Z,2025-09-05T22:56:38Z
CYYT,2025-09-06T03:00:00Z,2025-09-05T23:00:00Z,LIFR,11,11,100,180,6,NA,30.26,NA,OVX  ft,CYYT 060300Z 18006KT 1/4SM R10/1200V2000FT/U R16/1600V2000FT/N FG VV002 11/11 A3026 RMK FG8 SLP250,2025-09-06T03:30:48Z,2025-09-05T23:30:48Z
CYYT,2025-09-06T04:00:00Z,2025-09-06T00:00:00Z,LIFR,11,11,100,210,6,NA,30.25,NA,OVX  ft,CYYT 060400Z 21006KT 3/8SM R10/2600V4000FT/N R16/2600VP6000FT/U FG VV002 11/11 A3025 RMK FG8 SLP248,2025-09-06T04:25:48Z,2025-09-06T00:25:48Z
CYYT,2025-09-06T05:00:00Z,2025-09-06T01:00:00Z,LIFR,11,11,100,180,5,NA,30.24,NA,OVX  ft,CYYT 060500Z 18005KT 3/8SM R28/2000V2600FT/N R16/2600V3000FT/D FG VV002 11/11 A3024 RMK FG8 SLP245,2025-09-06T05:19:58Z,2025-09-06T01:19:58Z
CYYT,2025-09-06T06:00:00Z,2025-09-06T02:00:00Z,LIFR,11,11,100,240,4,NA,30.25,NA,OVX  ft,CYYT 060600Z 24004KT 3/8SM R28/1800V2600FT/N R16/2600V3000FT/N FG VV002 11/11 A3025 RMK FG8 SLP247,2025-09-06T06:29:51Z,2025-09-06T02:29:51Z
CYYT,2025-09-06T07:00:00Z,2025-09-06T03:00:00Z,LIFR,11,11,100,210,7,NA,30.24,NA,OVX  ft,CYYT 060700Z 21007KT 1/2SM R28/4500V6000FT/N R16/4500VP6000FT/U FG VV002 11/11 A3024 RMK FG8 SLP246,2025-09-06T07:18:43Z,2025-09-06T03:18:43Z
CYYT,2025-09-06T08:00:00Z,2025-09-06T04:00:00Z,LIFR,12,12,100,180,8,NA,30.23,NA,OVX  ft,CYYT 060800Z 18008KT 1/2SM R28/6000FT/U R16/P6000FT/U FG VV002 12/12 A3023 RMK FG8 SLP242,2025-09-06T08:25:14Z,2025-09-06T04:25:14Z
CYYT,2025-09-06T08:27:00Z,2025-09-06T04:27:00Z,LIFR,12,12,100,190,7,2000,30.23,NA,OVC  ft,CYYT 060827Z 19007KT 1 1/4SM BR OVC002 12/12 A3023 RMK ST8 SLP242,2025-09-06T08:41:59Z,2025-09-06T04:41:59Z
CYYT,2025-09-06T09:11:00Z,2025-09-06T05:11:00Z,LIFR,12,12,100,200,8,12900,30.23,NA,OVC  ft,CYYT 060911Z 20008KT 8SM OVC003 12/12 A3023 RMK SF8 SLP242,2025-09-06T09:19:49Z,2025-09-06T05:19:49Z
CYYT,2025-09-06T09:34:00Z,2025-09-06T05:34:00Z,LIFR,12,12,100,190,7,24100,30.23,NA,OVC  ft,CYYT 060934Z 19007KT 15SM OVC004 12/12 A3023 RMK SF8 SLP244,2025-09-06T09:38:43Z,2025-09-06T05:38:43Z
CYYT,2025-09-06T10:00:00Z,2025-09-06T06:00:00Z,LIFR,12,12,100,210,11,24100,30.23,NA,BKN  ft; BKN  ft; BKN  ft,CYYT 061000Z 21011KT 15SM BKN004 BKN130 BKN150 12/12 A3023 RMK SF5AC1AC1 SLP243,2025-09-06T10:20:32Z,2025-09-06T06:20:32Z
CYYT,2025-09-06T11:00:00Z,2025-09-06T07:00:00Z,IFR,13,13,100,230,7,24100,30.24,NA,BKN  ft; BKN  ft; BKN  ft,CYYT 061100Z 23007KT 15SM BKN005 BKN048 BKN120 13/13 A3024 RMK SF5SC1AC1 SLP245,2025-09-06T11:16:03Z,2025-09-06T07:16:03Z
CYYT,2025-09-06T12:00:00Z,2025-09-06T08:00:00Z,IFR,14,13,94,200,9,24100,30.23,NA,BKN  ft; BKN  ft,CYYT 061200Z 20009G15KT 15SM BKN008 BKN087 14/13 A3023 RMK SF5AC1 AC TR SLP242,2025-09-06T12:40:03Z,2025-09-06T08:40:03Z
CYYT,2025-09-06T13:00:00Z,2025-09-06T09:00:00Z,VFR,18,14,78,190,9,24100,30.21,NA,FEW  ft; SCT  ft,CYYT 061300Z 19009G16KT 15SM FEW018 SCT220 18/14 A3021 RMK SC1CI3 SC TR SLP236,2025-09-06T13:22:42Z,2025-09-06T09:22:42Z
CYYT,2025-09-06T14:00:00Z,2025-09-06T10:00:00Z,VFR,20,13,64,210,11,24100,30.21,NA,FEW  ft; FEW  ft; FEW  ft; BKN  ft,CYYT 061400Z 21011KT 170V230 15SM FEW010 FEW140 FEW210 BKN220 BKN240 20/13 A3021 RMK SC1AC1CC2CI3CI1 SC TR AC TR SLP232 DENSITY ALT 900FT,2025-09-06T14:18:41Z,2025-09-06T10:18:41Z
CYYT,2025-09-06T15:00:00Z,2025-09-06T11:00:00Z,VFR,22,14,61,180,9,24100,30.18,NA,SCT  ft; SCT  ft,CYYT 061500Z 18009KT 15SM SCT100 SCT230 22/14 A3018 RMK AC3CI1 CI TR SLP225 DENSITY ALT 1100FT,2025-09-06T15:19:26Z,2025-09-06T11:19:26Z
CYYT,2025-09-06T16:00:00Z,2025-09-06T12:00:00Z,VFR,23,12,50,260,9,24100,30.17,NA,FEW  ft; FEW  ft,CYYT 061600Z 26009KT 160V280 15SM FEW100 FEW240 23/12 A3017 RMK AC1CI2 AC TR SLP221 DENSITY ALT 1200FT,2025-09-06T16:24:55Z,2025-09-06T12:24:55Z
CYYT,2025-09-06T17:00:00Z,2025-09-06T13:00:00Z,VFR,25,12,44,230,9,24100,30.15,NA,FEW  ft; SCT  ft,CYYT 061700Z 23009G16KT 15SM FEW056 SCT240 25/12 A3015 RMK SC1CI3 SLP213 DENSITY ALT 1500FT,2025-09-06T17:24:34Z,2025-09-06T13:24:34Z
CYYT,2025-09-06T18:00:00Z,2025-09-06T14:00:00Z,VFR,24,11,44,260,11,24100,30.14,NA,FEW  ft; FEW  ft,CYYT 061800Z 26011KT 15SM FEW120 FEW220 24/11 A3014 RMK AC1CI2 AC TR SLP210 DENSITY ALT 1400FT,2025-09-06T18:32:27Z,2025-09-06T14:32:27Z
CYYT,2025-09-06T19:00:00Z,2025-09-06T15:00:00Z,VFR,22,10,47,270,13,24100,30.15,NA,SCT  ft; SCT  ft,CYYT 061900Z 27013KT 15SM SCT031 SCT240 22/10 A3015 RMK SC3CI4 SLP215 DENSITY ALT 1200FT,2025-09-06T19:18:16Z,2025-09-06T15:18:16Z
CYYT,2025-09-06T20:00:00Z,2025-09-06T16:00:00Z,VFR,22,13,57,240,11,24100,30.14,NA,SCT  ft; SCT  ft; SCT  ft,CYYT 062000Z 24011KT 15SM SCT034 SCT140 SCT240 22/13 A3014 RMK SC3AC1CI1 AC TR SLP211 DENSITY ALT 1200FT,2025-09-06T20:25:17Z,2025-09-06T16:25:17Z
CYYT,2025-09-06T21:00:00Z,2025-09-06T17:00:00Z,VFR,20,14,69,240,8,24100,30.15,NA,FEW  ft; SCT  ft,CYYT 062100Z 24008KT 15SM FEW028 SCT240 20/14 A3015 RMK SC2CI2 SLP213 DENSITY ALT 1000FT,2025-09-06T21:21:21Z,2025-09-06T17:21:21Z
CYYT,2025-09-06T22:00:00Z,2025-09-06T18:00:00Z,VFR,19,14,73,230,6,24100,30.15,NA,FEW  ft; BKN  ft,CYYT 062200Z 23006KT 15SM FEW030 BKN240 19/14 A3015 RMK SC1CI4 SLP212 DENSITY ALT 800FT,2025-09-06T22:23:59Z,2025-09-06T18:23:59Z
CYYT,2025-09-06T23:00:00Z,2025-09-06T19:00:00Z,VFR,18,14,78,230,12,24100,30.15,NA,FEW  ft; BKN  ft,CYYT 062300Z 23012KT 15SM FEW020 BKN240 18/14 A3015 RMK SC1CI4 SLP214 DENSITY ALT 700FT,2025-09-06T23:22:39Z,2025-09-06T19:22:39Z
CYYT,2025-09-07T01:00:00Z,2025-09-06T21:00:00Z,VFR,17,16,94,220,15,24100,30.12,NA,FEW  ft; BKN  ft,CYYT 070100Z 22015G21KT 15SM FEW220 BKN240 17/16 A3012 RMK CI1CI5 SLP204,2025-09-07T02:04:17Z,2025-09-06T22:04:17Z
CYYT,2025-09-07T02:44:00Z,2025-09-06T22:44:00Z,VFR,17,17,100,240,14,24100,30.14,NA,FEW  ft; BKN  ft,CYYT 070244Z 24014KT 15SM FEW003 BKN240 17/17 A3014 RMK SF2CI3 SLP208,2025-09-07T03:07:56Z,2025-09-06T23:07:56Z
CYYT,2025-09-07T03:00:00Z,2025-09-06T23:00:00Z,VFR,17,17,100,240,13,24100,30.13,NA,SCT  ft; BKN  ft,CYYT 070300Z 24013KT 15SM SCT004 BKN240 17/17 A3013 RMK SF4CI1 SLP206,2025-09-07T03:38:10Z,2025-09-06T23:38:10Z
CYYT,2025-09-07T04:00:00Z,2025-09-07T00:00:00Z,VFR,17,17,100,240,12,24100,30.12,NA,SCT  ft; BKN  ft,CYYT 070400Z 24012KT 15SM SCT003 BKN240 17/17 A3012 RMK SF3CI2 SLP204 DENSITY ALT 700FT,2025-09-07T04:29:50Z,2025-09-07T00:29:50Z
CYYT,2025-09-07T04:39:00Z,2025-09-07T00:39:00Z,LIFR,17,17,100,250,12,19300,30.12,NA,BKN  ft; BKN  ft,CYYT 070439Z 25012KT 12SM BKN003 BKN240 17/17 A3012 RMK SF5CI1 SLP203,2025-09-07T04:44:27Z,2025-09-07T00:44:27Z
CYYT,2025-09-07T05:00:00Z,2025-09-07T01:00:00Z,VFR,17,17,100,250,11,24100,30.12,NA,FEW  ft; SCT  ft,CYYT 070500Z 25011KT 15SM FEW003 SCT240 17/17 A3012 RMK SF1CI3 SF TR SLP201,2025-09-07T05:25:36Z,2025-09-07T01:25:36Z
CYYT,2025-09-07T06:00:00Z,2025-09-07T02:00:00Z,VFR,18,17,94,270,12,24100,30.11,NA,FEW  ft; FEW  ft,CYYT 070600Z 27012KT 15SM FEW003 FEW240 18/17 A3011 RMK SF1CI2 SF TR SLP198 DENSITY ALT 700FT,2025-09-07T06:34:57Z,2025-09-07T02:34:57Z
CYYT,2025-09-07T07:00:00Z,2025-09-07T03:00:00Z,VFR,17,16,94,240,11,24100,30.09,NA,FEW  ft; SCT  ft,CYYT 070700Z 24011KT 15SM FEW003 SCT220 17/16 A3009 RMK SF1CI3 SF TR SLP191 DENSITY ALT 700FT,2025-09-07T07:22:57Z,2025-09-07T03:22:57Z
CYYT,2025-09-07T08:00:00Z,2025-09-07T04:00:00Z,VFR,17,14,83,250,12,24100,30.09,NA,FEW  ft; BKN  ft,CYYT 070800Z 25012KT 15SM FEW003 BKN240 17/14 A3009 RMK SF1CI5 SF TR SLP190 DENSITY ALT 700FT,2025-09-07T08:29:59Z,2025-09-07T04:29:59Z
CYYT,2025-09-07T09:00:00Z,2025-09-07T05:00:00Z,VFR,18,13,73,250,12,24100,30.09,NA,FEW  ft; FEW  ft; BKN  ft,CYYT 070900Z 25012KT 15SM FEW040 FEW070 BKN240 18/13 A3009 RMK SC1AC1CI7 SC TR AC TR SLP191 DENSITY ALT 800FT,2025-09-07T09:23:43Z,2025-09-07T05:23:43Z
CYYT,2025-09-07T10:00:00Z,2025-09-07T06:00:00Z,VFR,19,11,60,250,14,24100,30.09,NA,SCT  ft,CYYT 071000Z 25014G20KT 15SM SCT070 19/11 A3009 RMK AC4 SLP191 DENSITY ALT 800FT,2025-09-07T10:26:14Z,2025-09-07T06:26:14Z
CYYT,2025-09-07T11:00:00Z,2025-09-07T07:00:00Z,VFR,21,14,64,250,14,24100,30.08,NA,SCT  ft,CYYT 071100Z 25014KT 15SM SCT085 21/14 A3008 RMK AC4 SLP187 DENSITY ALT 1100FT,2025-09-07T11:19:26Z,2025-09-07T07:19:26Z
CYYT,2025-09-07T11:29:00Z,2025-09-07T07:29:00Z,VFR,22,15,65,240,10,24100,30.07,NA,FEW  ft; BKN  ft,CYYT 071129Z 24010KT 15SM FEW012 BKN090 22/15 A3007 RMK SC1AC4 SLP185 DENSITY ALT 1300FT,2025-09-07T11:41:31Z,2025-09-07T07:41:31Z
CYYT,2025-09-07T12:00:00Z,2025-09-07T08:00:00Z,VFR,23,16,65,260,12,24100,30.08,NA,FEW  ft; BKN  ft,CYYT 071200Z 26012KT 15SM FEW012 BKN110 23/16 A3008 RMK SC1AC4 SLP187 DENSITY ALT 1400FT,2025-09-07T12:48:18Z,2025-09-07T08:48:18Z
CYYT,2025-09-07T13:00:00Z,2025-09-07T09:00:00Z,VFR,23,18,74,240,19,24100,30.07,NA,FEW  ft; BKN  ft,CYYT 071300Z 24019KT 15SM FEW015 BKN110 23/18 A3007 RMK SC1AC4 SLP186 DENSITY ALT 1400FT,2025-09-07T13:26:47Z,2025-09-07T09:26:47Z
CYYT,2025-09-07T14:00:00Z,2025-09-07T10:00:00Z,VFR,24,15,57,250,19,24100,30.06,NA,FEW  ft; BKN  ft,CYYT 071400Z 25019G27KT 15SM FEW015 BKN130 24/15 A3006 RMK SC1AC4 SLP181 DENSITY ALT 1500FT,2025-09-07T14:23:06Z,2025-09-07T10:23:06Z
CYYT,2025-09-07T15:00:00Z,2025-09-07T11:00:00Z,VFR,25,14,51,240,20,24100,30.06,NA,FEW  ft; BKN  ft,CYYT 071500Z 24020G28KT 15SM FEW015 BKN130 25/14 A3006 RMK SC1AC4 SLP180 DENSITY ALT 1600FT,2025-09-07T15:23:39Z,2025-09-07T11:23:39Z
CYYT,2025-09-07T16:00:00Z,2025-09-07T12:00:00Z,VFR,25,18,65,250,21,24100,30.05,NA,FEW  ft; BKN  ft,CYYT 071600Z 25021G29KT 15SM FEW015 BKN130 25/18 A3005 RMK SC2AC4 SLP178 DENSITY ALT 1600FT,2025-09-07T16:29:12Z,2025-09-07T12:29:12Z
CYYT,2025-09-07T17:00:00Z,2025-09-07T13:00:00Z,VFR,24,18,69,250,22,24100,30.04,NA,FEW  ft; BKN  ft,CYYT 071700Z 25022G29KT 15SM FEW020 BKN130 24/18 A3004 RMK SC2AC4 SLP176 DENSITY ALT 1600FT,2025-09-07T17:21:33Z,2025-09-07T13:21:33Z
CYYT,2025-09-07T18:00:00Z,2025-09-07T14:00:00Z,VFR,26,20,70,250,16,24100,30.03,NA,SCT  ft; BKN  ft,CYYT 071800Z 25016G27KT 15SM SCT028 BKN130 26/20 A3003 RMK SC3AC3 SLP172 DENSITY ALT 1800FT,2025-09-07T18:32:55Z,2025-09-07T14:32:55Z
CYYT,2025-09-07T19:00:00Z,2025-09-07T15:00:00Z,MVFR,24,20,78,240,19,24100,30.03,NA,BKN  ft; BKN  ft,CYYT 071900Z 24019G27KT 15SM BKN027 BKN130 24/20 A3003 RMK SC5AC2 SLP171 DENSITY ALT 1500FT,2025-09-07T19:18:53Z,2025-09-07T15:18:53Z
CYYT,2025-09-07T20:00:00Z,2025-09-07T16:00:00Z,MVFR,24,20,78,250,19,24100,30.04,NA,BKN  ft; BKN  ft,CYYT 072000Z 25019G28KT 15SM BKN016 BKN130 24/20 A3004 RMK SC5AC2 SLP174 DENSITY ALT 1500FT,2025-09-07T20:25:54Z,2025-09-07T16:25:54Z
CYYT,2025-09-07T21:00:00Z,2025-09-07T17:00:00Z,MVFR,22,20,88,250,16,24100,30.04,NA,BKN  ft,CYYT 072100Z 25016KT 15SM BKN011 22/20 A3004 RMK SC7 SLP174 DENSITY ALT 1300FT,2025-09-07T21:21:36Z,2025-09-07T17:21:36Z
CYYZ,2025-09-05T18:00:00Z,2025-09-05T14:00:00Z,VFR,22,12,53,210,19,24100,29.66,NA,BKN  ft; BKN  ft,CYYZ 051800Z 21019G31KT 15SM BKN047 BKN100 22/12 A2966 RMK CU5AC2 SLP044 DENSITY ALT 1900FT,2025-09-05T18:23:21Z,2025-09-05T14:23:21Z
CYYZ,2025-09-05T19:00:00Z,2025-09-05T15:00:00Z,VFR,22,12,53,220,22,24100,29.65,NA,BKN  ft; BKN  ft,CYYZ 051900Z 22022G34KT 15SM BKN048 BKN110 22/12 A2965 RMK CU6AC1 SLP042 DENSITY ALT 1900FT,2025-09-05T19:21:00Z,2025-09-05T15:21:00Z
CYYZ,2025-09-05T20:00:00Z,2025-09-05T16:00:00Z,VFR,23,13,53,230,22,24100,29.64,NA,BKN  ft,CYYZ 052000Z 23022G34KT 15SM BKN047 23/13 A2964 RMK CU6 SLP038 DENSITY ALT 2000FT,2025-09-05T20:29:27Z,2025-09-05T16:29:27Z
CYYZ,2025-09-05T21:00:00Z,2025-09-05T17:00:00Z,VFR,23,9,41,260,24,24100,29.67,NA,SCT  ft,CYYZ 052100Z 26024G30KT 15SM SCT063 23/09 A2967 RMK CU3 SLP049 DENSITY ALT 1900FT,2025-09-05T21:14:26Z,2025-09-05T17:14:26Z
CYYZ,2025-09-05T22:00:00Z,2025-09-05T18:00:00Z,VFR,22,8,41,260,21,24100,29.69,NA,BKN  ft,CYYZ 052200Z 26021G29KT 15SM BKN067 22/08 A2969 RMK CU6 SLP056 DENSITY ALT 1900FT,2025-09-05T22:18:45Z,2025-09-05T18:18:45Z
CYYZ,2025-09-05T23:00:00Z,2025-09-05T19:00:00Z,VFR,21,9,46,300,19,24100,29.72,NA,FEW  ft,CYYZ 052300Z 30019KT 240V310 15SM FEW066 21/09 A2972 RMK AC2 SLP067 DENSITY ALT 1600FT,2025-09-05T23:20:07Z,2025-09-05T19:20:07Z
CYYZ,2025-09-06T01:00:00Z,2025-09-05T21:00:00Z,VFR,17,8,56,290,12,24100,29.82,NA,SCT  ft,CYYZ 060100Z 29012KT 15SM SCT063 17/08 A2982 RMK SC3 SLP100 DENSITY ALT 1100FT,2025-09-06T01:42:35Z,2025-09-05T21:42:35Z
CYYZ,2025-09-06T02:00:00Z,2025-09-05T22:00:00Z,VFR,15,8,63,280,9,24100,29.84,NA,FEW  ft,CYYZ 060200Z 28009KT 15SM FEW060 15/08 A2984 RMK SC1 SC TR SLP108 DENSITY ALT 800FT,2025-09-06T02:56:35Z,2025-09-05T22:56:35Z
CYYZ,2025-09-06T03:00:00Z,2025-09-05T23:00:00Z,VFR,14,8,67,280,8,24100,29.86,NA,FEW  ft,CYYZ 060300Z 28008KT 15SM FEW250 14/08 A2986 RMK CI1 CI TR SLP114,2025-09-06T03:30:46Z,2025-09-05T23:30:46Z
CYYZ,2025-09-06T04:00:00Z,2025-09-06T00:00:00Z,VFR,13,7,67,280,6,24100,29.88,NA,FEW  ft,CYYZ 060400Z 28006KT 15SM FEW250 13/07 A2988 RMK CI1 CI TR SLP120,2025-09-06T04:25:45Z,2025-09-06T00:25:45Z
CYYZ,2025-09-06T05:00:00Z,2025-09-06T01:00:00Z,VFR,13,7,67,290,12,24100,29.88,NA,FEW  ft,CYYZ 060500Z 29012KT 15SM FEW250 13/07 A2988 RMK CI1 CI TR SLP120,2025-09-06T05:19:55Z,2025-09-06T01:19:55Z
CYYZ,2025-09-06T06:00:00Z,2025-09-06T02:00:00Z,VFR,12,6,67,250,5,24100,29.89,NA,FEW  ft,CYYZ 060600Z 25005KT 15SM FEW180 12/06 A2989 RMK AC1 AC TR SLP124,2025-09-06T06:29:49Z,2025-09-06T02:29:49Z
CYYZ,2025-09-06T07:00:00Z,2025-09-06T03:00:00Z,VFR,11,6,72,250,5,24100,29.9,NA,FEW  ft,CYYZ 060700Z 25005KT 15SM FEW250 11/06 A2990 RMK CI1 CI TR SLP127,2025-09-06T07:18:41Z,2025-09-06T03:18:41Z
CYYZ,2025-09-06T08:00:00Z,2025-09-06T04:00:00Z,VFR,12,6,67,200,4,24100,29.9,NA,SCT  ft,CYYZ 060800Z 20004KT 15SM SCT250 12/06 A2990 RMK CI4 SLP129,2025-09-06T08:25:11Z,2025-09-06T04:25:11Z
CYYZ,2025-09-06T09:00:00Z,2025-09-06T05:00:00Z,VFR,13,6,63,180,6,24100,29.91,NA,FEW  ft; BKN  ft,CYYZ 060900Z 18006KT 15SM FEW140 BKN160 13/06 A2991 RMK AC1AC7 AC TR SLP129,2025-09-06T09:19:46Z,2025-09-06T05:19:46Z
CYYZ,2025-09-06T10:00:00Z,2025-09-06T06:00:00Z,VFR,12,7,72,210,5,24100,29.9,NA,BKN  ft,CYYZ 061000Z 21005KT 15SM BKN150 12/07 A2990 RMK AC7 SLP129,2025-09-06T10:20:30Z,2025-09-06T06:20:30Z
CYYZ,2025-09-06T11:00:00Z,2025-09-06T07:00:00Z,VFR,13,7,67,220,7,24100,29.93,NA,BKN  ft; BKN  ft,CYYZ 061100Z 22007KT 15SM BKN064 BKN150 13/07 A2993 RMK SC5AC2 SLP138,2025-09-06T11:16:00Z,2025-09-06T07:16:00Z
CYYZ,2025-09-06T12:00:00Z,2025-09-06T08:00:00Z,VFR,13,7,67,220,6,24100,29.96,NA,BKN  ft; BKN  ft,CYYZ 061200Z 22006KT 15SM BKN065 BKN140 13/07 A2996 RMK SC6AC1 SLP147,2025-09-06T12:40:00Z,2025-09-06T08:40:00Z
CYYZ,2025-09-06T13:00:00Z,2025-09-06T09:00:00Z,VFR,13,8,72,230,6,24100,29.95,NA,BKN  ft; BKN  ft,CYYZ 061300Z 23006KT 15SM BKN072 BKN160 13/08 A2995 RMK AC7AC1 AC TR SLP146,2025-09-06T13:22:40Z,2025-09-06T09:22:40Z
CYYZ,2025-09-06T14:00:00Z,2025-09-06T10:00:00Z,VFR,15,7,59,250,12,24100,29.96,NA,BKN  ft,CYYZ 061400Z 25012KT 15SM BKN077 15/07 A2996 RMK AC7 SLP147,2025-09-06T14:18:39Z,2025-09-06T10:18:39Z
CYYZ,2025-09-06T15:00:00Z,2025-09-06T11:00:00Z,VFR,16,8,59,270,7,24100,29.94,NA,FEW  ft; BKN  ft,CYYZ 061500Z 27007G15KT 250V310 15SM FEW032 BKN084 16/08 A2994 RMK CU1AC7 CU TR SLP142 DENSITY ALT 900FT,2025-09-06T15:19:24Z,2025-09-06T11:19:24Z
CYYZ,2025-09-06T16:00:00Z,2025-09-06T12:00:00Z,VFR,18,7,49,260,12,24100,29.94,NA,FEW  ft; SCT  ft,CYYZ 061600Z 26012G18KT 15SM FEW045 SCT087 18/07 A2994 RMK CU2AC1 SLP141 DENSITY ALT 1100FT,2025-09-06T16:24:52Z,2025-09-06T12:24:52Z
CYYZ,2025-09-06T17:00:00Z,2025-09-06T13:00:00Z,VFR,20,9,49,240,9,24100,29.94,NA,BKN  ft,CYYZ 061700Z 24009G18KT 15SM BKN062 20/09 A2994 RMK CU5 SLP140 DENSITY ALT 1300FT,2025-09-06T17:24:32Z,2025-09-06T13:24:32Z
CYYZ,2025-09-06T18:00:00Z,2025-09-06T14:00:00Z,VFR,19,6,43,230,15,24100,29.93,NA,BKN  ft,CYYZ 061800Z 23015G20KT 15SM BKN058 19/06 A2993 RMK CU7 SLP139 DENSITY ALT 1200FT,2025-09-06T18:32:25Z,2025-09-06T14:32:25Z
CYYZ,2025-09-06T19:00:00Z,2025-09-06T15:00:00Z,VFR,19,7,46,230,9,24100,29.93,NA,BKN  ft,CYYZ 061900Z 23009G16KT 15SM BKN059 19/07 A2993 RMK CU7 SLP138 DENSITY ALT 1200FT,2025-09-06T19:18:14Z,2025-09-06T15:18:14Z
CYYZ,2025-09-06T20:00:00Z,2025-09-06T16:00:00Z,VFR,19,6,43,260,15,24100,29.94,NA,SCT  ft; BKN  ft,CYYZ 062000Z 26015KT 15SM SCT062 BKN078 19/06 A2994 RMK CU3AC4 SLP140 DENSITY ALT 1200FT,2025-09-06T20:25:15Z,2025-09-06T16:25:15Z
CYYZ,2025-09-06T21:00:00Z,2025-09-06T17:00:00Z,VFR,18,6,46,290,14,24100,29.94,NA,FEW  ft; BKN  ft,CYYZ 062100Z 29014G19KT 15SM FEW060 BKN082 18/06 A2994 RMK CF2AC5 SLP141 DENSITY ALT 1100FT,2025-09-06T21:21:19Z,2025-09-06T17:21:19Z
CYYZ,2025-09-06T22:00:00Z,2025-09-06T18:00:00Z,VFR,18,6,46,280,14,24100,29.95,NA,BKN  ft,CYYZ 062200Z 28014KT 15SM BKN080 18/06 A2995 RMK AC7 SLP144 DENSITY ALT 1000FT,2025-09-06T22:23:57Z,2025-09-06T18:23:57Z
CYYZ,2025-09-06T23:00:00Z,2025-09-06T19:00:00Z,VFR,17,6,49,280,10,24100,29.95,NA,BKN  ft,CYYZ 062300Z 28010KT 15SM BKN080 17/06 A2995 RMK AC7 SLP145 DENSITY ALT 900FT,2025-09-06T23:22:36Z,2025-09-06T19:22:36Z
CYYZ,2025-09-07T01:55:00Z,2025-09-06T21:55:00Z,VFR,16,7,55,260,10,24100,29.98,NA,BKN  ft,CYYZ 070155Z 26010KT 15SM BKN090 16/07 A2998 RMK AC7 SLP154 DENSITY ALT 800FT,2025-09-07T02:04:15Z,2025-09-06T22:04:15Z
CYYZ,2025-09-07T02:00:00Z,2025-09-06T22:00:00Z,VFR,16,7,55,270,7,24100,29.98,NA,BKN  ft,CYYZ 070200Z 27007KT 15SM BKN090 16/07 A2998 RMK AC7 SLP154,2025-09-07T03:07:54Z,2025-09-06T23:07:54Z
CYYZ,2025-09-07T03:18:00Z,2025-09-06T23:18:00Z,VFR,14,8,67,280,8,24100,30,NA,BKN  ft; BKN  ft,CYYZ 070318Z 28008KT 15SM -RA BKN058 BKN070 14/08 A3000 RMK SC5AC2 SLP161,2025-09-07T03:38:08Z,2025-09-06T23:38:08Z
CYYZ,2025-09-07T03:43:00Z,2025-09-06T23:43:00Z,VFR,14,8,67,290,6,24100,29.99,NA,SCT  ft; BKN  ft,CYYZ 070343Z 29006KT 15SM SCT075 BKN090 14/08 A2999 RMK AC3AC4 SLP160,2025-09-07T03:50:41Z,2025-09-06T23:50:41Z
CYYZ,2025-09-07T04:00:00Z,2025-09-07T00:00:00Z,VFR,14,9,72,280,7,24100,29.99,NA,BKN  ft,CYYZ 070400Z 28007KT 15SM BKN075 14/09 A2999 RMK AC7 SLP159,2025-09-07T04:29:48Z,2025-09-07T00:29:48Z
CYYZ,2025-09-07T05:00:00Z,2025-09-07T01:00:00Z,VFR,14,8,67,240,7,24100,29.99,NA,BKN  ft,CYYZ 070500Z 24007KT 15SM BKN080 14/08 A2999 RMK AC7 SLP159,2025-09-07T05:25:33Z,2025-09-07T01:25:33Z
CYYZ,2025-09-07T06:00:00Z,2025-09-07T02:00:00Z,VFR,14,9,72,250,9,24100,29.99,NA,FEW  ft; OVC  ft,CYYZ 070600Z 25009KT 15SM FEW060 OVC080 14/09 A2999 RMK SC1AC8 SC TR SLP158,2025-09-07T06:34:54Z,2025-09-07T02:34:54Z
CYYZ,2025-09-07T07:00:00Z,2025-09-07T03:00:00Z,VFR,14,8,67,260,8,24100,29.98,NA,FEW  ft; OVC  ft,CYYZ 070700Z 26008KT 15SM FEW080 OVC100 14/08 A2998 RMK AC1AC8 AC TR SLP153,2025-09-07T07:22:55Z,2025-09-07T03:22:55Z
CYYZ,2025-09-07T08:00:00Z,2025-09-07T04:00:00Z,VFR,13,9,77,260,9,24100,29.98,NA,BKN  ft,CYYZ 070800Z 26009KT 15SM BKN130 13/09 A2998 RMK AC7 SLP155,2025-09-07T08:29:57Z,2025-09-07T04:29:57Z
CYYZ,2025-09-07T09:00:00Z,2025-09-07T05:00:00Z,VFR,12,9,82,260,9,24100,29.99,NA,SCT  ft; BKN  ft,CYYZ 070900Z 26009KT 15SM SCT025 BKN120 12/09 A2999 RMK SC4AC3 SLP160,2025-09-07T09:23:41Z,2025-09-07T05:23:41Z
CYYZ,2025-09-07T10:00:00Z,2025-09-07T06:00:00Z,VFR,11,6,72,330,13,24100,30.01,NA,SCT  ft; BKN  ft,CYYZ 071000Z 33013G19KT 15SM SCT050 BKN120 11/06 A3001 RMK SC4AC3 SLP165,2025-09-07T10:26:11Z,2025-09-07T06:26:11Z
CYYZ,2025-09-07T11:00:00Z,2025-09-07T07:00:00Z,VFR,12,6,67,290,9,24100,30.03,NA,BKN  ft; BKN  ft,CYYZ 071100Z 29009KT 15SM BKN060 BKN120 12/06 A3003 RMK SC6AC1 SLP174,2025-09-07T11:19:24Z,2025-09-07T07:19:24Z
CYYZ,2025-09-07T12:00:00Z,2025-09-07T08:00:00Z,VFR,12,7,72,270,8,24100,30.06,NA,BKN  ft,CYYZ 071200Z 27008KT 15SM BKN072 12/07 A3006 RMK AC7 SLP182,2025-09-07T12:48:16Z,2025-09-07T08:48:16Z
CYYZ,2025-09-07T13:00:00Z,2025-09-07T09:00:00Z,VFR,12,7,72,260,9,24100,30.07,NA,BKN  ft,CYYZ 071300Z 26009KT 15SM BKN075 12/07 A3007 RMK AC7 SLP187,2025-09-07T13:26:45Z,2025-09-07T09:26:45Z
CYYZ,2025-09-07T14:00:00Z,2025-09-07T10:00:00Z,VFR,14,7,63,290,11,24100,30.08,NA,FEW  ft; FEW  ft,CYYZ 071400Z 29011KT 15SM FEW028 FEW076 14/07 A3008 RMK CU1AC1 SLP190,2025-09-07T14:23:04Z,2025-09-07T10:23:04Z
CYYZ,2025-09-07T15:00:00Z,2025-09-07T11:00:00Z,VFR,16,6,52,270,16,24100,30.09,NA,BKN  ft; BKN  ft,CYYZ 071500Z 27016KT 15SM BKN039 BKN080 16/06 A3009 RMK CU5AC1 SLP192,2025-09-07T15:23:37Z,2025-09-07T11:23:37Z
CYYZ,2025-09-07T16:00:00Z,2025-09-07T12:00:00Z,VFR,17,6,49,270,12,24100,30.09,NA,BKN  ft,CYYZ 071600Z 27012G17KT 260V320 15SM BKN054 17/06 A3009 RMK CU7 SLP194 DENSITY ALT 800FT,2025-09-07T16:29:09Z,2025-09-07T12:29:09Z
CYYZ,2025-09-07T17:00:00Z,2025-09-07T13:00:00Z,VFR,18,6,46,290,13,24100,30.09,NA,BKN  ft,CYYZ 071700Z 29013G19KT 240V310 15SM BKN051 18/06 A3009 RMK CU7 SLP192 DENSITY ALT 900FT,2025-09-07T17:21:32Z,2025-09-07T13:21:32Z
CYYZ,2025-09-07T18:00:00Z,2025-09-07T14:00:00Z,VFR,16,6,52,320,15,24100,30.1,NA,SCT  ft; BKN  ft,CYYZ 071800Z 32015G21KT 15SM SCT058 BKN089 16/06 A3010 RMK CU4AC3 SLP195,2025-09-07T18:32:52Z,2025-09-07T14:32:52Z
CYYZ,2025-09-07T19:00:00Z,2025-09-07T15:00:00Z,VFR,17,6,49,260,14,24100,30.08,NA,SCT  ft; BKN  ft,CYYZ 071900Z 26014G20KT 15SM SCT052 BKN095 17/06 A3008 RMK CU4AC2 SLP190 DENSITY ALT 800FT,2025-09-07T19:18:50Z,2025-09-07T15:18:50Z
CYYZ,2025-09-07T20:00:00Z,2025-09-07T16:00:00Z,VFR,18,4,40,270,16,24100,30.08,NA,BKN  ft,CYYZ 072000Z 27016G22KT 15SM BKN062 18/04 A3008 RMK CU7 SLP189 DENSITY ALT 900FT,2025-09-07T20:25:52Z,2025-09-07T16:25:52Z
CYYZ,2025-09-07T21:00:00Z,2025-09-07T17:00:00Z,VFR,18,5,43,260,14,24100,30.09,NA,BKN  ft,CYYZ 072100Z 26014G20KT 15SM BKN070 18/05 A3009 RMK CU7 SLP193 DENSITY ALT 900FT,2025-09-07T21:21:34Z,2025-09-07T17:21:34Z
CYZF,2025-09-05T21:00:00Z,2025-09-05T17:00:00Z,VFR,17,7,52,150,13,24100,30,NA,FEW  ft,CYZF 052100Z 15013KT 15SM FEW240 17/07 A3000 RMK CI1 SLP169 DENSITY ALT 1000FT,2025-09-05T22:02:55Z,2025-09-05T18:02:55Z
CYZF,2025-09-05T22:00:00Z,2025-09-05T18:00:00Z,VFR,17,6,49,150,11,24100,29.99,NA,FEW  ft,CYZF 052200Z 15011KT 15SM FEW240 17/06 A2999 RMK CI1 SLP167 DENSITY ALT 1000FT,2025-09-05T22:18:47Z,2025-09-05T18:18:47Z
CYZF,2025-09-05T23:00:00Z,2025-09-05T19:00:00Z,VFR,17,6,49,150,12,24100,29.98,NA,FEW  ft,CYZF 052300Z 15012G18KT 15SM FEW240 17/06 A2998 RMK CI1 SLP162 DENSITY ALT 1100FT,2025-09-05T23:20:09Z,2025-09-05T19:20:09Z
CYZF,2025-09-06T01:00:00Z,2025-09-05T21:00:00Z,VFR,16,7,55,130,9,24100,29.95,NA,FEW  ft,CYZF 060100Z 13009KT 15SM FEW240 16/07 A2995 RMK CI2 SLP154 DENSITY ALT 1000FT,2025-09-06T01:42:37Z,2025-09-05T21:42:37Z
CYZF,2025-09-06T02:00:00Z,2025-09-05T22:00:00Z,VFR,15,7,59,120,8,24100,29.95,NA,FEW  ft,CYZF 060200Z 12008KT 15SM FEW240 15/07 A2995 RMK CI2 SLP152,2025-09-06T02:56:38Z,2025-09-05T22:56:38Z
CYZF,2025-09-06T03:00:00Z,2025-09-05T23:00:00Z,VFR,14,7,63,110,10,24100,29.94,NA,FEW  ft,CYZF 060300Z 11010KT 15SM FEW240 14/07 A2994 RMK CI2 SLP150,2025-09-06T03:30:48Z,2025-09-05T23:30:48Z
CYZF,2025-09-06T04:00:00Z,2025-09-06T00:00:00Z,VFR,13,7,67,100,8,24100,29.94,NA,FEW  ft,CYZF 060400Z 10008KT 15SM FEW240 13/07 A2994 RMK CI2 SLP149,2025-09-06T04:25:48Z,2025-09-06T00:25:48Z
CYZF,2025-09-06T05:00:00Z,2025-09-06T01:00:00Z,VFR,12,7,72,110,10,24100,29.93,NA,FEW  ft,CYZF 060500Z 11010KT 15SM FEW200 12/07 A2993 RMK CI2 SLP145,2025-09-06T05:19:59Z,2025-09-06T01:19:59Z
CYZF,2025-09-06T06:00:00Z,2025-09-06T02:00:00Z,VFR,12,7,72,120,10,24100,29.92,NA,FEW  ft,CYZF 060600Z 12010KT 15SM FEW200 12/07 A2992 RMK CI2 SLP141,2025-09-06T06:29:51Z,2025-09-06T02:29:51Z
CYZF,2025-09-06T07:00:00Z,2025-09-06T03:00:00Z,VFR,12,7,72,120,10,24100,29.91,NA,SKC  ft,CYZF 060700Z 12010G15KT 15SM SKC 12/07 A2991 RMK SLP139,2025-09-06T07:18:44Z,2025-09-06T03:18:44Z
CYZF,2025-09-06T08:00:00Z,2025-09-06T04:00:00Z,VFR,12,8,77,130,10,24100,29.9,NA,FEW  ft,CYZF 060800Z 13010KT 15SM FEW180 12/08 A2990 RMK AC2 SLP135,2025-09-06T08:25:14Z,2025-09-06T04:25:14Z
CYZF,2025-09-06T09:00:00Z,2025-09-06T05:00:00Z,VFR,12,8,77,130,10,24100,29.89,NA,FEW  ft,CYZF 060900Z 13010KT 15SM FEW180 12/08 A2989 RMK AC2 SLP131,2025-09-06T09:19:49Z,2025-09-06T05:19:49Z
CYZF,2025-09-06T10:00:00Z,2025-09-06T06:00:00Z,VFR,12,9,82,140,14,24100,29.87,NA,SCT  ft,CYZF 061000Z 14014KT 15SM SCT180 12/09 A2987 RMK AC3 SLP125,2025-09-06T10:20:32Z,2025-09-06T06:20:32Z
CYZF,2025-09-06T11:00:00Z,2025-09-06T07:00:00Z,VFR,12,9,82,150,13,24100,29.87,NA,SCT  ft,CYZF 061100Z 15013G19KT 15SM SCT180 12/09 A2987 RMK AC3 SLP123,2025-09-06T11:16:03Z,2025-09-06T07:16:03Z
CYZF,2025-09-06T12:00:00Z,2025-09-06T08:00:00Z,VFR,12,8,77,150,12,24100,29.86,NA,SCT  ft; SCT  ft,CYZF 061200Z 15012G20KT 15SM SCT180 SCT240 12/08 A2986 RMK AC3CI1 CI TR SLP121,2025-09-06T12:40:03Z,2025-09-06T08:40:03Z
CYZF,2025-09-06T13:00:00Z,2025-09-06T09:00:00Z,VFR,11,8,82,150,12,24100,29.85,NA,SCT  ft; BKN  ft,CYZF 061300Z 15012G19KT 15SM SCT110 BKN240 11/08 A2985 RMK AC3CI3 FU SLP118,2025-09-06T13:22:42Z,2025-09-06T09:22:42Z
CYZF,2025-09-06T14:00:00Z,2025-09-06T10:00:00Z,VFR,12,8,77,150,13,24100,29.84,NA,FEW  ft; FEW  ft; BKN  ft,CYZF 061400Z 15013KT 15SM FEW110 FEW180 BKN240 12/08 A2984 RMK AC2AC1CI5 AC TR FU SLP113,2025-09-06T14:18:41Z,2025-09-06T10:18:41Z
CYZF,2025-09-06T15:00:00Z,2025-09-06T11:00:00Z,VFR,13,8,72,150,14,24100,29.83,NA,FEW  ft; FEW  ft; BKN  ft,CYZF 061500Z 15014G23KT 15SM FEW110 FEW160 BKN240 13/08 A2983 RMK AC1AC1CI6 AC TR SLP113,2025-09-06T15:19:26Z,2025-09-06T11:19:26Z
CYZF,2025-09-06T16:00:00Z,2025-09-06T12:00:00Z,VFR,13,8,72,150,16,24100,29.82,NA,FEW  ft; FEW  ft; BKN  ft,CYZF 061600Z 15016G22KT 15SM FEW110 FEW160 BKN220 13/08 A2982 RMK AC1AC2CI5 AC TR SLP108,2025-09-06T16:24:55Z,2025-09-06T12:24:55Z
CYZF,2025-09-06T17:00:00Z,2025-09-06T13:00:00Z,VFR,14,9,72,140,14,24100,29.81,NA,FEW  ft; SCT  ft; BKN  ft,CYZF 061700Z 14014G21KT 15SM FEW110 SCT160 BKN220 14/09 A2981 RMK AC1AC3CI3 SLP105 DENSITY ALT 900FT,2025-09-06T17:24:34Z,2025-09-06T13:24:34Z
CYZF,2025-09-06T18:00:00Z,2025-09-06T14:00:00Z,VFR,13,8,72,140,16,24100,29.8,NA,FEW  ft; BKN  ft; BKN  ft,CYZF 061800Z 14016G22KT 15SM FEW110 BKN150 BKN220 13/08 A2980 RMK AC1AC5CI2 AC TR SLP101,2025-09-06T18:32:28Z,2025-09-06T14:32:28Z
CYZF,2025-09-06T19:00:00Z,2025-09-06T15:00:00Z,VFR,14,8,67,140,12,24100,29.8,NA,FEW  ft; SCT  ft; BKN  ft,CYZF 061900Z 14012G20KT 15SM FEW110 SCT150 BKN210 14/08 A2980 RMK AC1AC3CI3 SLP101,2025-09-06T19:18:16Z,2025-09-06T15:18:16Z
CYZF,2025-09-06T20:00:00Z,2025-09-06T16:00:00Z,VFR,14,8,67,150,12,24100,29.79,NA,SCT  ft; BKN  ft; BKN  ft,CYZF 062000Z 15012G18KT 15SM SCT110 BKN150 BKN240 14/08 A2979 RMK AS3AC3CI1 SLP098 DENSITY ALT 1000FT,2025-09-06T20:25:18Z,2025-09-06T16:25:18Z
CYZF,2025-09-06T21:00:00Z,2025-09-06T17:00:00Z,VFR,16,8,59,130,12,24100,29.79,NA,FEW  ft; BKN  ft; BKN  ft,CYZF 062100Z 13012KT 15SM FEW150 BKN190 BKN240 16/08 A2979 RMK AC1AC5CI1 SLP099 DENSITY ALT 1100FT,2025-09-06T21:21:22Z,2025-09-06T17:21:22Z
CYZF,2025-09-06T22:00:00Z,2025-09-06T18:00:00Z,VFR,17,8,56,150,9,24100,29.8,NA,FEW  ft; BKN  ft; BKN  ft,CYZF 062200Z 15009G16KT 15SM FEW100 BKN170 BKN240 17/08 A2980 RMK AC1AC5CI1 SLP100 DENSITY ALT 1200FT,2025-09-06T22:23:59Z,2025-09-06T18:23:59Z
CYZF,2025-09-06T23:00:00Z,2025-09-06T19:00:00Z,VFR,17,8,56,160,10,24100,29.8,NA,FEW  ft; BKN  ft; BKN  ft,CYZF 062300Z 16010KT 15SM FEW100 BKN170 BKN240 17/08 A2980 RMK AC1AC5CI1 SLP100 DENSITY ALT 1300FT,2025-09-06T23:22:40Z,2025-09-06T19:22:40Z
CYZF,2025-09-07T01:00:00Z,2025-09-06T21:00:00Z,VFR,16,8,59,0,2,24100,29.8,NA,SCT  ft; BKN  ft; BKN  ft,CYZF 070100Z VRB02KT 15SM SCT100 BKN170 BKN240 16/08 A2980 RMK AC3AC3CI1 SLP101 DENSITY ALT 1100FT,2025-09-07T02:04:17Z,2025-09-06T22:04:17Z
CYZF,2025-09-07T02:00:00Z,2025-09-06T22:00:00Z,VFR,15,8,63,310,5,24100,29.81,NA,SCT  ft; BKN  ft; BKN  ft,CYZF 070200Z 31005KT 15SM SCT100 BKN170 BKN240 15/08 A2981 RMK AC4AC2CI1 SLP105 DENSITY ALT 900FT,2025-09-07T03:07:57Z,2025-09-06T23:07:57Z
CYZF,2025-09-07T03:00:00Z,2025-09-06T23:00:00Z,VFR,15,8,63,320,6,24100,29.82,NA,SCT  ft; BKN  ft; BKN  ft,CYZF 070300Z 32006KT 15SM SCT100 BKN170 BKN240 15/08 A2982 RMK AC3AC2CI1 SLP107 DENSITY ALT 900FT,2025-09-07T03:38:10Z,2025-09-06T23:38:10Z
CYZF,2025-09-07T04:00:00Z,2025-09-07T00:00:00Z,VFR,14,8,67,330,7,24100,29.83,NA,FEW  ft; BKN  ft; BKN  ft,CYZF 070400Z 33007KT 15SM FEW100 BKN190 BKN240 14/08 A2983 RMK AC2AC3CI1 SLP110,2025-09-07T04:29:50Z,2025-09-07T00:29:50Z
CYZF,2025-09-07T05:00:00Z,2025-09-07T01:00:00Z,VFR,14,9,72,330,9,24100,29.84,NA,FEW  ft; BKN  ft,CYZF 070500Z 33009KT 15SM FEW092 BKN130 14/09 A2984 RMK AC1AC6 SLP114,2025-09-07T05:25:36Z,2025-09-07T01:25:36Z
CYZF,2025-09-07T06:00:00Z,2025-09-07T02:00:00Z,VFR,14,11,82,350,10,9999,29.86,NA,SCT  ft; BKN  ft,CYZF 070600Z 35010G16KT 10SM SCT110 BKN180 14/11 A2986 RMK AC3AC4 SLP121,2025-09-07T06:34:57Z,2025-09-07T02:34:57Z
CYZF,2025-09-07T07:00:00Z,2025-09-07T03:00:00Z,VFR,13,11,88,340,10,9999,29.87,NA,SCT  ft; BKN  ft,CYZF 070700Z 34010KT 10SM SCT020 BKN180 13/11 A2987 RMK SC4AC2 SLP125,2025-09-07T07:22:57Z,2025-09-07T03:22:57Z
CYZF,2025-09-07T08:00:00Z,2025-09-07T04:00:00Z,VFR,13,10,82,350,12,12900,29.87,NA,FEW  ft; SCT  ft,CYZF 070800Z 35012KT 8SM FEW020 SCT046 13/10 A2987 RMK SC2FU2 SLP126,2025-09-07T08:29:59Z,2025-09-07T04:29:59Z
CYZF,2025-09-07T09:00:00Z,2025-09-07T05:00:00Z,MVFR,13,10,82,350,15,9999,29.88,NA,OVC  ft,CYZF 070900Z 35015KT 10SM OVC018 13/10 A2988 RMK SC8 SLP128,2025-09-07T09:23:43Z,2025-09-07T05:23:43Z
CYZF,2025-09-07T10:00:00Z,2025-09-07T06:00:00Z,MVFR,13,10,82,350,12,24100,29.89,NA,OVC  ft,CYZF 071000Z 35012KT 15SM OVC018 13/10 A2989 RMK SC8 SLP130,2025-09-07T10:26:14Z,2025-09-07T06:26:14Z
CYZF,2025-09-07T11:00:00Z,2025-09-07T07:00:00Z,MVFR,13,10,82,340,9,24100,29.9,NA,BKN  ft; OVC  ft,CYZF 071100Z 34009G15KT 15SM BKN018 OVC027 13/10 A2990 RMK SC6SC2 SLP135,2025-09-07T11:19:26Z,2025-09-07T07:19:26Z
CYZF,2025-09-07T12:00:00Z,2025-09-07T08:00:00Z,VFR,12,9,82,340,8,24100,29.91,NA,OVC  ft,CYZF 071200Z 34008KT 15SM OVC033 12/09 A2991 RMK SC8 SLP139,2025-09-07T12:48:18Z,2025-09-07T08:48:18Z
CYZF,2025-09-07T13:00:00Z,2025-09-07T09:00:00Z,MVFR,12,9,82,340,9,24100,29.92,NA,BKN  ft,CYZF 071300Z 34009KT 15SM BKN021 12/09 A2992 RMK SC7 SLP143,2025-09-07T13:26:47Z,2025-09-07T09:26:47Z
CYZF,2025-09-07T14:00:00Z,2025-09-07T10:00:00Z,MVFR,12,8,77,10,12,24100,29.94,NA,BKN  ft; BKN  ft; BKN  ft,CYZF 071400Z 01012KT 15SM BKN021 BKN150 BKN240 12/08 A2994 RMK SC5AC1CI2 AC TR SLP150,2025-09-07T14:23:06Z,2025-09-07T10:23:06Z
CYZF,2025-09-07T15:00:00Z,2025-09-07T11:00:00Z,VFR,12,6,67,20,16,24100,29.95,NA,FEW  ft; FEW  ft; SCT  ft,CYZF 071500Z 02016KT 15SM FEW021 FEW150 SCT240 12/06 A2995 RMK SC1AC1CI2 SLP153,2025-09-07T15:23:39Z,2025-09-07T11:23:39Z
CYZF,2025-09-07T16:00:00Z,2025-09-07T12:00:00Z,VFR,12,6,67,30,14,24100,29.96,NA,SCT  ft; SCT  ft; SCT  ft,CYZF 071600Z 03014KT 15SM SCT021 SCT150 SCT240 12/06 A2996 RMK SC3AC1CI1 AC TR SLP157,2025-09-07T16:29:13Z,2025-09-07T12:29:13Z
CYZF,2025-09-07T17:00:00Z,2025-09-07T13:00:00Z,VFR,12,5,63,20,12,24100,29.97,NA,SCT  ft; SCT  ft; BKN  ft,CYZF 071700Z CCA 02012G17KT 15SM SCT025 SCT150 BKN240 12/05 A2997 RMK SC4AC1CI1 AC TR SLP159,2025-09-07T17:21:34Z,2025-09-07T13:21:34Z
CYZF,2025-09-07T18:00:00Z,2025-09-07T14:00:00Z,VFR,12,5,63,10,10,24100,29.98,NA,SCT  ft; SCT  ft; SCT  ft,CYZF 071800Z 01010KT 15SM SCT027 SCT150 SCT240 12/05 A2998 RMK SC4AC1CI1 AC TR CI TR SLP164,2025-09-07T18:32:55Z,2025-09-07T14:32:55Z
CYZF,2025-09-07T19:00:00Z,2025-09-07T15:00:00Z,VFR,12,4,58,40,8,24100,29.99,NA,FEW  ft; FEW  ft; FEW  ft,CYZF 071900Z 04008KT 350V050 15SM FEW027 FEW150 FEW240 12/04 A2999 RMK SC1AC1CI1 AC TR CI TR SLP167,2025-09-07T19:18:53Z,2025-09-07T15:18:53Z
CYZF,2025-09-07T20:00:00Z,2025-09-07T16:00:00Z,VFR,13,3,51,20,7,24100,30,NA,FEW  ft; FEW  ft,CYZF 072000Z 02007KT 330V040 15SM FEW027 FEW150 13/03 A3000 RMK SC1AC1 SC TR AC TR SLP168,2025-09-07T20:25:54Z,2025-09-07T16:25:54Z
CYZF,2025-09-07T21:00:00Z,2025-09-07T17:00:00Z,VFR,14,3,48,360,9,24100,30,NA,FEW  ft; FEW  ft,CYZF 072100Z 36009KT 15SM FEW027 FEW150 14/03 A3000 RMK SC1AC1 SC TR AC TR SLP168,2025-09-07T21:21:36Z,2025-09-07T17:21:36Z
CYZV,2025-09-05T21:49:00Z,2025-09-05T17:49:00Z,MVFR,16,14,88,100,7,32200,29.87,NA,FEW  ft; BKN  ft,CYZV 052149Z 10007KT 20SM -RA FEW001 BKN028 16/14 A2987 RMK SF1SC7 SF TR SLP120 DENSITY ALT 400FT,2025-09-05T22:02:55Z,2025-09-05T18:02:55Z
CYZV,2025-09-05T22:00:00Z,2025-09-05T18:00:00Z,MVFR,16,14,88,100,7,32200,29.87,NA,FEW  ft; BKN  ft,CYZV 052200Z 10007KT 20SM -RA FEW001 BKN029 16/14 A2987 RMK SF1SC7 SF TR SLP119 DENSITY ALT 400FT,2025-09-05T22:18:46Z,2025-09-05T18:18:46Z
CYZV,2025-09-05T22:48:00Z,2025-09-05T18:48:00Z,VFR,16,14,88,110,9,32200,29.86,NA,FEW  ft; BKN  ft,CYZV 052248Z 11009KT 20SM FEW001 BKN033 16/14 A2986 RMK SF1SC6 SLP116 DENSITY ALT 400FT,2025-09-05T23:03:11Z,2025-09-05T19:03:11Z
CYZV,2025-09-05T23:00:00Z,2025-09-05T19:00:00Z,VFR,16,14,88,110,10,32200,29.86,NA,FEW  ft; BKN  ft; BKN  ft,CYZV 052300Z 11010KT 20SM FEW001 BKN040 BKN062 16/14 A2986 RMK SC1SC5SC1 SLP116 DENSITY ALT 400FT,2025-09-05T23:20:08Z,2025-09-05T19:20:08Z
CYZV,2025-09-06T01:00:00Z,2025-09-05T21:00:00Z,VFR,15,13,88,90,9,24100,29.85,NA,BKN  ft; BKN  ft,CYZV 060100Z 09009KT 15SM BKN036 BKN046 15/13 A2985 RMK SC5SC2 SLP111 DENSITY ALT 400FT,2025-09-06T01:42:37Z,2025-09-05T21:42:37Z
CYZV,2025-09-06T02:00:00Z,2025-09-05T22:00:00Z,VFR,16,14,88,90,8,24100,29.84,NA,BKN  ft; BKN  ft,CYZV 060200Z 09008G16KT 15SM BKN035 BKN062 16/14 A2984 RMK SC5SC2 SLP109 DENSITY ALT 400FT,2025-09-06T02:56:37Z,2025-09-05T22:56:37Z
CYZV,2025-09-06T03:00:00Z,2025-09-05T23:00:00Z,VFR,16,14,88,80,7,24100,29.82,NA,SCT  ft; BKN  ft; BKN  ft,CYZV 060300Z 08007KT 15SM SCT047 BKN073 BKN170 16/14 A2982 RMK SC4AC2AC1 SLP103 DENSITY ALT 500FT,2025-09-06T03:30:47Z,2025-09-05T23:30:47Z
CYZV,2025-09-06T04:00:00Z,2025-09-06T00:00:00Z,VFR,16,14,88,70,3,24100,29.8,NA,BKN  ft; BKN  ft; BKN  ft,CYZV 060400Z 07003KT 020V100 15SM BKN040 BKN070 BKN090 16/14 A2980 RMK SC6AC1AC1 AC TR SLP093 DENSITY ALT 500FT,2025-09-06T04:25:47Z,2025-09-06T00:25:47Z
CYZV,2025-09-06T05:00:00Z,2025-09-06T01:00:00Z,VFR,16,14,88,90,6,24100,29.76,NA,SCT  ft; BKN  ft; BKN  ft,CYZV 060500Z 09006KT 15SM SCT056 BKN066 BKN078 16/14 A2976 RMK SC4AC2AC1 SLP081 DENSITY ALT 600FT,2025-09-06T05:19:58Z,2025-09-06T01:19:58Z
CYZV,2025-09-06T06:00:00Z,2025-09-06T02:00:00Z,VFR,16,15,94,90,7,24100,29.73,NA,BKN  ft,CYZV 060600Z 09007KT 15SM BKN037 16/15 A2973 RMK SC7 SLP069 DENSITY ALT 600FT,2025-09-06T06:29:50Z,2025-09-06T02:29:50Z
CYZV,2025-09-06T07:00:00Z,2025-09-06T03:00:00Z,MVFR,16,15,94,0,2,24100,29.73,NA,OVC  ft,CYZV 060700Z VRB02KT 15SM OVC028 16/15 A2973 RMK SC8 SLP070 DENSITY ALT 600FT,2025-09-06T07:18:43Z,2025-09-06T03:18:43Z
CYZV,2025-09-06T08:00:00Z,2025-09-06T04:00:00Z,MVFR,17,15,88,200,3,24100,29.73,NA,OVC  ft,CYZV 060800Z 20003KT 140V220 15SM OVC027 17/15 A2973 RMK SC8 SLP069 DENSITY ALT 700FT,2025-09-06T08:25:13Z,2025-09-06T04:25:13Z
CYZV,2025-09-06T09:00:00Z,2025-09-06T05:00:00Z,VFR,15,14,94,190,2,24100,29.72,NA,SCT  ft; BKN  ft; BKN  ft,CYZV 060900Z 19002KT 15SM SCT034 BKN045 BKN160 15/14 A2972 RMK SC4SC1AC2 SLP068 DENSITY ALT 500FT,2025-09-06T09:19:48Z,2025-09-06T05:19:48Z
CYZV,2025-09-06T10:00:00Z,2025-09-06T06:00:00Z,VFR,16,15,94,220,2,48300,29.73,NA,FEW  ft; SCT  ft; BKN  ft,"CYZV 061000Z 22002KT 30SM MIFG FEW021 SCT060TCU BKN120 16/15 A2973 RMK SC2TCU1AC2 TCU DIST E, MIFG FINAL RWY 27 SLP070 DENSITY ALT 600FT",2025-09-06T10:20:32Z,2025-09-06T06:20:32Z
CYZV,2025-09-06T11:00:00Z,2025-09-06T07:00:00Z,VFR,16,15,94,210,5,48300,29.73,NA,FEW  ft; FEW  ft; SCT  ft,CYZV 061100Z 21005KT 150V250 30SM FEW024 FEW060TCU SCT140 16/15 A2973 RMK CU1TCU1AC2 TCU TR SLP071 DENSITY ALT 600FT,2025-09-06T11:16:02Z,2025-09-06T07:16:02Z
CYZV,2025-09-06T12:00:00Z,2025-09-06T08:00:00Z,VFR,18,14,78,230,15,48300,29.75,NA,FEW  ft; FEW  ft,CYZV 061200Z 23015G21KT 30SM FEW050 FEW140 18/14 A2975 RMK CU1AC1 CU TR SLP077 DENSITY ALT 800FT,2025-09-06T12:40:02Z,2025-09-06T08:40:02Z
CYZV,2025-09-06T13:00:00Z,2025-09-06T09:00:00Z,VFR,18,14,78,250,8,48300,29.78,NA,FEW  ft; FEW  ft; SCT  ft,CYZV 061300Z 25008KT 30SM FEW060 FEW120 SCT240 18/14 A2978 RMK CU1AC1CI4 CU TR AC TR SLP087 DENSITY ALT 800FT,2025-09-06T13:22:41Z,2025-09-06T09:22:41Z
CYZV,2025-09-06T14:00:00Z,2025-09-06T10:00:00Z,VFR,19,13,68,240,11,48300,29.78,NA,FEW  ft; FEW  ft; FEW  ft,CYZV 061400Z 24011KT 30SM FEW051 FEW120 FEW240 19/13 A2978 RMK CU1AC1CI1 CU TR AC TR SLP086 DENSITY ALT 900FT,2025-09-06T14:18:40Z,2025-09-06T10:18:40Z
CYZV,2025-09-06T15:00:00Z,2025-09-06T11:00:00Z,VFR,20,11,56,230,11,48300,29.78,NA,FEW  ft; FEW  ft; SCT  ft,CYZV 061500Z 23011G16KT 200V270 30SM FEW050 FEW120 SCT240 20/11 A2978 RMK CU1AC1CI4 CU TR AC TR SLP087 DENSITY ALT 1000FT,2025-09-06T15:19:25Z,2025-09-06T11:19:25Z
CYZV,2025-09-06T16:00:00Z,2025-09-06T12:00:00Z,VFR,19,13,68,200,11,48300,29.79,NA,FEW  ft; FEW  ft; BKN  ft,CYZV 061600Z 20011KT 30SM FEW050 FEW120 BKN240 19/13 A2979 RMK CU1AC1CI5 CU TR AC TR SLP089 DENSITY ALT 900FT,2025-09-06T16:24:54Z,2025-09-06T12:24:54Z
CYZV,2025-09-06T17:00:00Z,2025-09-06T13:00:00Z,VFR,19,10,56,230,15,48300,29.79,NA,FEW  ft; BKN  ft,CYZV 061700Z 23015G21KT 30SM FEW050 BKN190 19/10 A2979 RMK CU1CI7 CU TR SLP092 DENSITY ALT 900FT,2025-09-06T17:24:33Z,2025-09-06T13:24:33Z
CYZV,2025-09-06T18:00:00Z,2025-09-06T14:00:00Z,VFR,19,9,52,220,13,48300,29.79,NA,FEW  ft; BKN  ft; BKN  ft,CYZV 061800Z 22013G22KT 30SM FEW050 BKN170 BKN200 19/09 A2979 RMK CU1AC6CI1 CU TR SLP090 DENSITY ALT 900FT,2025-09-06T18:32:27Z,2025-09-06T14:32:27Z
CYZV,2025-09-06T19:00:00Z,2025-09-06T15:00:00Z,VFR,18,10,60,230,17,48300,29.79,NA,FEW  ft; FEW  ft; OVC  ft,CYZV 061900Z 23017G27KT 30SM FEW050 FEW180 OVC200 18/10 A2979 RMK CU1CI2CI6 CU TR SLP091 DENSITY ALT 800FT,2025-09-06T19:18:16Z,2025-09-06T15:18:16Z
CYZV,2025-09-06T20:00:00Z,2025-09-06T16:00:00Z,VFR,17,9,59,230,16,48300,29.8,NA,FEW  ft; OVC  ft,CYZV 062000Z 23016G24KT 30SM FEW050 OVC150 17/09 A2980 RMK SC2AC6 SLP093 DENSITY ALT 600FT,2025-09-06T20:25:17Z,2025-09-06T16:25:17Z
CYZV,2025-09-06T21:00:00Z,2025-09-06T17:00:00Z,VFR,16,9,63,230,16,48300,29.82,NA,FEW  ft; SCT  ft; OVC  ft,CYZV 062100Z 23016G25KT 30SM FEW064 SCT140 OVC250 16/09 A2982 RMK CU1AC2CI5 SLP103 DENSITY ALT 500FT,2025-09-06T21:21:21Z,2025-09-06T17:21:21Z
CYZV,2025-09-06T22:00:00Z,2025-09-06T18:00:00Z,VFR,16,9,63,230,14,48300,29.82,NA,FEW  ft; FEW  ft; BKN  ft,CYZV 062200Z 23014G20KT 30SM FEW064 FEW080 BKN120 16/09 A2982 RMK CU1AC1AC5 SLP102 DENSITY ALT 500FT,2025-09-06T22:23:59Z,2025-09-06T18:23:59Z
CYZV,2025-09-06T23:00:00Z,2025-09-06T19:00:00Z,VFR,15,10,72,230,14,48300,29.81,NA,FEW  ft; FEW  ft; BKN  ft,CYZV 062300Z 23014G25KT 30SM FEW064 FEW120 BKN140 15/10 A2981 RMK CU1AC1AC6 CU TR SLP099 DENSITY ALT 400FT,2025-09-06T23:22:39Z,2025-09-06T19:22:39Z
CYZV,2025-09-07T01:00:00Z,2025-09-06T21:00:00Z,VFR,13,11,88,220,14,24100,29.84,NA,FEW  ft; BKN  ft,CYZV 070100Z 22014G20KT 15SM FEW110 BKN170 13/11 A2984 RMK AC2AC5 SLP107,2025-09-07T02:04:16Z,2025-09-06T22:04:16Z
CYZV,2025-09-07T02:00:00Z,2025-09-06T22:00:00Z,VFR,13,11,88,240,10,24100,29.85,NA,BKN  ft,CYZV 070200Z 24010G19KT 15SM BKN190 13/11 A2985 RMK AC7 SLP110,2025-09-07T03:07:56Z,2025-09-06T23:07:56Z
CYZV,2025-09-07T03:00:00Z,2025-09-06T23:00:00Z,VFR,13,10,82,270,6,24100,29.85,NA,FEW  ft; SCT  ft; BKN  ft,CYZV 070300Z 27006KT 15SM FEW070 SCT190 BKN240 13/10 A2985 RMK AC1AC3CI2 SLP111,2025-09-07T03:38:09Z,2025-09-06T23:38:09Z
CYZV,2025-09-07T04:00:00Z,2025-09-07T00:00:00Z,VFR,12,10,88,300,4,24100,29.85,NA,SCT  ft; SCT  ft; BKN  ft,CYZV 070400Z 30004KT 240V340 15SM SCT070 SCT190 BKN240 12/10 A2985 RMK AC3AC1CI1 SLP112,2025-09-07T04:29:50Z,2025-09-07T00:29:50Z
CYZV,2025-09-07T05:00:00Z,2025-09-07T01:00:00Z,VFR,10,9,94,260,5,24100,29.86,NA,FEW  ft; SCT  ft; BKN  ft,CYZV 070500Z 26005KT 15SM FEW070 SCT190 BKN240 10/09 A2986 RMK AC1AC2CS3 SLP115,2025-09-07T05:25:35Z,2025-09-07T01:25:35Z
CYZV,2025-09-07T06:00:00Z,2025-09-07T02:00:00Z,VFR,10,9,94,290,3,24100,29.86,NA,FEW  ft; FEW  ft; BKN  ft,CYZV 070600Z 29003KT 240V300 15SM FEW068 FEW200 BKN240 10/09 A2986 RMK AC1CI1CS3 SLP114,2025-09-07T06:34:56Z,2025-09-07T02:34:56Z
CYZV,2025-09-07T07:00:00Z,2025-09-07T03:00:00Z,VFR,7,7,100,260,3,24100,29.87,NA,FEW  ft; SCT  ft,CYZV 070700Z 26003KT 15SM FEW068 SCT240 07/07 A2987 RMK AC1CI3 AC TR SLP117,2025-09-07T07:22:56Z,2025-09-07T03:22:56Z
CYZV,2025-09-07T08:00:00Z,2025-09-07T04:00:00Z,VFR,5,5,100,0,0,24100,29.88,NA,SKC  ft,CYZV 070800Z 00000KT 15SM SKC 05/05 A2988 RMK SLP121,2025-09-07T08:29:58Z,2025-09-07T04:29:58Z
CYZV,2025-09-07T09:00:00Z,2025-09-07T05:00:00Z,VFR,4,3,93,30,2,32200,29.89,NA,FEW  ft,CYZV 070900Z 03002KT 20SM FEW200 04/03 A2989 RMK CI1 SLP125,2025-09-07T09:23:43Z,2025-09-07T05:23:43Z
CYZV,2025-09-07T10:00:00Z,2025-09-07T06:00:00Z,VFR,2,2,100,20,3,48300,29.9,NA,FEW  ft; FEW  ft,CYZV 071000Z 02003KT 30SM MIFG FEW100 FEW200 02/02 A2990 RMK AC1CI1 AC TR CI TR MIFG ON THRESHOLD RWY 13 SLP130,2025-09-07T10:26:13Z,2025-09-07T06:26:13Z
CYZV,2025-09-07T11:00:00Z,2025-09-07T07:00:00Z,VFR,5,4,93,0,0,48300,29.92,NA,FEW  ft; FEW  ft,CYZV 071100Z 00000KT 30SM MIFG FEW100 FEW250 05/04 A2992 RMK AC1CI1 AC TR MIFG ON FINAL RWY 27 SLP135,2025-09-07T11:19:26Z,2025-09-07T07:19:26Z
CYZV,2025-09-07T12:00:00Z,2025-09-07T08:00:00Z,VFR,12,9,82,290,2,48300,29.93,NA,FEW  ft; FEW  ft; FEW  ft,CYZV 071200Z 29002KT 30SM FEW050 FEW100 FEW250 12/09 A2993 RMK CU1AC1CI1 CU TR AC TR SLP139,2025-09-07T12:48:18Z,2025-09-07T08:48:18Z
CYZV,2025-09-07T13:00:00Z,2025-09-07T09:00:00Z,VFR,13,9,77,200,3,48300,29.94,NA,FEW  ft; FEW  ft; FEW  ft,CYZV 071300Z 20003KT 140V240 30SM FEW005 FEW100 FEW250 13/09 A2994 RMK CU1AC1CI2 CU TR AC TR SLP141,2025-09-07T13:26:46Z,2025-09-07T09:26:46Z
CYZV,2025-09-07T14:00:00Z,2025-09-07T10:00:00Z,VFR,14,8,67,180,7,48300,29.94,NA,FEW  ft; FEW  ft; BKN  ft,CYZV 071400Z 18007KT 30SM FEW050 FEW100 BKN250 14/08 A2994 RMK CU1AC1CI6 CU TR AC TR SLP142,2025-09-07T14:23:06Z,2025-09-07T10:23:06Z
CYZV,2025-09-07T15:00:00Z,2025-09-07T11:00:00Z,VFR,15,9,68,160,7,48300,29.93,NA,FEW  ft; FEW  ft; BKN  ft,CYZV 071500Z 16007KT 150V220 30SM FEW050 FEW100 BKN250 15/09 A2993 RMK CU1AC1CI5 AC TR SLP140,2025-09-07T15:23:39Z,2025-09-07T11:23:39Z
CYZV,2025-09-07T16:00:00Z,2025-09-07T12:00:00Z,VFR,15,8,63,190,10,48300,29.93,NA,FEW  ft; FEW  ft; BKN  ft,CYZV 071600Z 19010KT 30SM FEW050 FEW100 BKN250 15/08 A2993 RMK SC1AC1CI4 AC TR SLP138,2025-09-07T16:29:12Z,2025-09-07T12:29:12Z
CYZV,2025-09-07T17:00:00Z,2025-09-07T13:00:00Z,VFR,15,6,55,220,12,48300,29.92,NA,FEW  ft; FEW  ft; BKN  ft,CYZV 071700Z 22012KT 30SM FEW050 FEW100 BKN250 15/06 A2992 RMK SC1AC1CI5 AC TR SLP134,2025-09-07T17:21:33Z,2025-09-07T13:21:33Z
CYZV,2025-09-07T18:00:00Z,2025-09-07T14:00:00Z,VFR,14,10,77,220,10,48300,29.9,NA,FEW  ft; FEW  ft; BKN  ft,CYZV 071800Z 22010KT 30SM FEW050 FEW100 BKN250 14/10 A2990 RMK CU1AC1CI6 CU TR SLP129,2025-09-07T18:32:54Z,2025-09-07T14:32:54Z
CYZV,2025-09-07T19:00:00Z,2025-09-07T15:00:00Z,VFR,15,9,68,240,7,48300,29.9,NA,FEW  ft; SCT  ft; BKN  ft,CYZV 071900Z 24007KT 30SM FEW050 SCT075 BKN250 15/09 A2990 RMK CU1AC3CI3 CU TR SLP128,2025-09-07T19:18:52Z,2025-09-07T15:18:52Z
CYZV,2025-09-07T20:00:00Z,2025-09-07T16:00:00Z,VFR,14,10,77,200,5,48300,29.89,NA,FEW  ft; BKN  ft,CYZV 072000Z 20005KT 170V230 30SM FEW050 BKN072 14/10 A2989 RMK CU1AC7 CU TR SLP126,2025-09-07T20:25:54Z,2025-09-07T16:25:54Z
CYZV,2025-09-07T21:00:00Z,2025-09-07T17:00:00Z,VFR,14,10,77,230,3,48300,29.88,NA,FEW  ft; BKN  ft,CYZV 072100Z 23003KT 30SM FEW050 BKN078 14/10 A2988 RMK CU1AC7 CU TR SLP122,2025-09-07T21:21:35Z,2025-09-07T17:21:35Z
