"icao","observed_utc","flight_category","temp_c","dewpoint_c","rh_percent","wind_dir_deg","wind_kts","vis_m","altimeter_hg","raw_text"
"CYMO",2025-09-04 14:00:00,"MVFR",6,4,87,200,15,14500,29.49,"CYMO 041400Z AUTO 20015G20KT 9SM SCT016 BKN021 06/04 A2949 RMK SLP990"
"CYOO",2025-09-04 14:27:00,"VFR",13,13,100,340,9,9700,29.65,"CYOO 041427Z AUTO 34009G15KT 6SM RA BR FEW028 SCT037 BKN055 OVC072 13/13 A2965 RMK PCPN 2.8MM PAST HR SLP043 DENSITY ALT 700FT"
"CYOW",2025-09-04 14:00:00,"VFR",22,14,61,180,9,24100,29.67,"CYOW 041400Z 18009G18KT 140V200 15SM BKN110 BKN200 22/14 A2967 RMK AC6CI1 SLP049 DENSITY ALT 1600FT"
"CYQG",2025-09-04 14:00:00,"VFR",14,10,77,350,9,14500,29.78,"CYQG 041400Z AUTO 35009KT 9SM FEW023 BKN042 OVC055 14/10 A2978 RMK SLP085"
"CYYB",2025-09-04 14:00:00,"VFR",8,8,100,290,5,48300,29.65,"CYYB 041400Z 29005KT 30SM FEW031 OVC075 08/08 A2965 RMK SC2AC6 SLP048"
