"icao","observed_utc","flight_category","temp_c","dewpoint_c","rh_percent","wind_dir_deg","wind_kts","vis_m","altimeter_hg","raw_text","fetched_at_utc"
"CYGK",2025-09-05 02:00:00,"VFR",14,12,88,250,4,24100,29.79,"CYGK 050200Z 25004KT 15SM FEW090 FEW250 14/12 A2979 RMK AC1CI1 SLP092",2025-09-05 03:08:51.734956
"CYGK",2025-09-05,"VFR",14,12,88,250,4,24100,29.79,"CYGK 050200Z 25004KT 15SM FEW090 FEW250 14/12 A2979 RMK AC1CI1 SLP092",2025-09-05 02:18:40.119432
"CYGK",2025-09-04,"VFR",16,14,88,290,4,24100,29.72,"CYGK 042300Z 29004KT 15SM FEW012 SCT040 BKN120 BKN250 16/14 A2972 RMK CF2SC1AC3CI1 SLP065 DENSITY ALT 800FT",2025-09-04 23:52:49.761765
"CYHM",2025-09-05 02:00:00,"VFR",11,8,82,210,3,24100,29.8,"CYHM 050200Z 21003KT 15SM FEW055 SCT250 11/08 A2980 RMK SC1CI3 SC TR SLP095",2025-09-05 03:08:51.734956
"CYHM",2025-09-05,"VFR",11,8,82,210,3,24100,29.8,"CYHM 050200Z 21003KT 15SM FEW055 SCT250 11/08 A2980 RMK SC1CI3 SC TR SLP095",2025-09-05 02:18:40.119432
"CYHM",2025-09-04,"VFR",17,9,59,260,4,24100,29.74,"CYHM 042300Z 26004KT 210V280 15SM BKN060 BKN075 BKN220 17/09 A2974 RMK CU5AC2CI1 CI TR SLP071 DENSITY ALT 1400FT",2025-09-04 23:52:49.761765
"CYMO",2025-09-05 02:00:00,"VFR",9,6,82,220,7,14500,29.48,"CYMO 050200Z AUTO 22007KT 9SM OVC048 09/06 A2948 RMK SLP985",2025-09-05 03:08:51.734956
"CYMO",2025-09-05,"VFR",9,6,82,220,7,14500,29.48,"CYMO 050200Z AUTO 22007KT 9SM OVC048 09/06 A2948 RMK SLP985",2025-09-05 02:18:40.119432
"CYMO",2025-09-04,"VFR",11,7,77,180,5,14500,29.45,"CYMO 042327Z AUTO 18005KT 9SM FEW043 SCT050 BKN066 OVC086 11/07 A2945 RMK SLP975",2025-09-04 23:52:49.761765
"CYOO",2025-09-05 02:00:00,"VFR",13,9,77,330,7,14500,29.77,"CYOO 050200Z AUTO 33007KT 9SM CLR 13/09 A2977 RMK SLP086",2025-09-05 03:08:51.734956
"CYOO",2025-09-05,"VFR",13,9,77,330,7,14500,29.77,"CYOO 050200Z AUTO 33007KT 9SM CLR 13/09 A2977 RMK SLP086",2025-09-05 02:18:40.119432
"CYOO",2025-09-04,"VFR",17,12,73,200,7,14500,29.72,"CYOO 042300Z AUTO 20007KT 9SM FEW066 17/12 A2972 RMK SLP065 DENSITY ALT 1100FT",2025-09-04 23:52:49.761765
"CYOW",2025-09-05 02:00:00,"VFR",11,11,100,280,3,24100,29.77,"CYOW 050200Z 28003KT 220V310 15SM FEW110 SCT160 BKN220 11/11 A2977 RMK AC2AC1CI4 SLP084",2025-09-05 03:08:51.734956
"CYOW",2025-09-05,"VFR",11,11,100,280,3,24100,29.77,"CYOW 050200Z 28003KT 220V310 15SM FEW110 SCT160 BKN220 11/11 A2977 RMK AC2AC1CI4 SLP084",2025-09-05 02:18:40.119432
"CYOW",2025-09-04,"VFR",13,11,88,290,11,24100,29.72,"CYOW 042344Z 29011KT 15SM SCT012 BKN100 BKN160 13/11 A2972 RMK SC3AC2AC1 SLP067",2025-09-04 23:52:49.761765
"CYPL",2025-09-05 02:49:00,"MVFR",2,2,100,290,12,4800,29.37,"CYPL 050249Z AUTO 29012G23KT 3SM -RA BR FEW008 OVC015 02/02 A2937 RMK SLP966",2025-09-05 03:08:51.734956
"CYPL",2025-09-05,"IFR",3,2,93,290,13,14500,29.38,"CYPL 050213Z AUTO 29013G21KT 9SM -RA BKN009 OVC015 03/02 A2938 RMK SLP967",2025-09-05 02:18:40.119432
"CYPL",2025-09-04,"MVFR",4,3,93,290,10,12900,29.41,"CYPL 042300Z AUTO 29010G22KT 270V360 8SM -RA FEW006 SCT010 BKN014 OVC023 04/03 A2941 RMK SLP976",2025-09-04 23:52:49.761765
"CYQA",2025-09-05 02:00:00,"VFR",7,6,93,0,0,14500,29.76,"CYQA 050200Z AUTO 00000KT 9SM CLR 07/06 A2976 RMK SLP086",2025-09-05 03:08:51.734956
"CYQA",2025-09-05,"VFR",7,6,93,0,0,14500,29.76,"CYQA 050200Z AUTO 00000KT 9SM CLR 07/06 A2976 RMK SLP086",2025-09-05 02:18:40.119432
"CYQA",2025-09-04,"VFR",13,7,67,300,5,14500,29.71,"CYQA 042300Z AUTO 30005KT 260V330 9SM FEW038 SCT047 13/07 A2971 RMK SLP067 DENSITY ALT 1200FT",2025-09-04 23:52:49.761765
"CYQG",2025-09-05 02:00:00,"VFR",13,10,82,190,6,14500,29.78,"CYQG 050200Z AUTO 19006KT 9SM FEW060 13/10 A2978 RMK SLP086",2025-09-05 03:08:51.734956
"CYQG",2025-09-05,"VFR",13,10,82,190,6,14500,29.78,"CYQG 050200Z AUTO 19006KT 9SM FEW060 13/10 A2978 RMK SLP086",2025-09-05 02:18:40.119432
"CYQG",2025-09-04,"VFR",18,8,52,230,7,14500,29.74,"CYQG 042300Z AUTO 23007KT 9SM FEW071 18/08 A2974 RMK SLP074 DENSITY ALT 1300FT",2025-09-04 23:52:49.761765
"CYQT",2025-09-05 02:00:00,"VFR",7,6,93,270,4,24100,29.48,"CYQT 050200Z 27004KT 15SM BKN120 07/06 A2948 RMK AC7 SLP992",2025-09-05 03:08:51.734956
"CYQT",2025-09-05,"VFR",7,6,93,270,4,24100,29.48,"CYQT 050200Z 27004KT 15SM BKN120 07/06 A2948 RMK AC7 SLP992",2025-09-05 02:18:40.119432
"CYQT",2025-09-04,"VFR",9,5,76,240,4,32200,29.49,"CYQT 042300Z 24004KT 20SM FEW025 OVC080 09/05 A2949 RMK SC2AC6 SLP996",2025-09-04 23:52:49.761765
"CYSB",2025-09-05 02:00:00,"VFR",8,7,93,160,8,24100,29.68,"CYSB 050200Z 16008KT 15SM SCT250 08/07 A2968 RMK CI3 SLP059",2025-09-05 03:08:51.734956
"CYSB",2025-09-05,"VFR",8,7,93,160,8,24100,29.68,"CYSB 050200Z 16008KT 15SM SCT250 08/07 A2968 RMK CI3 SLP059",2025-09-05 02:18:40.119432
"CYSB",2025-09-04,"VFR",11,6,72,220,9,32200,29.67,"CYSB 042300Z 22009KT 20SM BKN051 BKN250 11/06 A2967 RMK SC5CI1 SLP056",2025-09-04 23:52:49.761765
"CYTS",2025-09-05 02:00:00,"VFR",8,5,82,200,6,24100,29.58,"CYTS 050200Z 20006KT 15SM OVC075 08/05 A2958 RMK AC8 SLP027",2025-09-05 03:08:51.734956
"CYTS",2025-09-05,"VFR",8,5,82,200,6,24100,29.58,"CYTS 050200Z 20006KT 15SM OVC075 08/05 A2958 RMK AC8 SLP027",2025-09-05 02:18:40.119432
"CYTS",2025-09-04,"VFR",8,6,87,210,6,24100,29.57,"CYTS 042327Z 21006KT 180V240 15SM FEW027 SCT044 OVC076 08/06 A2957 RMK SF2SC2AC4 SLP025",2025-09-04 23:52:49.761765
"CYTZ",2025-09-05 02:00:00,"VFR",16,7,55,310,4,14500,29.78,"CYTZ 050200Z AUTO 31004KT 9SM SCT071 SCT084 16/07 A2978 RMK SLP087 DENSITY ALT 600FT",2025-09-05 03:08:51.734956
"CYTZ",2025-09-05,"VFR",16,7,55,310,4,14500,29.78,"CYTZ 050200Z AUTO 31004KT 9SM SCT071 SCT084 16/07 A2978 RMK SLP087 DENSITY ALT 600FT",2025-09-05 02:18:40.119432
"CYTZ",2025-09-04,"VFR",18,10,60,230,7,14500,29.71,"CYTZ 042300Z AUTO 23007KT 9SM BKN066 BKN080 18/10 A2971 RMK SLP062 DENSITY ALT 1000FT",2025-09-04 23:52:49.761765
"CYXU",2025-09-05 02:00:00,"VFR",11,7,77,110,2,24100,29.78,"CYXU 050200Z 11002KT 15SM FEW250 11/07 A2978 RMK CI1 SLP090",2025-09-05 03:08:51.734956
"CYXU",2025-09-05,"VFR",11,7,77,110,2,24100,29.78,"CYXU 050200Z 11002KT 15SM FEW250 11/07 A2978 RMK CI1 SLP090",2025-09-05 02:18:40.119432
"CYXU",2025-09-04,"VFR",16,6,52,330,3,24100,29.75,"CYXU 042300Z 33003KT 15SM FEW075 FEW200 16/06 A2975 RMK AC1CI1 CI TR SLP078 DENSITY ALT 1500FT",2025-09-04 23:52:49.761765
"CYYB",2025-09-05 02:00:00,"VFR",10,6,76,220,7,24100,29.72,"CYYB 050200Z 22007KT 15SM SCT033 BKN060 10/06 A2972 RMK SC3SC2 LAST STFD OBS/NEXT 051100 UTC SLP073",2025-09-05 03:08:51.734956
"CYYB",2025-09-05,"VFR",10,6,76,220,7,24100,29.72,"CYYB 050200Z 22007KT 15SM SCT033 BKN060 10/06 A2972 RMK SC3SC2 LAST STFD OBS/NEXT 051100 UTC SLP073",2025-09-05 02:18:40.119432
"CYYB",2025-09-04,"VFR",12,5,63,220,11,48300,29.67,"CYYB 042300Z 22011G17KT 30SM SCT040 BKN260 12/05 A2967 RMK SC4CI1 SLP056 DENSITY ALT 1500FT",2025-09-04 23:52:49.761765
"CYYZ",2025-09-05 02:00:00,"VFR",14,6,59,290,6,24100,29.78,"CYYZ 050200Z 29006KT 15SM FEW060 14/06 A2978 RMK SC1 SC TR SLP088",2025-09-05 03:08:51.734956
"CYYZ",2025-09-05,"VFR",14,6,59,290,6,24100,29.78,"CYYZ 050200Z 29006KT 15SM FEW060 14/06 A2978 RMK SC1 SC TR SLP088",2025-09-05 02:18:40.119432
"CYYZ",2025-09-04,"VFR",18,6,46,280,12,24100,29.72,"CYYZ 042300Z 28012KT 15SM FEW056 FEW065 SCT250 18/06 A2972 RMK CU2SC1CI1 SC TR SLP064 DENSITY ALT 1300FT",2025-09-04 23:52:49.761765
